{"type":"FeatureCollection","metadata":{"gemeente":"Alblasserdam","slug":"alblasserdam","code":"GM0482","generated_at":"2026-07-06T16:26:11.361Z","total_passenger":67,"total_freight":0,"bounds":[4.626391721700815,51.83865043806568,4.700239839190138,51.88121182594587],"operators":["Allego","DAEN Mobility","E-Flux by Road","Eneco","Fastned","PureCharged","Smappee","StellaPower.eu","StellaPower®","Vattenfall InCharge"]},"features":[{"type":"Feature","geometry":{"type":"Point","coordinates":[4.679798,51.850747]},"properties":{"type":"charge","layer":"passenger","locationId":"31061","name":"Fastned Alblasserdam","address":"Alblasserdam A15","city":"Alblasserdam","operatorName":"Fastned","maxPowerKw":150,"isMegawatt":false,"status":"AVAILABLE","source":"ndw","priceKwh":0.6364}},{"type":"Feature","geometry":{"type":"Point","coordinates":[4.66828,51.87129]},"properties":{"type":"charge","layer":"passenger","locationId":"NL000068","name":"Kalmoes 8  Alblasserdam","address":"Kalmoes 8","city":"Alblasserdam","operatorName":"StellaPower®","maxPowerKw":17,"isMegawatt":false,"status":"AVAILABLE","source":"ndw","priceKwh":0.471}},{"type":"Feature","geometry":{"type":"Point","coordinates":[4.672299,51.866147]},"properties":{"type":"charge","layer":"passenger","locationId":"NLLOC003911","name":"NLD, Van Lennepstraat 31, 2951 TK, Alblasserdam","address":"Van Lennepstraat 31","city":"Alblasserdam","operatorName":"Allego","maxPowerKw":11,"isMegawatt":false,"status":"AVAILABLE","source":"ndw","priceKwh":0.511}},{"type":"Feature","geometry":{"type":"Point","coordinates":[4.663603,51.861165]},"properties":{"type":"charge","layer":"passenger","locationId":"NL000069","name":"Kerkstraat 87 Alblasserdam","address":"Kerkstraat 87","city":"Alblasserdam","operatorName":"StellaPower.eu","maxPowerKw":17,"isMegawatt":false,"status":"AVAILABLE","source":"ndw","priceKwh":0.471}},{"type":"Feature","geometry":{"type":"Point","coordinates":[4.655169,51.861607]},"properties":{"type":"charge","layer":"passenger","locationId":"NLLOC002342","name":"NLD, Havenplein, 2951 GC Alblasserdam","address":"Havenplein","city":"Alblasserdam","operatorName":"Allego","maxPowerKw":11,"isMegawatt":false,"status":"CHARGING","source":"ndw","priceKwh":0.511}},{"type":"Feature","geometry":{"type":"Point","coordinates":[4.666433,51.872461]},"properties":{"type":"charge","layer":"passenger","locationId":"NL000064","name":"Hondsdraf 28 Alblasserdam","address":"Hondsdraf 28","city":"Alblasserdam","operatorName":"StellaPower®","maxPowerKw":17,"isMegawatt":false,"status":"AVAILABLE","source":"ndw","priceKwh":0.471}},{"type":"Feature","geometry":{"type":"Point","coordinates":[4.666867,51.853191]},"properties":{"type":"charge","layer":"passenger","locationId":"618e2b5974cb28caf8be3ccd","name":"Staalindustrieweg 29","address":"Staalindustrieweg 29","city":"Alblasserdam","operatorName":"E-Flux by Road","maxPowerKw":22,"isMegawatt":false,"status":"AVAILABLE","source":"ndw","priceKwh":0.38}},{"type":"Feature","geometry":{"type":"Point","coordinates":[4.675854,51.852909]},"properties":{"type":"charge","layer":"passenger","locationId":"647d9995-eb89-42bf-90af-ce59fee910de","name":"Kelvinring","address":"Kelvinring 46","city":"Alblasserdam","operatorName":"Vattenfall InCharge","maxPowerKw":50,"isMegawatt":false,"status":"AVAILABLE","source":"ndw"}},{"type":"Feature","geometry":{"type":"Point","coordinates":[4.655971,51.868959]},"properties":{"type":"charge","layer":"passenger","locationId":"NLLOC002263","name":"NLD, Alblasserdam, van Oldenbarneveldstraat 2","address":"van Oldenbarneveldstraat 2","city":"Alblasserdam","operatorName":"Allego","maxPowerKw":11,"isMegawatt":false,"status":"CHARGING","source":"ndw","priceKwh":0.511}},{"type":"Feature","geometry":{"type":"Point","coordinates":[4.674126,51.856825]},"properties":{"type":"charge","layer":"passenger","locationId":"6644649289db7e001c8b63c6","name":"Mastex Software BV","address":"Ohmweg 41","city":"Alblasserdam","operatorName":"E-Flux by Road","maxPowerKw":11,"isMegawatt":false,"status":"AVAILABLE","source":"ndw","priceKwh":0.38}},{"type":"Feature","geometry":{"type":"Point","coordinates":[4.656879,51.870829]},"properties":{"type":"charge","layer":"passenger","locationId":"NLCCH00820","name":"Alblasserdam - Zeelt 7 (1)","address":"Zeelt 7","city":"Alblasserdam","operatorName":"","maxPowerKw":11,"isMegawatt":false,"status":"AVAILABLE","source":"ndw","priceKwh":0.5549}},{"type":"Feature","geometry":{"type":"Point","coordinates":[4.657287,51.864782]},"properties":{"type":"charge","layer":"passenger","locationId":"6a182f78d03ba4c6f33702ef","name":"Alblasserdam /Ieplaan 2 / Paal 1","address":"Ieplaan 2","city":"Alblasserdam","operatorName":"E-Flux by Road","maxPowerKw":14,"isMegawatt":false,"status":"AVAILABLE","source":"ndw","priceKwh":0.5217}},{"type":"Feature","geometry":{"type":"Point","coordinates":[4.659738,51.860174]},"properties":{"type":"charge","layer":"passenger","locationId":"923616","name":"Wapen van Alblasserdam","address":"Dam 24","city":"Alblasserdam","operatorName":"Smappee","maxPowerKw":22,"isMegawatt":false,"status":"AVAILABLE","source":"ndw","priceKwh":0.473}},{"type":"Feature","geometry":{"type":"Point","coordinates":[4.650505,51.869268]},"properties":{"type":"charge","layer":"passenger","locationId":"6a2fb4b780ec4e696ba8b443","name":"Alblasserdam/ De Savornin Lohmanweg 23 / Paal 2","address":"De Savornin Lohmanweg 23","city":"Alblasserdam","operatorName":"E-Flux by Road","maxPowerKw":14,"isMegawatt":false,"status":"AVAILABLE","source":"ndw","priceKwh":0.5217}},{"type":"Feature","geometry":{"type":"Point","coordinates":[4.66717,51.871617]},"properties":{"type":"charge","layer":"passenger","locationId":"NL000070","name":"Kalmoes 52 Alblasserdam","address":"Kalmoes 52","city":"Alblasserdam","operatorName":"StellaPower®","maxPowerKw":17,"isMegawatt":false,"status":"AVAILABLE","source":"ndw","priceKwh":0.471}},{"type":"Feature","geometry":{"type":"Point","coordinates":[4.661242,51.866524]},"properties":{"type":"charge","layer":"passenger","locationId":"NLCCH00950","name":"Alblasserdam - (2) Parallelweg 3","address":"Parallelweg 3","city":"Alblasserdam","operatorName":"","maxPowerKw":11,"isMegawatt":false,"status":"AVAILABLE","source":"ndw","priceKwh":0.5549}},{"type":"Feature","geometry":{"type":"Point","coordinates":[4.66698,51.85286]},"properties":{"type":"charge","layer":"passenger","locationId":"6180ff6afce08b620d9dad76","name":"Staalindustrieweg 41","address":"Staalindustrieweg 41","city":"Alblasserdam","operatorName":"E-Flux by Road","maxPowerKw":22,"isMegawatt":false,"status":"AVAILABLE","source":"ndw","priceKwh":0.38}},{"type":"Feature","geometry":{"type":"Point","coordinates":[4.658484,51.868974]},"properties":{"type":"charge","layer":"passenger","locationId":"NLCCH00925","name":"Alblasserdam -(2) Resedastraat t.h.v. Parallelweg 13x","address":"Parallelweg 13x","city":"Alblasserdam","operatorName":"","maxPowerKw":11,"isMegawatt":false,"status":"AVAILABLE","source":"ndw","priceKwh":0.5549}},{"type":"Feature","geometry":{"type":"Point","coordinates":[4.637973,51.870478]},"properties":{"type":"charge","layer":"passenger","locationId":"NLLOC007521","name":"NL, Oost Kinderdijk 361, 2953 CN, Alblasserdam","address":"Oost Kinderdijk 361","city":"Alblasserdam","operatorName":"Allego","maxPowerKw":11,"isMegawatt":false,"status":"AVAILABLE","source":"ndw","priceKwh":0.511}},{"type":"Feature","geometry":{"type":"Point","coordinates":[4.652051,51.872919]},"properties":{"type":"charge","layer":"passenger","locationId":"NL000063","name":"Zeelt 95 Alblasserdam","address":"Zeelt 95","city":"Alblasserdam","operatorName":"StellaPower®","maxPowerKw":17,"isMegawatt":false,"status":"AVAILABLE","source":"ndw","priceKwh":0.471}},{"type":"Feature","geometry":{"type":"Point","coordinates":[4.662161,51.858261]},"properties":{"type":"charge","layer":"passenger","locationId":"697c8ed3b0d34ed5d9860376","name":"Alblasserdam / Oranjestraat 41 / Paal 1","address":"Oranjestraat 41","city":"Alblasserdam","operatorName":"E-Flux by Road","maxPowerKw":14,"isMegawatt":false,"status":"AVAILABLE","source":"ndw","priceKwh":0.5217}},{"type":"Feature","geometry":{"type":"Point","coordinates":[4.666479,51.860121]},"properties":{"type":"charge","layer":"passenger","locationId":"NLLOC015952","name":"NL, Polderstraat 115, 2952AL Alblasserdam","address":"Polderstraat 115","city":"Alblasserdam","operatorName":"Allego","maxPowerKw":11,"isMegawatt":false,"status":"AVAILABLE","source":"ndw","priceKwh":0.511}},{"type":"Feature","geometry":{"type":"Point","coordinates":[4.66649,51.86009]},"properties":{"type":"charge","layer":"passenger","locationId":"NL000072","name":"Polderstraat 115 Alblasserdam","address":"Polderstraat 115","city":"Alblasserdam","operatorName":"StellaPower®","maxPowerKw":17,"isMegawatt":false,"status":"AVAILABLE","source":"ndw","priceKwh":0.37}},{"type":"Feature","geometry":{"type":"Point","coordinates":[4.650505,51.869268]},"properties":{"type":"charge","layer":"passenger","locationId":"6a2fb1e7343c9e2825644bcf","name":"Alblasserdam/ De Savornin Lohmanweg 23/ Paal 1","address":"De Savornin Lohmanweg 23","city":"Alblasserdam","operatorName":"E-Flux by Road","maxPowerKw":14,"isMegawatt":false,"status":"AVAILABLE","source":"ndw","priceKwh":0.5217}},{"type":"Feature","geometry":{"type":"Point","coordinates":[4.66786,51.85186]},"properties":{"type":"charge","layer":"passenger","locationId":"66139fa950e248001cf36c38","name":"Staalindustrieweg 11","address":"Staalindustrieweg 11","city":"Alblasserdam","operatorName":"E-Flux by Road","maxPowerKw":22,"isMegawatt":false,"status":"AVAILABLE","source":"ndw","priceKwh":0.38}},{"type":"Feature","geometry":{"type":"Point","coordinates":[4.666351,51.867574]},"properties":{"type":"charge","layer":"passenger","locationId":"NLLOC003605","name":"NLD, Ablasserdam, Nicolaas Beetsstraat 84","address":"Nicolaas Beetsstraat 84","city":"Alblasserdam","operatorName":"Allego","maxPowerKw":11,"isMegawatt":false,"status":"CHARGING","source":"ndw","priceKwh":0.511}},{"type":"Feature","geometry":{"type":"Point","coordinates":[4.667955,51.850972]},"properties":{"type":"charge","layer":"passenger","locationId":"61bb2ec250a8f83cbb937267","name":"Staalindustrieweg 15","address":"Staalindustrieweg 15","city":"Alblasserdam","operatorName":"E-Flux by Road","maxPowerKw":11,"isMegawatt":false,"status":"AVAILABLE","source":"ndw","priceKwh":0.38}},{"type":"Feature","geometry":{"type":"Point","coordinates":[4.656187,51.868133]},"properties":{"type":"charge","layer":"passenger","locationId":"6a4652168d57fbf4203ffc60","name":"Alblasserdam/Goudsbloemstraat-Blokweerweg 43B","address":"Blokweerweg 43B","city":"Alblasserdam","operatorName":"E-Flux by Road","maxPowerKw":14,"isMegawatt":false,"status":"AVAILABLE","source":"ndw","priceKwh":0.5217}},{"type":"Feature","geometry":{"type":"Point","coordinates":[4.66149,51.8518]},"properties":{"type":"charge","layer":"passenger","locationId":"6E57F4B6-D4CD-4F3D-A0E2-18D56C77E881","name":"Eneco eMobility Rapenburg 1 Alblasserdam","address":"Rapenburg 1","city":"Alblasserdam","operatorName":"Eneco","maxPowerKw":22,"isMegawatt":false,"status":"AVAILABLE","source":"ndw","priceKwh":0.32}},{"type":"Feature","geometry":{"type":"Point","coordinates":[4.667264,51.858829]},"properties":{"type":"charge","layer":"passenger","locationId":"68d155e18fb65bf6e86fc2af","name":"Achterzijde ETB de Noord","address":"Edinsonweg 16-b","city":"Alblasserdam","operatorName":"PureCharged","maxPowerKw":22,"isMegawatt":false,"status":"AVAILABLE","source":"ndw","priceKwh":0.53}},{"type":"Feature","geometry":{"type":"Point","coordinates":[4.66325,51.869285]},"properties":{"type":"charge","layer":"passenger","locationId":"6916f75d5034a438c82f78b2","name":"Alblasserdam/ Hooftmanlaan 34 / Paal 1","address":"Hooftmanlaan 34","city":"Alblasserdam","operatorName":"E-Flux by Road","maxPowerKw":14,"isMegawatt":false,"status":"AVAILABLE","source":"ndw","priceKwh":0.5217}},{"type":"Feature","geometry":{"type":"Point","coordinates":[4.652524,51.868585]},"properties":{"type":"charge","layer":"passenger","locationId":"69bd0abb18b30a4a544be079","name":"Alblasserdam/ Treubstraat 3 / Paal 1","address":"Treubstraat 3","city":"Alblasserdam","operatorName":"E-Flux by Road","maxPowerKw":14,"isMegawatt":false,"status":"AVAILABLE","source":"ndw","priceKwh":0.5217}},{"type":"Feature","geometry":{"type":"Point","coordinates":[4.644171,51.873629]},"properties":{"type":"charge","layer":"passenger","locationId":"NLLOC016901","name":"NL, Roerdompstraat 8A, 2953ER, Alblasserdam","address":"Roerdompstraat 8A","city":"Alblasserdam","operatorName":"Allego","maxPowerKw":11,"isMegawatt":false,"status":"CHARGING","source":"ndw","priceKwh":0.511}},{"type":"Feature","geometry":{"type":"Point","coordinates":[4.640193,51.872874]},"properties":{"type":"charge","layer":"passenger","locationId":"NLLOC006939","name":"NL, Rijnstraat 434, 2953 CT, Alblasserdam","address":"Rijnstraat 434","city":"Alblasserdam","operatorName":"Allego","maxPowerKw":11,"isMegawatt":false,"status":"CHARGING","source":"ndw","priceKwh":0.511}},{"type":"Feature","geometry":{"type":"Point","coordinates":[4.669842,51.86848]},"properties":{"type":"charge","layer":"passenger","locationId":"NLLOC007524","name":"NL, Rembrandtlaan 11, 2951 PJ, Alblasserdam","address":"Rembrandtlaan 11","city":"Alblasserdam","operatorName":"Allego","maxPowerKw":11,"isMegawatt":false,"status":"AVAILABLE","source":"ndw","priceKwh":0.511}},{"type":"Feature","geometry":{"type":"Point","coordinates":[4.659341,51.867965]},"properties":{"type":"charge","layer":"passenger","locationId":"NLLOC007812","name":"NL, Parallelweg 11, 2951BS, Alblasserdam","address":"Parallelweg 11","city":"Alblasserdam","operatorName":"Allego","maxPowerKw":11,"isMegawatt":false,"status":"AVAILABLE","source":"ndw","priceKwh":0.511}},{"type":"Feature","geometry":{"type":"Point","coordinates":[4.667621,51.858586]},"properties":{"type":"charge","layer":"passenger","locationId":"68cd5e06018195db51457453","name":"Voorzijde ETB de Noord","address":"Edisonweg 16-b","city":"Alblasserdam","operatorName":"PureCharged","maxPowerKw":11,"isMegawatt":false,"status":"UNAVAILABLE","source":"ndw","priceKwh":0.53}},{"type":"Feature","geometry":{"type":"Point","coordinates":[4.666561,51.870944]},"properties":{"type":"charge","layer":"passenger","locationId":"NLLOC003785","name":"NLD, Alblasserdam, Zwanebloem 27","address":"Zwanebloem 27","city":"Alblasserdam","operatorName":"Allego","maxPowerKw":11,"isMegawatt":false,"status":"AVAILABLE","source":"ndw","priceKwh":0.511}},{"type":"Feature","geometry":{"type":"Point","coordinates":[4.656102,51.86815]},"properties":{"type":"charge","layer":"passenger","locationId":"6a464f51eb85810453fef843","name":"Alblasserdam/Blokeerweg-Goudsbloemstraat 43","address":"Goudsbloemstraat 43","city":"Alblasserdam","operatorName":"E-Flux by Road","maxPowerKw":14,"isMegawatt":false,"status":"AVAILABLE","source":"ndw","priceKwh":0.5217}},{"type":"Feature","geometry":{"type":"Point","coordinates":[4.642158,51.871664]},"properties":{"type":"charge","layer":"passenger","locationId":"NLLOC003447","name":"NLD, Alblasserdam, IJsselstraat 30","address":"IJsselstraat 30","city":"Alblasserdam","operatorName":"Allego","maxPowerKw":11,"isMegawatt":false,"status":"AVAILABLE","source":"ndw","priceKwh":0.511}},{"type":"Feature","geometry":{"type":"Point","coordinates":[4.646687,51.865182]},"properties":{"type":"charge","layer":"passenger","locationId":"NLLOC007617","name":"NL, Oost Kinderdijk 61, 2953 CJ, Alblasserdam","address":"Oost Kinderdijk 61","city":"Alblasserdam","operatorName":"Allego","maxPowerKw":11,"isMegawatt":false,"status":"AVAILABLE","source":"ndw","priceKwh":0.511}},{"type":"Feature","geometry":{"type":"Point","coordinates":[4.66325,51.869285]},"properties":{"type":"charge","layer":"passenger","locationId":"6916fad52711e3588415e58d","name":"Alblasserdam/ Hooftmanlaan 34/ Paal 2","address":"Hooftmanlaan 34","city":"Alblasserdam","operatorName":"E-Flux by Road","maxPowerKw":14,"isMegawatt":false,"status":"AVAILABLE","source":"ndw","priceKwh":0.5217}},{"type":"Feature","geometry":{"type":"Point","coordinates":[4.66459,51.8714]},"properties":{"type":"charge","layer":"passenger","locationId":"NL000065","name":"Ganzerik 78 Alblasserdam","address":"Ganzerik 62","city":"Alblasserdam","operatorName":"StellaPower®","maxPowerKw":17,"isMegawatt":false,"status":"AVAILABLE","source":"ndw","priceKwh":0.471}},{"type":"Feature","geometry":{"type":"Point","coordinates":[4.658542,51.869001]},"properties":{"type":"charge","layer":"passenger","locationId":"NLCCH00895","name":"Alblasserdam - (1) Resedastraat t.h.v. Parallelweg 13x","address":"Parallelweg 13x","city":"Alblasserdam","operatorName":"","maxPowerKw":11,"isMegawatt":false,"status":"AVAILABLE","source":"ndw","priceKwh":0.5549}},{"type":"Feature","geometry":{"type":"Point","coordinates":[4.652524,51.868585]},"properties":{"type":"charge","layer":"passenger","locationId":"69bd1c2bcf2ae87bda2a7dc6","name":"Alblasserdam /Treubstraat 3 / Paal 2","address":"Treubstraat 3","city":"Alblasserdam","operatorName":"E-Flux by Road","maxPowerKw":14,"isMegawatt":false,"status":"AVAILABLE","source":"ndw","priceKwh":0.5217}},{"type":"Feature","geometry":{"type":"Point","coordinates":[4.654692,51.869303]},"properties":{"type":"charge","layer":"passenger","locationId":"6916f464c0bf071c01411630","name":"Alblasserdam/ Johan de Wittstraat 1 / Paal 2","address":"Johan de Wittstraat 1","city":"Alblasserdam","operatorName":"E-Flux by Road","maxPowerKw":14,"isMegawatt":false,"status":"AVAILABLE","source":"ndw","priceKwh":0.5217}},{"type":"Feature","geometry":{"type":"Point","coordinates":[4.662161,51.858261]},"properties":{"type":"charge","layer":"passenger","locationId":"697c9d1655e823fdc9e3db4c","name":"Alblasserdam /Oranjestraat 41/ Paal 2","address":"Oranjestraat 41","city":"Alblasserdam","operatorName":"E-Flux by Road","maxPowerKw":14,"isMegawatt":false,"status":"AVAILABLE","source":"ndw","priceKwh":0.5217}},{"type":"Feature","geometry":{"type":"Point","coordinates":[4.669868,51.856219]},"properties":{"type":"charge","layer":"passenger","locationId":"NLLOC027957","name":"Allego - Hornbach Alblasserdam A15","address":"Kelvinring 60","city":"Alblasserdam","operatorName":"Allego","maxPowerKw":22,"isMegawatt":false,"status":"AVAILABLE","source":"ndw","priceKwh":0.511}},{"type":"Feature","geometry":{"type":"Point","coordinates":[4.667945,51.858659]},"properties":{"type":"charge","layer":"passenger","locationId":"68cd67e7591ad7589a066473","name":"ETB de Noord Paneelbouw & Techniek B.V","address":"Edisonweg 18a","city":"Alblasserdam","operatorName":"PureCharged","maxPowerKw":11,"isMegawatt":false,"status":"AVAILABLE","source":"ndw","priceKwh":0.42}},{"type":"Feature","geometry":{"type":"Point","coordinates":[4.664622,51.867121]},"properties":{"type":"charge","layer":"passenger","locationId":"NLCCH00637","name":"Alblasserdam - (2) Prinses Marijkestraat 37C ","address":"Prinses Marijkestraat 37C","city":"Alblasserdam","operatorName":"","maxPowerKw":11,"isMegawatt":false,"status":"AVAILABLE","source":"ndw","priceKwh":0.5549}},{"type":"Feature","geometry":{"type":"Point","coordinates":[4.651351,51.86179]},"properties":{"type":"charge","layer":"passenger","locationId":"NLLOC007616","name":"NL, Botter 17, 2951 JH, Alblasserdam","address":"Botter 17","city":"Alblasserdam","operatorName":"Allego","maxPowerKw":11,"isMegawatt":false,"status":"AVAILABLE","source":"ndw","priceKwh":0.511}},{"type":"Feature","geometry":{"type":"Point","coordinates":[4.652155,51.870109]},"properties":{"type":"charge","layer":"passenger","locationId":"NLLOC002869","name":"NLD, Alblasserdam, Groen van Prinstererstraat 1","address":"Groen van Prinstererstraat 1","city":"Alblasserdam","operatorName":"Allego","maxPowerKw":11,"isMegawatt":false,"status":"AVAILABLE","source":"ndw","priceKwh":0.511}},{"type":"Feature","geometry":{"type":"Point","coordinates":[4.664689,51.867099]},"properties":{"type":"charge","layer":"passenger","locationId":"NLCCH00946","name":"Alblasserdam - (1) Prinses Marijkestraat 37C ","address":"Prinses Marijkestraat 37C","city":"Alblasserdam","operatorName":"","maxPowerKw":11,"isMegawatt":false,"status":"AVAILABLE","source":"ndw","priceKwh":0.5549}},{"type":"Feature","geometry":{"type":"Point","coordinates":[4.661789,51.855515]},"properties":{"type":"charge","layer":"passenger","locationId":"923471","name":"DAE_NL_2001205","address":"Rapenburg 9","city":"Albasserdam","operatorName":"DAEN Mobility","maxPowerKw":11,"isMegawatt":false,"status":"AVAILABLE","source":"ndw","priceKwh":0.36}},{"type":"Feature","geometry":{"type":"Point","coordinates":[4.658298,51.867255]},"properties":{"type":"charge","layer":"passenger","locationId":"NLCCH00961","name":"Alblasserdam - (1) De Spil 1","address":"De Spil 1","city":"Alblasserdam","operatorName":"","maxPowerKw":11,"isMegawatt":false,"status":"AVAILABLE","source":"ndw","priceKwh":0.5549}},{"type":"Feature","geometry":{"type":"Point","coordinates":[4.659253,51.859678]},"properties":{"type":"charge","layer":"passenger","locationId":"NLLOC002868","name":"NLD, Alblasserdam, Marineweg 1","address":"Marineweg 1","city":"Alblasserdam","operatorName":"Allego","maxPowerKw":11,"isMegawatt":false,"status":"AVAILABLE","source":"ndw","priceKwh":0.511}},{"type":"Feature","geometry":{"type":"Point","coordinates":[4.644534,51.871708]},"properties":{"type":"charge","layer":"passenger","locationId":"NL000062","name":"Scheldeplein 35 Alblasserdam","address":"Scheldeplein 35","city":"Alblasserdam","operatorName":"StellaPower.eu","maxPowerKw":17,"isMegawatt":false,"status":"AVAILABLE","source":"ndw","priceKwh":0.471}},{"type":"Feature","geometry":{"type":"Point","coordinates":[4.67102,51.867621]},"properties":{"type":"charge","layer":"passenger","locationId":"NLCCH00938","name":"Alblasserdam - Hobbemalaan 19","address":"Hobbemalaan 19","city":"Alblasserdam","operatorName":"","maxPowerKw":11,"isMegawatt":false,"status":"AVAILABLE","source":"ndw","priceKwh":0.5549}},{"type":"Feature","geometry":{"type":"Point","coordinates":[4.654692,51.869303]},"properties":{"type":"charge","layer":"passenger","locationId":"6916f15ac0bf071c013ba4d7","name":"Alblasserdam/ Johan de Wittstraat 1 / Paal 1","address":"Johan de Wittstraat  1","city":"Ablasserdam","operatorName":"E-Flux by Road","maxPowerKw":14,"isMegawatt":false,"status":"AVAILABLE","source":"ndw","priceKwh":0.5217}},{"type":"Feature","geometry":{"type":"Point","coordinates":[4.638234,51.870621]},"properties":{"type":"charge","layer":"passenger","locationId":"69285b44f91e303b5721b085","name":"Alblasserdam/ Oost Kinderdijk 357","address":"Oost Kinderdijk 357","city":"Alblasserdam","operatorName":"E-Flux by Road","maxPowerKw":14,"isMegawatt":false,"status":"AVAILABLE","source":"ndw","priceKwh":0.5217}},{"type":"Feature","geometry":{"type":"Point","coordinates":[4.646582,51.865258]},"properties":{"type":"charge","layer":"passenger","locationId":"NLCCH00789","name":"Alblasserdam - Oost Kinderdijk 87","address":"Oost Kinderdijk 87","city":"Alblasserdam","operatorName":"","maxPowerKw":11,"isMegawatt":false,"status":"AVAILABLE","source":"ndw","priceKwh":0.5549}},{"type":"Feature","geometry":{"type":"Point","coordinates":[4.638006,51.872861]},"properties":{"type":"charge","layer":"passenger","locationId":"NLCCH00936","name":"Alblasserdam - (1) Kloosstraat 2","address":"Kloosstraat  2","city":"Alblasserdam","operatorName":"","maxPowerKw":11,"isMegawatt":false,"status":"AVAILABLE","source":"ndw","priceKwh":0.5549}},{"type":"Feature","geometry":{"type":"Point","coordinates":[4.658222,51.870619]},"properties":{"type":"charge","layer":"passenger","locationId":"NLCCH00962","name":"Alblasserdam - (2) De Spil 1","address":"De Spil 1","city":"Alblasserdam","operatorName":"","maxPowerKw":11,"isMegawatt":false,"status":"AVAILABLE","source":"ndw","priceKwh":0.5549}},{"type":"Feature","geometry":{"type":"Point","coordinates":[4.65326,51.86831]},"properties":{"type":"charge","layer":"passenger","locationId":"NL000067","name":"De Savornin Lohmanweg 3 Alblasserdam","address":"De Savornin Lohmanweg 3","city":"Alblasserdam","operatorName":"StellaPower®","maxPowerKw":17,"isMegawatt":false,"status":"AVAILABLE","source":"ndw","priceKwh":0.471}},{"type":"Feature","geometry":{"type":"Point","coordinates":[4.656811,51.870858]},"properties":{"type":"charge","layer":"passenger","locationId":"NLCCH00797","name":"Alblasserdam - Zeelt 7 (2)","address":"Zeelt 7","city":"Alblasserdam","operatorName":"","maxPowerKw":11,"isMegawatt":false,"status":"AVAILABLE","source":"ndw","priceKwh":0.5549}},{"type":"Feature","geometry":{"type":"Point","coordinates":[4.638061,51.872889]},"properties":{"type":"charge","layer":"passenger","locationId":"NLCCH00937","name":"Alblasserdam - (2) Kloosstraat 2","address":"Kloosstraat  2","city":"Alblasserdam","operatorName":"","maxPowerKw":11,"isMegawatt":false,"status":"CHARGING","source":"ndw","priceKwh":0.5549}},{"type":"Feature","geometry":{"type":"Point","coordinates":[4.66344,51.87105]},"properties":{"type":"charge","layer":"passenger","locationId":"NL000066","name":"Ganzerik 38 Alblasserdam","address":"Ganzerik 38","city":"Alblasserdam","operatorName":"StellaPower®","maxPowerKw":17,"isMegawatt":false,"status":"AVAILABLE","source":"ndw","priceKwh":0.471}},{"type":"Feature","geometry":{"type":"MultiPolygon","coordinates":[[[[4.62939758589403,51.88083659340769],[4.637076180601234,51.87629416219682],[4.642138891133753,51.88019936151327],[4.664439182667019,51.87494811729475],[4.66856079963741,51.87507234982533],[4.672914388767946,51.87479171977111],[4.6778847841275955,51.875300190762665],[4.687834400294219,51.87871754522718],[4.697268163220606,51.879857069858],[4.700239839190138,51.879709666439574],[4.690816756928239,51.86730531818453],[4.69043911931177,51.86684692868648],[4.687673930298836,51.86676111455213],[4.685988399731167,51.86593208990681],[4.682397386164257,51.860604184909185],[4.6807091244443235,51.85963849553749],[4.681263360571149,51.85892137866987],[4.681264338263097,51.85891234837733],[4.681512172824355,51.857743500785006],[4.683109606544443,51.848920056096766],[4.6831908148381185,51.8484914917724],[4.681826907886729,51.849093294582765],[4.6813490510357765,51.84867817156323],[4.681911504750138,51.848440703803675],[4.68047482691797,51.84460776222306],[4.675906136277845,51.84110185105329],[4.672606320029928,51.83865043806568],[4.6701731777854905,51.84214933831061],[4.6633677853049385,51.84753236624192],[4.658200542992981,51.85163032881217],[4.65310825016135,51.85769606434851],[4.647831832849214,51.862672473223874],[4.6456851130865315,51.86424239462304],[4.635261534087181,51.8697109226457],[4.626391721700815,51.880657439128605],[4.628236390438654,51.88079958973918],[4.628775322442015,51.88121182594587],[4.62939758589403,51.88083659340769]]]]},"properties":{"type":"boundary","gemeente":"Alblasserdam","code":"GM0482"}}]}