{"type":"FeatureCollection","metadata":{"gemeente":"Assen","slug":"assen","code":"GM0106","generated_at":"2026-07-06T16:26:11.361Z","total_passenger":185,"total_freight":2,"bounds":[6.483947974072229,52.93251576524228,6.6326464754719785,53.06175868078959],"operators":["Allego","DAEN Mobility","E-Flux by Road","EQUANS","Eneco","Fastned","IPCharging","Laadnet","Opcharge","PowerGo","Spirii","Tango electric","Tesla","Valk Energy","Vattenfall InCharge"]},"features":[{"type":"Feature","geometry":{"type":"Point","coordinates":[6.51499,52.99464]},"properties":{"type":"charge","layer":"passenger","locationId":"91390490","name":"Equans Groningen Drenthe Planetenlaan 87","address":"Planetenlaan 87","city":"Assen","operatorName":"EQUANS","maxPowerKw":11,"isMegawatt":false,"status":"UNAVAILABLE","source":"ndw"}},{"type":"Feature","geometry":{"type":"Point","coordinates":[6.55945,52.988139]},"properties":{"type":"charge","layer":"passenger","locationId":"NLLOC027036","name":"NL, Beilerstraat 139, 9401 PJ Assen","address":"Beilerstraat 139","city":"Assen","operatorName":"Allego","maxPowerKw":11,"isMegawatt":false,"status":"AVAILABLE","source":"ndw","priceKwh":0.407}},{"type":"Feature","geometry":{"type":"Point","coordinates":[6.591144,53.013491]},"properties":{"type":"charge","layer":"passenger","locationId":"NLLOC026993","name":"NL, Saffierstoep 92, 9403RV, Assen","address":"Saffierstoep 92","city":"Assen","operatorName":"Allego","maxPowerKw":11,"isMegawatt":false,"status":"AVAILABLE","source":"ndw","priceKwh":0.407}},{"type":"Feature","geometry":{"type":"Point","coordinates":[6.560816,52.997963]},"properties":{"type":"charge","layer":"passenger","locationId":"OST23P0069_0022_1","name":"OST23P0069_0022_1","address":"Neptunusplein 16","city":"Assen","operatorName":"IPCharging","maxPowerKw":19,"isMegawatt":false,"status":"AVAILABLE","source":"ndw","priceKwh":0.496}},{"type":"Feature","geometry":{"type":"Point","coordinates":[6.554448,52.990399]},"properties":{"type":"charge","layer":"passenger","locationId":"91145227","name":"Equans Groningen Drenthe Bellevue 19","address":"Bellevue 19","city":"Assen","operatorName":"EQUANS","maxPowerKw":11,"isMegawatt":false,"status":"AVAILABLE","source":"ndw"}},{"type":"Feature","geometry":{"type":"Point","coordinates":[6.587476,53.019576]},"properties":{"type":"charge","layer":"passenger","locationId":"NLLOC027119","name":"NL, Ruskenbeemd 4, 9403 MP Assen","address":"Ruskenbeemd 4","city":"Assen","operatorName":"Allego","maxPowerKw":11,"isMegawatt":false,"status":"AVAILABLE","source":"ndw","priceKwh":0.407}},{"type":"Feature","geometry":{"type":"Point","coordinates":[6.568529,53.026171]},"properties":{"type":"charge","layer":"passenger","locationId":"923433","name":"DAE-NL-2000110_P02","address":"Amerikaweg 3","city":"Assen","operatorName":"DAEN Mobility","maxPowerKw":22,"isMegawatt":false,"status":"AVAILABLE","source":"ndw","priceKwh":0.29}},{"type":"Feature","geometry":{"type":"Point","coordinates":[6.559508,53.000441]},"properties":{"type":"charge","layer":"passenger","locationId":"91145063","name":"Equans Groningen Drenthe Molenstraat 147","address":"Molenstraat 147","city":"Assen","operatorName":"EQUANS","maxPowerKw":11,"isMegawatt":false,"status":"AVAILABLE","source":"ndw"}},{"type":"Feature","geometry":{"type":"Point","coordinates":[6.532647,53.002691]},"properties":{"type":"charge","layer":"passenger","locationId":"91246417","name":"Equans Groningen Drenthe Mien Ruysweg 10 A17","address":"Mien Ruysweg 10 A17","city":"Assen","operatorName":"EQUANS","maxPowerKw":11,"isMegawatt":false,"status":"AVAILABLE","source":"ndw"}},{"type":"Feature","geometry":{"type":"Point","coordinates":[6.54115,52.99065]},"properties":{"type":"charge","layer":"passenger","locationId":"91145224","name":"Equans Groningen Drenthe Balkenweg 3A","address":"Balkenweg 3A","city":"Assen","operatorName":"EQUANS","maxPowerKw":11,"isMegawatt":false,"status":"AVAILABLE","source":"ndw"}},{"type":"Feature","geometry":{"type":"Point","coordinates":[6.55163,53.00682]},"properties":{"type":"charge","layer":"passenger","locationId":"91145011","name":"Equans Groningen Drenthe Schultestraat 7","address":"Schultestraat 7","city":"Assen","operatorName":"EQUANS","maxPowerKw":11,"isMegawatt":false,"status":"AVAILABLE","source":"ndw"}},{"type":"Feature","geometry":{"type":"Point","coordinates":[6.50406,53.00399]},"properties":{"type":"charge","layer":"passenger","locationId":"91204142","name":"Equans Groningen Drenthe De Boomgaard 48","address":"De Boomgaard 48","city":"Assen","operatorName":"EQUANS","maxPowerKw":11,"isMegawatt":false,"status":"AVAILABLE","source":"ndw"}},{"type":"Feature","geometry":{"type":"Point","coordinates":[6.562916,52.989838]},"properties":{"type":"charge","layer":"passenger","locationId":"NLLOC022205","name":"NL, Prinses Beatrixstraat 73, 9401 NX Assen","address":"Prinses Beatrixstraat 73","city":"Assen","operatorName":"Allego","maxPowerKw":11,"isMegawatt":false,"status":"AVAILABLE","source":"ndw","priceKwh":0.407}},{"type":"Feature","geometry":{"type":"Point","coordinates":[6.562787,52.99695]},"properties":{"type":"charge","layer":"passenger","locationId":"NLLOC026789","name":"NL, Oude Molenstraat 40-A, 9401 DD Assen","address":"Oude Molenstraat 40-A","city":"Assen","operatorName":"Allego","maxPowerKw":11,"isMegawatt":false,"status":"AVAILABLE","source":"ndw","priceKwh":0.407}},{"type":"Feature","geometry":{"type":"Point","coordinates":[6.55575,53.02218]},"properties":{"type":"charge","layer":"passenger","locationId":"50884","name":"Fastned Peelerveld","address":"Peelerveld","city":"Ter Aard","operatorName":"Fastned","maxPowerKw":300,"isMegawatt":false,"status":"AVAILABLE","source":"ndw","priceKwh":0.6364}},{"type":"Feature","geometry":{"type":"Point","coordinates":[6.589879,53.0109329]},"properties":{"type":"charge","layer":"passenger","locationId":"23613","name":"Basic-Fit 1201 Assen Nijverheidsweg (PowerGo)","address":"Nijverheidsweg 1","city":"Assen","operatorName":"PowerGo","maxPowerKw":30,"isMegawatt":false,"status":"AVAILABLE","source":"ndw","priceKwh":0.65}},{"type":"Feature","geometry":{"type":"Point","coordinates":[6.51252,53.006077]},"properties":{"type":"charge","layer":"passenger","locationId":"NLLOC026599","name":"NL, Stedelaan 16, 9408 HE Assen","address":"Stedelaan 16","city":"Assen","operatorName":"Allego","maxPowerKw":11,"isMegawatt":false,"status":"AVAILABLE","source":"ndw","priceKwh":0.407}},{"type":"Feature","geometry":{"type":"Point","coordinates":[6.552121,53.000166]},"properties":{"type":"charge","layer":"passenger","locationId":"91145453","name":"Equans Groningen Drenthe Thorbeckelaan 194","address":"Thorbeckelaan 194","city":"Assen","operatorName":"EQUANS","maxPowerKw":11,"isMegawatt":false,"status":"AVAILABLE","source":"ndw"}},{"type":"Feature","geometry":{"type":"Point","coordinates":[6.561209,52.992863]},"properties":{"type":"charge","layer":"passenger","locationId":"OST23P0069_0062_0","name":"OST23P0069_0062_0","address":"Torenlaan 18","city":"Assen","operatorName":"IPCharging","maxPowerKw":19,"isMegawatt":false,"status":"AVAILABLE","source":"ndw","priceKwh":0.496}},{"type":"Feature","geometry":{"type":"Point","coordinates":[6.530026,52.98521]},"properties":{"type":"charge","layer":"passenger","locationId":"91145320","name":"Equans Groningen Drenthe De Wouden 113","address":"De Wouden 113","city":"Assen","operatorName":"EQUANS","maxPowerKw":11,"isMegawatt":false,"status":"AVAILABLE","source":"ndw"}},{"type":"Feature","geometry":{"type":"Point","coordinates":[6.572122,53.026018]},"properties":{"type":"charge","layer":"passenger","locationId":"85e55fb0-a9cc-41c8-854e-43e23f3a385c","name":"Hof van Parijs","address":"Hof van Parijs 1","city":"Assen","operatorName":"Vattenfall InCharge","maxPowerKw":50,"isMegawatt":false,"status":"AVAILABLE","source":"ndw"}},{"type":"Feature","geometry":{"type":"Point","coordinates":[6.524687,52.992511]},"properties":{"type":"charge","layer":"passenger","locationId":"69afbdd6a59b7c858b2f0b4a","name":"Van der Valk - Assen - Charging Stations","address":"Balkenweg 1","city":"Assen","operatorName":"Valk Energy","maxPowerKw":150,"isMegawatt":false,"status":"AVAILABLE","source":"ndw","priceKwh":0.59}},{"type":"Feature","geometry":{"type":"Point","coordinates":[6.559169,52.997786]},"properties":{"type":"charge","layer":"passenger","locationId":"OST23P0069_0025_0","name":"OST23P0069_0025_0","address":"Apollopad 72","city":"Assen","operatorName":"IPCharging","maxPowerKw":19,"isMegawatt":false,"status":"AVAILABLE","source":"ndw","priceKwh":0.496}},{"type":"Feature","geometry":{"type":"Point","coordinates":[6.594424,53.023298]},"properties":{"type":"charge","layer":"passenger","locationId":"NLLOC024142","name":"NL, Eekhoornslag 110, 9403 XZ Assen","address":"Eekhoornslag 110","city":"Assen","operatorName":"Allego","maxPowerKw":11,"isMegawatt":false,"status":"AVAILABLE","source":"ndw","priceKwh":0.407}},{"type":"Feature","geometry":{"type":"Point","coordinates":[6.572346,52.980608]},"properties":{"type":"charge","layer":"passenger","locationId":"682ee652ee68d7e4b9f1cf8c","name":"GGZ Dennenweg 9, Assen: Trafostation 2","address":"Dennenweg 9","city":"Assen","operatorName":"E-Flux by Road","maxPowerKw":22,"isMegawatt":false,"status":"AVAILABLE","source":"ndw","priceKwh":0.43}},{"type":"Feature","geometry":{"type":"Point","coordinates":[6.537895,52.979043]},"properties":{"type":"charge","layer":"passenger","locationId":"NLLOC022204","name":"NL, Kennemerland 65, 9405 LC Assen","address":"Kennemerland 65","city":"Assen","operatorName":"Allego","maxPowerKw":11,"isMegawatt":false,"status":"AVAILABLE","source":"ndw","priceKwh":0.407}},{"type":"Feature","geometry":{"type":"Point","coordinates":[6.561498,53.002929]},"properties":{"type":"charge","layer":"passenger","locationId":"NLLOC011836","name":"NL, Thorbeckelaan 2, 9402ER Assen","address":"Thorbeckelaan 2","city":"Assen","operatorName":"Allego","maxPowerKw":11,"isMegawatt":false,"status":"AVAILABLE","source":"ndw","priceKwh":0.407}},{"type":"Feature","geometry":{"type":"Point","coordinates":[6.54372,53.01602]},"properties":{"type":"charge","layer":"passenger","locationId":"50862","name":"Fastned Zeyerveen","address":"Verzorgingsplaats Zeijerveen 2","city":"Assen","operatorName":"Fastned","maxPowerKw":300,"isMegawatt":false,"status":"AVAILABLE","source":"ndw","priceKwh":0.6364}},{"type":"Feature","geometry":{"type":"Point","coordinates":[6.557352,52.995392]},"properties":{"type":"charge","layer":"passenger","locationId":"OST22P0097_0018_1","name":"OST22P0097_0018_1","address":"Weiersstraat 1","city":"Assen","operatorName":"IPCharging","maxPowerKw":19,"isMegawatt":false,"status":"AVAILABLE","source":"ndw","priceKwh":0.496}},{"type":"Feature","geometry":{"type":"Point","coordinates":[6.564325,53.011614]},"properties":{"type":"charge","layer":"passenger","locationId":"91145260","name":"Equans Groningen Drenthe Smetanalaan 452","address":"Smetanalaan 452","city":"Assen","operatorName":"EQUANS","maxPowerKw":11,"isMegawatt":false,"status":"AVAILABLE","source":"ndw"}},{"type":"Feature","geometry":{"type":"Point","coordinates":[6.556488,52.972029]},"properties":{"type":"charge","layer":"passenger","locationId":"3804315","name":"Laadnet Cegelec Infra BV - Assen","address":"Korenmaat 4","city":"Assen","operatorName":"Laadnet","maxPowerKw":22,"isMegawatt":false,"status":"AVAILABLE","source":"ndw"}},{"type":"Feature","geometry":{"type":"Point","coordinates":[6.58925,53.01884]},"properties":{"type":"charge","layer":"passenger","locationId":"91145029","name":"Equans Groningen Drenthe Weidebeemd 77","address":"Weidebeemd 77","city":"Assen","operatorName":"EQUANS","maxPowerKw":11,"isMegawatt":false,"status":"AVAILABLE","source":"ndw"}},{"type":"Feature","geometry":{"type":"Point","coordinates":[6.524537,52.992893]},"properties":{"type":"charge","layer":"passenger","locationId":"b8447fb0-2a0d-43e9-bf80-eae5f9d41ed7","name":"Assen, Netherlands","address":"1, Balkenweg","city":"Assen","operatorName":"Tesla","maxPowerKw":250,"isMegawatt":false,"status":"AVAILABLE","source":"ndw","priceKwh":0.41}},{"type":"Feature","geometry":{"type":"Point","coordinates":[6.54947,52.997027]},"properties":{"type":"charge","layer":"passenger","locationId":"91145019","name":"Equans Groningen Drenthe Marconistraat 20","address":"Marconistraat 20","city":"Assen","operatorName":"EQUANS","maxPowerKw":11,"isMegawatt":false,"status":"CHARGING","source":"ndw"}},{"type":"Feature","geometry":{"type":"Point","coordinates":[6.504007,53.004171]},"properties":{"type":"charge","layer":"passenger","locationId":"NLLOC011817","name":"NL, De Boomgaard 46, 9408JB Assen","address":"De Boomgaard 46","city":"Assen","operatorName":"Allego","maxPowerKw":11,"isMegawatt":false,"status":"AVAILABLE","source":"ndw","priceKwh":0.407}},{"type":"Feature","geometry":{"type":"Point","coordinates":[6.569222,52.989441]},"properties":{"type":"charge","layer":"passenger","locationId":"695eb2a6-3f08-401c-ad8b-45e06e4ab428","name":"Tango Assen 1-2","address":"Overcingellaan 9","city":"Assen","operatorName":"Tango electric","maxPowerKw":300,"isMegawatt":false,"status":"AVAILABLE","source":"ndw","priceKwh":0.6}},{"type":"Feature","geometry":{"type":"Point","coordinates":[6.58096,53.01606]},"properties":{"type":"charge","layer":"passenger","locationId":"91417499","name":"Equans Groningen Drenthe Beunheugte 1","address":"Beunheugte 1","city":"Assen","operatorName":"EQUANS","maxPowerKw":11,"isMegawatt":false,"status":"AVAILABLE","source":"ndw"}},{"type":"Feature","geometry":{"type":"Point","coordinates":[6.564181,53.004152]},"properties":{"type":"charge","layer":"passenger","locationId":"923085","name":"DAE_NL_2000939","address":"De Gaarde 27","city":"Assen","operatorName":"DAEN Mobility","maxPowerKw":11,"isMegawatt":false,"status":"AVAILABLE","source":"ndw","priceKwh":0.28}},{"type":"Feature","geometry":{"type":"Point","coordinates":[6.58351,52.98556]},"properties":{"type":"charge","layer":"passenger","locationId":"91204233","name":"Equans Groningen Drenthe Speenkruidstraat 31","address":"Speenkruidstraat 31","city":"Assen","operatorName":"EQUANS","maxPowerKw":11,"isMegawatt":false,"status":"AVAILABLE","source":"ndw"}},{"type":"Feature","geometry":{"type":"Point","coordinates":[6.555778,52.992433]},"properties":{"type":"charge","layer":"passenger","locationId":"NLLOC022214","name":"NL, Prinses Irenestraat 3, 9401 HH Assen","address":"Prinses Irenestraat 3","city":"Assen","operatorName":"Allego","maxPowerKw":11,"isMegawatt":false,"status":"AVAILABLE","source":"ndw","priceKwh":0.407}},{"type":"Feature","geometry":{"type":"Point","coordinates":[6.59575,53.02471]},"properties":{"type":"charge","layer":"passenger","locationId":"91145050","name":"Equans Groningen Drenthe Fuutmesschen 14","address":"Fuutmesschen 14","city":"Assen","operatorName":"EQUANS","maxPowerKw":11,"isMegawatt":false,"status":"AVAILABLE","source":"ndw"}},{"type":"Feature","geometry":{"type":"Point","coordinates":[6.59074,53.01874]},"properties":{"type":"charge","layer":"passenger","locationId":"91448264","name":"Equans Groningen Drenthe Tarwehullen 56","address":"Tarwehullen 56","city":"Assen","operatorName":"EQUANS","maxPowerKw":11,"isMegawatt":false,"status":"AVAILABLE","source":"ndw"}},{"type":"Feature","geometry":{"type":"Point","coordinates":[6.541598,52.984766]},"properties":{"type":"charge","layer":"passenger","locationId":"bb226d770dc242a4b293","name":"Hotel de Bonte Wever Assen","address":"Stadsbroek 17","city":"Assen","operatorName":"Opcharge","maxPowerKw":22,"isMegawatt":false,"status":"AVAILABLE","source":"ndw","priceKwh":0.49}},{"type":"Feature","geometry":{"type":"Point","coordinates":[6.570823,52.974212]},"properties":{"type":"charge","layer":"passenger","locationId":"91145542","name":"Equans Groningen Drenthe Krulzoom 48","address":"Krulzoom 48","city":"Assen","operatorName":"EQUANS","maxPowerKw":11,"isMegawatt":false,"status":"CHARGING","source":"ndw"}},{"type":"Feature","geometry":{"type":"Point","coordinates":[6.5613,53.00681]},"properties":{"type":"charge","layer":"passenger","locationId":"91358072","name":"Equans Groningen Drenthe Peter van Anrooystraat 23","address":"Peter van Anrooystraat 23","city":"Assen","operatorName":"EQUANS","maxPowerKw":11,"isMegawatt":false,"status":"AVAILABLE","source":"ndw"}},{"type":"Feature","geometry":{"type":"Point","coordinates":[6.580945,53.017544]},"properties":{"type":"charge","layer":"passenger","locationId":"NLLOC014569","name":"NL, Deelheugte, 34, 9403HC, Assen","address":"Deelheugte 34","city":"Assen","operatorName":"Allego","maxPowerKw":11,"isMegawatt":false,"status":"AVAILABLE","source":"ndw","priceKwh":0.407}},{"type":"Feature","geometry":{"type":"Point","coordinates":[6.568171,53.019905]},"properties":{"type":"charge","layer":"passenger","locationId":"NLLOC012358","name":"NL, Groenkampen, 198, 9407RH, Assen","address":"Groenkampen 198","city":"Assen","operatorName":"Allego","maxPowerKw":11,"isMegawatt":false,"status":"AVAILABLE","source":"ndw","priceKwh":0.407}},{"type":"Feature","geometry":{"type":"Point","coordinates":[6.555738,53.005649]},"properties":{"type":"charge","layer":"passenger","locationId":"91145564","name":"Equans Groningen Drenthe Oosterbroekstraat 3","address":"Oosterbroekstraat 3","city":"Assen","operatorName":"EQUANS","maxPowerKw":11,"isMegawatt":false,"status":"AVAILABLE","source":"ndw"}},{"type":"Feature","geometry":{"type":"Point","coordinates":[6.569881,52.993908]},"properties":{"type":"charge","layer":"passenger","locationId":"91145010","name":"Equans Groningen Drenthe Oranjestraat 116","address":"Oranjestraat 116","city":"Assen","operatorName":"EQUANS","maxPowerKw":11,"isMegawatt":false,"status":"AVAILABLE","source":"ndw"}},{"type":"Feature","geometry":{"type":"Point","coordinates":[6.54236,53.001857]},"properties":{"type":"charge","layer":"passenger","locationId":"91145553","name":"Equans Groningen Drenthe Lesturgeonstraat 16","address":"Lesturgeonstraat 16","city":"Assen","operatorName":"EQUANS","maxPowerKw":11,"isMegawatt":false,"status":"AVAILABLE","source":"ndw"}},{"type":"Feature","geometry":{"type":"Point","coordinates":[6.563693,52.991431]},"properties":{"type":"charge","layer":"passenger","locationId":"NLLOC011834","name":"NL, Oosterhoutstraat 7, 9401NA Assen","address":"Oosterhoutstraat 7","city":"Assen","operatorName":"Allego","maxPowerKw":11,"isMegawatt":false,"status":"AVAILABLE","source":"ndw","priceKwh":0.407}},{"type":"Feature","geometry":{"type":"Point","coordinates":[6.57868,52.99758]},"properties":{"type":"charge","layer":"passenger","locationId":"91204094","name":"Equans Groningen Drenthe Mesdagstraat 30","address":"Mesdagstraat 30","city":"Assen","operatorName":"EQUANS","maxPowerKw":11,"isMegawatt":false,"status":"AVAILABLE","source":"ndw"}},{"type":"Feature","geometry":{"type":"Point","coordinates":[6.56356,53.02516]},"properties":{"type":"charge","layer":"passenger","locationId":"4940E084-8CFD-4B53-89AB-B1810EE93BEF","name":"Eneco eMobility Amerikaweg 18 Assen","address":"Amerikaweg 18","city":"Assen","operatorName":"Eneco","maxPowerKw":22,"isMegawatt":false,"status":"AVAILABLE","source":"ndw","priceKwh":0.32}},{"type":"Feature","geometry":{"type":"Point","coordinates":[6.532962,52.98337]},"properties":{"type":"charge","layer":"passenger","locationId":"NLLOC007281","name":"NL, Het Sticht 56, 9405 NR, Assen","address":"Het Sticht 56","city":"Assen","operatorName":"Allego","maxPowerKw":11,"isMegawatt":false,"status":"AVAILABLE","source":"ndw","priceKwh":0.407}},{"type":"Feature","geometry":{"type":"Point","coordinates":[6.564671,53.011309]},"properties":{"type":"charge","layer":"passenger","locationId":"NLLOC011835","name":"NL, Smetanalaan 212, 9402XK Assen","address":"Smetanalaan 212","city":"Assen","operatorName":"Allego","maxPowerKw":11,"isMegawatt":false,"status":"AVAILABLE","source":"ndw","priceKwh":0.407}},{"type":"Feature","geometry":{"type":"Point","coordinates":[6.574203,52.993962]},"properties":{"type":"charge","layer":"passenger","locationId":"NLLOC013586","name":"NL, Buizerdstraat 10, 9404BL, Assen","address":"Buizerdstraat 10","city":"Assen","operatorName":"Allego","maxPowerKw":11,"isMegawatt":false,"status":"AVAILABLE","source":"ndw","priceKwh":0.407}},{"type":"Feature","geometry":{"type":"Point","coordinates":[6.57953,52.98846]},"properties":{"type":"charge","layer":"passenger","locationId":"91145021","name":"Equans Groningen Drenthe Dotterbloemstraat 41","address":"Dotterbloemstraat 41","city":"Assen","operatorName":"EQUANS","maxPowerKw":11,"isMegawatt":false,"status":"AVAILABLE","source":"ndw"}},{"type":"Feature","geometry":{"type":"Point","coordinates":[6.556766,52.993913]},"properties":{"type":"charge","layer":"passenger","locationId":"NLLOC007783","name":"NL, Vaart N.Z. 38, 9401 GN. Assen","address":"Vaart N.Z. 38","city":"Assen","operatorName":"Allego","maxPowerKw":11,"isMegawatt":false,"status":"AVAILABLE","source":"ndw","priceKwh":0.407}},{"type":"Feature","geometry":{"type":"Point","coordinates":[6.509673,53.001203]},"properties":{"type":"charge","layer":"passenger","locationId":"91145551","name":"Equans Groningen Drenthe Laurierpark 116","address":"Laurierpark 116","city":"Assen","operatorName":"EQUANS","maxPowerKw":11,"isMegawatt":false,"status":"AVAILABLE","source":"ndw"}},{"type":"Feature","geometry":{"type":"Point","coordinates":[6.516068,52.999891]},"properties":{"type":"charge","layer":"passenger","locationId":"91145428","name":"Equans Groningen Drenthe Oostergracht 27","address":"Oostergracht 27","city":"Assen","operatorName":"EQUANS","maxPowerKw":11,"isMegawatt":false,"status":"AVAILABLE","source":"ndw"}},{"type":"Feature","geometry":{"type":"Point","coordinates":[6.50856,52.998303]},"properties":{"type":"charge","layer":"passenger","locationId":"NLLOC026876","name":"NL, Dilletuin 2, 9408 AB Assen","address":"Dilletuin 2","city":"Assen","operatorName":"Allego","maxPowerKw":11,"isMegawatt":false,"status":"AVAILABLE","source":"ndw","priceKwh":0.407}},{"type":"Feature","geometry":{"type":"Point","coordinates":[6.591986,52.996571]},"properties":{"type":"charge","layer":"passenger","locationId":"611284fd709bdece9a343d09","name":"Gertjan Rehwinkel","address":"Houtlaan 74","city":"Assen","operatorName":"E-Flux by Road","maxPowerKw":22,"isMegawatt":false,"status":"AVAILABLE","source":"ndw","priceKwh":0.3295}},{"type":"Feature","geometry":{"type":"Point","coordinates":[6.557933,52.991235]},"properties":{"type":"charge","layer":"passenger","locationId":"665700b7ff63e4001c2be4a6","name":"Gymnasium 1825 Charge Station I","address":"Dr. Nassaulaan  5","city":"Assen","operatorName":"E-Flux by Road","maxPowerKw":11,"isMegawatt":false,"status":"AVAILABLE","source":"ndw","priceKwh":0.58}},{"type":"Feature","geometry":{"type":"Point","coordinates":[6.573541,52.990338]},"properties":{"type":"charge","layer":"passenger","locationId":"91145002","name":"Equans Groningen Drenthe Violenstraat 22","address":"Violenstraat 22","city":"Assen","operatorName":"EQUANS","maxPowerKw":11,"isMegawatt":false,"status":"AVAILABLE","source":"ndw"}},{"type":"Feature","geometry":{"type":"Point","coordinates":[6.5731,52.995113]},"properties":{"type":"charge","layer":"passenger","locationId":"91220271","name":"Equans Groningen Drenthe Steendijk 2","address":"Steendijk 2","city":"Assen","operatorName":"EQUANS","maxPowerKw":11,"isMegawatt":false,"status":"AVAILABLE","source":"ndw"}},{"type":"Feature","geometry":{"type":"Point","coordinates":[6.571987,52.988201]},"properties":{"type":"charge","layer":"passenger","locationId":"NLLOC017537","name":"NL, Lodewijk Napoleonplein 2, 9404 RS Assen","address":"Lodewijk Napoleonplein 2","city":"Assen","operatorName":"Allego","maxPowerKw":11,"isMegawatt":false,"status":"AVAILABLE","source":"ndw","priceKwh":0.407}},{"type":"Feature","geometry":{"type":"Point","coordinates":[6.571347,53.012296]},"properties":{"type":"charge","layer":"passenger","locationId":"68f7463dcfdd6dfb52141c7c","name":"Borgstee 's station","address":"Borgstee 3","city":"Assen","operatorName":"E-Flux by Road","maxPowerKw":11,"isMegawatt":false,"status":"AVAILABLE","source":"ndw","priceKwh":0.73}},{"type":"Feature","geometry":{"type":"Point","coordinates":[6.562592,52.990134]},"properties":{"type":"charge","layer":"passenger","locationId":"91145548","name":"Equans Groningen Drenthe Prinses Beatrixstraat 47","address":"Prinses Beatrixstraat 47","city":"Assen","operatorName":"EQUANS","maxPowerKw":11,"isMegawatt":false,"status":"AVAILABLE","source":"ndw"}},{"type":"Feature","geometry":{"type":"Point","coordinates":[6.600419,53.014139]},"properties":{"type":"charge","layer":"passenger","locationId":"61e673d3834957141f484418","name":"K87","address":"Koraalstoep 87","city":"Assen","operatorName":"E-Flux by Road","maxPowerKw":11,"isMegawatt":false,"status":"AVAILABLE","source":"ndw","priceKwh":0.44}},{"type":"Feature","geometry":{"type":"Point","coordinates":[6.50058,52.99984]},"properties":{"type":"charge","layer":"passenger","locationId":"91417498","name":"Equans Groningen Drenthe Zaailand 19","address":"Zaailand 19","city":"Assen","operatorName":"EQUANS","maxPowerKw":11,"isMegawatt":false,"status":"AVAILABLE","source":"ndw"}},{"type":"Feature","geometry":{"type":"Point","coordinates":[6.566498,52.99723]},"properties":{"type":"charge","layer":"passenger","locationId":"OST22P0081_0025_1","name":"OST22P0081_0025_1","address":"Kloekhorststraat 26","city":"Assen","operatorName":"IPCharging","maxPowerKw":19,"isMegawatt":false,"status":"AVAILABLE","source":"ndw","priceKwh":0.496}},{"type":"Feature","geometry":{"type":"Point","coordinates":[6.581646,52.985117]},"properties":{"type":"charge","layer":"passenger","locationId":"NLLOC024144","name":"NL, Speenkruidstraat 177, 9404 HH Assen","address":"Speenkruidstraat 177","city":"Assen","operatorName":"Allego","maxPowerKw":11,"isMegawatt":false,"status":"AVAILABLE","source":"ndw","priceKwh":0.407}},{"type":"Feature","geometry":{"type":"Point","coordinates":[6.560816,52.997963]},"properties":{"type":"charge","layer":"passenger","locationId":"OST23P0069_0022_2","name":"OST23P0069_0022_2","address":"Neptunusplein 16","city":"Assen","operatorName":"IPCharging","maxPowerKw":19,"isMegawatt":false,"status":"AVAILABLE","source":"ndw","priceKwh":0.496}},{"type":"Feature","geometry":{"type":"Point","coordinates":[6.572622,53.01816]},"properties":{"type":"charge","layer":"passenger","locationId":"NLLOC011829","name":"NL, Martin Luther Kingweg 1, 9407 RC Assen","address":"Martin Luther Kingweg 1","city":"Assen","operatorName":"Allego","maxPowerKw":11,"isMegawatt":false,"status":"AVAILABLE","source":"ndw","priceKwh":0.407}},{"type":"Feature","geometry":{"type":"Point","coordinates":[6.576272,53.028572]},"properties":{"type":"charge","layer":"passenger","locationId":"2664180","name":"Laadnet Dronabas BV","address":"Zwedenlaan 3","city":"Assen","operatorName":"Laadnet","maxPowerKw":22,"isMegawatt":false,"status":"AVAILABLE","source":"ndw"}},{"type":"Feature","geometry":{"type":"Point","coordinates":[6.513192,52.994718]},"properties":{"type":"charge","layer":"passenger","locationId":"NLLOC022210","name":"NL, Uranusstraat 27, 9405 PK Assen","address":"Uranusstraat 27","city":"Assen","operatorName":"Allego","maxPowerKw":11,"isMegawatt":false,"status":"AVAILABLE","source":"ndw","priceKwh":0.407}},{"type":"Feature","geometry":{"type":"Point","coordinates":[6.548472,53.004421]},"properties":{"type":"charge","layer":"passenger","locationId":"NLLOC022215","name":"NL, Zuidenveld 41, 9406 LH Assen","address":"Zuidenveld 41","city":"Assen","operatorName":"Allego","maxPowerKw":11,"isMegawatt":false,"status":"AVAILABLE","source":"ndw","priceKwh":0.407}},{"type":"Feature","geometry":{"type":"Point","coordinates":[6.5791,53.01872]},"properties":{"type":"charge","layer":"passenger","locationId":"91145099","name":"Equans Groningen Drenthe Kiepheugte 20","address":"Kiepheugte 20","city":"Assen","operatorName":"EQUANS","maxPowerKw":11,"isMegawatt":false,"status":"AVAILABLE","source":"ndw"}},{"type":"Feature","geometry":{"type":"Point","coordinates":[6.584241,53.018146]},"properties":{"type":"charge","layer":"passenger","locationId":"91145563","name":"Equans Groningen Drenthe Kleuvenstee 74","address":"Kleuvenstee 74","city":"Assen","operatorName":"EQUANS","maxPowerKw":11,"isMegawatt":false,"status":"AVAILABLE","source":"ndw"}},{"type":"Feature","geometry":{"type":"Point","coordinates":[6.59567,53.01405]},"properties":{"type":"charge","layer":"passenger","locationId":"91358056","name":"Equans Groningen Drenthe Briljantstoep 2","address":"Briljantstoep 2","city":"Assen","operatorName":"EQUANS","maxPowerKw":11,"isMegawatt":false,"status":"AVAILABLE","source":"ndw"}},{"type":"Feature","geometry":{"type":"Point","coordinates":[6.58249,53.01468]},"properties":{"type":"charge","layer":"passenger","locationId":"91145041","name":"Equans Groningen Drenthe Roegoorn 3A","address":"Roegoorn 3A","city":"Assen","operatorName":"EQUANS","maxPowerKw":11,"isMegawatt":false,"status":"AVAILABLE","source":"ndw"}},{"type":"Feature","geometry":{"type":"Point","coordinates":[6.565324,53.006166]},"properties":{"type":"charge","layer":"passenger","locationId":"NLLOC019262","name":"NL, Sweelinckplein 19, 9402 TV Assen","address":"Sweelinckplein 19","city":"Assen","operatorName":"Allego","maxPowerKw":11,"isMegawatt":false,"status":"AVAILABLE","source":"ndw","priceKwh":0.407}},{"type":"Feature","geometry":{"type":"Point","coordinates":[6.560816,52.997963]},"properties":{"type":"charge","layer":"passenger","locationId":"OST23P0069_0022_0","name":"OST23P0069_0022_0","address":"Neptunusplein 16","city":"Assen","operatorName":"IPCharging","maxPowerKw":19,"isMegawatt":false,"status":"AVAILABLE","source":"ndw","priceKwh":0.496}},{"type":"Feature","geometry":{"type":"Point","coordinates":[6.555064,53.003465]},"properties":{"type":"charge","layer":"passenger","locationId":"NLLOC022212","name":"NL, Talmastraat 43, 9402 HB Assen","address":"Talmastraat 43","city":"Assen","operatorName":"Allego","maxPowerKw":11,"isMegawatt":false,"status":"AVAILABLE","source":"ndw","priceKwh":0.407}},{"type":"Feature","geometry":{"type":"Point","coordinates":[6.552301,52.997168]},"properties":{"type":"charge","layer":"passenger","locationId":"91145319","name":"Equans Groningen Drenthe Mr. P.J. Troelstralaan 313","address":"Mr. J.P. Troelstralaan 313","city":"Assen","operatorName":"EQUANS","maxPowerKw":11,"isMegawatt":false,"status":"AVAILABLE","source":"ndw"}},{"type":"Feature","geometry":{"type":"Point","coordinates":[6.577135,52.98635]},"properties":{"type":"charge","layer":"passenger","locationId":"NLLOC011819","name":"NL, Brunelstraat 77, 9404KD Assen","address":"Brunelstraat 77","city":"Assen","operatorName":"Allego","maxPowerKw":11,"isMegawatt":false,"status":"AVAILABLE","source":"ndw","priceKwh":0.407}},{"type":"Feature","geometry":{"type":"Point","coordinates":[6.56902,52.9943]},"properties":{"type":"charge","layer":"passenger","locationId":"91220180","name":"Equans Groningen Drenthe Oranjestraat 37","address":"Oranjestraat 37","city":"Assen","operatorName":"EQUANS","maxPowerKw":11,"isMegawatt":false,"status":"AVAILABLE","source":"ndw"}},{"type":"Feature","geometry":{"type":"Point","coordinates":[6.568529,53.026171]},"properties":{"type":"charge","layer":"passenger","locationId":"923546","name":"DAE_NL_2001302_P03","address":"Amerikaweg 3","city":"Assen","operatorName":"DAEN Mobility","maxPowerKw":11,"isMegawatt":false,"status":"AVAILABLE","source":"ndw","priceKwh":0.36}},{"type":"Feature","geometry":{"type":"Point","coordinates":[6.557352,52.995392]},"properties":{"type":"charge","layer":"passenger","locationId":"OST22P0097_0018_0","name":"OST22P0097_0018_0","address":"Weiersstraat 1","city":"Assen","operatorName":"IPCharging","maxPowerKw":19,"isMegawatt":false,"status":"AVAILABLE","source":"ndw","priceKwh":0.496}},{"type":"Feature","geometry":{"type":"Point","coordinates":[6.593458,53.019727]},"properties":{"type":"charge","layer":"passenger","locationId":"NLLOC011807","name":"NL, Marterslag 19, 9403 XT Assen","address":"Marterslag 19","city":"Assen","operatorName":"Allego","maxPowerKw":11,"isMegawatt":false,"status":"AVAILABLE","source":"ndw","priceKwh":0.407}},{"type":"Feature","geometry":{"type":"Point","coordinates":[6.561738,52.998104]},"properties":{"type":"charge","layer":"passenger","locationId":"NLLOC026986","name":"NL, Stelling 13, 9401 VA Assen","address":"Stelling 13","city":"Assen","operatorName":"Allego","maxPowerKw":11,"isMegawatt":false,"status":"CHARGING","source":"ndw","priceKwh":0.407}},{"type":"Feature","geometry":{"type":"Point","coordinates":[6.587093,53.02209]},"properties":{"type":"charge","layer":"passenger","locationId":"NLLOC022196","name":"NL, Boerhoorndreef 119, 9403 KC Assen","address":"Boerhoorndreef 119","city":"Assen","operatorName":"Allego","maxPowerKw":11,"isMegawatt":false,"status":"AVAILABLE","source":"ndw","priceKwh":0.407}},{"type":"Feature","geometry":{"type":"Point","coordinates":[6.536593,52.99822]},"properties":{"type":"charge","layer":"passenger","locationId":"NLLOC007203","name":"NL, Stroom 4, 9406 ES Assen","address":"Stroom 4","city":"Assen","operatorName":"Allego","maxPowerKw":11,"isMegawatt":false,"status":"AVAILABLE","source":"ndw","priceKwh":0.407}},{"type":"Feature","geometry":{"type":"Point","coordinates":[6.569116,52.996882]},"properties":{"type":"charge","layer":"passenger","locationId":"NLLOC007254","name":"NL, Paul Krugerstraat 1-B, 9401AG Assen (laadpaal 2)","address":"Paul Krugerstraat 1-B","city":"Assen","operatorName":"Allego","maxPowerKw":11,"isMegawatt":false,"status":"AVAILABLE","source":"ndw","priceKwh":0.407}},{"type":"Feature","geometry":{"type":"Point","coordinates":[6.53233,52.98626]},"properties":{"type":"charge","layer":"passenger","locationId":"91145113","name":"Equans Groningen Drenthe Salland 144","address":"Salland 144","city":"Assen","operatorName":"EQUANS","maxPowerKw":11,"isMegawatt":false,"status":"AVAILABLE","source":"ndw"}},{"type":"Feature","geometry":{"type":"Point","coordinates":[6.568529,53.026171]},"properties":{"type":"charge","layer":"passenger","locationId":"923434","name":"DAE-NL-2000112_P01","address":"Amerikaweg 3","city":"Assen","operatorName":"DAEN Mobility","maxPowerKw":22,"isMegawatt":false,"status":"AVAILABLE","source":"ndw","priceKwh":0.29}},{"type":"Feature","geometry":{"type":"Point","coordinates":[6.562007,53.017218]},"properties":{"type":"charge","layer":"passenger","locationId":"NLLOC011831","name":"NL, Scharmbarg 27, 9407JP Assen","address":"Scharmbarg 27","city":"Assen","operatorName":"Allego","maxPowerKw":11,"isMegawatt":false,"status":"AVAILABLE","source":"ndw","priceKwh":0.407}},{"type":"Feature","geometry":{"type":"Point","coordinates":[6.571498,53.022484]},"properties":{"type":"charge","layer":"passenger","locationId":"64e5edded1e062001c39fe41","name":"Normec Kalsbeek Assen","address":"Aziëweg 19","city":"Assen","operatorName":"E-Flux by Road","maxPowerKw":11,"isMegawatt":false,"status":"AVAILABLE","source":"ndw","priceKwh":0.256}},{"type":"Feature","geometry":{"type":"Point","coordinates":[6.552964,52.997548]},"properties":{"type":"charge","layer":"passenger","locationId":"NLLOC018821","name":"NL, Mr. P.J. Troelstralaan 214, 9406 BE Assen","address":"Mr. P.J. Troelstralaan 214","city":"Assen","operatorName":"Allego","maxPowerKw":11,"isMegawatt":false,"status":"AVAILABLE","source":"ndw","priceKwh":0.407}},{"type":"Feature","geometry":{"type":"Point","coordinates":[6.547278,52.992707]},"properties":{"type":"charge","layer":"passenger","locationId":"NLLOC014694","name":"NL, Witterstraat 42, 9401SH, Assen","address":"Witterstraat 42","city":"Assen","operatorName":"Allego","maxPowerKw":11,"isMegawatt":false,"status":"AVAILABLE","source":"ndw","priceKwh":0.407}},{"type":"Feature","geometry":{"type":"Point","coordinates":[6.566851,53.001119]},"properties":{"type":"charge","layer":"passenger","locationId":"NLLOC022203","name":"NL, Huygensstraat 15, 9402 NL Assen","address":"Huygensstraat 15","city":"Assen","operatorName":"Allego","maxPowerKw":11,"isMegawatt":false,"status":"AVAILABLE","source":"ndw","priceKwh":0.407}},{"type":"Feature","geometry":{"type":"Point","coordinates":[6.531518,53.001951]},"properties":{"type":"charge","layer":"passenger","locationId":"64465b4118541d0012f1410f","name":"Kozijn Beheer Nederland's station","address":"Mien Ruysweg 44","city":"Assen","operatorName":"E-Flux by Road","maxPowerKw":11,"isMegawatt":false,"status":"AVAILABLE","source":"ndw","priceKwh":0.53}},{"type":"Feature","geometry":{"type":"Point","coordinates":[6.568529,53.026171]},"properties":{"type":"charge","layer":"passenger","locationId":"923545","name":"DAE_NL_2001301_P04","address":"Amerikaweg 3","city":"Assen","operatorName":"DAEN Mobility","maxPowerKw":11,"isMegawatt":false,"status":"AVAILABLE","source":"ndw","priceKwh":0.29}},{"type":"Feature","geometry":{"type":"Point","coordinates":[6.508187,52.999009]},"properties":{"type":"charge","layer":"passenger","locationId":"91145443","name":"Equans Groningen Drenthe Aletta Jacobsweg 4e","address":"Aletta Jacobsweg 4e","city":"Assen","operatorName":"EQUANS","maxPowerKw":11,"isMegawatt":false,"status":"AVAILABLE","source":"ndw"}},{"type":"Feature","geometry":{"type":"Point","coordinates":[6.582508,53.001369]},"properties":{"type":"charge","layer":"passenger","locationId":"91193661","name":"Equans Groningen Drenthe Dr. A.F. Philipsweg 47","address":"Dr. A.F. Philipsweg 47","city":"Assen","operatorName":"EQUANS","maxPowerKw":11,"isMegawatt":false,"status":"AVAILABLE","source":"ndw"}},{"type":"Feature","geometry":{"type":"Point","coordinates":[6.587089,53.014564]},"properties":{"type":"charge","layer":"passenger","locationId":"NLLOC022207","name":"NL, Roegoorn 81, 9403 NT Assen","address":"Roegoorn 81","city":"Assen","operatorName":"Allego","maxPowerKw":11,"isMegawatt":false,"status":"AVAILABLE","source":"ndw","priceKwh":0.407}},{"type":"Feature","geometry":{"type":"Point","coordinates":[6.557273,52.990171]},"properties":{"type":"charge","layer":"passenger","locationId":"NLLOC015215","name":"NL, Hertenkamp, 2, 9401HL, Assen","address":"Hertenkamp 2","city":"Assen","operatorName":"Allego","maxPowerKw":11,"isMegawatt":false,"status":"AVAILABLE","source":"ndw","priceKwh":0.407}},{"type":"Feature","geometry":{"type":"Point","coordinates":[6.58353,53.02019]},"properties":{"type":"charge","layer":"passenger","locationId":"91193583","name":"Equans Groningen Drenthe Boerhoorndreef 33","address":"Boerhoorndreef 33","city":"Assen","operatorName":"EQUANS","maxPowerKw":11,"isMegawatt":false,"status":"AVAILABLE","source":"ndw"}},{"type":"Feature","geometry":{"type":"Point","coordinates":[6.548496,53.001447]},"properties":{"type":"charge","layer":"passenger","locationId":"NLLOC007198","name":"NL, Nobellaan 285, 9406 AK, Assen","address":"Nobellaan 285","city":"Assen","operatorName":"Allego","maxPowerKw":11,"isMegawatt":false,"status":"AVAILABLE","source":"ndw","priceKwh":0.407}},{"type":"Feature","geometry":{"type":"Point","coordinates":[6.563591,52.997744]},"properties":{"type":"charge","layer":"passenger","locationId":"NLLOC011837","name":"NL, Zaagmolen 20, 9401BS, Assen","address":"Zaagmolen 20","city":"Assen","operatorName":"Allego","maxPowerKw":11,"isMegawatt":false,"status":"CHARGING","source":"ndw","priceKwh":0.407}},{"type":"Feature","geometry":{"type":"Point","coordinates":[6.547242,53.008707]},"properties":{"type":"charge","layer":"passenger","locationId":"NLLOC011832","name":"NL, Rijnstraat 2, 9406SE Assen","address":"Rijnstraat 2","city":"Assen","operatorName":"Allego","maxPowerKw":11,"isMegawatt":false,"status":"AVAILABLE","source":"ndw","priceKwh":0.407}},{"type":"Feature","geometry":{"type":"Point","coordinates":[6.56117,53.0173]},"properties":{"type":"charge","layer":"passenger","locationId":"91145035","name":"Equans Groningen Drenthe Scharmbarg 26","address":"Scharmbarg 26","city":"Assen","operatorName":"EQUANS","maxPowerKw":11,"isMegawatt":false,"status":"AVAILABLE","source":"ndw"}},{"type":"Feature","geometry":{"type":"Point","coordinates":[6.51549,53.00444]},"properties":{"type":"charge","layer":"passenger","locationId":"91145112","name":"Equans Groningen Drenthe Papayapad 50","address":"Papayapad 50","city":"Assen","operatorName":"EQUANS","maxPowerKw":11,"isMegawatt":false,"status":"AVAILABLE","source":"ndw"}},{"type":"Feature","geometry":{"type":"Point","coordinates":[6.568579,52.97414]},"properties":{"type":"charge","layer":"passenger","locationId":"91145104","name":"Equans Groningen Drenthe Pronkridder 1 A","address":"Pronkridder 1 A","city":"Assen","operatorName":"EQUANS","maxPowerKw":11,"isMegawatt":false,"status":"CHARGING","source":"ndw"}},{"type":"Feature","geometry":{"type":"Point","coordinates":[6.539084,52.996654]},"properties":{"type":"charge","layer":"passenger","locationId":"NLLOC017065","name":"NL, Zwin 17, 9406EV, Assen","address":"Zwin 17","city":"Assen","operatorName":"Allego","maxPowerKw":11,"isMegawatt":false,"status":"AVAILABLE","source":"ndw","priceKwh":0.407}},{"type":"Feature","geometry":{"type":"Point","coordinates":[6.545207,52.984668]},"properties":{"type":"charge","layer":"passenger","locationId":"NLLOC022197","name":"NL, Stadsbroek 11, 9405 BK Assen","address":"Stadsbroek 11","city":"Assen","operatorName":"Allego","maxPowerKw":11,"isMegawatt":false,"status":"AVAILABLE","source":"ndw","priceKwh":0.407}},{"type":"Feature","geometry":{"type":"Point","coordinates":[6.506229,53.008965]},"properties":{"type":"charge","layer":"passenger","locationId":"91145294","name":"Equans Groningen Drenthe Boslelie 37","address":"Boslelie 37","city":"Assen","operatorName":"EQUANS","maxPowerKw":11,"isMegawatt":false,"status":"AVAILABLE","source":"ndw"}},{"type":"Feature","geometry":{"type":"Point","coordinates":[6.569711,52.992814]},"properties":{"type":"charge","layer":"passenger","locationId":"3968955","name":"Laadnet Arcadis Nederland B.V.","address":"Stationsplein 10","city":"Assen","operatorName":"Laadnet","maxPowerKw":22,"isMegawatt":false,"status":"UNAVAILABLE","source":"ndw"}},{"type":"Feature","geometry":{"type":"Point","coordinates":[6.5109,53.003283]},"properties":{"type":"charge","layer":"passenger","locationId":"NLLOC006705","name":"NL, Perenstraat 14, 9408AZ, Assen","address":"Perenstraat 14","city":"Assen","operatorName":"Allego","maxPowerKw":11,"isMegawatt":false,"status":"AVAILABLE","source":"ndw","priceKwh":0.407}},{"type":"Feature","geometry":{"type":"Point","coordinates":[6.571781,53.008512]},"properties":{"type":"charge","layer":"passenger","locationId":"60b73cbee4ecbcc4f569d732","name":"Industrieweg 44A","address":"Industrieweg 44A","city":"Assen","operatorName":"E-Flux by Road","maxPowerKw":22,"isMegawatt":false,"status":"AVAILABLE","source":"ndw","priceKwh":0.95}},{"type":"Feature","geometry":{"type":"Point","coordinates":[6.531777,52.984125]},"properties":{"type":"charge","layer":"passenger","locationId":"91145451","name":"Equans Groningen Drenthe De Wouden 104","address":"De Wouden 104","city":"Assen","operatorName":"EQUANS","maxPowerKw":11,"isMegawatt":false,"status":"AVAILABLE","source":"ndw"}},{"type":"Feature","geometry":{"type":"Point","coordinates":[6.571305,52.990883]},"properties":{"type":"charge","layer":"passenger","locationId":"91145440","name":"Equans Groningen Drenthe Oosterparallelweg 20","address":"Oosterparallelweg 20","city":"Assen","operatorName":"EQUANS","maxPowerKw":11,"isMegawatt":false,"status":"AVAILABLE","source":"ndw"}},{"type":"Feature","geometry":{"type":"Point","coordinates":[6.566498,52.99723]},"properties":{"type":"charge","layer":"passenger","locationId":"OST22P0081_0025_0","name":"OST22P0081_0025_0","address":"Kloekhorststraat 26","city":"Assen","operatorName":"IPCharging","maxPowerKw":19,"isMegawatt":false,"status":"AVAILABLE","source":"ndw","priceKwh":0.496}},{"type":"Feature","geometry":{"type":"Point","coordinates":[6.594195,53.014353]},"properties":{"type":"charge","layer":"passenger","locationId":"NLLOC022199","name":"NL, Briljantstoep 29, 9403 SC Assen","address":"Briljantstoep 29","city":"Assen","operatorName":"Allego","maxPowerKw":11,"isMegawatt":false,"status":"AVAILABLE","source":"ndw","priceKwh":0.407}},{"type":"Feature","geometry":{"type":"Point","coordinates":[6.531526,52.988468]},"properties":{"type":"charge","layer":"passenger","locationId":"91145008","name":"Equans Groningen Drenthe Fivelingostraat 17","address":"Fivelingostraat 17","city":"Assen","operatorName":"EQUANS","maxPowerKw":11,"isMegawatt":false,"status":"AVAILABLE","source":"ndw"}},{"type":"Feature","geometry":{"type":"Point","coordinates":[6.580022,52.991965]},"properties":{"type":"charge","layer":"passenger","locationId":"NLLOC020288","name":"NL, Roerdompstraat 21, 9404 EG Assen","address":"Roerdompstraat 21","city":"Assen","operatorName":"Allego","maxPowerKw":11,"isMegawatt":false,"status":"AVAILABLE","source":"ndw","priceKwh":0.407}},{"type":"Feature","geometry":{"type":"Point","coordinates":[6.53594,52.98184]},"properties":{"type":"charge","layer":"passenger","locationId":"91145092","name":"Equans Groningen Drenthe De Vallei 22","address":"De Vallei 22","city":"Assen","operatorName":"EQUANS","maxPowerKw":11,"isMegawatt":false,"status":"AVAILABLE","source":"ndw"}},{"type":"Feature","geometry":{"type":"Point","coordinates":[6.597997,52.998447]},"properties":{"type":"charge","layer":"passenger","locationId":"62bc4334b9f3cc5b758bedf7","name":"SV 't Asser Wapen","address":"Dijkveldpad 3","city":"Assen","operatorName":"E-Flux by Road","maxPowerKw":22,"isMegawatt":false,"status":"AVAILABLE","source":"ndw","priceKwh":0.33}},{"type":"Feature","geometry":{"type":"Point","coordinates":[6.546781,52.996887]},"properties":{"type":"charge","layer":"passenger","locationId":"NLLOC015542","name":"NL, van Heuven Goedhartlaan 57, 9406CD, Assen","address":"van Heuven Goedhartlaan 57","city":"Assen","operatorName":"Allego","maxPowerKw":11,"isMegawatt":false,"status":"UNAVAILABLE","source":"ndw","priceKwh":0.407}},{"type":"Feature","geometry":{"type":"Point","coordinates":[6.510285,53.005627]},"properties":{"type":"charge","layer":"passenger","locationId":"NLLOC022211","name":"NL, Stedehof 35, 9408 HH Assen","address":"Stedehof 35","city":"Assen","operatorName":"Allego","maxPowerKw":11,"isMegawatt":false,"status":"AVAILABLE","source":"ndw","priceKwh":0.407}},{"type":"Feature","geometry":{"type":"Point","coordinates":[6.576242,52.992278]},"properties":{"type":"charge","layer":"passenger","locationId":"NLLOC010456","name":"NL, Oosterpark 92, 9404 BK, Assen","address":"Oosterpark 92","city":"Assen","operatorName":"Allego","maxPowerKw":11,"isMegawatt":false,"status":"AVAILABLE","source":"ndw","priceKwh":0.407}},{"type":"Feature","geometry":{"type":"Point","coordinates":[6.547402,53.002413]},"properties":{"type":"charge","layer":"passenger","locationId":"91145326","name":"Equans Groningen Drenthe Talmastraat 107","address":"Talmastraat 107","city":"Assen","operatorName":"EQUANS","maxPowerKw":11,"isMegawatt":false,"status":"AVAILABLE","source":"ndw"}},{"type":"Feature","geometry":{"type":"Point","coordinates":[6.54011,53.0068]},"properties":{"type":"charge","layer":"passenger","locationId":"91486911","name":"Equans Groningen Drenthe Amstelstraat 4","address":"Amstelstraat 4","city":"Assen","operatorName":"EQUANS","maxPowerKw":11,"isMegawatt":false,"status":"AVAILABLE","source":"ndw"}},{"type":"Feature","geometry":{"type":"Point","coordinates":[6.546415,52.973646]},"properties":{"type":"charge","layer":"passenger","locationId":"NLLOC011822","name":"NL, De Haar, 9400XX, Assen","address":"De Haar","city":"Assen","operatorName":"Allego","maxPowerKw":11,"isMegawatt":false,"status":"AVAILABLE","source":"ndw","priceKwh":0.407}},{"type":"Feature","geometry":{"type":"Point","coordinates":[6.554293,52.999709]},"properties":{"type":"charge","layer":"passenger","locationId":"NLLOC012523","name":"NL, Einthovenstraat 12, 9402CB, Assen","address":"Einthovenstraat 12","city":"Assen","operatorName":"Allego","maxPowerKw":11,"isMegawatt":false,"status":"AVAILABLE","source":"ndw","priceKwh":0.407}},{"type":"Feature","geometry":{"type":"Point","coordinates":[6.555857,53.001436]},"properties":{"type":"charge","layer":"passenger","locationId":"91145257","name":"Equans Groningen Drenthe Thorbeckelaan 72 TO","address":"Thorbeckelaan 72","city":"Assen","operatorName":"EQUANS","maxPowerKw":11,"isMegawatt":false,"status":"AVAILABLE","source":"ndw"}},{"type":"Feature","geometry":{"type":"Point","coordinates":[6.561109,53.002611]},"properties":{"type":"charge","layer":"passenger","locationId":"91145552","name":"Equans Groningen Drenthe Thorbeckelaan 2d","address":"Thorbeckelaan 2d","city":"Assen","operatorName":"EQUANS","maxPowerKw":11,"isMegawatt":false,"status":"AVAILABLE","source":"ndw"}},{"type":"Feature","geometry":{"type":"Point","coordinates":[6.55511,53.01586]},"properties":{"type":"charge","layer":"passenger","locationId":"91387398","name":"Equans Groningen Drenthe Beuzeveen 220","address":"Beuzeveen 220","city":"Assen","operatorName":"EQUANS","maxPowerKw":11,"isMegawatt":false,"status":"AVAILABLE","source":"ndw"}},{"type":"Feature","geometry":{"type":"Point","coordinates":[6.558039,52.99719]},"properties":{"type":"charge","layer":"passenger","locationId":"NLLOC024858","name":"NL, Burgemeester de Dreuplein 108, 9401 CM Assen","address":"Burgemeester de Dreuplein 108","city":"Assen","operatorName":"Allego","maxPowerKw":11,"isMegawatt":false,"status":"AVAILABLE","source":"ndw","priceKwh":0.407}},{"type":"Feature","geometry":{"type":"Point","coordinates":[6.520355,52.99619]},"properties":{"type":"charge","layer":"passenger","locationId":"NLLOC011824","name":"NL, Balkendwarsweg 3, 9405 PT Assen","address":"Balkendwarsweg 3","city":"Assen","operatorName":"Allego","maxPowerKw":11,"isMegawatt":false,"status":"AVAILABLE","source":"ndw","priceKwh":0.407}},{"type":"Feature","geometry":{"type":"Point","coordinates":[6.540738,53.005283]},"properties":{"type":"charge","layer":"passenger","locationId":"NLLOC024141","name":"NL, Dommelstraat 24, 9406 RN Assen","address":"Dommelstraat 24","city":"Assen","operatorName":"Allego","maxPowerKw":11,"isMegawatt":false,"status":"AVAILABLE","source":"ndw","priceKwh":0.407}},{"type":"Feature","geometry":{"type":"Point","coordinates":[6.513787,53.002878]},"properties":{"type":"charge","layer":"passenger","locationId":"NLLOC021599","name":"NL, Moerbeistraat 58, 9408BC, Assen","address":"Moerbeistraat 58","city":"Assen","operatorName":"Allego","maxPowerKw":11,"isMegawatt":false,"status":"AVAILABLE","source":"ndw","priceKwh":0.407}},{"type":"Feature","geometry":{"type":"Point","coordinates":[6.559169,52.997786]},"properties":{"type":"charge","layer":"passenger","locationId":"OST23P0069_0025_1","name":"OST23P0069_0025_1","address":"Apollopad 72","city":"Assen","operatorName":"IPCharging","maxPowerKw":19,"isMegawatt":false,"status":"AVAILABLE","source":"ndw","priceKwh":0.496}},{"type":"Feature","geometry":{"type":"Point","coordinates":[6.562946,53.008786]},"properties":{"type":"charge","layer":"passenger","locationId":"91145013","name":"Equans Groningen Drenthe Mozartplaats 55","address":"Mozartplaats 55","city":"Assen","operatorName":"EQUANS","maxPowerKw":11,"isMegawatt":false,"status":"AVAILABLE","source":"ndw"}},{"type":"Feature","geometry":{"type":"Point","coordinates":[6.556817,53.006473]},"properties":{"type":"charge","layer":"passenger","locationId":"NLLOC014160","name":"NL, Mensingestraat 15, 9402RP, Assen","address":"Mensingestraat 15","city":"Assen","operatorName":"Allego","maxPowerKw":11,"isMegawatt":false,"status":"AVAILABLE","source":"ndw","priceKwh":0.407}},{"type":"Feature","geometry":{"type":"Point","coordinates":[6.568408,53.015868]},"properties":{"type":"charge","layer":"passenger","locationId":"NLLOC019147","name":"NL, Woerdes 1, 9407 CK Assen","address":"Woerdes 1","city":"Assen","operatorName":"Allego","maxPowerKw":11,"isMegawatt":false,"status":"AVAILABLE","source":"ndw","priceKwh":0.407}},{"type":"Feature","geometry":{"type":"Point","coordinates":[6.512578,53.001314]},"properties":{"type":"charge","layer":"passenger","locationId":"91145022","name":"Equans Groningen Drenthe Noorderplantsoen 27","address":"Noorderplantsoen 27","city":"Assen","operatorName":"EQUANS","maxPowerKw":11,"isMegawatt":false,"status":"AVAILABLE","source":"ndw"}},{"type":"Feature","geometry":{"type":"Point","coordinates":[6.51153,53.00009]},"properties":{"type":"charge","layer":"passenger","locationId":"91145026","name":"Equans Groningen Drenthe Westerwal 30","address":"Westerwal 30","city":"Assen","operatorName":"EQUANS","maxPowerKw":11,"isMegawatt":false,"status":"AVAILABLE","source":"ndw"}},{"type":"Feature","geometry":{"type":"Point","coordinates":[6.578933,52.996153]},"properties":{"type":"charge","layer":"passenger","locationId":"NLLOC011827","name":"NL, Het Palet 2, 9403CM Assen","address":"Het Palet 2","city":"Assen","operatorName":"Allego","maxPowerKw":11,"isMegawatt":false,"status":"AVAILABLE","source":"ndw","priceKwh":0.407}},{"type":"Feature","geometry":{"type":"Point","coordinates":[6.541404,53.009324]},"properties":{"type":"charge","layer":"passenger","locationId":"91145450","name":"Equans Groningen Drenthe IJselstraat 109","address":"IJselstraat 109","city":"Assen","operatorName":"EQUANS","maxPowerKw":11,"isMegawatt":false,"status":"AVAILABLE","source":"ndw"}},{"type":"Feature","geometry":{"type":"Point","coordinates":[6.54388,53.010843]},"properties":{"type":"charge","layer":"passenger","locationId":"91145101","name":"Equans Groningen Drenthe IJselstraat 61","address":"IJselstraat 61","city":"Assen","operatorName":"EQUANS","maxPowerKw":11,"isMegawatt":false,"status":"AVAILABLE","source":"ndw"}},{"type":"Feature","geometry":{"type":"Point","coordinates":[6.57904,53.02677]},"properties":{"type":"charge","layer":"passenger","locationId":"F8C81B38-F2B6-4ABF-A903-A3E8B852FA07","name":"Eneco eMobility Broekhuis Assen autoschade","address":"Duitslandlaan 6","city":"Assen","operatorName":"Eneco","maxPowerKw":22,"isMegawatt":false,"status":"AVAILABLE","source":"ndw","priceKwh":0.45}},{"type":"Feature","geometry":{"type":"Point","coordinates":[6.55098,52.99825]},"properties":{"type":"charge","layer":"passenger","locationId":"91460133","name":"Equans Groningen Drenthe Kochstraat 2","address":"Kochstraat 2","city":"Assen","operatorName":"EQUANS","maxPowerKw":11,"isMegawatt":false,"status":"AVAILABLE","source":"ndw"}},{"type":"Feature","geometry":{"type":"Point","coordinates":[6.566543,52.994616]},"properties":{"type":"charge","layer":"passenger","locationId":"OST22P0081_0017_0","name":"OST22P0081_0017_0","address":"Noordersingel 33","city":"Assen","operatorName":"IPCharging","maxPowerKw":19,"isMegawatt":false,"status":"AVAILABLE","source":"ndw","priceKwh":0.496}},{"type":"Feature","geometry":{"type":"Point","coordinates":[6.541243,53.007679]},"properties":{"type":"charge","layer":"passenger","locationId":"NLLOC011816","name":"NL, Amstelstraat 259, 9406 TW Assen","address":"Amstelstraat 295","city":"Assen","operatorName":"Allego","maxPowerKw":11,"isMegawatt":false,"status":"AVAILABLE","source":"ndw","priceKwh":0.407}},{"type":"Feature","geometry":{"type":"Point","coordinates":[6.51035,52.99893]},"properties":{"type":"charge","layer":"passenger","locationId":"91434712","name":"Equans Groningen Drenthe Laurierstraat 10","address":"Laurierstraat 10","city":"Assen","operatorName":"EQUANS","maxPowerKw":11,"isMegawatt":false,"status":"AVAILABLE","source":"ndw"}},{"type":"Feature","geometry":{"type":"Point","coordinates":[6.569804,52.986776]},"properties":{"type":"charge","layer":"passenger","locationId":"NLLOC016089","name":"NL, Anemoonstraat 151, 9404 RE Assen","address":"Anemoonstraat 151","city":"Assen","operatorName":"Allego","maxPowerKw":11,"isMegawatt":false,"status":"AVAILABLE","source":"ndw","priceKwh":0.407}},{"type":"Feature","geometry":{"type":"Point","coordinates":[6.5603,52.99068]},"properties":{"type":"charge","layer":"passenger","locationId":"91220172","name":"Equans Groningen Drenthe Wilhelminastraat 41","address":"Wilhelminastraat 41","city":"Assen","operatorName":"EQUANS","maxPowerKw":11,"isMegawatt":false,"status":"AVAILABLE","source":"ndw"}},{"type":"Feature","geometry":{"type":"Point","coordinates":[6.54613,52.97822]},"properties":{"type":"charge","layer":"passenger","locationId":"91243793","name":"Equans Groningen Drenthe Boskamp 5","address":"Boskamp 5","city":"Assen","operatorName":"EQUANS","maxPowerKw":11,"isMegawatt":false,"status":"AVAILABLE","source":"ndw"}},{"type":"Feature","geometry":{"type":"Point","coordinates":[6.58446,53.01549]},"properties":{"type":"charge","layer":"passenger","locationId":"91401072","name":"Equans Groningen Drenthe Muddegoorn 20","address":"Muddegoorn 20","city":"Assen","operatorName":"EQUANS","maxPowerKw":11,"isMegawatt":false,"status":"AVAILABLE","source":"ndw"}},{"type":"Feature","geometry":{"type":"Point","coordinates":[6.55127,53.00499]},"properties":{"type":"charge","layer":"passenger","locationId":"91298594","name":"Equans Groningen Drenthe de Klenckestraat 4A","address":"de Klenckestraat 4A","city":"Assen","operatorName":"EQUANS","maxPowerKw":11,"isMegawatt":false,"status":"AVAILABLE","source":"ndw"}},{"type":"Feature","geometry":{"type":"Point","coordinates":[6.592379,53.005814]},"properties":{"type":"charge","layer":"passenger","locationId":"91145550","name":"Equans Groningen Drenthe Van Doornestraat 5","address":"Van Doornestraat 5","city":"Assen","operatorName":"EQUANS","maxPowerKw":11,"isMegawatt":false,"status":"AVAILABLE","source":"ndw"}},{"type":"Feature","geometry":{"type":"Point","coordinates":[6.554843,53.017262]},"properties":{"type":"charge","layer":"passenger","locationId":"91145127","name":"Equans Groningen Drenthe Boekweitveld 10","address":"Boekweitveld 10","city":"Assen","operatorName":"EQUANS","maxPowerKw":11,"isMegawatt":false,"status":"AVAILABLE","source":"ndw"}},{"type":"Feature","geometry":{"type":"Point","coordinates":[6.52728,52.98594]},"properties":{"type":"charge","layer":"passenger","locationId":"91387416","name":"Equans Groningen Drenthe Schakelhof 1","address":"Schakelhof 1","city":"Assen","operatorName":"EQUANS","maxPowerKw":11,"isMegawatt":false,"status":"UNAVAILABLE","source":"ndw"}},{"type":"Feature","geometry":{"type":"Point","coordinates":[6.572388,53.018494]},"properties":{"type":"charge","layer":"passenger","locationId":"91145560","name":"Equans Groningen Drenthe Martin Luther Kingweg 11A","address":"Martin Luther Kingweg 11A","city":"Assen","operatorName":"EQUANS","maxPowerKw":11,"isMegawatt":false,"status":"AVAILABLE","source":"ndw"}},{"type":"Feature","geometry":{"type":"Point","coordinates":[6.580431,52.994494]},"properties":{"type":"charge","layer":"passenger","locationId":"91145374","name":"Equans Groningen Drenthe Gerard Doustraat 41","address":"Gerard Doustraat 41","city":"Assen","operatorName":"EQUANS","maxPowerKw":11,"isMegawatt":false,"status":"AVAILABLE","source":"ndw"}},{"type":"Feature","geometry":{"type":"Point","coordinates":[6.56218,53.01358]},"properties":{"type":"charge","layer":"passenger","locationId":"91145061","name":"Equans Groningen Drenthe Ruiterakker 55","address":"Ruiterakker 55","city":"Assen","operatorName":"EQUANS","maxPowerKw":11,"isMegawatt":false,"status":"AVAILABLE","source":"ndw"}},{"type":"Feature","geometry":{"type":"Point","coordinates":[6.558394,53.020105]},"properties":{"type":"charge","layer":"passenger","locationId":"NLLOC024143","name":"NL, Iemstukken 19, 9407 KH Assen","address":"Iemstukken 19","city":"Assen","operatorName":"Allego","maxPowerKw":11,"isMegawatt":false,"status":"AVAILABLE","source":"ndw","priceKwh":0.407}},{"type":"Feature","geometry":{"type":"Point","coordinates":[6.563138,53.020313]},"properties":{"type":"charge","layer":"passenger","locationId":"91145017","name":"Equans Groningen Drenthe Tiendlanden 14","address":"Tiendlanden 14","city":"Assen","operatorName":"EQUANS","maxPowerKw":11,"isMegawatt":false,"status":"AVAILABLE","source":"ndw"}},{"type":"Feature","geometry":{"type":"Point","coordinates":[6.57648,52.99831]},"properties":{"type":"charge","layer":"passenger","locationId":"91145423","name":"Equans Groningen Drenthe Jozef Israelsweg 24","address":"Jozef Israelsweg 24","city":"Assen","operatorName":"EQUANS","maxPowerKw":11,"isMegawatt":false,"status":"AVAILABLE","source":"ndw"}},{"type":"Feature","geometry":{"type":"Point","coordinates":[6.556966,53.015812]},"properties":{"type":"charge","layer":"passenger","locationId":"NLLOC022209","name":"NL, Wolvenveen 3, 9407 HK Assen","address":"Wolvenveen 3","city":"Assen","operatorName":"Allego","maxPowerKw":11,"isMegawatt":false,"status":"AVAILABLE","source":"ndw","priceKwh":0.407}},{"type":"Feature","geometry":{"type":"Point","coordinates":[6.512222,52.99952]},"properties":{"type":"charge","layer":"passenger","locationId":"91145445","name":"Equans Groningen Drenthe Gildestraat 1","address":"Gildestraat 1","city":"Assen","operatorName":"EQUANS","maxPowerKw":11,"isMegawatt":false,"status":"AVAILABLE","source":"ndw"}},{"type":"Feature","geometry":{"type":"Point","coordinates":[6.51337,53.00896]},"properties":{"type":"charge","layer":"passenger","locationId":"91460146","name":"Equans Groningen Drenthe Bosviool 13","address":"Bosviool 13","city":"Assen","operatorName":"EQUANS","maxPowerKw":11,"isMegawatt":false,"status":"AVAILABLE","source":"ndw"}},{"type":"Feature","geometry":{"type":"Point","coordinates":[6.527701,52.992244]},"properties":{"type":"charge","layer":"passenger","locationId":"91145219","name":"Equans Groningen Drenthe Lauwers 17","address":"Lauwers 17","city":"Assen","operatorName":"EQUANS","maxPowerKw":11,"isMegawatt":false,"status":"AVAILABLE","source":"ndw"}},{"type":"Feature","geometry":{"type":"Point","coordinates":[6.54806,53.00538]},"properties":{"type":"charge","layer":"passenger","locationId":"91220282","name":"Equans Groningen Drenthe Zuidenveld 51","address":"Zuidenveld 51","city":"Assen","operatorName":"EQUANS","maxPowerKw":11,"isMegawatt":false,"status":"AVAILABLE","source":"ndw"}},{"type":"Feature","geometry":{"type":"Point","coordinates":[6.507149,53.003476]},"properties":{"type":"charge","layer":"passenger","locationId":"91145305","name":"Equans Groningen Drenthe Hazelaarhof 73","address":"Hazelaarhof 73","city":"Assen","operatorName":"EQUANS","maxPowerKw":11,"isMegawatt":false,"status":"AVAILABLE","source":"ndw"}},{"type":"Feature","geometry":{"type":"Point","coordinates":[6.57124,53.00783]},"properties":{"type":"charge","layer":"passenger","locationId":"1BA09F5F-5DAA-40C4-822A-999C764B4FCC","name":"Eneco eMobility Broekhuis Volvo Assen","address":"Industrieweg 42","city":"Assen","operatorName":"Eneco","maxPowerKw":22,"isMegawatt":false,"status":"AVAILABLE","source":"ndw","priceKwh":0.45}},{"type":"Feature","geometry":{"type":"Point","coordinates":[6.516188,53.001188]},"properties":{"type":"charge","layer":"passenger","locationId":"91145001","name":"Equans Groningen Drenthe Oosterwal 10","address":"Oosterwal 10","city":"Assen","operatorName":"EQUANS","maxPowerKw":11,"isMegawatt":false,"status":"AVAILABLE","source":"ndw"}},{"type":"Feature","geometry":{"type":"Point","coordinates":[6.53181,52.99013]},"properties":{"type":"charge","layer":"passenger","locationId":"91145030","name":"Equans Groningen Drenthe Oldambtstraat 24","address":"Oldambtstraat 24","city":"Assen","operatorName":"EQUANS","maxPowerKw":11,"isMegawatt":false,"status":"AVAILABLE","source":"ndw"}},{"type":"Feature","geometry":{"type":"Point","coordinates":[6.523788,52.999315]},"properties":{"type":"charge","layer":"passenger","locationId":"91145384","name":"Equans Groningen Drenthe De Hoogspanningsweg 2","address":"De Hoogspanningsweg 2","city":"Assen","operatorName":"EQUANS","maxPowerKw":11,"isMegawatt":false,"status":"AVAILABLE","source":"ndw"}},{"type":"Feature","geometry":{"type":"Point","coordinates":[6.5583,52.996285]},"properties":{"type":"charge","layer":"passenger","locationId":"OST22P0068_0126_0","name":"OST22P0068_0126_0","address":"Mercuriusplein 211","city":"Assen","operatorName":"IPCharging","maxPowerKw":19,"isMegawatt":false,"status":"AVAILABLE","source":"ndw","priceKwh":0.496}},{"type":"Feature","geometry":{"type":"Point","coordinates":[6.55268,53.00826]},"properties":{"type":"charge","layer":"passenger","locationId":"91145225","name":"Equans Groningen Drenthe Zwartwatersweg 196","address":"Zwartwatersweg 196","city":"Assen","operatorName":"EQUANS","maxPowerKw":11,"isMegawatt":false,"status":"AVAILABLE","source":"ndw"}},{"type":"Feature","geometry":{"type":"Point","coordinates":[6.565093,52.995467]},"properties":{"type":"charge","layer":"passenger","locationId":"91145437","name":"Equans Groningen Drenthe Noordersingel 25D1","address":"Noordersingel 25D1","city":"Assen","operatorName":"EQUANS","maxPowerKw":11,"isMegawatt":false,"status":"AVAILABLE","source":"ndw"}},{"type":"Feature","geometry":{"type":"Point","coordinates":[6.568918,53.019032]},"properties":{"type":"charge","layer":"passenger","locationId":"91145346","name":"Equans Groningen Drenthe Groenkampen 1","address":"Groenkampen 1","city":"Assen","operatorName":"EQUANS","maxPowerKw":11,"isMegawatt":false,"status":"AVAILABLE","source":"ndw"}},{"type":"Feature","geometry":{"type":"Point","coordinates":[6.556886,52.99679]},"properties":{"type":"charge","layer":"passenger","locationId":"91145094","name":"Equans Groningen Drenthe Kanaalstraat 51","address":"Kanaalstraat 51","city":"Assen","operatorName":"EQUANS","maxPowerKw":11,"isMegawatt":false,"status":"AVAILABLE","source":"ndw"}},{"type":"Feature","geometry":{"type":"Point","coordinates":[6.572056,53.025421]},"properties":{"type":"charge","layer":"freight","locationId":"32406","name":"Circle K Assen inz Messchenveld","address":"Peelo 22 A","city":"Assen","operatorName":"Spirii","maxPowerKw":400,"isMegawatt":false,"status":"AVAILABLE","source":"ndw","priceKwh":0.65,"freightKind":"hpc","freightReason":"power"}},{"type":"Feature","geometry":{"type":"Point","coordinates":[6.54812,52.960239]},"properties":{"type":"charge","layer":"freight","locationId":"6867a2c976330240cf5f7efc","name":"DCB CHARGE Assen (E-Truck)","address":"Burgemeester Grollemanweg 8","city":"Assen","operatorName":"E-Flux by Road","maxPowerKw":360,"isMegawatt":false,"status":"AVAILABLE","source":"ndw","priceKwh":0.63,"freightKind":"dedicated","freightReason":"truck-name"}},{"type":"Feature","geometry":{"type":"MultiPolygon","coordinates":[[[[6.603717992487138,53.058880338216206],[6.605170272070107,53.0564484420731],[6.608087673325854,53.04841932545479],[6.6064896418644805,53.0382038358685],[6.603549459334698,53.03295754406833],[6.631221723915265,53.02610636705622],[6.629763981081326,53.023716258660436],[6.6326464754719785,53.02203720070381],[6.629760839015734,53.01562568599622],[6.621738825628314,53.01217451457647],[6.621846373530451,53.010057167715836],[6.6207271956533305,53.00926706348664],[6.615983908854544,53.00813529920957],[6.611720351953232,53.00160758362245],[6.611572620690431,52.99957557415879],[6.6078632591242,52.99535387305188],[6.607944805231328,52.98944190627251],[6.607926448194233,52.989413354797506],[6.605702156133776,52.984495091925304],[6.60413492547054,52.98289990066393],[6.599383348626411,52.98151915586087],[6.596485134876312,52.97930028174693],[6.595378020216529,52.97627121776161],[6.5960436860588,52.9726590652011],[6.582845880901566,52.96801101560951],[6.581265518872844,52.967450127291784],[6.5699974483262755,52.95767617644686],[6.567227121626958,52.95246467644413],[6.561504898413823,52.94665312648393],[6.555331213258275,52.9495478095632],[6.542997693353733,52.95533925346879],[6.539279066704861,52.94589128043236],[6.535914756208562,52.93259150823875],[6.534602943615715,52.93251576524228],[6.530772462848079,52.93462687050795],[6.517622319345061,52.93976391563673],[6.519577422642373,52.94295669103203],[6.508827016139842,52.946985610318464],[6.496972035639256,52.95156703093254],[6.493128385249075,52.94799681018907],[6.490587625587921,52.94901343325067],[6.489538223561121,52.948059438145975],[6.48649227945947,52.94918240262892],[6.483947974072229,52.95017396756901],[6.489194180264726,52.95445794945553],[6.493831750077573,52.95874826962568],[6.487558499259227,52.961205894528476],[6.495743650806774,52.968991518835644],[6.486883376632014,52.972443139033764],[6.485502521714168,52.97298561888609],[6.490489498998948,52.97759754189327],[6.496595723142027,52.983240402772196],[6.493913836423496,52.98426660566816],[6.494233942201141,52.985856868519164],[6.4990049227797675,52.99021683307155],[6.494573087568039,52.99195971190124],[6.493702595598564,52.99233794093672],[6.4980613523398345,52.99378200487259],[6.492586488880255,52.99305986773647],[6.491693066508587,52.995587957563636],[6.488212588342433,53.00540631426742],[6.505121058972927,53.00991816416513],[6.513036818719635,53.01055774128886],[6.509979144223981,53.01704050115249],[6.503873598963964,53.01604263825066],[6.495528314190211,53.03089871888022],[6.502894021106965,53.032213825446846],[6.499951501098326,53.03843130675224],[6.500381268583311,53.03907286608026],[6.50513057209249,53.04635575161884],[6.510924160382015,53.04445454830084],[6.5242840013012,53.04595003611204],[6.529107949129792,53.04338622039121],[6.530852704833501,53.04118650758463],[6.530194263289651,53.04011053570039],[6.533893033484109,53.038932747431225],[6.533683699322614,53.038157303516],[6.541743499809208,53.03717874022905],[6.5412707838781055,53.035660638898904],[6.547307195098165,53.035068025691324],[6.549277394482707,53.03834645007123],[6.550770303580884,53.03815648955135],[6.551489363793866,53.04025346798221],[6.552316327252736,53.042576631847716],[6.552516572579702,53.043496488813986],[6.5500248307770335,53.046473300059695],[6.551490826773177,53.050366441292724],[6.5539561323929965,53.052728709784304],[6.552730596111411,53.05514770588718],[6.556076500539008,53.055727506228294],[6.555213620251733,53.05860908379794],[6.569720806131472,53.05986279778006],[6.569936988770228,53.057122776986276],[6.570399616519924,53.05488823952917],[6.575057802155785,53.054640466470474],[6.575201871609915,53.055068773807854],[6.575804438053033,53.05918863409333],[6.586811776841995,53.05953897007873],[6.588077542256246,53.05800033589824],[6.600456178349554,53.06102124255213],[6.601235654447787,53.06175868078959],[6.603717992487138,53.058880338216206]]]]},"properties":{"type":"boundary","gemeente":"Assen","code":"GM0106"}}]}