{"type":"FeatureCollection","metadata":{"gemeente":"Blaricum","slug":"blaricum","code":"GM0376","generated_at":"2026-07-06T16:26:11.361Z","total_passenger":36,"total_freight":0,"bounds":[5.203821879220298,52.25466336576721,5.32866610129339,52.30492736915043],"operators":["E-Flux by Road","Eneco","Laadnet","Opcharge","TotalEnergies","Ubitricity","Vattenfall InCharge"]},"features":[{"type":"Feature","geometry":{"type":"Point","coordinates":[5.25588,52.27277]},"properties":{"type":"charge","layer":"passenger","locationId":"7d069a96-0e9f-45cb-92ba-d635793c885d","name":"PP002122 - Hendrik Smitlaantje 2, Blaricum","address":"2 Hendrik Smitlaantje","city":"Blaricum","operatorName":"TotalEnergies","maxPowerKw":11,"isMegawatt":false,"status":"AVAILABLE","source":"ndw"}},{"type":"Feature","geometry":{"type":"Point","coordinates":[5.263169,52.28604]},"properties":{"type":"charge","layer":"passenger","locationId":"2582b0dc-95a0-4a07-87bf-6ac6081fa7ff","name":"TNLP007893 - Veurhuis 23, Blaricum","address":"23 Veurhuis","city":"Blaricum","operatorName":"TotalEnergies","maxPowerKw":15,"isMegawatt":false,"status":"AVAILABLE","source":"ndw"}},{"type":"Feature","geometry":{"type":"Point","coordinates":[5.287993,52.29581]},"properties":{"type":"charge","layer":"passenger","locationId":"45e96f93-f0f5-4643-b760-8b9082b74d4e","name":"TNLP008769 - Laantje van Bruijn 6, Blaricum","address":"6 Laantje van Bruijn","city":"Blaricum","operatorName":"TotalEnergies","maxPowerKw":14,"isMegawatt":false,"status":"AVAILABLE","source":"ndw"}},{"type":"Feature","geometry":{"type":"Point","coordinates":[5.275226,52.293556]},"properties":{"type":"charge","layer":"passenger","locationId":"e77cfa5b-25af-41b2-8f35-2146d5a9b14b","name":"TNLP007725 - Laantje van Hynckes 7, Blaricum","address":"7 Laantje van Hynckes","city":"Blaricum","operatorName":"TotalEnergies","maxPowerKw":17,"isMegawatt":false,"status":"UNAVAILABLE","source":"ndw"}},{"type":"Feature","geometry":{"type":"Point","coordinates":[5.256383,52.272644]},"properties":{"type":"charge","layer":"passenger","locationId":"c1a63d37-dc5a-4df3-9b43-24112346e32f","name":"TNLP007666 - Hendrik Smitlaantje 2a, Blaricum","address":"2a Hendrik Smitlaantje","city":"Blaricum","operatorName":"TotalEnergies","maxPowerKw":15,"isMegawatt":false,"status":"CHARGING","source":"ndw"}},{"type":"Feature","geometry":{"type":"Point","coordinates":[5.25914,52.28706]},"properties":{"type":"charge","layer":"passenger","locationId":"655","name":"Shell Recharge NL Stam 13","address":"Stam 13","city":"Blaricum","operatorName":"Ubitricity","maxPowerKw":11,"isMegawatt":false,"status":"AVAILABLE","source":"ndw","priceKwh":0.388}},{"type":"Feature","geometry":{"type":"Point","coordinates":[5.278377,52.288994]},"properties":{"type":"charge","layer":"passenger","locationId":"d129a051-4716-4c9b-8a78-f9fd6667a3e5","name":"TNLP007064 - Rokebrandlaan 12, Blaricum","address":"12 Rokebrandlaan","city":"Blaricum","operatorName":"TotalEnergies","maxPowerKw":17,"isMegawatt":false,"status":"UNAVAILABLE","source":"ndw"}},{"type":"Feature","geometry":{"type":"Point","coordinates":[5.2750837,52.2901671]},"properties":{"type":"charge","layer":"passenger","locationId":"1288","name":"Shell Recharge NL Krijnenlaan 8","address":"Krijnenlaan 8","city":"Blaricum","operatorName":"Ubitricity","maxPowerKw":22,"isMegawatt":false,"status":"AVAILABLE","source":"ndw","priceKwh":0.266}},{"type":"Feature","geometry":{"type":"Point","coordinates":[5.27449,52.28725]},"properties":{"type":"charge","layer":"passenger","locationId":"623","name":"Shell Recharge NL Buizerd 25","address":"Buizerd 25","city":"Blaricum","operatorName":"Ubitricity","maxPowerKw":11,"isMegawatt":false,"status":"AVAILABLE","source":"ndw","priceKwh":0.388}},{"type":"Feature","geometry":{"type":"Point","coordinates":[5.238346,52.271802]},"properties":{"type":"charge","layer":"passenger","locationId":"9E7DEED2-93D0-4F15-BFD7-806821A285E2","name":"Eneco eMobility Noolseweg 1, Blaricum","address":"Noolseweg 1","city":"Blaricum","operatorName":"Eneco","maxPowerKw":22,"isMegawatt":false,"status":"AVAILABLE","source":"ndw","priceKwh":0.35}},{"type":"Feature","geometry":{"type":"Point","coordinates":[5.2683,52.28314]},"properties":{"type":"charge","layer":"passenger","locationId":"5d39d9e0-6d60-4095-9aa8-6ba7106354f0","name":"PP004058 - Booket 68, Blaricum","address":"68 Booket","city":"Blaricum","operatorName":"TotalEnergies","maxPowerKw":15,"isMegawatt":false,"status":"AVAILABLE","source":"ndw"}},{"type":"Feature","geometry":{"type":"Point","coordinates":[5.247704,52.274727]},"properties":{"type":"charge","layer":"passenger","locationId":"7B5316F3-F1F2-4340-8A96-413D01AAE50D","name":"Eneco eMobility Mosselweg 12 Blaricum","address":"Mosselweg 12","city":"Blaricum","operatorName":"Eneco","maxPowerKw":22,"isMegawatt":false,"status":"UNAVAILABLE","source":"ndw","priceKwh":0.32}},{"type":"Feature","geometry":{"type":"Point","coordinates":[5.279843,52.290012]},"properties":{"type":"charge","layer":"passenger","locationId":"ef158c7f-9916-4909-812c-04a3f6aaf10b","name":"TNLP007665 - Laantje van Rigter 1, Blaricum","address":"1 Laantje van Rigter","city":"Blaricum","operatorName":"TotalEnergies","maxPowerKw":15,"isMegawatt":false,"status":"AVAILABLE","source":"ndw"}},{"type":"Feature","geometry":{"type":"Point","coordinates":[5.27312,52.29109]},"properties":{"type":"charge","layer":"passenger","locationId":"4407d6d7-3c90-4d41-bc5d-6270c3025dbf","name":"PP001593 - Mondriaanlaan 3, Blaricum","address":"3 Mondriaanlaan","city":"Blaricum","operatorName":"TotalEnergies","maxPowerKw":11,"isMegawatt":false,"status":"AVAILABLE","source":"ndw"}},{"type":"Feature","geometry":{"type":"Point","coordinates":[5.252581,52.273994]},"properties":{"type":"charge","layer":"passenger","locationId":"28716ea5-0f0e-4e41-b8c9-a30221e86e21","name":"PP005215 - Windvang 5, Blaricum","address":"5 Windvang","city":"Blaricum","operatorName":"TotalEnergies","maxPowerKw":15,"isMegawatt":false,"status":"CHARGING","source":"ndw"}},{"type":"Feature","geometry":{"type":"Point","coordinates":[5.27041,52.2854]},"properties":{"type":"charge","layer":"passenger","locationId":"0c82b507-ef90-48b6-a66f-c05081d3ab93","name":"PP004242 - Schans 39, Blaricum","address":"39 Schans","city":"Blaricum","operatorName":"TotalEnergies","maxPowerKw":11,"isMegawatt":false,"status":"UNAVAILABLE","source":"ndw"}},{"type":"Feature","geometry":{"type":"Point","coordinates":[5.270353,52.286472]},"properties":{"type":"charge","layer":"passenger","locationId":"42925005-5bea-4c98-a262-691f9d330e2e","name":"TNLP009100 - t Schaar 107, Blaricum","address":"107 t Schaar","city":"Blaricum","operatorName":"TotalEnergies","maxPowerKw":17,"isMegawatt":false,"status":"UNAVAILABLE","source":"ndw"}},{"type":"Feature","geometry":{"type":"Point","coordinates":[5.279253,52.293731]},"properties":{"type":"charge","layer":"passenger","locationId":"307","name":"Shell Recharge NL Frederik van Eedenlaan 18","address":"Frederik van Eedenlaan 18","city":"Blaricum","operatorName":"Ubitricity","maxPowerKw":11,"isMegawatt":false,"status":"AVAILABLE","source":"ndw","priceKwh":0.388}},{"type":"Feature","geometry":{"type":"Point","coordinates":[5.262334,52.284576]},"properties":{"type":"charge","layer":"passenger","locationId":"b69ddc4b-9c6a-4284-ae06-58ed42a43303","name":"PP005625 - Korbeel 2, Blaricum","address":"2 Korbeel","city":"Blaricum","operatorName":"TotalEnergies","maxPowerKw":11,"isMegawatt":false,"status":"UNAVAILABLE","source":"ndw"}},{"type":"Feature","geometry":{"type":"Point","coordinates":[5.242346,52.274437]},"properties":{"type":"charge","layer":"passenger","locationId":"386f3141-5aac-45dc-8966-c35b7c561e00","name":"TNLP007663 - Langeweg 1a, Blaricum","address":"1a Langeweg","city":"Blaricum","operatorName":"TotalEnergies","maxPowerKw":17,"isMegawatt":false,"status":"UNAVAILABLE","source":"ndw"}},{"type":"Feature","geometry":{"type":"Point","coordinates":[5.276411,52.291286]},"properties":{"type":"charge","layer":"passenger","locationId":"83d8a592-3576-447a-8f86-0dae14734e44","name":"TNLP007368 - Laantje van Borsen 1, Blaricum","address":"1 Laantje van Borsen","city":"Blaricum","operatorName":"TotalEnergies","maxPowerKw":17,"isMegawatt":false,"status":"UNAVAILABLE","source":"ndw"}},{"type":"Feature","geometry":{"type":"Point","coordinates":[5.265126,52.284348]},"properties":{"type":"charge","layer":"passenger","locationId":"b4f47d81-6fac-4368-b165-9911b7b8c9ac","name":"TNLP007332 - Schouw 6, Blaricum","address":"6 Schouw","city":"Blaricum","operatorName":"TotalEnergies","maxPowerKw":17,"isMegawatt":false,"status":"UNAVAILABLE","source":"ndw"}},{"type":"Feature","geometry":{"type":"Point","coordinates":[5.292227,52.295276]},"properties":{"type":"charge","layer":"passenger","locationId":"25588ebbfbc94495bc21b33672387d6c","name":"Blaricum - JOUW GYM","address":"Deltazijde 32 l","city":"Blaricum","operatorName":"Opcharge","maxPowerKw":22,"isMegawatt":false,"status":"AVAILABLE","source":"ndw","priceKwh":0.49}},{"type":"Feature","geometry":{"type":"Point","coordinates":[5.2620306,52.2878578]},"properties":{"type":"charge","layer":"passenger","locationId":"2031","name":"Shell Recharge NL Loot 1","address":"Loot 1","city":"Blaricum","operatorName":"Ubitricity","maxPowerKw":22,"isMegawatt":false,"status":"AVAILABLE","source":"ndw","priceKwh":0.266}},{"type":"Feature","geometry":{"type":"Point","coordinates":[5.27232,52.28771]},"properties":{"type":"charge","layer":"passenger","locationId":"492","name":"Shell Recharge NL Reiger 1","address":"Reiger 1","city":"Blaricum","operatorName":"Ubitricity","maxPowerKw":11,"isMegawatt":false,"status":"AVAILABLE","source":"ndw","priceKwh":0.388}},{"type":"Feature","geometry":{"type":"Point","coordinates":[5.27822,52.28993]},"properties":{"type":"charge","layer":"passenger","locationId":"ee94d4bb-0df4-4bc2-b21a-8b31a2e22930","name":"PP004139 - Van der Veenlaan 3, Blaricum","address":"3 Van der Veenlaan","city":"Blaricum","operatorName":"TotalEnergies","maxPowerKw":11,"isMegawatt":false,"status":"UNAVAILABLE","source":"ndw"}},{"type":"Feature","geometry":{"type":"Point","coordinates":[5.246716,52.276211]},"properties":{"type":"charge","layer":"passenger","locationId":"4208929","name":"Laadnet Veiligheidsregio Laadpalen Blaricum","address":"Singel 15A","city":"Blaricum","operatorName":"Laadnet","maxPowerKw":22,"isMegawatt":false,"status":"AVAILABLE","source":"ndw"}},{"type":"Feature","geometry":{"type":"Point","coordinates":[5.280548,52.291656]},"properties":{"type":"charge","layer":"passenger","locationId":"10b901f3-f14f-483c-a7c3-f0ba33e3c070","name":"TNLP006303 - Adama van Scheltemalaan 18, Blaricum","address":"18 Adama van Scheltemalaan","city":"Blaricum","operatorName":"TotalEnergies","maxPowerKw":17,"isMegawatt":false,"status":"UNAVAILABLE","source":"ndw"}},{"type":"Feature","geometry":{"type":"Point","coordinates":[5.27681,52.28964]},"properties":{"type":"charge","layer":"passenger","locationId":"86a06ebd-60dc-4233-a8d3-9450fb7fed76","name":"PP001565 - Lanphenlaan 10, Blaricum","address":"10 Lanphenlaan","city":"Blaricum","operatorName":"TotalEnergies","maxPowerKw":11,"isMegawatt":false,"status":"AVAILABLE","source":"ndw"}},{"type":"Feature","geometry":{"type":"Point","coordinates":[5.265767,52.28784]},"properties":{"type":"charge","layer":"passenger","locationId":"7c1fc2f2-9356-45c0-bc82-82fb2664c442","name":"TNLP003568 - Wetering 72, Blaricum","address":"72 Wetering","city":"Blaricum","operatorName":"TotalEnergies","maxPowerKw":17,"isMegawatt":false,"status":"CHARGING","source":"ndw"}},{"type":"Feature","geometry":{"type":"Point","coordinates":[5.26529,52.28642]},"properties":{"type":"charge","layer":"passenger","locationId":"1606e0a3-5262-41b0-b65f-42486b4f50b9","name":"PP001868 - Uilebord 1, Blaricum","address":"1 Uilebord","city":"Blaricum","operatorName":"TotalEnergies","maxPowerKw":11,"isMegawatt":false,"status":"AVAILABLE","source":"ndw"}},{"type":"Feature","geometry":{"type":"Point","coordinates":[5.286611,52.296551]},"properties":{"type":"charge","layer":"passenger","locationId":"695008d8aa68d9dba0da5c23","name":"RIbo raamfolie","address":"Zuiderzeedreef  41","city":"Blaricum","operatorName":"E-Flux by Road","maxPowerKw":11,"isMegawatt":false,"status":"AVAILABLE","source":"ndw","priceKwh":0.38}},{"type":"Feature","geometry":{"type":"Point","coordinates":[5.273209,52.287181]},"properties":{"type":"charge","layer":"passenger","locationId":"4a1542c7-e2e0-4698-a40f-eb183fa4eafa","name":"TNLP034242","address":"Leeuwerik 19","city":"Blaricum","operatorName":"TotalEnergies","maxPowerKw":14,"isMegawatt":false,"status":"AVAILABLE","source":"ndw"}},{"type":"Feature","geometry":{"type":"Point","coordinates":[5.2798426,52.2935192]},"properties":{"type":"charge","layer":"passenger","locationId":"902","name":"Shell Recharge NL Professor Brouwerlaan 29","address":"Professor Brouwerlaan 29","city":"Blaricum","operatorName":"Ubitricity","maxPowerKw":22,"isMegawatt":false,"status":"AVAILABLE","source":"ndw","priceKwh":0.266}},{"type":"Feature","geometry":{"type":"Point","coordinates":[5.282532,52.294155]},"properties":{"type":"charge","layer":"passenger","locationId":"ea7a90dd-f245-4492-ba8e-0119c84e2359","name":"TNLP007697 - Harmsen van der Beeklaan 12, Blaricum","address":"12 Harmsen van der Beeklaan","city":"Blaricum","operatorName":"TotalEnergies","maxPowerKw":17,"isMegawatt":false,"status":"UNAVAILABLE","source":"ndw"}},{"type":"Feature","geometry":{"type":"Point","coordinates":[5.26837,52.28479]},"properties":{"type":"charge","layer":"passenger","locationId":"617ff4cfe2620611d9d6004dc96eb924","name":"Raat 46","address":"Raat 46","city":"Blaricum","operatorName":"Vattenfall InCharge","maxPowerKw":11,"isMegawatt":false,"status":"AVAILABLE","source":"ndw"}},{"type":"Feature","geometry":{"type":"MultiPolygon","coordinates":[[[[5.317183518311792,52.30058917684152],[5.314437187691134,52.30102286703146],[5.311072994723108,52.2999201299384],[5.308255536573105,52.29980586613053],[5.3043179730898835,52.297343241883134],[5.303115306923091,52.29521992268719],[5.299720112706377,52.29452357108825],[5.297231790070884,52.29316102919586],[5.295532430266127,52.289956401820476],[5.295883111956573,52.28858539500083],[5.2965534324051236,52.286688738031245],[5.306465417729661,52.2776062372763],[5.305825694785738,52.27733016836472],[5.278663974824311,52.28047296383985],[5.277129479926115,52.28063835341469],[5.269207489475246,52.281544875112004],[5.265769062667428,52.28164509035289],[5.26566315695993,52.28150584222706],[5.261101759829455,52.275836287629936],[5.244081106572214,52.25466336576721],[5.244064289425816,52.25466472051191],[5.232048254472451,52.264467687928864],[5.230592943813491,52.26469545770921],[5.2301348160498975,52.26561884066089],[5.229580745404504,52.265464198852456],[5.225980566665005,52.26819816487686],[5.2255078069162515,52.27290932469974],[5.216867581545471,52.268993957266716],[5.211643631292525,52.267344147368014],[5.209244353434796,52.26593497775216],[5.207692380278646,52.26626867084581],[5.203821879220298,52.2671155363467],[5.2068969342344555,52.27209305396065],[5.207025226468358,52.273418801746075],[5.207222259350885,52.27434939256449],[5.2108763883853735,52.277339696533204],[5.210957272544463,52.27735090172674],[5.227600451367079,52.277129486730104],[5.232492148120614,52.2812706460067],[5.2363549924634745,52.28118929296345],[5.24122990666581,52.281314744527094],[5.241329596541113,52.28132283343629],[5.2463825927478815,52.28233323086074],[5.24622564786269,52.28319588826578],[5.249802773130493,52.28432579135284],[5.250104722978564,52.28441972542092],[5.257562859871552,52.28674277458983],[5.268315859588787,52.290092906758225],[5.270988896028805,52.29092192465734],[5.271161116473474,52.29099890790924],[5.274408009171561,52.29340799638889],[5.2777432094086585,52.296074376496534],[5.280911629290908,52.29378117505109],[5.287809744817028,52.29760348562566],[5.291361395312929,52.296593840274625],[5.2987189919160755,52.29805549111137],[5.3023208927208865,52.30210621385128],[5.307330973892973,52.30272967954324],[5.3090123236853515,52.30492736915043],[5.312273862857347,52.30347124848086],[5.313412627212627,52.30337375944809],[5.3139031058443065,52.3031013224338],[5.317183518311792,52.30058917684152]]],[[[5.327100421931389,52.29032621874942],[5.31565041872297,52.29270406249582],[5.315468874477679,52.29491996512708],[5.324202514931161,52.29487809633651],[5.32866610129339,52.292444897607176],[5.326331993140827,52.290791415711276],[5.327100421931389,52.29032621874942]]]]},"properties":{"type":"boundary","gemeente":"Blaricum","code":"GM0376"}}]}