{"type":"FeatureCollection","metadata":{"gemeente":"Bunnik","slug":"bunnik","code":"GM0312","generated_at":"2026-07-06T16:26:11.361Z","total_passenger":58,"total_freight":1,"bounds":[5.153030153595399,51.99777931364877,5.279909528396388,52.080562479572734],"operators":["Allego","DAEN Mobility","E-Flux by Road","Eneco","Fastned","Laadnet","Mobiflow","Pluq","Tesla","TotalEnergies","Ubitricity","Vattenfall InCharge"]},"features":[{"type":"Feature","geometry":{"type":"Point","coordinates":[5.2339609,52.0527127]},"properties":{"type":"charge","layer":"passenger","locationId":"1011","name":"Shell Recharge NL Vuurdoornerf 24","address":"Vuurdoornerf 24","city":"Odijk","operatorName":"Ubitricity","maxPowerKw":22,"isMegawatt":false,"status":"UNAVAILABLE","source":"ndw","priceKwh":0.266}},{"type":"Feature","geometry":{"type":"Point","coordinates":[5.1911,52.07254]},"properties":{"type":"charge","layer":"passenger","locationId":"771c54ab-8d39-4879-85a5-29948f3b18ea","name":"PP001141 - Vletweide 11, Bunnik","address":"11 Vletweide","city":"Bunnik","operatorName":"TotalEnergies","maxPowerKw":11,"isMegawatt":false,"status":"AVAILABLE","source":"ndw"}},{"type":"Feature","geometry":{"type":"Point","coordinates":[5.24216,52.02629]},"properties":{"type":"charge","layer":"passenger","locationId":"419c02de-3313-4e1b-85ae-7b038c79df74","name":"TNLP005790 - Nieuwendaal 11, Werkhoven","address":"11 Nieuwendaal","city":"Werkhoven","operatorName":"TotalEnergies","maxPowerKw":11,"isMegawatt":false,"status":"AVAILABLE","source":"ndw"}},{"type":"Feature","geometry":{"type":"Point","coordinates":[5.21649,52.06212]},"properties":{"type":"charge","layer":"passenger","locationId":"8E0F93AA-9D84-4872-B4B6-DBF0ED4F2608","name":"Eneco eMobility Changan Center Utrecht - Bunnik","address":"Rumpsterweg 37","city":"Bunnik","operatorName":"Eneco","maxPowerKw":22,"isMegawatt":false,"status":"AVAILABLE","source":"ndw","priceKwh":0.32}},{"type":"Feature","geometry":{"type":"Point","coordinates":[5.178533,52.061148]},"properties":{"type":"charge","layer":"passenger","locationId":"50511","name":"Fastned De Forten","address":"De Forten A12","city":"Bunnik","operatorName":"Fastned","maxPowerKw":300,"isMegawatt":false,"status":"AVAILABLE","source":"ndw","priceKwh":0.6364}},{"type":"Feature","geometry":{"type":"Point","coordinates":[5.23537,52.05561]},"properties":{"type":"charge","layer":"passenger","locationId":"d2c962e5-208d-4e5f-9201-659b96025a4f","name":"PP005572 - Ganzebloem 17, Odijk","address":"17 Ganzebloem","city":"Odijk","operatorName":"TotalEnergies","maxPowerKw":11,"isMegawatt":false,"status":"AVAILABLE","source":"ndw"}},{"type":"Feature","geometry":{"type":"Point","coordinates":[5.23301,52.05449]},"properties":{"type":"charge","layer":"passenger","locationId":"923583","name":"Fluitekruid","address":"Fluitekruid 19","city":"Odijk","operatorName":"Mobiflow","maxPowerKw":22,"isMegawatt":false,"status":"AVAILABLE","source":"ndw","priceKwh":0.35}},{"type":"Feature","geometry":{"type":"Point","coordinates":[5.231802,52.026179]},"properties":{"type":"charge","layer":"passenger","locationId":"923554","name":"PBLR-0029351","address":"Achterdijk 45","city":"Werkhoven","operatorName":"DAEN Mobility","maxPowerKw":11,"isMegawatt":false,"status":"CHARGING","source":"ndw","priceKwh":0.36}},{"type":"Feature","geometry":{"type":"Point","coordinates":[5.194256,52.065334]},"properties":{"type":"charge","layer":"passenger","locationId":"210a6ce5-776f-4c5e-baf1-c32ef68e6e9a","name":"TNLP005733 - Kerseboomgaard 18, Bunnik","address":"18 Kerseboomgaard","city":"Bunnik","operatorName":"TotalEnergies","maxPowerKw":17,"isMegawatt":false,"status":"AVAILABLE","source":"ndw"}},{"type":"Feature","geometry":{"type":"Point","coordinates":[5.2416446,52.0233555]},"properties":{"type":"charge","layer":"passenger","locationId":"1749","name":"Shell Recharge NL Het Hennetje 27","address":"Het Hennetje 27","city":"Werkhoven","operatorName":"Ubitricity","maxPowerKw":22,"isMegawatt":false,"status":"AVAILABLE","source":"ndw","priceKwh":0.266}},{"type":"Feature","geometry":{"type":"Point","coordinates":[5.2117,52.06336]},"properties":{"type":"charge","layer":"passenger","locationId":"4D0044EF-85A0-4D35-BEE3-1722A6F0C84B","name":"Eneco eMobility Doordraai 4 Bunnik","address":"Doordraai 4","city":"Bunnik","operatorName":"Eneco","maxPowerKw":22,"isMegawatt":false,"status":"AVAILABLE","source":"ndw","priceKwh":0.32}},{"type":"Feature","geometry":{"type":"Point","coordinates":[5.24301,52.02393]},"properties":{"type":"charge","layer":"passenger","locationId":"88","name":"Shell Recharge NL Zwaanweg 13","address":"Zwaanweg 13","city":"Werkhoven","operatorName":"Ubitricity","maxPowerKw":11,"isMegawatt":false,"status":"AVAILABLE","source":"ndw","priceKwh":0.388}},{"type":"Feature","geometry":{"type":"Point","coordinates":[5.1911,52.063932]},"properties":{"type":"charge","layer":"passenger","locationId":"6a38f652b85255e10f594a4f","name":"Regulierenring 8 LINKS","address":"Regulierenring 8","city":"Bunnik","operatorName":"E-Flux by Road","maxPowerKw":22,"isMegawatt":false,"status":"AVAILABLE","source":"ndw","priceKwh":0.43}},{"type":"Feature","geometry":{"type":"Point","coordinates":[5.19199,52.06695]},"properties":{"type":"charge","layer":"passenger","locationId":"f997d4dc-9d40-41ac-aee1-2d925ab969ed","name":"PP002576 - John F. Kennedylaan 101, Bunnik","address":"101 John F. Kennedylaan","city":"Bunnik","operatorName":"TotalEnergies","maxPowerKw":13,"isMegawatt":false,"status":"CHARGING","source":"ndw"}},{"type":"Feature","geometry":{"type":"Point","coordinates":[5.188997,52.067579]},"properties":{"type":"charge","layer":"passenger","locationId":"90ef3db8-2f07-4f92-801c-16e571d80fe4","name":"TNLP034118","address":"Marskramersbaan 9","city":"Bunnik","operatorName":"TotalEnergies","maxPowerKw":14,"isMegawatt":false,"status":"AVAILABLE","source":"ndw"}},{"type":"Feature","geometry":{"type":"Point","coordinates":[5.23699,52.05372]},"properties":{"type":"charge","layer":"passenger","locationId":"8e51bbff-240b-48bc-ac74-cfe6719e171a","name":"PP005209 - Meidoorn 22, Odijk","address":"22 Meidoorn","city":"Odijk","operatorName":"TotalEnergies","maxPowerKw":11,"isMegawatt":false,"status":"AVAILABLE","source":"ndw"}},{"type":"Feature","geometry":{"type":"Point","coordinates":[5.24535,52.02552]},"properties":{"type":"charge","layer":"passenger","locationId":"b821f177-b3da-4c5c-a478-bd7078e0eefb","name":"PP002498 - Herenstraat 11, Werkhoven","address":"11 Herenstraat","city":"Werkhoven","operatorName":"TotalEnergies","maxPowerKw":13,"isMegawatt":false,"status":"AVAILABLE","source":"ndw"}},{"type":"Feature","geometry":{"type":"Point","coordinates":[5.1911,52.063932]},"properties":{"type":"charge","layer":"passenger","locationId":"6a38f6a29df60f095d2619c3","name":"Regulierenring 8 RECHTS","address":"Regulierenring  8","city":"Bunnik","operatorName":"E-Flux by Road","maxPowerKw":22,"isMegawatt":false,"status":"AVAILABLE","source":"ndw","priceKwh":0.43}},{"type":"Feature","geometry":{"type":"Point","coordinates":[5.198781,52.059222]},"properties":{"type":"charge","layer":"passenger","locationId":"1811830","name":"Laadnet Buitengoed de Boomgaard","address":"Parallelweg 9","city":"Bunnik","operatorName":"Laadnet","maxPowerKw":22,"isMegawatt":false,"status":"AVAILABLE","source":"ndw"}},{"type":"Feature","geometry":{"type":"Point","coordinates":[5.19972,52.06475]},"properties":{"type":"charge","layer":"passenger","locationId":"278","name":"Shell Recharge NL Zuster Spinhovenlaan 27","address":"Zuster Spinhovenlaan 27","city":"Bunnik","operatorName":"Ubitricity","maxPowerKw":11,"isMegawatt":false,"status":"AVAILABLE","source":"ndw","priceKwh":0.388}},{"type":"Feature","geometry":{"type":"Point","coordinates":[5.21623,52.0633]},"properties":{"type":"charge","layer":"passenger","locationId":"fd5aadd4-03e8-419e-8f2f-06f08fd93c78","name":"PP002501 - Rumpsterweg 16, Bunnik","address":"16 Rumpsterweg","city":"Bunnik","operatorName":"TotalEnergies","maxPowerKw":17,"isMegawatt":false,"status":"AVAILABLE","source":"ndw"}},{"type":"Feature","geometry":{"type":"Point","coordinates":[5.224821,52.048103]},"properties":{"type":"charge","layer":"passenger","locationId":"f104039a-724f-4108-87da-fa4024b37dac","name":"TNLP007339 - Valkenburgweg 18, Odijk","address":"18 Valkenburgweg","city":"Odijk","operatorName":"TotalEnergies","maxPowerKw":17,"isMegawatt":false,"status":"AVAILABLE","source":"ndw"}},{"type":"Feature","geometry":{"type":"Point","coordinates":[5.24173,52.05257]},"properties":{"type":"charge","layer":"passenger","locationId":"cec691be-c8f1-4d24-94d3-9b588b6f1334","name":"PP005113 - Sint Nicolaaslaan 65, Odijk","address":"65 Sint Nicolaaslaan","city":"Odijk","operatorName":"TotalEnergies","maxPowerKw":11,"isMegawatt":false,"status":"AVAILABLE","source":"ndw"}},{"type":"Feature","geometry":{"type":"Point","coordinates":[5.211109,52.062958]},"properties":{"type":"charge","layer":"passenger","locationId":"2664195","name":"Laadnet Appel & De Jong","address":"Veilingweg 20","city":"Bunnik","operatorName":"Laadnet","maxPowerKw":11,"isMegawatt":false,"status":"AVAILABLE","source":"ndw"}},{"type":"Feature","geometry":{"type":"Point","coordinates":[5.195605,52.071977]},"properties":{"type":"charge","layer":"passenger","locationId":"667bfcf7983027001c5f933c","name":"Landgoederij Bunnik","address":"camminghalaan 30","city":"Bunnik","operatorName":"Pluq","maxPowerKw":22,"isMegawatt":false,"status":"AVAILABLE","source":"ndw","priceKwh":0.35}},{"type":"Feature","geometry":{"type":"Point","coordinates":[5.20806,52.06583]},"properties":{"type":"charge","layer":"passenger","locationId":"462","name":"Shell Recharge NL Rijnzichtlaan 11a","address":"Rijnzichtlaan 11a","city":"Bunnik","operatorName":"Ubitricity","maxPowerKw":11,"isMegawatt":false,"status":"AVAILABLE","source":"ndw","priceKwh":0.388}},{"type":"Feature","geometry":{"type":"Point","coordinates":[5.240872,52.020935]},"properties":{"type":"charge","layer":"passenger","locationId":"3ca98dc4-f209-4706-8cf2-95a99ecc9f60","name":"TNLP009056 - Piet Keyzerbaan 19, Werkhoven","address":"19 Piet Keyzerbaan","city":"Werkhoven","operatorName":"TotalEnergies","maxPowerKw":17,"isMegawatt":false,"status":"AVAILABLE","source":"ndw"}},{"type":"Feature","geometry":{"type":"Point","coordinates":[5.18835,52.07021]},"properties":{"type":"charge","layer":"passenger","locationId":"192","name":"Shell Recharge NL Lokhorstlaan 57","address":"Lokhorstlaan 57","city":"Bunnik","operatorName":"Ubitricity","maxPowerKw":11,"isMegawatt":false,"status":"AVAILABLE","source":"ndw","priceKwh":0.388}},{"type":"Feature","geometry":{"type":"Point","coordinates":[5.222683,52.048027]},"properties":{"type":"charge","layer":"passenger","locationId":"facdf693-557c-4600-bd53-8c2f68c899a8","name":"TNLP007435 - Steenakker 1, Odijk","address":"1 Steenakker","city":"Odijk","operatorName":"TotalEnergies","maxPowerKw":17,"isMegawatt":false,"status":"CHARGING","source":"ndw"}},{"type":"Feature","geometry":{"type":"Point","coordinates":[5.23754,52.05155]},"properties":{"type":"charge","layer":"passenger","locationId":"424","name":"Shell Recharge NL Boomgaardweg 55","address":"Boomgaardweg 55","city":"Odijk","operatorName":"Ubitricity","maxPowerKw":11,"isMegawatt":false,"status":"AVAILABLE","source":"ndw","priceKwh":0.388}},{"type":"Feature","geometry":{"type":"Point","coordinates":[5.211974,52.063495]},"properties":{"type":"charge","layer":"passenger","locationId":"680799ae5dd77a0e992f4123","name":"BiSC 2","address":"Fruitweg 48","city":"Bunnik","operatorName":"E-Flux by Road","maxPowerKw":22,"isMegawatt":false,"status":"AVAILABLE","source":"ndw","priceKwh":0.31}},{"type":"Feature","geometry":{"type":"Point","coordinates":[5.247543,52.024952]},"properties":{"type":"charge","layer":"passenger","locationId":"4b4a45da-800c-48de-ae27-aa3bba5aaa15","name":"TNLP009879 - Beverweertseweg 31, Werkhoven","address":"31 Beverweertseweg","city":"Werkhoven","operatorName":"TotalEnergies","maxPowerKw":17,"isMegawatt":false,"status":"AVAILABLE","source":"ndw"}},{"type":"Feature","geometry":{"type":"Point","coordinates":[5.191355,52.06932]},"properties":{"type":"charge","layer":"passenger","locationId":"465cded8-4209-4897-b9fe-f2b6126521ca","name":"PP005210 - Grunoplantsoen 1, Bunnik","address":"1 Grunoplantsoen","city":"Bunnik","operatorName":"TotalEnergies","maxPowerKw":11,"isMegawatt":false,"status":"AVAILABLE","source":"ndw"}},{"type":"Feature","geometry":{"type":"Point","coordinates":[5.230352,52.055848]},"properties":{"type":"charge","layer":"passenger","locationId":"8f1ea5e2d9616cbbbd4ce4b64f1c9f84","name":"Rijk Takkenlaan 66","address":"Rijk Takkenlaan 66","city":"Odijk","operatorName":"Vattenfall InCharge","maxPowerKw":11,"isMegawatt":false,"status":"AVAILABLE","source":"ndw"}},{"type":"Feature","geometry":{"type":"Point","coordinates":[5.22999,52.05367]},"properties":{"type":"charge","layer":"passenger","locationId":"103","name":"Shell Recharge NL Jodichemdreef 18","address":"Jodichemdreef 18","city":"Odijk","operatorName":"Ubitricity","maxPowerKw":11,"isMegawatt":false,"status":"AVAILABLE","source":"ndw","priceKwh":0.388}},{"type":"Feature","geometry":{"type":"Point","coordinates":[5.197,52.07076]},"properties":{"type":"charge","layer":"passenger","locationId":"06e89c3a-03cb-453f-a4ce-fab5a15dfdf2","name":"PP002578 - Willem van Kouwenerf 11, Bunnik","address":"11 Willem van Kouwenerf","city":"Bunnik","operatorName":"TotalEnergies","maxPowerKw":13,"isMegawatt":false,"status":"UNAVAILABLE","source":"ndw"}},{"type":"Feature","geometry":{"type":"Point","coordinates":[5.202287,52.068424]},"properties":{"type":"charge","layer":"passenger","locationId":"b7ace758-2087-43d7-85ec-15c5c049ef69","name":"TNLP009834 - Langstraat 9, Bunnik","address":"9 Langstraat","city":"Bunnik","operatorName":"TotalEnergies","maxPowerKw":17,"isMegawatt":false,"status":"CHARGING","source":"ndw"}},{"type":"Feature","geometry":{"type":"Point","coordinates":[5.228767,52.054344]},"properties":{"type":"charge","layer":"passenger","locationId":"77a0202a-96c4-4673-9cff-5105b65a3bab","name":"TNLP008578 - Rijk Takkenlaan 2, Odijk","address":"2 Rijk Takkenlaan","city":"Odijk","operatorName":"TotalEnergies","maxPowerKw":13,"isMegawatt":false,"status":"UNAVAILABLE","source":"ndw"}},{"type":"Feature","geometry":{"type":"Point","coordinates":[5.190409,52.063762]},"properties":{"type":"charge","layer":"passenger","locationId":"66a10b64565e1b001cd717a7","name":"Q-vision Laadpaal 2 (rechts)","address":"Regulierenring 10","city":"Bunnik","operatorName":"E-Flux by Road","maxPowerKw":22,"isMegawatt":false,"status":"AVAILABLE","source":"ndw","priceKwh":0.48}},{"type":"Feature","geometry":{"type":"Point","coordinates":[5.19394,52.06372]},"properties":{"type":"charge","layer":"passenger","locationId":"3DE52D33-1FE0-436E-BFA1-97B63A019CE4","name":"Eneco eMobility ING Bank, Runnenburg 30, Bunnik","address":"Runnenburg 30","city":"Bunnik","operatorName":"Eneco","maxPowerKw":22,"isMegawatt":false,"status":"UNAVAILABLE","source":"ndw","priceKwh":0.3}},{"type":"Feature","geometry":{"type":"Point","coordinates":[5.21152,52.067967]},"properties":{"type":"charge","layer":"passenger","locationId":"69a7f875a9945fc2c337eba9","name":"Golfbaan Kromme Rijn","address":"Sportlaan 6","city":"Bunnik","operatorName":"E-Flux by Road","maxPowerKw":11,"isMegawatt":false,"status":"CHARGING","source":"ndw","priceKwh":0.52}},{"type":"Feature","geometry":{"type":"Point","coordinates":[5.204605,52.06722]},"properties":{"type":"charge","layer":"passenger","locationId":"12","name":"Shell Recharge NL Burg v d Weijerstraat 13","address":"Burg v d Weijerstraat 13","city":"Bunnik","operatorName":"Ubitricity","maxPowerKw":11,"isMegawatt":false,"status":"AVAILABLE","source":"ndw","priceKwh":0.388}},{"type":"Feature","geometry":{"type":"Point","coordinates":[5.21199,52.063505]},"properties":{"type":"charge","layer":"passenger","locationId":"680111cc844574b8e251a0d1","name":"BiSC 1","address":"Fruitweg  48","city":"Bunnik","operatorName":"E-Flux by Road","maxPowerKw":22,"isMegawatt":false,"status":"AVAILABLE","source":"ndw","priceKwh":0.31}},{"type":"Feature","geometry":{"type":"Point","coordinates":[5.243551,52.022637]},"properties":{"type":"charge","layer":"passenger","locationId":"63a32382cbd3947b3e3dba93dae64aec","name":"Zwaansweg 48","address":"Zwaansweg 48","city":"Werkhoven","operatorName":"Vattenfall InCharge","maxPowerKw":11,"isMegawatt":false,"status":"CHARGING","source":"ndw"}},{"type":"Feature","geometry":{"type":"Point","coordinates":[5.23148,52.05235]},"properties":{"type":"charge","layer":"passenger","locationId":"086c1733-84ee-4c0f-bb7f-8768287e7853","name":"PP002577 - Professor de Vrijerlaan 14, Odijk","address":"14 Professor de Vrijerlaan","city":"Odijk","operatorName":"TotalEnergies","maxPowerKw":13,"isMegawatt":false,"status":"AVAILABLE","source":"ndw"}},{"type":"Feature","geometry":{"type":"Point","coordinates":[5.205258,52.061052]},"properties":{"type":"charge","layer":"passenger","locationId":"d986d39f-ba16-4a04-9ac5-c5c628a0ccae","name":"Bunnik, Netherlands","address":"1, Baan van Fectio","city":"Bunnik","operatorName":"Tesla","maxPowerKw":250,"isMegawatt":false,"status":"AVAILABLE","source":"ndw","priceKwh":0.52}},{"type":"Feature","geometry":{"type":"Point","coordinates":[5.1978,52.06747]},"properties":{"type":"charge","layer":"passenger","locationId":"fd38cb2e-667d-480d-802f-531afb892930","name":"PP002499 - John F. Kennedylaan 33, Bunnik","address":"33 John F. Kennedylaan","city":"Bunnik","operatorName":"TotalEnergies","maxPowerKw":13,"isMegawatt":false,"status":"AVAILABLE","source":"ndw"}},{"type":"Feature","geometry":{"type":"Point","coordinates":[5.190995,52.07117]},"properties":{"type":"charge","layer":"passenger","locationId":"3c88d2c5-5cbd-408a-9800-630c94587cd5","name":"TNLP009530 - Secretaris de Jonglaan 7, Bunnik","address":"7 Secretaris de Jonglaan","city":"Bunnik","operatorName":"TotalEnergies","maxPowerKw":17,"isMegawatt":false,"status":"CHARGING","source":"ndw"}},{"type":"Feature","geometry":{"type":"Point","coordinates":[5.211268,52.0651]},"properties":{"type":"charge","layer":"passenger","locationId":"19563de6-1d72-47d2-8c44-53c5229b7baf","name":"TNLP008453 - Koningin Emmastraat 25, Bunnik","address":"25 Koningin Emmastraat","city":"Bunnik","operatorName":"TotalEnergies","maxPowerKw":13,"isMegawatt":false,"status":"UNAVAILABLE","source":"ndw"}},{"type":"Feature","geometry":{"type":"Point","coordinates":[5.2378,52.05031]},"properties":{"type":"charge","layer":"passenger","locationId":"145","name":"Shell Recharge NL Zeisterweg 41","address":"Zeisterweg 41","city":"Odijk","operatorName":"Ubitricity","maxPowerKw":11,"isMegawatt":false,"status":"AVAILABLE","source":"ndw","priceKwh":0.388}},{"type":"Feature","geometry":{"type":"Point","coordinates":[5.19787,52.06925]},"properties":{"type":"charge","layer":"passenger","locationId":"14e433cc-b1e0-403b-876c-64fc19be3e1e","name":"PP002500 - Van Beeck Calkoenlaan 10, Bunnik","address":"10 Van Beeck Calkoenlaan","city":"Bunnik","operatorName":"TotalEnergies","maxPowerKw":13,"isMegawatt":false,"status":"CHARGING","source":"ndw"}},{"type":"Feature","geometry":{"type":"Point","coordinates":[5.239924,52.053394]},"properties":{"type":"charge","layer":"passenger","locationId":"3fa0e6c7-c04a-401f-a38c-e09c0c919ece","name":"TNLP009021 - Beukelaar 16, Odijk","address":"16 Beukelaar","city":"Odijk","operatorName":"TotalEnergies","maxPowerKw":17,"isMegawatt":false,"status":"AVAILABLE","source":"ndw"}},{"type":"Feature","geometry":{"type":"Point","coordinates":[5.23476,52.04641]},"properties":{"type":"charge","layer":"passenger","locationId":"55992b1a-b0de-4075-84dd-b1a88c3b57ce","name":"PP002497 - Barbeellaan 36, Odijk","address":"36 Barbeellaan","city":"Odijk","operatorName":"TotalEnergies","maxPowerKw":13,"isMegawatt":false,"status":"AVAILABLE","source":"ndw"}},{"type":"Feature","geometry":{"type":"Point","coordinates":[5.22906,52.04921]},"properties":{"type":"charge","layer":"passenger","locationId":"039e9507-cffa-43b9-85d5-f4fe51cbb586","name":"PP004124 - Rietkamp 48, Odijk","address":"48 Rietkamp","city":"Odijk","operatorName":"TotalEnergies","maxPowerKw":11,"isMegawatt":false,"status":"AVAILABLE","source":"ndw"}},{"type":"Feature","geometry":{"type":"Point","coordinates":[5.196673,52.070454]},"properties":{"type":"charge","layer":"passenger","locationId":"454c8c40-1494-49bd-94c8-12444c003d6a","name":"TNLP015413 - Willem van Kouwenerf 11, Bunnik","address":"11 Willem van Kouwenerf","city":"Bunnik","operatorName":"TotalEnergies","maxPowerKw":17,"isMegawatt":false,"status":"UNAVAILABLE","source":"ndw"}},{"type":"Feature","geometry":{"type":"Point","coordinates":[5.190395,52.063801]},"properties":{"type":"charge","layer":"passenger","locationId":"66a1090ca908fa001c75e660","name":"Q-vision Laadpaal 1 (links)","address":"regulierenring 10","city":"Bunnik","operatorName":"E-Flux by Road","maxPowerKw":11,"isMegawatt":false,"status":"AVAILABLE","source":"ndw","priceKwh":0.48}},{"type":"Feature","geometry":{"type":"Point","coordinates":[5.19323,52.06925]},"properties":{"type":"charge","layer":"passenger","locationId":"d3f47d8049a5819aee9f89b225c8c9ee","name":"Laan van Broekhuijzen 1","address":"Laan van Broekhuijzen 1","city":"Bunnik","operatorName":"Vattenfall InCharge","maxPowerKw":11,"isMegawatt":false,"status":"AVAILABLE","source":"ndw"}},{"type":"Feature","geometry":{"type":"Point","coordinates":[5.234761,52.049434]},"properties":{"type":"charge","layer":"passenger","locationId":"8c8ad1dd-3fae-4f42-9b9a-30fda33ae81a","name":"TNLP034155","address":"Zeisterweg 21","city":"Odijk","operatorName":"TotalEnergies","maxPowerKw":14,"isMegawatt":false,"status":"AVAILABLE","source":"ndw"}},{"type":"Feature","geometry":{"type":"Point","coordinates":[5.206006,52.061024]},"properties":{"type":"charge","layer":"freight","locationId":"NLLOC000964","name":"Allego - Postillion Hotel Bunnik A12","address":"Kosterijland 8","city":"Bunnik","operatorName":"Allego","maxPowerKw":400,"isMegawatt":false,"status":"AVAILABLE","source":"ndw","priceKwh":0.511,"freightKind":"hpc","freightReason":"power"}},{"type":"Feature","geometry":{"type":"MultiPolygon","coordinates":[[[[5.162396812430868,52.07860969672622],[5.166916713929136,52.07668102708629],[5.171605697293156,52.07867478281941],[5.1791009990579235,52.07791487404575],[5.181553170911096,52.076258731198884],[5.192638691804139,52.07791407912651],[5.195154400778704,52.07734612010275],[5.198936327024924,52.07631372249905],[5.200547583976129,52.0768120233603],[5.225021473228308,52.06492173848494],[5.218459748733193,52.06023876806279],[5.219130916025838,52.05975277212043],[5.247422639381348,52.05864666990405],[5.250738107125769,52.05564559547954],[5.251506316581237,52.05331967035718],[5.248005513325871,52.047413004562216],[5.2498934028791,52.04637786793694],[5.248952938293734,52.042114828514016],[5.249493973661721,52.04098623052216],[5.251082977839526,52.039225233864904],[5.255887514257197,52.03812836377144],[5.257539562781862,52.03831636632118],[5.258581576523549,52.03726098131157],[5.25746962113972,52.03610552994631],[5.257498455340685,52.03267771337313],[5.264452537263189,52.03112607838559],[5.269297868194625,52.02917060948079],[5.270866409494235,52.02740364473276],[5.263239010614887,52.02438041109068],[5.269883982466187,52.0183261101626],[5.271692734215132,52.01460950635399],[5.279909528396388,52.01072190264823],[5.2757012446999685,52.00572058243876],[5.275806616592558,52.002483473863826],[5.277586295673524,52.000954716630424],[5.2775429146844175,52.00014320537361],[5.274476264072119,51.998418956875845],[5.27157493083437,51.99777931364877],[5.267366163530554,51.999080051154316],[5.266332124055121,52.00029710013762],[5.266168311648158,52.00301696133981],[5.264735822238525,52.00322042048732],[5.259562143164741,52.000999505258164],[5.243190142128502,51.9987932896457],[5.230571581997752,52.010356165161156],[5.2245007633455325,52.013436599497496],[5.219373572637287,52.015215596462426],[5.202164562023826,52.01744688602719],[5.203526609783605,52.020076268719286],[5.200207536800119,52.022905272261326],[5.1991027022052565,52.025219036474304],[5.20091013184685,52.0316633141414],[5.199449384868009,52.03371726461185],[5.195432030442456,52.03642700379885],[5.192503148355396,52.03440880966689],[5.189540886843325,52.03698852958191],[5.188984159434034,52.038404687887926],[5.191472228345597,52.043044417378745],[5.189498833068095,52.043314123478105],[5.187366997395631,52.044123457450866],[5.178930240366908,52.04634040619643],[5.178836042629757,52.04572019835147],[5.160743089267683,52.04551466523421],[5.153030153595399,52.056757219321035],[5.157754805358342,52.058341743955204],[5.156890164695153,52.06342673420004],[5.158896738425232,52.06486484195967],[5.158326637618445,52.065249734758055],[5.159388414888205,52.06706233978058],[5.156399923658161,52.06905776259221],[5.155657740799791,52.07141605379936],[5.160440884977833,52.077788255425986],[5.160179362206473,52.080295954137206],[5.1607185181845665,52.080562479572734],[5.162396812430868,52.07860969672622]]]]},"properties":{"type":"boundary","gemeente":"Bunnik","code":"GM0312"}}]}