{"type":"FeatureCollection","metadata":{"gemeente":"Castricum","slug":"castricum","code":"GM0383","generated_at":"2026-07-06T16:26:11.361Z","total_passenger":170,"total_freight":0,"bounds":[4.598301651897403,52.526728321729486,4.781621828271171,52.59257784529333],"operators":["Allego","E-Flux by Road","Eneco","NXT Charging Solutions","Tesla","TotalEnergies","Ubitricity","Valk Energy","Vattenfall InCharge"]},"features":[{"type":"Feature","geometry":{"type":"Point","coordinates":[4.68064,52.550743]},"properties":{"type":"charge","layer":"passenger","locationId":"22995cae-665f-41a6-8768-bc8d9ee3deb2","name":"TNLP008341 - Henri Dunantsingel 118, Castricum","address":"118 Henri Dunantsingel","city":"Castricum","operatorName":"TotalEnergies","maxPowerKw":14,"isMegawatt":false,"status":"AVAILABLE","source":"ndw"}},{"type":"Feature","geometry":{"type":"Point","coordinates":[4.66244,52.55096]},"properties":{"type":"charge","layer":"passenger","locationId":"5d27ccd4-250f-4775-ac8a-c5d147765de8","name":"TNLP003594 - De Brink 32, Castricum","address":"32 De Brink","city":"Castricum","operatorName":"TotalEnergies","maxPowerKw":17,"isMegawatt":false,"status":"AVAILABLE","source":"ndw"}},{"type":"Feature","geometry":{"type":"Point","coordinates":[4.677728,52.547778]},"properties":{"type":"charge","layer":"passenger","locationId":"b3c96ef3-f000-4007-a6f7-3908fdddedaf","name":"TNLP034321","address":"Monetastraat 2","city":"Castricum","operatorName":"TotalEnergies","maxPowerKw":14,"isMegawatt":false,"status":"AVAILABLE","source":"ndw"}},{"type":"Feature","geometry":{"type":"Point","coordinates":[4.67824,52.54258]},"properties":{"type":"charge","layer":"passenger","locationId":"8bd6030a-1e1c-404b-9879-9d295d030db6","name":"PP005014 - Klapweide 55, Castricum","address":"55 Klapweide","city":"Castricum","operatorName":"TotalEnergies","maxPowerKw":13,"isMegawatt":false,"status":"AVAILABLE","source":"ndw"}},{"type":"Feature","geometry":{"type":"Point","coordinates":[4.664079,52.55676]},"properties":{"type":"charge","layer":"passenger","locationId":"05199f93-87d9-4791-999f-0f7e1a4f9956","name":"TNLP006561 - Berkenlaan 21, Castricum","address":"21 Berkenlaan","city":"Castricum","operatorName":"TotalEnergies","maxPowerKw":13,"isMegawatt":false,"status":"AVAILABLE","source":"ndw"}},{"type":"Feature","geometry":{"type":"Point","coordinates":[4.675433,52.546867]},"properties":{"type":"charge","layer":"passenger","locationId":"3a17f63e-40b3-426f-8164-55653232622f","name":"TNLP009441 - Walingstuin 14, Castricum","address":"14 Walingstuin","city":"Castricum","operatorName":"TotalEnergies","maxPowerKw":15,"isMegawatt":false,"status":"AVAILABLE","source":"ndw"}},{"type":"Feature","geometry":{"type":"Point","coordinates":[4.661385,52.555164]},"properties":{"type":"charge","layer":"passenger","locationId":"b1fa06ce-bb86-4ce0-8a92-e4ad7d3b817f","name":"TNLP008443 - Eerste Groenelaan 25, Castricum","address":"25 Eerste Groenelaan","city":"Castricum","operatorName":"TotalEnergies","maxPowerKw":14,"isMegawatt":false,"status":"AVAILABLE","source":"ndw"}},{"type":"Feature","geometry":{"type":"Point","coordinates":[4.65914,52.55519]},"properties":{"type":"charge","layer":"passenger","locationId":"1a4deb6f-a738-4936-bd95-6255daed2f18","name":"PP004008 - Schelgeest 53, Castricum","address":"53 Schelgeest","city":"Castricum","operatorName":"TotalEnergies","maxPowerKw":13,"isMegawatt":false,"status":"AVAILABLE","source":"ndw"}},{"type":"Feature","geometry":{"type":"Point","coordinates":[4.64787,52.56116]},"properties":{"type":"charge","layer":"passenger","locationId":"718e821a-6cf9-4971-a0c7-d1fc6f429285","name":"PP001919 - Koningsduin 16, Castricum","address":"16 Koningsduin","city":"Castricum","operatorName":"TotalEnergies","maxPowerKw":11,"isMegawatt":false,"status":"AVAILABLE","source":"ndw"}},{"type":"Feature","geometry":{"type":"Point","coordinates":[4.727345,52.558346]},"properties":{"type":"charge","layer":"passenger","locationId":"3955a044-9f87-4cbe-8e96-fe7eca7a7ef7","name":"TNLP005682 - Tijgerlelie 14, Akersloot","address":"14 Tijgerlelie","city":"Akersloot","operatorName":"TotalEnergies","maxPowerKw":15,"isMegawatt":false,"status":"AVAILABLE","source":"ndw"}},{"type":"Feature","geometry":{"type":"Point","coordinates":[4.667815,52.554695]},"properties":{"type":"charge","layer":"passenger","locationId":"9b413fd2-20d6-4acc-ae37-d1f79258230f","name":"TNLP034657","address":"Eerste Groenelaan 80","city":"Castricum","operatorName":"TotalEnergies","maxPowerKw":14,"isMegawatt":false,"status":"AVAILABLE","source":"ndw"}},{"type":"Feature","geometry":{"type":"Point","coordinates":[4.67379,52.544697]},"properties":{"type":"charge","layer":"passenger","locationId":"33429644-c29a-40d2-801f-6781354f9688","name":"TNLP006012 - Cieweg 58, Castricum","address":"58 Cieweg","city":"Castricum","operatorName":"TotalEnergies","maxPowerKw":13,"isMegawatt":false,"status":"AVAILABLE","source":"ndw"}},{"type":"Feature","geometry":{"type":"Point","coordinates":[4.671017,52.556683]},"properties":{"type":"charge","layer":"passenger","locationId":"679940c2-8a60-4ec2-85c1-2ac2ff915c94","name":"TNLP009382 - Kooiplein 2, Castricum","address":"2 Kooiplein","city":"Castricum","operatorName":"TotalEnergies","maxPowerKw":13,"isMegawatt":false,"status":"AVAILABLE","source":"ndw"}},{"type":"Feature","geometry":{"type":"Point","coordinates":[4.6777156,52.5433404]},"properties":{"type":"charge","layer":"passenger","locationId":"1912","name":"Shell Recharge NL Voorweide 1","address":"Voorweide 1","city":"Castricum","operatorName":"Ubitricity","maxPowerKw":22,"isMegawatt":false,"status":"AVAILABLE","source":"ndw","priceKwh":0.266}},{"type":"Feature","geometry":{"type":"Point","coordinates":[4.694239,52.567512]},"properties":{"type":"charge","layer":"passenger","locationId":"0c32c76b785a8b96a9e3ca0956f70f81","name":"Thalia 40","address":"Thalia 40","city":"Limmen","operatorName":"Vattenfall InCharge","maxPowerKw":11,"isMegawatt":false,"status":"AVAILABLE","source":"ndw"}},{"type":"Feature","geometry":{"type":"Point","coordinates":[4.672224,52.552784]},"properties":{"type":"charge","layer":"passenger","locationId":"4fd72b72-9530-43df-a8bc-6fec8fa44110","name":"TNLP007853 - Hendrik Casimirstraat 48, Castricum","address":"48 Hendrik Casimirstraat","city":"Castricum","operatorName":"TotalEnergies","maxPowerKw":13,"isMegawatt":false,"status":"AVAILABLE","source":"ndw"}},{"type":"Feature","geometry":{"type":"Point","coordinates":[4.72976,52.555313]},"properties":{"type":"charge","layer":"passenger","locationId":"65b120b3-bd91-4f17-baa2-55ee66b16b54","name":"TNLP009574 - De Tarp 29, Akersloot","address":"29 De Tarp","city":"Akersloot","operatorName":"TotalEnergies","maxPowerKw":15,"isMegawatt":false,"status":"AVAILABLE","source":"ndw"}},{"type":"Feature","geometry":{"type":"Point","coordinates":[4.6865,52.573071]},"properties":{"type":"charge","layer":"passenger","locationId":"6a2678dac04f2719065d1afd","name":"Straatzijde openbaar","address":"Kapelweg  10","city":"Limmen","operatorName":"E-Flux by Road","maxPowerKw":11,"isMegawatt":false,"status":"AVAILABLE","source":"ndw","priceKwh":0.43}},{"type":"Feature","geometry":{"type":"Point","coordinates":[4.686607,52.572969]},"properties":{"type":"charge","layer":"passenger","locationId":"66aa0b84afc3e0001ca0d22c","name":"Laadpaal straat","address":"Kapelweg  10","city":"Limmen","operatorName":"E-Flux by Road","maxPowerKw":11,"isMegawatt":false,"status":"AVAILABLE","source":"ndw","priceKwh":0.43}},{"type":"Feature","geometry":{"type":"Point","coordinates":[4.668026,52.544827]},"properties":{"type":"charge","layer":"passenger","locationId":"1c2d3ea1-427c-46df-a567-c6a44bd8558f","name":"PP005611 - Breedeweg 41, Castricum","address":"41 Breedeweg","city":"Castricum","operatorName":"TotalEnergies","maxPowerKw":15,"isMegawatt":false,"status":"AVAILABLE","source":"ndw"}},{"type":"Feature","geometry":{"type":"Point","coordinates":[4.6593,52.54538]},"properties":{"type":"charge","layer":"passenger","locationId":"a2b6266c-fe5f-4ce8-9b18-f95396ec3d42","name":"TNLP003624 - Stationsweg 2, Castricum","address":"2 Stationsweg","city":"Castricum","operatorName":"TotalEnergies","maxPowerKw":17,"isMegawatt":false,"status":"AVAILABLE","source":"ndw"}},{"type":"Feature","geometry":{"type":"Point","coordinates":[4.67917,52.54911]},"properties":{"type":"charge","layer":"passenger","locationId":"156","name":"Shell Recharge NL Rooseveltlaan 23","address":"Rooseveltlaan 23","city":"Castricum","operatorName":"Ubitricity","maxPowerKw":11,"isMegawatt":false,"status":"AVAILABLE","source":"ndw","priceKwh":0.388}},{"type":"Feature","geometry":{"type":"Point","coordinates":[4.701284,52.571011]},"properties":{"type":"charge","layer":"passenger","locationId":"09e5a566-9062-4a87-a3c8-4c8972986c91","name":"TNLP034325","address":"Koningsdam 1","city":"Limmen","operatorName":"TotalEnergies","maxPowerKw":14,"isMegawatt":false,"status":"AVAILABLE","source":"ndw"}},{"type":"Feature","geometry":{"type":"Point","coordinates":[4.704206,52.57099]},"properties":{"type":"charge","layer":"passenger","locationId":"992b0618-ce63-44fc-93be-43c38e3f88c7","name":"TNLP008863 - Meidoornlaan 51, Limmen","address":"51 Meidoornlaan","city":"Limmen","operatorName":"TotalEnergies","maxPowerKw":14,"isMegawatt":false,"status":"AVAILABLE","source":"ndw"}},{"type":"Feature","geometry":{"type":"Point","coordinates":[4.630598,52.562942]},"properties":{"type":"charge","layer":"passenger","locationId":"69cbce97894fd252f5db34df","name":"Bezoekersladers Bakkum","address":"Zeeweg 31","city":"Castricum","operatorName":"NXT Charging Solutions","maxPowerKw":22,"isMegawatt":false,"status":"AVAILABLE","source":"ndw","priceKwh":0.56}},{"type":"Feature","geometry":{"type":"Point","coordinates":[4.68001,52.5561]},"properties":{"type":"charge","layer":"passenger","locationId":"532","name":"Shell Recharge NL Tijm 2","address":"Tijm 2","city":"Castricum","operatorName":"Ubitricity","maxPowerKw":11,"isMegawatt":false,"status":"AVAILABLE","source":"ndw","priceKwh":0.388}},{"type":"Feature","geometry":{"type":"Point","coordinates":[4.662481,52.55609]},"properties":{"type":"charge","layer":"passenger","locationId":"3b0f9dda-9529-42bb-b59f-2d20a7a672af","name":"TNLP005685 - Lindenlaan 91, Castricum","address":"91 Lindenlaan","city":"Castricum","operatorName":"TotalEnergies","maxPowerKw":13,"isMegawatt":false,"status":"AVAILABLE","source":"ndw"}},{"type":"Feature","geometry":{"type":"Point","coordinates":[4.6796858,52.5570067]},"properties":{"type":"charge","layer":"passenger","locationId":"2579","name":"Shell Recharge NL Plantenhove 103","address":"Plantenhove 103","city":"Castricum","operatorName":"Ubitricity","maxPowerKw":22,"isMegawatt":false,"status":"AVAILABLE","source":"ndw","priceKwh":0.266}},{"type":"Feature","geometry":{"type":"Point","coordinates":[4.661601,52.545956]},"properties":{"type":"charge","layer":"passenger","locationId":"2730e5e3-2bc7-4686-91f3-8b6c829f9f33","name":"TNLP006588 - Dorpsstraat 32, Castricum","address":"32 Dorpsstraat","city":"Castricum","operatorName":"TotalEnergies","maxPowerKw":15,"isMegawatt":false,"status":"AVAILABLE","source":"ndw"}},{"type":"Feature","geometry":{"type":"Point","coordinates":[4.725378,52.557379]},"properties":{"type":"charge","layer":"passenger","locationId":"6890e5640412a170699117e4","name":"Startingerweg 31C","address":"Startingerweg 31C","city":"Akersloot","operatorName":"E-Flux by Road","maxPowerKw":22,"isMegawatt":false,"status":"CHARGING","source":"ndw","priceKwh":0.43}},{"type":"Feature","geometry":{"type":"Point","coordinates":[4.6599,52.55076]},"properties":{"type":"charge","layer":"passenger","locationId":"e4e17d4d-3bb8-4d73-8637-e0479650d7ef","name":"PP004131 - Doctor Leenaersstraat 47, Castricum","address":"47 Doctor Leenaersstraat","city":"Castricum","operatorName":"TotalEnergies","maxPowerKw":13,"isMegawatt":false,"status":"AVAILABLE","source":"ndw"}},{"type":"Feature","geometry":{"type":"Point","coordinates":[4.6689,52.55818]},"properties":{"type":"charge","layer":"passenger","locationId":"5fbd3435-864f-455f-a674-b3f84e1b768e","name":"TNLP003563 - JH van Kinsbergenstraat 18, Castricum","address":"18 JH van Kinsbergenstraat","city":"Castricum","operatorName":"TotalEnergies","maxPowerKw":17,"isMegawatt":false,"status":"AVAILABLE","source":"ndw"}},{"type":"Feature","geometry":{"type":"Point","coordinates":[4.662888,52.543896]},"properties":{"type":"charge","layer":"passenger","locationId":"a90eb1eb-5e1c-4e12-b2dd-01236a7b49d6","name":"TNLP015052 - Huibert van Ginhovenstraat 12, Castricum","address":"12 Huibert van Ginhovenstraat","city":"Castricum","operatorName":"TotalEnergies","maxPowerKw":13,"isMegawatt":false,"status":"AVAILABLE","source":"ndw"}},{"type":"Feature","geometry":{"type":"Point","coordinates":[4.65823,52.5582]},"properties":{"type":"charge","layer":"passenger","locationId":"9206e4d1-3bde-4a7b-8cef-dda70111262e","name":"TNLP005727 - Stetweg 5, Castricum","address":"5 Stetweg","city":"Castricum","operatorName":"TotalEnergies","maxPowerKw":13,"isMegawatt":false,"status":"AVAILABLE","source":"ndw"}},{"type":"Feature","geometry":{"type":"Point","coordinates":[4.658184,52.55963]},"properties":{"type":"charge","layer":"passenger","locationId":"98c6bfcd-bdde-40c3-a6c4-ca2d67153b2e","name":"TNLP034304","address":"Van Assendelftlaan 12","city":"Castricum","operatorName":"TotalEnergies","maxPowerKw":14,"isMegawatt":false,"status":"CHARGING","source":"ndw"}},{"type":"Feature","geometry":{"type":"Point","coordinates":[4.7323688,52.5615263]},"properties":{"type":"charge","layer":"passenger","locationId":"2229","name":"Shell Recharge NL Bachstraat 6","address":"Bachstraat 6","city":"Akersloot","operatorName":"Ubitricity","maxPowerKw":22,"isMegawatt":false,"status":"AVAILABLE","source":"ndw","priceKwh":0.266}},{"type":"Feature","geometry":{"type":"Point","coordinates":[4.68,52.54376]},"properties":{"type":"charge","layer":"passenger","locationId":"176","name":"Shell Recharge NL Groteweide 44","address":"Groteweide 44","city":"Castricum","operatorName":"Ubitricity","maxPowerKw":11,"isMegawatt":false,"status":"AVAILABLE","source":"ndw","priceKwh":0.388}},{"type":"Feature","geometry":{"type":"Point","coordinates":[4.68569,52.54675]},"properties":{"type":"charge","layer":"passenger","locationId":"596","name":"Shell Recharge NL Zuster Meyboomstraat 7","address":"Zuster Meyboomstraat 7","city":"Castricum","operatorName":"Ubitricity","maxPowerKw":11,"isMegawatt":false,"status":"AVAILABLE","source":"ndw","priceKwh":0.388}},{"type":"Feature","geometry":{"type":"Point","coordinates":[4.689202,52.548414]},"properties":{"type":"charge","layer":"passenger","locationId":"68b01d46095b9835ef99dd85","name":"Dodewaard","address":"Jo Imminkstraat 7","city":"Castricum","operatorName":"E-Flux by Road","maxPowerKw":11,"isMegawatt":false,"status":"AVAILABLE","source":"ndw","priceKwh":0.51}},{"type":"Feature","geometry":{"type":"Point","coordinates":[4.6619717,52.5607293]},"properties":{"type":"charge","layer":"passenger","locationId":"2384","name":"Shell Recharge NL Van Haerlemlaan 27","address":"Van Haerlemlaan 27","city":"Castricum","operatorName":"Ubitricity","maxPowerKw":22,"isMegawatt":false,"status":"AVAILABLE","source":"ndw","priceKwh":0.266}},{"type":"Feature","geometry":{"type":"Point","coordinates":[4.777827,52.54661]},"properties":{"type":"charge","layer":"passenger","locationId":"1856bc69-e6f7-4deb-8147-75aa37468219","name":"TNLP007806 - Pontweg 1, De Woude","address":"1 Pontweg","city":"De Woude","operatorName":"TotalEnergies","maxPowerKw":15,"isMegawatt":false,"status":"CHARGING","source":"ndw"}},{"type":"Feature","geometry":{"type":"Point","coordinates":[4.682752,52.55544]},"properties":{"type":"charge","layer":"passenger","locationId":"1698de5d-4c91-43cf-9d46-6ec3c4716f93","name":"TNLP009199 - Pirola 14, Castricum","address":"14 Pirola","city":"Castricum","operatorName":"TotalEnergies","maxPowerKw":13,"isMegawatt":false,"status":"AVAILABLE","source":"ndw"}},{"type":"Feature","geometry":{"type":"Point","coordinates":[4.690493,52.564193]},"properties":{"type":"charge","layer":"passenger","locationId":"63b59693ea7428001de00ab4","name":"Carcharger Limmen","address":"Rijksweg  26","city":"Limmen","operatorName":"E-Flux by Road","maxPowerKw":11,"isMegawatt":false,"status":"CHARGING","source":"ndw","priceKwh":0.33}},{"type":"Feature","geometry":{"type":"Point","coordinates":[4.673853,52.55495]},"properties":{"type":"charge","layer":"passenger","locationId":"d6db086b-8fa3-44de-83ba-9b35f0d15e70","name":"TNLP006623 - Boccherinistraat 49, Castricum","address":"49 Boccherinistraat","city":"Castricum","operatorName":"TotalEnergies","maxPowerKw":13,"isMegawatt":false,"status":"AVAILABLE","source":"ndw"}},{"type":"Feature","geometry":{"type":"Point","coordinates":[4.679953,52.55214]},"properties":{"type":"charge","layer":"passenger","locationId":"fd0294c8-92a0-4b2e-ba44-3952af38ee2d","name":"TNLP009380 - Dotterbloem 21, Castricum","address":"21 Dotterbloem","city":"Castricum","operatorName":"TotalEnergies","maxPowerKw":13,"isMegawatt":false,"status":"AVAILABLE","source":"ndw"}},{"type":"Feature","geometry":{"type":"Point","coordinates":[4.66591,52.55621]},"properties":{"type":"charge","layer":"passenger","locationId":"313","name":"Shell Recharge NL Oranjelaan 2B","address":"Oranjelaan 2B","city":"Castricum","operatorName":"Ubitricity","maxPowerKw":11,"isMegawatt":false,"status":"AVAILABLE","source":"ndw","priceKwh":0.388}},{"type":"Feature","geometry":{"type":"Point","coordinates":[4.6816465,52.5547657]},"properties":{"type":"charge","layer":"passenger","locationId":"2252","name":"Shell Recharge NL Ganzerik 17","address":"Ganzerik 17","city":"Castricum","operatorName":"Ubitricity","maxPowerKw":22,"isMegawatt":false,"status":"AVAILABLE","source":"ndw","priceKwh":0.266}},{"type":"Feature","geometry":{"type":"Point","coordinates":[4.657309,52.552753]},"properties":{"type":"charge","layer":"passenger","locationId":"9f8bdf81-9a90-4d48-9f78-d173af3b591a","name":"TNLP009487 - Schelgeest 1, Castricum","address":"1 Schelgeest","city":"Castricum","operatorName":"TotalEnergies","maxPowerKw":15,"isMegawatt":false,"status":"AVAILABLE","source":"ndw"}},{"type":"Feature","geometry":{"type":"Point","coordinates":[4.681839,52.550346]},"properties":{"type":"charge","layer":"passenger","locationId":"7e707a81-4ca8-42e7-a366-3250007a11a0","name":"PP005615 - Henri Dunantsingel 152, Castricum","address":"152 Henri Dunantsingel","city":"Castricum","operatorName":"TotalEnergies","maxPowerKw":13,"isMegawatt":false,"status":"CHARGING","source":"ndw"}},{"type":"Feature","geometry":{"type":"Point","coordinates":[4.692522,52.571808]},"properties":{"type":"charge","layer":"passenger","locationId":"c3cf4bd6-2dd2-404e-82b6-b7941df476d7","name":"TNLP009432 - De Drie Linden 3, Limmen","address":"3 De Drie Linden","city":"Limmen","operatorName":"TotalEnergies","maxPowerKw":15,"isMegawatt":false,"status":"AVAILABLE","source":"ndw"}},{"type":"Feature","geometry":{"type":"Point","coordinates":[4.72265,52.547488]},"properties":{"type":"charge","layer":"passenger","locationId":"f20159bd-41f4-4dff-a3a4-1f9c7aec8301","name":"Akersloot, Netherlands","address":"1A, Geesterweg","city":"Akersloot","operatorName":"Tesla","maxPowerKw":250,"isMegawatt":false,"status":"AVAILABLE","source":"ndw","priceKwh":0.53}},{"type":"Feature","geometry":{"type":"Point","coordinates":[4.677898,52.55023]},"properties":{"type":"charge","layer":"passenger","locationId":"2b01d904-fbe7-4ea6-8817-c39a84f241f8","name":"TNLP008544 - Dag Hammarskjöldlaan 81, Castricum","address":"81 Dag Hammarskjöldlaan","city":"Castricum","operatorName":"TotalEnergies","maxPowerKw":14,"isMegawatt":false,"status":"AVAILABLE","source":"ndw"}},{"type":"Feature","geometry":{"type":"Point","coordinates":[4.693809,52.5662]},"properties":{"type":"charge","layer":"passenger","locationId":"2dc87dcc-eda3-4645-aec3-3bcc19e6fd0a","name":"TNLP009135 - Thalia 1, Limmen","address":"1 Thalia","city":"Limmen","operatorName":"TotalEnergies","maxPowerKw":15,"isMegawatt":false,"status":"AVAILABLE","source":"ndw"}},{"type":"Feature","geometry":{"type":"Point","coordinates":[4.684236,52.555016]},"properties":{"type":"charge","layer":"passenger","locationId":"5de7b70b-bf38-47e0-b9c2-b51f97d04603","name":"PP005610 - Wederik 14, Castricum","address":"14 Wederik","city":"Castricum","operatorName":"TotalEnergies","maxPowerKw":13,"isMegawatt":false,"status":"AVAILABLE","source":"ndw"}},{"type":"Feature","geometry":{"type":"Point","coordinates":[4.6721,52.55578]},"properties":{"type":"charge","layer":"passenger","locationId":"515d68fd-5905-4cd1-8e5b-f1d75626a92d","name":"PP004029 - Boccherinistraat 13, Castricum","address":"13 Boccherinistraat","city":"Castricum","operatorName":"TotalEnergies","maxPowerKw":13,"isMegawatt":false,"status":"AVAILABLE","source":"ndw"}},{"type":"Feature","geometry":{"type":"Point","coordinates":[4.664175,52.549607]},"properties":{"type":"charge","layer":"passenger","locationId":"9e9e612e5df098d646bca02035b80803","name":"Kon. Wilhelminalaan 1","address":"Kon. Wilhelminalaan 1","city":"Castricum","operatorName":"Vattenfall InCharge","maxPowerKw":11,"isMegawatt":false,"status":"CHARGING","source":"ndw"}},{"type":"Feature","geometry":{"type":"Point","coordinates":[4.688364,52.57485]},"properties":{"type":"charge","layer":"passenger","locationId":"fd29b3a9-806f-4f66-bb75-4a1353c7746e","name":"PP004120 - Breetjes 1, Limmen","address":"1 Breetjes","city":"Limmen","operatorName":"TotalEnergies","maxPowerKw":13,"isMegawatt":false,"status":"CHARGING","source":"ndw"}},{"type":"Feature","geometry":{"type":"Point","coordinates":[4.674227,52.55165]},"properties":{"type":"charge","layer":"passenger","locationId":"f98140e3-2e40-43bc-8119-fd27fd5b215c","name":"TNLP007856 - Geesterduin 1, Castricum","address":"1 Geesterduin","city":"Castricum","operatorName":"TotalEnergies","maxPowerKw":15,"isMegawatt":false,"status":"AVAILABLE","source":"ndw"}},{"type":"Feature","geometry":{"type":"Point","coordinates":[4.67632,52.55625]},"properties":{"type":"charge","layer":"passenger","locationId":"500","name":"Shell Recharge NL Offenbachstraat 1","address":"Offenbachstraat 1","city":"Castricum","operatorName":"Ubitricity","maxPowerKw":11,"isMegawatt":false,"status":"AVAILABLE","source":"ndw","priceKwh":0.388}},{"type":"Feature","geometry":{"type":"Point","coordinates":[4.648733,52.558012]},"properties":{"type":"charge","layer":"passenger","locationId":"280342d2cc742f13f8bb1f07265d6a5a","name":"Bosakker 7","address":"Bosakker 7","city":"Castricum","operatorName":"Vattenfall InCharge","maxPowerKw":11,"isMegawatt":false,"status":"AVAILABLE","source":"ndw"}},{"type":"Feature","geometry":{"type":"Point","coordinates":[4.704299,52.56927]},"properties":{"type":"charge","layer":"passenger","locationId":"e145e58b-3be3-4577-8b34-508f60542c94","name":"TNLP009537 - t Kieftenland 29, Limmen","address":"29 t Kieftenland","city":"Limmen","operatorName":"TotalEnergies","maxPowerKw":13,"isMegawatt":false,"status":"AVAILABLE","source":"ndw"}},{"type":"Feature","geometry":{"type":"Point","coordinates":[4.678271,52.55448]},"properties":{"type":"charge","layer":"passenger","locationId":"ec90efc9-5791-473c-9e3f-00ad69891505","name":"PP005592 - Bloemgaarde 21, Castricum","address":"21 Bloemgaarde","city":"Castricum","operatorName":"TotalEnergies","maxPowerKw":13,"isMegawatt":false,"status":"AVAILABLE","source":"ndw"}},{"type":"Feature","geometry":{"type":"Point","coordinates":[4.66124,52.54046]},"properties":{"type":"charge","layer":"passenger","locationId":"6c15e1c1-3d54-4ce6-8c31-deb83b4fc279","name":"TNLP006084 - Oude Haarlemmerweg 61, Castricum","address":"61 Oude Haarlemmerweg","city":"Castricum","operatorName":"TotalEnergies","maxPowerKw":13,"isMegawatt":false,"status":"AVAILABLE","source":"ndw"}},{"type":"Feature","geometry":{"type":"Point","coordinates":[4.7296214,52.5625536]},"properties":{"type":"charge","layer":"passenger","locationId":"1073","name":"Shell Recharge NL Verdistraat 1","address":"Verdistraat 1","city":"Akersloot","operatorName":"Ubitricity","maxPowerKw":22,"isMegawatt":false,"status":"AVAILABLE","source":"ndw","priceKwh":0.266}},{"type":"Feature","geometry":{"type":"Point","coordinates":[4.67038,52.55468]},"properties":{"type":"charge","layer":"passenger","locationId":"318","name":"Shell Recharge NL Oranjelaan 4","address":"Oranjelaan 4","city":"Castricum","operatorName":"Ubitricity","maxPowerKw":11,"isMegawatt":false,"status":"AVAILABLE","source":"ndw","priceKwh":0.388}},{"type":"Feature","geometry":{"type":"Point","coordinates":[4.702357,52.573635]},"properties":{"type":"charge","layer":"passenger","locationId":"07cf4b48-def4-43bf-9973-ff579ffd8639","name":"TNLP008517 - Lage Weide 3a 121, Limmen","address":"3a 121 Lage Weide","city":"Limmen","operatorName":"TotalEnergies","maxPowerKw":14,"isMegawatt":false,"status":"AVAILABLE","source":"ndw"}},{"type":"Feature","geometry":{"type":"Point","coordinates":[4.735094,52.55983]},"properties":{"type":"charge","layer":"passenger","locationId":"9470a905-0e96-4323-9c58-ef5fb5d8c99c","name":"TNLP009573 - Kerklaan 9 A, Akersloot","address":"9 A Kerklaan","city":"Akersloot","operatorName":"TotalEnergies","maxPowerKw":13,"isMegawatt":false,"status":"AVAILABLE","source":"ndw"}},{"type":"Feature","geometry":{"type":"Point","coordinates":[4.647515,52.560436]},"properties":{"type":"charge","layer":"passenger","locationId":"f4372545-e160-44dd-8317-d4cebeee32e3","name":"TNLP034051","address":"Eikenhorst 37","city":"Castricum","operatorName":"TotalEnergies","maxPowerKw":14,"isMegawatt":false,"status":"AVAILABLE","source":"ndw"}},{"type":"Feature","geometry":{"type":"Point","coordinates":[4.73164,52.56344]},"properties":{"type":"charge","layer":"passenger","locationId":"8ce516cf-8b14-4177-be9b-6952ad31cc8a","name":"PP001839 - Rembrandtsingel 3A, Akersloot","address":"3A Rembrandtsingel","city":"Akersloot","operatorName":"TotalEnergies","maxPowerKw":11,"isMegawatt":false,"status":"AVAILABLE","source":"ndw"}},{"type":"Feature","geometry":{"type":"Point","coordinates":[4.67826,52.5451]},"properties":{"type":"charge","layer":"passenger","locationId":"487","name":"Shell Recharge NL Dorcamp 25","address":"Dorcamp 25","city":"Castricum","operatorName":"Ubitricity","maxPowerKw":11,"isMegawatt":false,"status":"AVAILABLE","source":"ndw","priceKwh":0.388}},{"type":"Feature","geometry":{"type":"Point","coordinates":[4.698227,52.57035]},"properties":{"type":"charge","layer":"passenger","locationId":"8226ddc0-b734-4bb0-b4f4-07bddf13e3b8","name":"TNLP008140 - Rooinap 10, Limmen","address":"10 Rooinap","city":"Limmen","operatorName":"TotalEnergies","maxPowerKw":13,"isMegawatt":false,"status":"AVAILABLE","source":"ndw"}},{"type":"Feature","geometry":{"type":"Point","coordinates":[4.6987692,52.572802]},"properties":{"type":"charge","layer":"passenger","locationId":"891","name":"Shell Recharge NL Zonnedauw 3","address":"Zonnedauw 3","city":"Limmen","operatorName":"Ubitricity","maxPowerKw":22,"isMegawatt":false,"status":"AVAILABLE","source":"ndw","priceKwh":0.266}},{"type":"Feature","geometry":{"type":"Point","coordinates":[4.66858,52.55348]},"properties":{"type":"charge","layer":"passenger","locationId":"322","name":"Shell Recharge NL Louise de Colignystraat 2","address":"Louise de Colignystraat 2","city":"Castricum","operatorName":"Ubitricity","maxPowerKw":11,"isMegawatt":false,"status":"CHARGING","source":"ndw","priceKwh":0.388}},{"type":"Feature","geometry":{"type":"Point","coordinates":[4.675214,52.54879]},"properties":{"type":"charge","layer":"passenger","locationId":"3e8d0836-5981-4a19-9f23-c1d0fa613679","name":"TNLP006638 - Sans Souci 93, Castricum","address":"93 Sans Souci","city":"Castricum","operatorName":"TotalEnergies","maxPowerKw":13,"isMegawatt":false,"status":"AVAILABLE","source":"ndw"}},{"type":"Feature","geometry":{"type":"Point","coordinates":[4.685619,52.575745]},"properties":{"type":"charge","layer":"passenger","locationId":"1b01a729-648e-4c16-b58b-9417a70dab20","name":"TNLP008266 - Pageveld 21, Limmen","address":"21 Pageveld","city":"Limmen","operatorName":"TotalEnergies","maxPowerKw":14,"isMegawatt":false,"status":"AVAILABLE","source":"ndw"}},{"type":"Feature","geometry":{"type":"Point","coordinates":[4.681552,52.545933]},"properties":{"type":"charge","layer":"passenger","locationId":"ac234d07-aeb3-42e5-947e-37f8a0be7f75","name":"PP005614 - Belle van Zuylenlaan 77, Castricum","address":"77 Belle van Zuylenlaan","city":"Castricum","operatorName":"TotalEnergies","maxPowerKw":13,"isMegawatt":false,"status":"AVAILABLE","source":"ndw"}},{"type":"Feature","geometry":{"type":"Point","coordinates":[4.6634269,52.5549262]},"properties":{"type":"charge","layer":"passenger","locationId":"147","name":"Shell Recharge NL Eerste Groenelaan 50","address":"Eerste Groenelaan 50","city":"Castricum","operatorName":"Ubitricity","maxPowerKw":11,"isMegawatt":false,"status":"AVAILABLE","source":"ndw","priceKwh":0.388}},{"type":"Feature","geometry":{"type":"Point","coordinates":[4.668277,52.546432]},"properties":{"type":"charge","layer":"passenger","locationId":"573c8eb6-bd43-4c10-9036-15e400d09573","name":"PP005588 - Van Hoockerkenstraat 12, Castricum","address":"12 Van Hoockerkenstraat","city":"Castricum","operatorName":"TotalEnergies","maxPowerKw":13,"isMegawatt":false,"status":"AVAILABLE","source":"ndw"}},{"type":"Feature","geometry":{"type":"Point","coordinates":[4.67012,52.54451]},"properties":{"type":"charge","layer":"passenger","locationId":"bd58672d-9c30-4c85-a8a8-e0e647d4974d","name":"TNLP009347 - Breedeweg 50, Castricum","address":"50 Breedeweg","city":"Castricum","operatorName":"TotalEnergies","maxPowerKw":15,"isMegawatt":false,"status":"AVAILABLE","source":"ndw"}},{"type":"Feature","geometry":{"type":"Point","coordinates":[4.677298,52.551899]},"properties":{"type":"charge","layer":"passenger","locationId":"452ebba2651c41475cc47a1fec14d1f4","name":"Henri Dunantsingel 1","address":"Henri Dunantsingel 1","city":"Castricum","operatorName":"Vattenfall InCharge","maxPowerKw":11,"isMegawatt":false,"status":"CHARGING","source":"ndw"}},{"type":"Feature","geometry":{"type":"Point","coordinates":[4.722943,52.547629]},"properties":{"type":"charge","layer":"passenger","locationId":"69afbdd6a59b7c858b2f1176","name":"Van der Valk - Akersloot - Charging Stations","address":"Geesterweg 1","city":"Akersloot","operatorName":"Valk Energy","maxPowerKw":11,"isMegawatt":false,"status":"AVAILABLE","source":"ndw","priceKwh":0.59}},{"type":"Feature","geometry":{"type":"Point","coordinates":[4.6656211,52.5434637]},"properties":{"type":"charge","layer":"passenger","locationId":"2249","name":"Shell Recharge NL Meester Nijsenstraat 2","address":"Meester Nijsenstraat 2","city":"Castricum","operatorName":"Ubitricity","maxPowerKw":22,"isMegawatt":false,"status":"AVAILABLE","source":"ndw","priceKwh":0.266}},{"type":"Feature","geometry":{"type":"Point","coordinates":[4.727403,52.555847]},"properties":{"type":"charge","layer":"passenger","locationId":"a3d0305e-53b4-4df2-a09f-7012843f890f","name":"TNLP006652 - Delving 11, Akersloot","address":"11 Delving","city":"Akersloot","operatorName":"TotalEnergies","maxPowerKw":13,"isMegawatt":false,"status":"AVAILABLE","source":"ndw"}},{"type":"Feature","geometry":{"type":"Point","coordinates":[4.683942,52.547623]},"properties":{"type":"charge","layer":"passenger","locationId":"ca9c6955-830b-413c-95f4-665070bdcba1","name":"TNLP008344 - Laan van Albert's Hoeve 138, Castricum","address":"138 Laan van Albert's Hoeve","city":"Castricum","operatorName":"TotalEnergies","maxPowerKw":14,"isMegawatt":false,"status":"AVAILABLE","source":"ndw"}},{"type":"Feature","geometry":{"type":"Point","coordinates":[4.664822,52.554745]},"properties":{"type":"charge","layer":"passenger","locationId":"082b8f78-5bd1-4caa-9d34-f1f0dcd3e628","name":"TNLP008542 - Eerste Groenelaan 63, Castricum","address":"63 Eerste Groenelaan","city":"Castricum","operatorName":"TotalEnergies","maxPowerKw":14,"isMegawatt":false,"status":"AVAILABLE","source":"ndw"}},{"type":"Feature","geometry":{"type":"Point","coordinates":[4.729498,52.557316]},"properties":{"type":"charge","layer":"passenger","locationId":"46ce4dc2-72e7-4f4e-829f-92401678d214","name":"TNLP034055","address":"Lange Dresch 3","city":"Akersloot","operatorName":"TotalEnergies","maxPowerKw":14,"isMegawatt":false,"status":"CHARGING","source":"ndw"}},{"type":"Feature","geometry":{"type":"Point","coordinates":[4.683257,52.55334]},"properties":{"type":"charge","layer":"passenger","locationId":"5f880af9-d025-4ba8-b819-80deb1fe7362","name":"TNLP008482 - De Bloemen 61, Castricum","address":"61 De Bloemen","city":"Castricum","operatorName":"TotalEnergies","maxPowerKw":14,"isMegawatt":false,"status":"AVAILABLE","source":"ndw"}},{"type":"Feature","geometry":{"type":"Point","coordinates":[4.7316493,52.554245]},"properties":{"type":"charge","layer":"passenger","locationId":"1680","name":"Shell Recharge NL Koningsweg t.h.v. Speenkruidlaan 1","address":"Koningsweg t.h.v. Speenkruidlaan 1","city":"Akersloot","operatorName":"Ubitricity","maxPowerKw":22,"isMegawatt":false,"status":"AVAILABLE","source":"ndw","priceKwh":0.266}},{"type":"Feature","geometry":{"type":"Point","coordinates":[4.674169,52.548295]},"properties":{"type":"charge","layer":"passenger","locationId":"d10e14da70d0c7e13c0a57558e211771","name":"C.F. Smeetslaan 99","address":"C.F. Smeetslaan 99","city":"Castricum","operatorName":"Vattenfall InCharge","maxPowerKw":11,"isMegawatt":false,"status":"UNAVAILABLE","source":"ndw"}},{"type":"Feature","geometry":{"type":"Point","coordinates":[4.686073,52.548878]},"properties":{"type":"charge","layer":"passenger","locationId":"e427b706-b4d6-4eac-a17d-30ecf1ff38a0","name":"PP005550 - Fien de la Marstraat 2, Castricum","address":"2 Fien de la Marstraat","city":"Castricum","operatorName":"TotalEnergies","maxPowerKw":13,"isMegawatt":false,"status":"AVAILABLE","source":"ndw"}},{"type":"Feature","geometry":{"type":"Point","coordinates":[4.671171,52.5513386]},"properties":{"type":"charge","layer":"passenger","locationId":"2211","name":"Shell Recharge NL Willem de Rijkelaan 18","address":"Willem de Rijkelaan 18","city":"Castricum","operatorName":"Ubitricity","maxPowerKw":22,"isMegawatt":false,"status":"AVAILABLE","source":"ndw","priceKwh":0.266}},{"type":"Feature","geometry":{"type":"Point","coordinates":[4.722702,52.547693]},"properties":{"type":"charge","layer":"passenger","locationId":"NLLOC000096","name":"Allego - Van der Valk Akersloot A9","address":"Geesterweg 1","city":"Akersloot","operatorName":"Allego","maxPowerKw":50,"isMegawatt":false,"status":"AVAILABLE","source":"ndw","priceKwh":0.655}},{"type":"Feature","geometry":{"type":"Point","coordinates":[4.73284,52.554333]},"properties":{"type":"charge","layer":"passenger","locationId":"c1934e42-de46-44dc-a008-e379b0785266","name":"TNLP006990 - Boschweg 70, Akersloot","address":"70 Boschweg","city":"Akersloot","operatorName":"TotalEnergies","maxPowerKw":13,"isMegawatt":false,"status":"CHARGING","source":"ndw"}},{"type":"Feature","geometry":{"type":"Point","coordinates":[4.647265,52.561264]},"properties":{"type":"charge","layer":"passenger","locationId":"e4de391e-ff1e-4253-b17c-61b1cc37c1ce","name":"TNLP009203 - Koningsduin 17, Castricum","address":"17 Koningsduin","city":"Castricum","operatorName":"TotalEnergies","maxPowerKw":13,"isMegawatt":false,"status":"AVAILABLE","source":"ndw"}},{"type":"Feature","geometry":{"type":"Point","coordinates":[4.644897,52.532322]},"properties":{"type":"charge","layer":"passenger","locationId":"69cbd0ba0007899c767ae0df","name":"Bezoekersladers Geversduin","address":"Beverwijkerstraatweg 205","city":"Castricum","operatorName":"NXT Charging Solutions","maxPowerKw":22,"isMegawatt":false,"status":"CHARGING","source":"ndw","priceKwh":0.56}},{"type":"Feature","geometry":{"type":"Point","coordinates":[4.680808,52.544834]},"properties":{"type":"charge","layer":"passenger","locationId":"33ec296e-1fcb-44c6-a9ff-5c6d0357e938","name":"TNLP006569 - Oosterweide 4, Castricum","address":"4 Oosterweide","city":"Castricum","operatorName":"TotalEnergies","maxPowerKw":13,"isMegawatt":false,"status":"AVAILABLE","source":"ndw"}},{"type":"Feature","geometry":{"type":"Point","coordinates":[4.647764,52.560226]},"properties":{"type":"charge","layer":"passenger","locationId":"6acc8fa5-b9ad-4d59-95dd-42d54d95f7f5","name":"PP005009 - Eikenhorst 29, Castricum","address":"29 Eikenhorst","city":"Castricum","operatorName":"TotalEnergies","maxPowerKw":13,"isMegawatt":false,"status":"AVAILABLE","source":"ndw"}},{"type":"Feature","geometry":{"type":"Point","coordinates":[4.684273,52.57232]},"properties":{"type":"charge","layer":"passenger","locationId":"1dfaa4cc-16af-429c-b4eb-1e88bd45301e","name":"TNLP009147 - Jasmijnlint 26, Limmen","address":"26 Jasmijnlint","city":"Limmen","operatorName":"TotalEnergies","maxPowerKw":15,"isMegawatt":false,"status":"AVAILABLE","source":"ndw"}},{"type":"Feature","geometry":{"type":"Point","coordinates":[4.687329,52.575794]},"properties":{"type":"charge","layer":"passenger","locationId":"9f4c832f-48d0-4402-bc03-2f1fa3bc83d3","name":"TNLP009892 - Terwiel 1, Limmen","address":"1 Terwiel","city":"Limmen","operatorName":"TotalEnergies","maxPowerKw":13,"isMegawatt":false,"status":"AVAILABLE","source":"ndw"}},{"type":"Feature","geometry":{"type":"Point","coordinates":[4.648938,52.560085]},"properties":{"type":"charge","layer":"passenger","locationId":"ba63c0f5-1ea2-4a01-a536-8cb6848c6929","name":"TNLP008435 - Eikenhorst 1, Castricum","address":"1 Eikenhorst","city":"Castricum","operatorName":"TotalEnergies","maxPowerKw":13,"isMegawatt":false,"status":"AVAILABLE","source":"ndw"}},{"type":"Feature","geometry":{"type":"Point","coordinates":[4.652123,52.559685]},"properties":{"type":"charge","layer":"passenger","locationId":"804c963d-0792-4bd9-af04-a1cc58853869","name":"PP005613 - Duinmeiershof 8, Castricum","address":"8 Duinmeiershof","city":"Castricum","operatorName":"TotalEnergies","maxPowerKw":13,"isMegawatt":false,"status":"AVAILABLE","source":"ndw"}},{"type":"Feature","geometry":{"type":"Point","coordinates":[4.6859,52.54881]},"properties":{"type":"charge","layer":"passenger","locationId":"4a435551e6c19e5cf0286226997c807e","name":"Fien de la Marstraat 8","address":"Fien de la Marstraat 8","city":"Castricum","operatorName":"Vattenfall InCharge","maxPowerKw":11,"isMegawatt":false,"status":"AVAILABLE","source":"ndw"}},{"type":"Feature","geometry":{"type":"Point","coordinates":[4.682,52.5533]},"properties":{"type":"charge","layer":"passenger","locationId":"489","name":"Shell Recharge NL Helmbloem 2","address":"Helmbloem 2","city":"Castricum","operatorName":"Ubitricity","maxPowerKw":11,"isMegawatt":false,"status":"AVAILABLE","source":"ndw","priceKwh":0.388}},{"type":"Feature","geometry":{"type":"Point","coordinates":[4.678546,52.547626]},"properties":{"type":"charge","layer":"passenger","locationId":"0bccec59-a084-468c-9f68-94b367e1e2a2","name":"TNLP007960 - Nansenlaan 49, Castricum","address":"49 Nansenlaan","city":"Castricum","operatorName":"TotalEnergies","maxPowerKw":13,"isMegawatt":false,"status":"AVAILABLE","source":"ndw"}},{"type":"Feature","geometry":{"type":"Point","coordinates":[4.665997,52.549034]},"properties":{"type":"charge","layer":"passenger","locationId":"0d364b63-be1c-4f62-aa9d-486cc8cf448b","name":"TNLP005889 - Koningin Wilhelminalaan 21, Castricum","address":"21 Koningin Wilhelminalaan","city":"Castricum","operatorName":"TotalEnergies","maxPowerKw":13,"isMegawatt":false,"status":"AVAILABLE","source":"ndw"}},{"type":"Feature","geometry":{"type":"Point","coordinates":[4.65395,52.56559]},"properties":{"type":"charge","layer":"passenger","locationId":"5B1FA46D-1EFE-4011-98D5-AD569D255880","name":"Eneco eMobility Heereweg Castricum 38 Castricum","address":"Heereweg Castricum 38","city":"Castricum","operatorName":"Eneco","maxPowerKw":22,"isMegawatt":false,"status":"AVAILABLE","source":"ndw","priceKwh":0.32}},{"type":"Feature","geometry":{"type":"Point","coordinates":[4.66269,52.54582]},"properties":{"type":"charge","layer":"passenger","locationId":"9f69c2b4-f0c9-4e22-bd7a-405d392cfdd3","name":"PP004017 - Verlegde Overtoom 17, Castricum","address":"17 Verlegde Overtoom","city":"Castricum","operatorName":"TotalEnergies","maxPowerKw":13,"isMegawatt":false,"status":"AVAILABLE","source":"ndw"}},{"type":"Feature","geometry":{"type":"Point","coordinates":[4.694904,52.572495]},"properties":{"type":"charge","layer":"passenger","locationId":"7f1f9c50-08c1-4184-8f5d-548ca23c1b1f","name":"TNLP006078 - Middenweg 18, Limmen","address":"18 Middenweg","city":"Limmen","operatorName":"TotalEnergies","maxPowerKw":13,"isMegawatt":false,"status":"AVAILABLE","source":"ndw"}},{"type":"Feature","geometry":{"type":"Point","coordinates":[4.677604,52.54418]},"properties":{"type":"charge","layer":"passenger","locationId":"83acc0d7-4a3a-4c29-9297-b0280abb5b46","name":"TNLP007963 - Ossecamp 27, Castricum","address":"27 Ossecamp","city":"Castricum","operatorName":"TotalEnergies","maxPowerKw":13,"isMegawatt":false,"status":"AVAILABLE","source":"ndw"}},{"type":"Feature","geometry":{"type":"Point","coordinates":[4.651453,52.55832]},"properties":{"type":"charge","layer":"passenger","locationId":"b9d93f2a-9b92-4e68-9c48-6c5ea1ba9935","name":"Laadplein - PP005043 - Duinakker 25, Castricum","address":"25 Duinakker","city":"Castricum","operatorName":"TotalEnergies","maxPowerKw":15,"isMegawatt":false,"status":"AVAILABLE","source":"ndw"}},{"type":"Feature","geometry":{"type":"Point","coordinates":[4.664439,52.55133]},"properties":{"type":"charge","layer":"passenger","locationId":"52e9f1c3-4bd9-42ac-80c4-630c8320cff4","name":"TNLP006227 - Torenstraat 85, Castricum","address":"85 Torenstraat","city":"Castricum","operatorName":"TotalEnergies","maxPowerKw":13,"isMegawatt":false,"status":"AVAILABLE","source":"ndw"}},{"type":"Feature","geometry":{"type":"Point","coordinates":[4.674112,52.54791]},"properties":{"type":"charge","layer":"passenger","locationId":"3c744b23-fbf9-40d1-9354-32c3f4c4c86f","name":"TNLP008000 - De Loet 2, Castricum","address":"2 De Loet","city":"Castricum","operatorName":"TotalEnergies","maxPowerKw":13,"isMegawatt":false,"status":"AVAILABLE","source":"ndw"}},{"type":"Feature","geometry":{"type":"Point","coordinates":[4.669432,52.54914]},"properties":{"type":"charge","layer":"passenger","locationId":"37f70d4b-955e-420a-9cac-0b9c67d7ba52","name":"TNLP009254 - Dokter van Nieveltweg 2A, Castricum","address":"2A Dokter van Nieveltweg","city":"Castricum","operatorName":"TotalEnergies","maxPowerKw":15,"isMegawatt":false,"status":"AVAILABLE","source":"ndw"}},{"type":"Feature","geometry":{"type":"Point","coordinates":[4.668742,52.556046]},"properties":{"type":"charge","layer":"passenger","locationId":"18fc6b48-10a9-4b83-9177-d7043951411f","name":"TNLP008477 - Zoutmanlaan 17, Castricum","address":"17 Zoutmanlaan","city":"Castricum","operatorName":"TotalEnergies","maxPowerKw":14,"isMegawatt":false,"status":"AVAILABLE","source":"ndw"}},{"type":"Feature","geometry":{"type":"Point","coordinates":[4.660989,52.543636]},"properties":{"type":"charge","layer":"passenger","locationId":"5da1d684-e2aa-42c2-8678-6ed1680dbea0","name":"TNLP008552 - Beverwijkerstraatweg 6, Castricum","address":"6 Beverwijkerstraatweg","city":"Castricum","operatorName":"TotalEnergies","maxPowerKw":14,"isMegawatt":false,"status":"AVAILABLE","source":"ndw"}},{"type":"Feature","geometry":{"type":"Point","coordinates":[4.701474,52.5708]},"properties":{"type":"charge","layer":"passenger","locationId":"44b327a5-315e-4cf1-b338-e63326b5236b","name":"TNLP005745 - Koningsdam 1, Limmen","address":"1 Koningsdam","city":"Limmen","operatorName":"TotalEnergies","maxPowerKw":13,"isMegawatt":false,"status":"UNAVAILABLE","source":"ndw"}},{"type":"Feature","geometry":{"type":"Point","coordinates":[4.726199,52.55913]},"properties":{"type":"charge","layer":"passenger","locationId":"7b756ecf-25b3-4334-9fee-0bc7e05ec78b","name":"TNLP005886 - Startingerweg 32, Akersloot","address":"32 Startingerweg","city":"Akersloot","operatorName":"TotalEnergies","maxPowerKw":13,"isMegawatt":false,"status":"AVAILABLE","source":"ndw"}},{"type":"Feature","geometry":{"type":"Point","coordinates":[4.67781,52.55338]},"properties":{"type":"charge","layer":"passenger","locationId":"1667","name":"Shell Recharge NL Zwanebloem 11","address":"Zwanebloem 11","city":"Castricum","operatorName":"Ubitricity","maxPowerKw":11,"isMegawatt":false,"status":"AVAILABLE","source":"ndw","priceKwh":0.388}},{"type":"Feature","geometry":{"type":"Point","coordinates":[4.677439,52.54269]},"properties":{"type":"charge","layer":"passenger","locationId":"f72a2812-0ca3-4508-926d-dc1b0b659d6a","name":"TNLP015235 - Voorweide 29, Castricum","address":"29 Voorweide","city":"Castricum","operatorName":"TotalEnergies","maxPowerKw":13,"isMegawatt":false,"status":"AVAILABLE","source":"ndw"}},{"type":"Feature","geometry":{"type":"Point","coordinates":[4.662318,52.550076]},"properties":{"type":"charge","layer":"passenger","locationId":"09e045c6-529e-436f-8d79-6121b467b53a","name":"TNLP006625 - Burgemeester Lommenstraat 24, Castricum","address":"24 Burgemeester Lommenstraat","city":"Castricum","operatorName":"TotalEnergies","maxPowerKw":13,"isMegawatt":false,"status":"AVAILABLE","source":"ndw"}},{"type":"Feature","geometry":{"type":"Point","coordinates":[4.65593,52.55844]},"properties":{"type":"charge","layer":"passenger","locationId":"8b12e257-7310-41ba-b2bf-1b8ba2689a38","name":"PP004002 - Van der Mijleweg 27, Castricum","address":"27 Van der Mijleweg","city":"Castricum","operatorName":"TotalEnergies","maxPowerKw":13,"isMegawatt":false,"status":"AVAILABLE","source":"ndw"}},{"type":"Feature","geometry":{"type":"Point","coordinates":[4.67132,52.54797]},"properties":{"type":"charge","layer":"passenger","locationId":"8da29199-cf67-4aca-899b-5f35920623d3","name":"PP001210 - Wayenburgh 12, Castricum","address":"12 Wayenburgh","city":"Castricum","operatorName":"TotalEnergies","maxPowerKw":11,"isMegawatt":false,"status":"AVAILABLE","source":"ndw"}},{"type":"Feature","geometry":{"type":"Point","coordinates":[4.650096,52.55918]},"properties":{"type":"charge","layer":"passenger","locationId":"9233ac12-6651-4bac-89a2-3e94a0870095","name":"TNLP008644 - Duinmeiershof 34, Castricum","address":"34 Duinmeiershof","city":"Castricum","operatorName":"TotalEnergies","maxPowerKw":14,"isMegawatt":false,"status":"AVAILABLE","source":"ndw"}},{"type":"Feature","geometry":{"type":"Point","coordinates":[4.682107,52.548827]},"properties":{"type":"charge","layer":"passenger","locationId":"9744c955-4a79-402b-b9aa-10eb2a255946","name":"TNLP015209","address":"Harriët Freezerstraat 13","city":"Castricum","operatorName":"TotalEnergies","maxPowerKw":17,"isMegawatt":false,"status":"AVAILABLE","source":"ndw"}},{"type":"Feature","geometry":{"type":"Point","coordinates":[4.658176,52.54901]},"properties":{"type":"charge","layer":"passenger","locationId":"4f7b4c84-98b3-4633-89ad-c547284c8c0d","name":"TNLP009218 - Mient 41, Castricum","address":"41 Mient","city":"Castricum","operatorName":"TotalEnergies","maxPowerKw":13,"isMegawatt":false,"status":"AVAILABLE","source":"ndw"}},{"type":"Feature","geometry":{"type":"Point","coordinates":[4.668422,52.552513]},"properties":{"type":"charge","layer":"passenger","locationId":"604dd66b-0695-4caf-9897-84fd8a00eabb","name":"TNLP008355 - Juliana van Stolbergstraat 5, Castricum","address":"5 Juliana van Stolbergstraat","city":"Castricum","operatorName":"TotalEnergies","maxPowerKw":13,"isMegawatt":false,"status":"CHARGING","source":"ndw"}},{"type":"Feature","geometry":{"type":"Point","coordinates":[4.687818,52.55016]},"properties":{"type":"charge","layer":"passenger","locationId":"74e61b97-a7ae-4f54-81c1-f1ee36134bdf","name":"TNLP006587 - Rosa Spierstraat 1, Castricum","address":"1 Rosa Spierstraat","city":"Castricum","operatorName":"TotalEnergies","maxPowerKw":13,"isMegawatt":false,"status":"AVAILABLE","source":"ndw"}},{"type":"Feature","geometry":{"type":"Point","coordinates":[4.674068,52.55638]},"properties":{"type":"charge","layer":"passenger","locationId":"72f11130-f14c-4f90-8351-5e2acaa4e062","name":"TNLP006131 - Beethovensingel 35, Castricum","address":"35 Beethovensingel","city":"Castricum","operatorName":"TotalEnergies","maxPowerKw":15,"isMegawatt":false,"status":"AVAILABLE","source":"ndw"}},{"type":"Feature","geometry":{"type":"Point","coordinates":[4.689331,52.57075]},"properties":{"type":"charge","layer":"passenger","locationId":"4d4cc65e-ff41-40e1-8bf5-a11918f5eec1","name":"TNLP006115 - De Wieken 67, Limmen","address":"67 De Wieken","city":"Limmen","operatorName":"TotalEnergies","maxPowerKw":13,"isMegawatt":false,"status":"CHARGING","source":"ndw"}},{"type":"Feature","geometry":{"type":"Point","coordinates":[4.66521,52.54692]},"properties":{"type":"charge","layer":"passenger","locationId":"ea6851ae-24bb-4158-bd7f-a1aa6a62a015","name":"PP004006 - Dorpsstraat 69, Castricum","address":"69 Dorpsstraat","city":"Castricum","operatorName":"TotalEnergies","maxPowerKw":13,"isMegawatt":false,"status":"AVAILABLE","source":"ndw"}},{"type":"Feature","geometry":{"type":"Point","coordinates":[4.678047,52.555413]},"properties":{"type":"charge","layer":"passenger","locationId":"c227f748e9e6629ec9e2fb737ea20de2","name":"Plantenhove 59","address":"Plantenhove 59","city":"Castricum","operatorName":"Vattenfall InCharge","maxPowerKw":11,"isMegawatt":false,"status":"AVAILABLE","source":"ndw"}},{"type":"Feature","geometry":{"type":"Point","coordinates":[4.703945,52.572964]},"properties":{"type":"charge","layer":"passenger","locationId":"ea7d745d-ad6f-444e-8620-69b2eb211f13","name":"TNLP006450 - Lage Weide 105, Limmen","address":"105 Lage Weide","city":"Limmen","operatorName":"TotalEnergies","maxPowerKw":13,"isMegawatt":false,"status":"AVAILABLE","source":"ndw"}},{"type":"Feature","geometry":{"type":"Point","coordinates":[4.661545,52.55337]},"properties":{"type":"charge","layer":"passenger","locationId":"4f12153b-0b2b-4eba-a17f-ef0acb063347","name":"TNLP006637 - Kamperfoelielaan 19, Castricum","address":"19 Kamperfoelielaan","city":"Castricum","operatorName":"TotalEnergies","maxPowerKw":13,"isMegawatt":false,"status":"CHARGING","source":"ndw"}},{"type":"Feature","geometry":{"type":"Point","coordinates":[4.688949,52.548654]},"properties":{"type":"charge","layer":"passenger","locationId":"67cc3e3e0c025d4622e85559","name":"Arjan Smit 's station","address":"Jo Imminkstraat  6","city":"Castricum","operatorName":"E-Flux by Road","maxPowerKw":11,"isMegawatt":false,"status":"AVAILABLE","source":"ndw","priceKwh":0.54}},{"type":"Feature","geometry":{"type":"Point","coordinates":[4.69624,52.57116]},"properties":{"type":"charge","layer":"passenger","locationId":"998ce777-9d37-457b-b393-1805eb6896b2","name":"TNLP003623 - Roelat 78, Limmen","address":"78 Roelat","city":"Limmen","operatorName":"TotalEnergies","maxPowerKw":17,"isMegawatt":false,"status":"AVAILABLE","source":"ndw"}},{"type":"Feature","geometry":{"type":"Point","coordinates":[4.667432,52.548386]},"properties":{"type":"charge","layer":"passenger","locationId":"807a00cf-5275-4e2b-8c2d-44a3cc798fe0","name":"TNLP034277","address":"Koningin Wilhelminalaan 48","city":"Castricum","operatorName":"TotalEnergies","maxPowerKw":14,"isMegawatt":false,"status":"AVAILABLE","source":"ndw"}},{"type":"Feature","geometry":{"type":"Point","coordinates":[4.6592,52.55991]},"properties":{"type":"charge","layer":"passenger","locationId":"4c988e86-8851-48a8-b6ff-91006bc780f0","name":"PP004034 - Van Polanenlaan 8, Castricum","address":"8 Van Polanenlaan","city":"Castricum","operatorName":"TotalEnergies","maxPowerKw":15,"isMegawatt":false,"status":"AVAILABLE","source":"ndw"}},{"type":"Feature","geometry":{"type":"Point","coordinates":[4.675595,52.558376]},"properties":{"type":"charge","layer":"passenger","locationId":"5b087542-ae02-4378-8cec-0807bb36db15","name":"TNLP009496 - Tulpenveld 112, Castricum","address":"112 Tulpenveld","city":"Castricum","operatorName":"TotalEnergies","maxPowerKw":15,"isMegawatt":false,"status":"AVAILABLE","source":"ndw"}},{"type":"Feature","geometry":{"type":"Point","coordinates":[4.661873,52.550053]},"properties":{"type":"charge","layer":"passenger","locationId":"b4e688e8-1370-4cad-8ea5-ca5b0942e0d0","name":"TNLP009955 - Brink 32 a, Castricum","address":"32 a Brink","city":"Castricum","operatorName":"TotalEnergies","maxPowerKw":17,"isMegawatt":false,"status":"AVAILABLE","source":"ndw"}},{"type":"Feature","geometry":{"type":"Point","coordinates":[4.662501,52.540962]},"properties":{"type":"charge","layer":"passenger","locationId":"c05f49a9-8483-403d-981f-857229c48aa4","name":"TNLP009225 - Schinjer 23, Castricum","address":"23 Schinjer","city":"Castricum","operatorName":"TotalEnergies","maxPowerKw":13,"isMegawatt":false,"status":"AVAILABLE","source":"ndw"}},{"type":"Feature","geometry":{"type":"Point","coordinates":[4.6810658,52.5479204]},"properties":{"type":"charge","layer":"passenger","locationId":"1078","name":"Shell Recharge NL Augusta de Witstraat 31","address":"Augusta de Witstraat 31","city":"Castricum","operatorName":"Ubitricity","maxPowerKw":22,"isMegawatt":false,"status":"AVAILABLE","source":"ndw","priceKwh":0.266}},{"type":"Feature","geometry":{"type":"Point","coordinates":[4.694126,52.56839]},"properties":{"type":"charge","layer":"passenger","locationId":"9383ae32-1ea8-42ab-81a5-e70928e6ce43","name":"TNLP006624 - Enterij 23, Limmen","address":"23 Enterij","city":"Limmen","operatorName":"TotalEnergies","maxPowerKw":13,"isMegawatt":false,"status":"AVAILABLE","source":"ndw"}},{"type":"Feature","geometry":{"type":"Point","coordinates":[4.7259281,52.5575003]},"properties":{"type":"charge","layer":"passenger","locationId":"1277","name":"Shell Recharge NL Keizerskroon 3","address":"Keizerskroon 3","city":"Akersloot","operatorName":"Ubitricity","maxPowerKw":22,"isMegawatt":false,"status":"AVAILABLE","source":"ndw","priceKwh":0.266}},{"type":"Feature","geometry":{"type":"Point","coordinates":[4.66377,52.54651]},"properties":{"type":"charge","layer":"passenger","locationId":"498","name":"Shell Recharge NL Kerkpad 24","address":"Kerkpad 24","city":"Castricum","operatorName":"Ubitricity","maxPowerKw":11,"isMegawatt":false,"status":"AVAILABLE","source":"ndw","priceKwh":0.388}},{"type":"Feature","geometry":{"type":"Point","coordinates":[4.668304,52.55108]},"properties":{"type":"charge","layer":"passenger","locationId":"da6150d7-394c-4436-9f20-3b2ed8023508","name":"TNLP005666 - Willem de Zwijgerlaan 15, Castricum","address":"15 Willem de Zwijgerlaan","city":"Castricum","operatorName":"TotalEnergies","maxPowerKw":13,"isMegawatt":false,"status":"AVAILABLE","source":"ndw"}},{"type":"Feature","geometry":{"type":"Point","coordinates":[4.680225,52.55437]},"properties":{"type":"charge","layer":"passenger","locationId":"1d768306-f0ce-4920-9ccb-10ac6063812e","name":"TNLP009340 - De Bloemen 50, Castricum","address":"50 De Bloemen","city":"Castricum","operatorName":"TotalEnergies","maxPowerKw":13,"isMegawatt":false,"status":"AVAILABLE","source":"ndw"}},{"type":"Feature","geometry":{"type":"Point","coordinates":[4.687172,52.550945]},"properties":{"type":"charge","layer":"passenger","locationId":"5e8f05b9-17c4-45d1-aaf8-9f13bb822690","name":"TNLP006403 - De Bloemen 67, Castricum","address":"67 De Bloemen","city":"Castricum","operatorName":"TotalEnergies","maxPowerKw":15,"isMegawatt":false,"status":"AVAILABLE","source":"ndw"}},{"type":"Feature","geometry":{"type":"Point","coordinates":[4.697092,52.569722]},"properties":{"type":"charge","layer":"passenger","locationId":"68790167573685595252a47b","name":"Laadpaal openbaar","address":"Jan Valkeringlaan 17","city":"Limmen","operatorName":"E-Flux by Road","maxPowerKw":22,"isMegawatt":false,"status":"AVAILABLE","source":"ndw","priceKwh":0.47}},{"type":"Feature","geometry":{"type":"Point","coordinates":[4.677566,52.55967]},"properties":{"type":"charge","layer":"passenger","locationId":"73f9ac71-0489-4199-a24f-3f0365638c0f","name":"TNLP005661 - Hyacintenveld 20, Castricum","address":"20 Hyacintenveld","city":"Castricum","operatorName":"TotalEnergies","maxPowerKw":13,"isMegawatt":false,"status":"AVAILABLE","source":"ndw"}},{"type":"Feature","geometry":{"type":"Point","coordinates":[4.6967,52.57382]},"properties":{"type":"charge","layer":"passenger","locationId":"6fb3337a1587a0da7e2f6938bc3eb26e","name":"Ratelaar t.h.v. Rietorchis 17","address":"Ratelaar t.h.v. Rietorchis 17","city":"Limmen","operatorName":"Vattenfall InCharge","maxPowerKw":11,"isMegawatt":false,"status":"AVAILABLE","source":"ndw"}},{"type":"Feature","geometry":{"type":"Point","coordinates":[4.67428,52.55415]},"properties":{"type":"charge","layer":"passenger","locationId":"516","name":"Shell Recharge NL Händelstraat 30","address":"Händelstraat 30","city":"Castricum","operatorName":"Ubitricity","maxPowerKw":11,"isMegawatt":false,"status":"AVAILABLE","source":"ndw","priceKwh":0.388}},{"type":"Feature","geometry":{"type":"Point","coordinates":[4.696128,52.568016]},"properties":{"type":"charge","layer":"passenger","locationId":"ed709b3df9939aeb26f230d22a90360d","name":"Enterij 16","address":"Enterij 16","city":"Limmen","operatorName":"Vattenfall InCharge","maxPowerKw":11,"isMegawatt":false,"status":"AVAILABLE","source":"ndw"}},{"type":"Feature","geometry":{"type":"Point","coordinates":[4.6927,52.57556]},"properties":{"type":"charge","layer":"passenger","locationId":"0f8ad957-d940-4ce9-ae2d-aacfbdd8a308","name":"TNLP006534 - Wilgenlint 9, Limmen","address":"9 Wilgenlint","city":"Limmen","operatorName":"TotalEnergies","maxPowerKw":13,"isMegawatt":false,"status":"AVAILABLE","source":"ndw"}},{"type":"Feature","geometry":{"type":"Point","coordinates":[4.677339,52.551945]},"properties":{"type":"charge","layer":"passenger","locationId":"87be663d-7e41-41c5-bdd8-ac170741ea51","name":"TNLP007962 - Henri Dunantsingel 1, Castricum","address":"1 Henri Dunantsingel","city":"Castricum","operatorName":"TotalEnergies","maxPowerKw":13,"isMegawatt":false,"status":"AVAILABLE","source":"ndw"}},{"type":"Feature","geometry":{"type":"Point","coordinates":[4.6947,52.56916]},"properties":{"type":"charge","layer":"passenger","locationId":"a103967200382495e0296449fab83588","name":"Middenweg 17","address":"Middenweg 17","city":"Limmen","operatorName":"Vattenfall InCharge","maxPowerKw":11,"isMegawatt":false,"status":"AVAILABLE","source":"ndw"}},{"type":"Feature","geometry":{"type":"Point","coordinates":[4.679939,52.55121]},"properties":{"type":"charge","layer":"passenger","locationId":"3eef0847-1daa-4bdf-a7ed-80cee910f0c4","name":"PP005591 - Henri Dunantsingel 82, Castricum","address":"82 Henri Dunantsingel","city":"Castricum","operatorName":"TotalEnergies","maxPowerKw":13,"isMegawatt":false,"status":"AVAILABLE","source":"ndw"}},{"type":"Feature","geometry":{"type":"Point","coordinates":[4.691145,52.57526]},"properties":{"type":"charge","layer":"passenger","locationId":"f20b29ec-f9b3-4258-bdaf-b3e0f51cc28f","name":"TNLP008551 - Kastanjelint 21, Limmen","address":"21 Kastanjelint","city":"Limmen","operatorName":"TotalEnergies","maxPowerKw":14,"isMegawatt":false,"status":"AVAILABLE","source":"ndw"}},{"type":"Feature","geometry":{"type":"Point","coordinates":[4.697463,52.57385]},"properties":{"type":"charge","layer":"passenger","locationId":"4484d858-24c9-47b1-8659-596f72aae112","name":"TNLP008240 - Ratelaar 1, Limmen","address":"1 Ratelaar","city":"Limmen","operatorName":"TotalEnergies","maxPowerKw":13,"isMegawatt":false,"status":"AVAILABLE","source":"ndw"}},{"type":"Feature","geometry":{"type":"Point","coordinates":[4.65654,52.55971]},"properties":{"type":"charge","layer":"passenger","locationId":"1651","name":"Shell Recharge NL Van Bergenlaan 10","address":"Van Bergenlaan 10","city":"Castricum","operatorName":"Ubitricity","maxPowerKw":11,"isMegawatt":false,"status":"UNAVAILABLE","source":"ndw","priceKwh":0.388}},{"type":"Feature","geometry":{"type":"Point","coordinates":[4.68358,52.548107]},"properties":{"type":"charge","layer":"passenger","locationId":"46beb3ca-f817-459e-9905-f2e53d291a55","name":"TNLP034693","address":"Henriëtte Roland Holststraat 55","city":"Castricum","operatorName":"TotalEnergies","maxPowerKw":14,"isMegawatt":false,"status":"AVAILABLE","source":"ndw"}},{"type":"Feature","geometry":{"type":"Point","coordinates":[4.729117,52.55667]},"properties":{"type":"charge","layer":"passenger","locationId":"43df9f5e-5fba-48f5-9c0c-3b5a33c27946","name":"TNLP009313 - Lange Dresch 31, Akersloot","address":"31 Lange Dresch","city":"Akersloot","operatorName":"TotalEnergies","maxPowerKw":13,"isMegawatt":false,"status":"AVAILABLE","source":"ndw"}},{"type":"Feature","geometry":{"type":"Point","coordinates":[4.672339,52.553954]},"properties":{"type":"charge","layer":"passenger","locationId":"ddf3a1c4-3139-4d51-930d-aa7d6d01f82b","name":"TNLP034268","address":"Oranjelaan 42","city":"Castricum","operatorName":"TotalEnergies","maxPowerKw":14,"isMegawatt":false,"status":"AVAILABLE","source":"ndw"}},{"type":"Feature","geometry":{"type":"Point","coordinates":[4.666214,52.54415]},"properties":{"type":"charge","layer":"passenger","locationId":"a5689629-effa-4e98-a9e3-9c4cd6a8918f","name":"TNLP006208 - Peter Duymstraat 1, Castricum","address":"1 Peter Duymstraat","city":"Castricum","operatorName":"TotalEnergies","maxPowerKw":13,"isMegawatt":false,"status":"AVAILABLE","source":"ndw"}},{"type":"Feature","geometry":{"type":"Point","coordinates":[4.73013,52.55982]},"properties":{"type":"charge","layer":"passenger","locationId":"092e1594-d732-491f-a266-4cb5bd6df56b","name":"PP005015 - Mendelssohnplein 17, Akersloot","address":"17 Mendelssohnplein","city":"Akersloot","operatorName":"TotalEnergies","maxPowerKw":13,"isMegawatt":false,"status":"AVAILABLE","source":"ndw"}},{"type":"Feature","geometry":{"type":"Point","coordinates":[4.670585,52.545757]},"properties":{"type":"charge","layer":"passenger","locationId":"e7d81ae3-4145-43a9-82ee-1ff442ccd5b0","name":"PP005011 - Cieweg 24, Castricum","address":"24 Cieweg","city":"Castricum","operatorName":"TotalEnergies","maxPowerKw":13,"isMegawatt":false,"status":"AVAILABLE","source":"ndw"}},{"type":"Feature","geometry":{"type":"Point","coordinates":[4.736203,52.562782]},"properties":{"type":"charge","layer":"passenger","locationId":"e63cd85282b40e58c8d6cd3f42b036c4","name":"Heer Derckplantsoen 7","address":"Heer Derckplantsoen 7","city":"Akersloot","operatorName":"Vattenfall InCharge","maxPowerKw":11,"isMegawatt":false,"status":"AVAILABLE","source":"ndw"}},{"type":"Feature","geometry":{"type":"Point","coordinates":[4.676848,52.54555]},"properties":{"type":"charge","layer":"passenger","locationId":"a744c977-5067-4b14-8e9d-049f7e7f8b5b","name":"TNLP006266 - Braveld 13, Castricum","address":"13 Braveld","city":"Castricum","operatorName":"TotalEnergies","maxPowerKw":13,"isMegawatt":false,"status":"AVAILABLE","source":"ndw"}},{"type":"Feature","geometry":{"type":"Point","coordinates":[4.694226,52.578247]},"properties":{"type":"charge","layer":"passenger","locationId":"7acb59fb24d788b7816c9dc844cba71a","name":"Walnootlint 14","address":"Walnootlint 14","city":"Limmen","operatorName":"Vattenfall InCharge","maxPowerKw":11,"isMegawatt":false,"status":"AVAILABLE","source":"ndw"}},{"type":"Feature","geometry":{"type":"Point","coordinates":[4.687507,52.5476]},"properties":{"type":"charge","layer":"passenger","locationId":"1fc25770d6cec1b00409675ee51847a6","name":"Fien de la Marstraat 41","address":"Fien de la Marstraat 41","city":"Castricum","operatorName":"Vattenfall InCharge","maxPowerKw":11,"isMegawatt":false,"status":"AVAILABLE","source":"ndw"}},{"type":"Feature","geometry":{"type":"Point","coordinates":[4.664727,52.540789]},"properties":{"type":"charge","layer":"passenger","locationId":"6295db1976f6af2c003ba248","name":"Autobedrijf Castricum Laadstation","address":"Castricummer Werf 61","city":"Castricum","operatorName":"E-Flux by Road","maxPowerKw":11,"isMegawatt":false,"status":"AVAILABLE","source":"ndw","priceKwh":0.53}},{"type":"Feature","geometry":{"type":"MultiPolygon","coordinates":[[[[4.75647660734669,52.59156895165394],[4.751310621449722,52.582277581121595],[4.748900432380498,52.5739852964368],[4.747279845365024,52.57135534994015],[4.744700479177919,52.56794228490235],[4.745082669169562,52.56685206119778],[4.752540171317018,52.56278197695697],[4.756857594255649,52.562071967534784],[4.771966068035791,52.55989891533042],[4.781621828271171,52.557102795133964],[4.778062566596211,52.54417832263839],[4.777732632443559,52.533745370078215],[4.7746949967286465,52.53454965978192],[4.768018186552631,52.53463498851654],[4.762427103682279,52.5375110726551],[4.759475349480288,52.53737928578028],[4.7552747345159965,52.53573600045984],[4.750435668588844,52.53789596954336],[4.735389268074102,52.543822983555614],[4.723723297282848,52.5466696300941],[4.71980354917225,52.54385493266105],[4.718785169506014,52.55162329038539],[4.705896667576165,52.54822376519213],[4.7064301387477006,52.54629529625867],[4.703691858599368,52.54539675422321],[4.694533522839805,52.544188625123354],[4.695595932106443,52.535873978242144],[4.697603545666336,52.52924135651798],[4.697466659206392,52.52916432178211],[4.6957353801591895,52.526728321729486],[4.669570657711139,52.530542455934224],[4.659968334646283,52.53175156288496],[4.656198859578183,52.53152937410867],[4.653027708272815,52.530724705986444],[4.652793170379659,52.53072634169169],[4.598301651897403,52.53114074291653],[4.601182507664422,52.539351351159276],[4.609963819769603,52.57374467642942],[4.6549791965041445,52.58287047394872],[4.65571234490266,52.58551263640779],[4.6598393004487315,52.58614021978531],[4.672580068266239,52.59090468046884],[4.673978401001145,52.58994774483197],[4.670614096347089,52.58872986391568],[4.671640025900468,52.58729857551628],[4.6777371382301,52.58548410097092],[4.677652825539167,52.58433773382878],[4.679272536619481,52.58387377007414],[4.685520888734371,52.58313156426896],[4.686242448613133,52.58295743384236],[4.685424190167208,52.58095751764847],[4.691303670078838,52.580049271860965],[4.691084411319063,52.579578739987824],[4.6965862727082595,52.57897843872997],[4.698315098650082,52.58185552532883],[4.703358862061666,52.58155153788358],[4.703754667312987,52.58033907611072],[4.710256532717696,52.58058810035602],[4.718181223894001,52.58008140658066],[4.718466791701346,52.580062012073505],[4.723337929057903,52.57976619958425],[4.7248821262047445,52.578737676537976],[4.726706596213709,52.57963766752804],[4.73999155100453,52.578928707691304],[4.744454624457851,52.590289016050164],[4.750967225485371,52.58911939698739],[4.752137370577582,52.59189150290857],[4.752479169579292,52.59257784529333],[4.75647660734669,52.59156895165394]]]]},"properties":{"type":"boundary","gemeente":"Castricum","code":"GM0383"}}]}