{"type":"FeatureCollection","metadata":{"gemeente":"De Bilt","slug":"de-bilt","code":"GM0310","generated_at":"2026-07-06T16:26:11.361Z","total_passenger":157,"total_freight":0,"bounds":[5.094889708331194,52.08489542530675,5.230929922234691,52.20427411463778],"operators":["Allego","E-Flux by Road","Eneco","Laadnet","Pluq","PowerGo","Spirii","TotalEnergies","Ubitricity","Vattenfall InCharge","bp pulse"]},"features":[{"type":"Feature","geometry":{"type":"Point","coordinates":[5.18336,52.11051]},"properties":{"type":"charge","layer":"passenger","locationId":"76","name":"Shell Recharge NL Troelstraweg 46","address":"Troelstraweg 46","city":"De Bilt","operatorName":"Ubitricity","maxPowerKw":11,"isMegawatt":false,"status":"CHARGING","source":"ndw","priceKwh":0.388}},{"type":"Feature","geometry":{"type":"Point","coordinates":[5.18711,52.13015]},"properties":{"type":"charge","layer":"passenger","locationId":"102","name":"Shell Recharge NL Klaver 20","address":"Klaver 20","city":"Bilthoven","operatorName":"Ubitricity","maxPowerKw":11,"isMegawatt":false,"status":"AVAILABLE","source":"ndw","priceKwh":0.388}},{"type":"Feature","geometry":{"type":"Point","coordinates":[5.185451,52.114567]},"properties":{"type":"charge","layer":"passenger","locationId":"02346234-6950-43c7-9ac0-643870e46718","name":"TNLP006362 - Bildzigt 11, Bilthoven","address":"11 Bildzigt","city":"Bilthoven","operatorName":"TotalEnergies","maxPowerKw":17,"isMegawatt":false,"status":"AVAILABLE","source":"ndw"}},{"type":"Feature","geometry":{"type":"Point","coordinates":[5.180476,52.15312]},"properties":{"type":"charge","layer":"passenger","locationId":"f06a8200268442054c842f4d303fe5c1","name":"Pr. Arianelaan 48","address":"Pr. Arianelaan 48","city":"Maartensdijk","operatorName":"Vattenfall InCharge","maxPowerKw":11,"isMegawatt":false,"status":"AVAILABLE","source":"ndw"}},{"type":"Feature","geometry":{"type":"Point","coordinates":[5.150966,52.129379]},"properties":{"type":"charge","layer":"passenger","locationId":"73b81e4f-6b80-43cf-8813-4ec8cbc6b2a9","name":"bp pulse Voordaan","address":"A27","city":"Groenekan","operatorName":"bp pulse","maxPowerKw":150,"isMegawatt":false,"status":"AVAILABLE","source":"ndw","priceKwh":0.7}},{"type":"Feature","geometry":{"type":"Point","coordinates":[5.220747,52.13598]},"properties":{"type":"charge","layer":"passenger","locationId":"e33b2e08-0789-4270-aba8-d3bbbda89968","name":"Laadplein - PP001005 - Gregoriuslaan 13, Bilthoven","address":"13 Gregoriuslaan","city":"Bilthoven","operatorName":"TotalEnergies","maxPowerKw":11,"isMegawatt":false,"status":"AVAILABLE","source":"ndw"}},{"type":"Feature","geometry":{"type":"Point","coordinates":[5.196015,52.131912]},"properties":{"type":"charge","layer":"passenger","locationId":"4fedfae6-9816-466e-824e-bdee9978d6bd","name":"PP001006 - Clara Peeterslaan 6, Bilthoven","address":"6 Clara Peeterslaan","city":"Bilthoven","operatorName":"TotalEnergies","maxPowerKw":11,"isMegawatt":false,"status":"AVAILABLE","source":"ndw"}},{"type":"Feature","geometry":{"type":"Point","coordinates":[5.17722,52.156216]},"properties":{"type":"charge","layer":"passenger","locationId":"0997d339-0f4b-4208-a2ad-2c35642c93f5","name":"PP005044 - Maertensplein 21, Maartensdijk","address":"21 Maertensplein","city":"Maartensdijk","operatorName":"TotalEnergies","maxPowerKw":11,"isMegawatt":false,"status":"CHARGING","source":"ndw"}},{"type":"Feature","geometry":{"type":"Point","coordinates":[5.172784,52.11029]},"properties":{"type":"charge","layer":"passenger","locationId":"a595878b-321a-42ad-b9b8-208e5e0a4d87","name":"TNLP009320 - Henri Dunantplein 4c, De Bilt","address":"4c Henri Dunantplein","city":"De Bilt","operatorName":"TotalEnergies","maxPowerKw":17,"isMegawatt":false,"status":"AVAILABLE","source":"ndw"}},{"type":"Feature","geometry":{"type":"Point","coordinates":[5.15967,52.09842]},"properties":{"type":"charge","layer":"passenger","locationId":"1783a877-597b-454b-9315-de0a60d9567d","name":"PP001891 - Utrechtseweg 391, De Bilt","address":"391 Utrechtseweg","city":"De Bilt","operatorName":"TotalEnergies","maxPowerKw":11,"isMegawatt":false,"status":"AVAILABLE","source":"ndw"}},{"type":"Feature","geometry":{"type":"Point","coordinates":[5.177891,52.10533]},"properties":{"type":"charge","layer":"passenger","locationId":"7ee8fb8c-10fc-4b6a-bc1a-32fe167d725c","name":"TNLP009057 - Bilthovenseweg 5, De Bilt","address":"5 Bilthovenseweg","city":"De Bilt","operatorName":"TotalEnergies","maxPowerKw":17,"isMegawatt":false,"status":"AVAILABLE","source":"ndw"}},{"type":"Feature","geometry":{"type":"Point","coordinates":[5.16844,52.1535]},"properties":{"type":"charge","layer":"passenger","locationId":"c6bee839-c538-43bc-bb3c-0302d7e97a1a","name":"PP004146 - Dierenriem 4, Maartensdijk","address":"4 Dierenriem","city":"Maartensdijk","operatorName":"TotalEnergies","maxPowerKw":11,"isMegawatt":false,"status":"AVAILABLE","source":"ndw"}},{"type":"Feature","geometry":{"type":"Point","coordinates":[5.17715,52.10711]},"properties":{"type":"charge","layer":"passenger","locationId":"b5c81de1-94b8-41d9-84a8-0a2df6ad286b","name":"PP004085 - Groen van Prinstererweg 4, De Bilt","address":"4 Groen van Prinstererweg","city":"De Bilt","operatorName":"TotalEnergies","maxPowerKw":11,"isMegawatt":false,"status":"CHARGING","source":"ndw"}},{"type":"Feature","geometry":{"type":"Point","coordinates":[5.193922,52.102582]},"properties":{"type":"charge","layer":"passenger","locationId":"NLLOC026826","name":"Allego - Van der Valk De Bilt-Utrecht","address":"De Holle Bilt 1","city":"De Bilt","operatorName":"Allego","maxPowerKw":300,"isMegawatt":false,"status":"AVAILABLE","source":"ndw","priceKwh":0.511}},{"type":"Feature","geometry":{"type":"Point","coordinates":[5.19371,52.1308]},"properties":{"type":"charge","layer":"passenger","locationId":"1605","name":"Shell Recharge NL Pieter Breughellaan 22","address":"Pieter Breughellaan 22","city":"De Bilt","operatorName":"Ubitricity","maxPowerKw":11,"isMegawatt":false,"status":"UNAVAILABLE","source":"ndw","priceKwh":0.388}},{"type":"Feature","geometry":{"type":"Point","coordinates":[5.17614,52.11669]},"properties":{"type":"charge","layer":"passenger","locationId":"17188ED9-C5CC-42C5-8122-83E8C1E43817","name":"Eneco eMobility Broekhuis Volvo Bilthoven","address":"C. de Haasweg 90","city":"Bilthoven","operatorName":"Eneco","maxPowerKw":22,"isMegawatt":false,"status":"UNAVAILABLE","source":"ndw","priceKwh":0.32}},{"type":"Feature","geometry":{"type":"Point","coordinates":[5.209358,52.09129]},"properties":{"type":"charge","layer":"passenger","locationId":"af5e442f-6ff6-41da-8551-5bb5ae014b18","name":"TNLP015256 - Noordweg 1, de Bilt","address":"1 Noordweg","city":"de Bilt","operatorName":"TotalEnergies","maxPowerKw":17,"isMegawatt":false,"status":"AVAILABLE","source":"ndw"}},{"type":"Feature","geometry":{"type":"Point","coordinates":[5.190173,52.12541]},"properties":{"type":"charge","layer":"passenger","locationId":"7cd19687-ebf2-4ea8-8b15-795b46c5a088","name":"TNLP009736 - Kuifeendlaan 1, Bilthoven","address":"1 Kuifeendlaan","city":"Bilthoven","operatorName":"TotalEnergies","maxPowerKw":17,"isMegawatt":false,"status":"AVAILABLE","source":"ndw"}},{"type":"Feature","geometry":{"type":"Point","coordinates":[5.179636,52.156644]},"properties":{"type":"charge","layer":"passenger","locationId":"dd9e7119-014c-45cc-ab94-f0333191a52f","name":"TNLP034111","address":"Prins Bernhardlaan 28","city":"Maartensdijk","operatorName":"TotalEnergies","maxPowerKw":14,"isMegawatt":false,"status":"AVAILABLE","source":"ndw"}},{"type":"Feature","geometry":{"type":"Point","coordinates":[5.182768,52.157135]},"properties":{"type":"charge","layer":"passenger","locationId":"cb3f1b73-081c-40d4-991b-d45a5fc21d36","name":"TNLP009431 - Koningin Julianalaan 18, Maartensdijk","address":"18 Koningin Julianalaan","city":"Maartensdijk","operatorName":"TotalEnergies","maxPowerKw":17,"isMegawatt":false,"status":"AVAILABLE","source":"ndw"}},{"type":"Feature","geometry":{"type":"Point","coordinates":[5.18044,52.10642]},"properties":{"type":"charge","layer":"passenger","locationId":"451","name":"Shell Recharge NL Molenkamp 11","address":"Molenkamp 11","city":"De Bilt","operatorName":"Ubitricity","maxPowerKw":11,"isMegawatt":false,"status":"AVAILABLE","source":"ndw","priceKwh":0.388}},{"type":"Feature","geometry":{"type":"Point","coordinates":[5.17423,52.10863]},"properties":{"type":"charge","layer":"passenger","locationId":"48741ed6-5e6e-40b7-b7c9-4945a62e20f7","name":"PP004084 - Alfred Nobellaan 40, De Bilt","address":"40 Alfred Nobellaan","city":"De Bilt","operatorName":"TotalEnergies","maxPowerKw":11,"isMegawatt":false,"status":"CHARGING","source":"ndw"}},{"type":"Feature","geometry":{"type":"Point","coordinates":[5.180397,52.11473]},"properties":{"type":"charge","layer":"passenger","locationId":"ac475215-4bcb-446e-82a8-a95c6c46c58f","name":"PP005542 - Waterweg 241, De Bilt","address":"241 Waterweg","city":"De Bilt","operatorName":"TotalEnergies","maxPowerKw":11,"isMegawatt":false,"status":"CHARGING","source":"ndw"}},{"type":"Feature","geometry":{"type":"Point","coordinates":[5.184252,52.106341]},"properties":{"type":"charge","layer":"passenger","locationId":"3dd9c7e8-5c67-4d92-8d4d-99c566d1776d","name":"TNLP034189","address":"Tuinstraat 41","city":"De Bilt","operatorName":"TotalEnergies","maxPowerKw":14,"isMegawatt":false,"status":"UNAVAILABLE","source":"ndw"}},{"type":"Feature","geometry":{"type":"Point","coordinates":[5.1673722,52.1788292]},"properties":{"type":"charge","layer":"passenger","locationId":"13906","name":"Recreatiepark Het Kleine Bos (PowerGo)","address":"Graaf Floris V Weg 35","city":"Hollandsche Rading","operatorName":"PowerGo","maxPowerKw":22,"isMegawatt":false,"status":"AVAILABLE","source":"ndw","priceKwh":0.68}},{"type":"Feature","geometry":{"type":"Point","coordinates":[5.19359,52.12483]},"properties":{"type":"charge","layer":"passenger","locationId":"1c045711-e23e-4df6-becd-a8584e23878d","name":"PP001348 - Anne Franklaan 13, Bilthoven","address":"13 Anne Franklaan","city":"Bilthoven","operatorName":"TotalEnergies","maxPowerKw":11,"isMegawatt":false,"status":"AVAILABLE","source":"ndw"}},{"type":"Feature","geometry":{"type":"Point","coordinates":[5.2051269,52.1290231]},"properties":{"type":"charge","layer":"passenger","locationId":"2050","name":"Shell Recharge NL Emmaplein 2d","address":"Emmaplein 2d","city":"Bilthoven","operatorName":"Ubitricity","maxPowerKw":22,"isMegawatt":false,"status":"AVAILABLE","source":"ndw","priceKwh":0.266}},{"type":"Feature","geometry":{"type":"Point","coordinates":[5.180741,52.10243]},"properties":{"type":"charge","layer":"passenger","locationId":"eeac9646-b850-4a77-b5af-4177ce33ff0b","name":"PP005530 - Emmalaan 5, De Bilt","address":"5 Emmalaan","city":"De Bilt","operatorName":"TotalEnergies","maxPowerKw":11,"isMegawatt":false,"status":"AVAILABLE","source":"ndw"}},{"type":"Feature","geometry":{"type":"Point","coordinates":[5.19411,52.12969]},"properties":{"type":"charge","layer":"passenger","locationId":"1506","name":"Shell Recharge NL Hans Hemlinglaan 39","address":"Hans Hemlinglaan 39","city":"De Bilt","operatorName":"Ubitricity","maxPowerKw":11,"isMegawatt":false,"status":"AVAILABLE","source":"ndw","priceKwh":0.388}},{"type":"Feature","geometry":{"type":"Point","coordinates":[5.1818628,52.1196929]},"properties":{"type":"charge","layer":"passenger","locationId":"2049","name":"Shell Recharge NL Planetenbaan 40","address":"Planetenbaan 40","city":"Bilthoven","operatorName":"Ubitricity","maxPowerKw":22,"isMegawatt":false,"status":"AVAILABLE","source":"ndw","priceKwh":0.266}},{"type":"Feature","geometry":{"type":"Point","coordinates":[5.20698,52.12836]},"properties":{"type":"charge","layer":"passenger","locationId":"58C1B1F3-BAF7-454B-9CCC-EFE7F55FC6BE","name":"Eneco eMobility Vinkenlaan 29 Bilthoven","address":"Vinkenlaan 29","city":"Bilthoven","operatorName":"Eneco","maxPowerKw":22,"isMegawatt":false,"status":"AVAILABLE","source":"ndw","priceKwh":0.32}},{"type":"Feature","geometry":{"type":"Point","coordinates":[5.194441,52.128094]},"properties":{"type":"charge","layer":"passenger","locationId":"c8df9e28-a8f3-430a-876f-8f46560ae307","name":"TNLP008022 - Rogier van der Weydenlaan 55, Bilthoven","address":"55 Rogier van der Weydenlaan","city":"Bilthoven","operatorName":"TotalEnergies","maxPowerKw":17,"isMegawatt":false,"status":"UNAVAILABLE","source":"ndw"}},{"type":"Feature","geometry":{"type":"Point","coordinates":[5.17915,52.1091]},"properties":{"type":"charge","layer":"passenger","locationId":"432","name":"Shell Recharge NL Burg. Van Heemstrakwartier 173","address":"Burg. Van Heemstrakwartier 173","city":"De Bilt","operatorName":"Ubitricity","maxPowerKw":11,"isMegawatt":false,"status":"AVAILABLE","source":"ndw","priceKwh":0.388}},{"type":"Feature","geometry":{"type":"Point","coordinates":[5.177151,52.1128684]},"properties":{"type":"charge","layer":"passenger","locationId":"2267","name":"Shell Recharge NL Professor Doctor J.D. van der Waalsweg 46","address":"Professor Doctor J.D. van der Waalsweg 46","city":"De Bilt","operatorName":"Ubitricity","maxPowerKw":22,"isMegawatt":false,"status":"CHARGING","source":"ndw","priceKwh":0.266}},{"type":"Feature","geometry":{"type":"Point","coordinates":[5.17875,52.15378]},"properties":{"type":"charge","layer":"passenger","locationId":"686","name":"Shell Recharge NL Prinses Alexialaan 2","address":"Prinses Alexialaan 2","city":"Maartensdijk","operatorName":"Ubitricity","maxPowerKw":11,"isMegawatt":false,"status":"CHARGING","source":"ndw","priceKwh":0.388}},{"type":"Feature","geometry":{"type":"Point","coordinates":[5.182193,52.109354]},"properties":{"type":"charge","layer":"passenger","locationId":"C22B6B9B-B914-475E-9C10-55A77C77D9D2","name":"Eneco eMobility Albert Heijn - Herenweg 8","address":"Herenweg 8","city":"De Bilt","operatorName":"Eneco","maxPowerKw":50,"isMegawatt":false,"status":"AVAILABLE","source":"ndw","priceKwh":0.62}},{"type":"Feature","geometry":{"type":"Point","coordinates":[5.1866,52.12156]},"properties":{"type":"charge","layer":"passenger","locationId":"394","name":"Shell Recharge NL Kleine Beer 66","address":"Kleine Beer 66","city":"Bilthoven","operatorName":"Ubitricity","maxPowerKw":11,"isMegawatt":false,"status":"CHARGING","source":"ndw","priceKwh":0.388}},{"type":"Feature","geometry":{"type":"Point","coordinates":[5.12531,52.15094]},"properties":{"type":"charge","layer":"passenger","locationId":"987FEE20-893E-4211-BD54-FDDA011B7B62","name":"Eneco eMobility Kerkdijk 11 Westbroek","address":"Kerkdijk 11","city":"Westbroek","operatorName":"Eneco","maxPowerKw":22,"isMegawatt":false,"status":"AVAILABLE","source":"ndw","priceKwh":0.37}},{"type":"Feature","geometry":{"type":"Point","coordinates":[5.18746,52.11246]},"properties":{"type":"charge","layer":"passenger","locationId":"99","name":"Shell Recharge NL Abt Ludolfweg 2","address":"Abt Ludolfweg 2","city":"De Bilt","operatorName":"Ubitricity","maxPowerKw":11,"isMegawatt":false,"status":"CHARGING","source":"ndw","priceKwh":0.388}},{"type":"Feature","geometry":{"type":"Point","coordinates":[5.192786,52.124808]},"properties":{"type":"charge","layer":"passenger","locationId":"11","name":"Shell Recharge NL Anne Franklaan 32","address":"Anne Franklaan 32","city":"Bilthoven","operatorName":"Ubitricity","maxPowerKw":11,"isMegawatt":false,"status":"AVAILABLE","source":"ndw","priceKwh":0.388}},{"type":"Feature","geometry":{"type":"Point","coordinates":[5.21298,52.12869]},"properties":{"type":"charge","layer":"passenger","locationId":"430","name":"Shell Recharge NL Lijsterlaan 11","address":"Lijsterlaan 11","city":"Bilthoven","operatorName":"Ubitricity","maxPowerKw":11,"isMegawatt":false,"status":"UNAVAILABLE","source":"ndw","priceKwh":0.388}},{"type":"Feature","geometry":{"type":"Point","coordinates":[5.186517,52.123924]},"properties":{"type":"charge","layer":"passenger","locationId":"e454a6b6-26ab-4fed-9b67-1b5d870bc498","name":"TNLP007135 - Pluvierenlaan 2, Bilthoven","address":"2 Pluvierenlaan","city":"Bilthoven","operatorName":"TotalEnergies","maxPowerKw":17,"isMegawatt":false,"status":"CHARGING","source":"ndw"}},{"type":"Feature","geometry":{"type":"Point","coordinates":[5.17868,52.11134]},"properties":{"type":"charge","layer":"passenger","locationId":"37814678-d2b6-4f0c-9aff-ebc238be2637","name":"PP005533 - Waterweg 114, De Bilt","address":"114 Waterweg","city":"De Bilt","operatorName":"TotalEnergies","maxPowerKw":11,"isMegawatt":false,"status":"AVAILABLE","source":"ndw"}},{"type":"Feature","geometry":{"type":"Point","coordinates":[5.18191,52.10167]},"properties":{"type":"charge","layer":"passenger","locationId":"1661","name":"Shell Recharge NL Wilhelminalaan 37","address":"Wilhelminalaan 37","city":"De Bilt","operatorName":"Ubitricity","maxPowerKw":11,"isMegawatt":false,"status":"AVAILABLE","source":"ndw","priceKwh":0.388}},{"type":"Feature","geometry":{"type":"Point","coordinates":[5.17408,52.15312]},"properties":{"type":"charge","layer":"passenger","locationId":"ec433fc00b270828ac6007cfa688fef1","name":"Windvang 24","address":"Windvang 24","city":"Maartensdijk","operatorName":"Vattenfall InCharge","maxPowerKw":11,"isMegawatt":false,"status":"AVAILABLE","source":"ndw"}},{"type":"Feature","geometry":{"type":"Point","coordinates":[5.202294,52.12909]},"properties":{"type":"charge","layer":"passenger","locationId":"c5ebdd3b-457e-4cf4-a4ab-9e2c45c3d544","name":"TNLP009817 - Spoorlaan 2, Bilthoven","address":"2 Spoorlaan","city":"Bilthoven","operatorName":"TotalEnergies","maxPowerKw":17,"isMegawatt":false,"status":"AVAILABLE","source":"ndw"}},{"type":"Feature","geometry":{"type":"Point","coordinates":[5.18249,52.11747]},"properties":{"type":"charge","layer":"passenger","locationId":"3f1f7f29e56e91017df99307ebad9334","name":"Zonneplein 11","address":"Zonneplein 11","city":"Bilthoven","operatorName":"Vattenfall InCharge","maxPowerKw":11,"isMegawatt":false,"status":"AVAILABLE","source":"ndw"}},{"type":"Feature","geometry":{"type":"Point","coordinates":[5.180374,52.112507]},"properties":{"type":"charge","layer":"passenger","locationId":"81a6fc65-88ce-4397-bdfc-f667f2d648ee","name":"TNLP006613 - Zephyrusweg 1, De Bilt","address":"1 Zephyrusweg","city":"De Bilt","operatorName":"TotalEnergies","maxPowerKw":17,"isMegawatt":false,"status":"CHARGING","source":"ndw"}},{"type":"Feature","geometry":{"type":"Point","coordinates":[5.1737,52.10618]},"properties":{"type":"charge","layer":"passenger","locationId":"44bb0526-8b1a-45f6-b482-9e55df2fb44d","name":"PP005481 - Kerklaan 97, De Bilt","address":"97 Kerklaan","city":"De Bilt","operatorName":"TotalEnergies","maxPowerKw":11,"isMegawatt":false,"status":"AVAILABLE","source":"ndw"}},{"type":"Feature","geometry":{"type":"Point","coordinates":[5.175625,52.110584]},"properties":{"type":"charge","layer":"passenger","locationId":"51f9bd5a-7e26-4033-b91a-63673cbf0a5a","name":"TNLP006398 - Alfred Nobellaan 60, De Bilt","address":"60 Alfred Nobellaan","city":"De Bilt","operatorName":"TotalEnergies","maxPowerKw":17,"isMegawatt":false,"status":"AVAILABLE","source":"ndw"}},{"type":"Feature","geometry":{"type":"Point","coordinates":[5.206222,52.129765]},"properties":{"type":"charge","layer":"passenger","locationId":"aa44aa0a-0ae8-487f-8e43-28e5538d7bec","name":"TNLP007934 - Julianalaan 3, Bilthoven","address":"3 Julianalaan","city":"Bilthoven","operatorName":"TotalEnergies","maxPowerKw":17,"isMegawatt":false,"status":"CHARGING","source":"ndw"}},{"type":"Feature","geometry":{"type":"Point","coordinates":[5.181078,52.118973]},"properties":{"type":"charge","layer":"passenger","locationId":"e438935c-e729-4602-be51-15e86fe24024","name":"TNLP006251 - Bielalaan 2, Bilthoven","address":"2 Bielalaan","city":"Bilthoven","operatorName":"TotalEnergies","maxPowerKw":17,"isMegawatt":false,"status":"CHARGING","source":"ndw"}},{"type":"Feature","geometry":{"type":"Point","coordinates":[5.196848,52.124577]},"properties":{"type":"charge","layer":"passenger","locationId":"5ad7c473-5d88-453d-94f7-317c1ea2a4a6","name":"TNLP008027 - Jachthoornlaan 7, Bilthoven","address":"7 Jachthoornlaan","city":"Bilthoven","operatorName":"TotalEnergies","maxPowerKw":17,"isMegawatt":false,"status":"AVAILABLE","source":"ndw"}},{"type":"Feature","geometry":{"type":"Point","coordinates":[5.183635,52.117203]},"properties":{"type":"charge","layer":"passenger","locationId":"130dc215-4798-48a1-a68e-bc5a2c7e9df3","name":"TNLP006385 - Zonneplein 1, Bilthoven","address":"1 Zonneplein","city":"Bilthoven","operatorName":"TotalEnergies","maxPowerKw":17,"isMegawatt":false,"status":"AVAILABLE","source":"ndw"}},{"type":"Feature","geometry":{"type":"Point","coordinates":[5.17923,52.1165]},"properties":{"type":"charge","layer":"passenger","locationId":"1608","name":"Shell Recharge NL Planetenbaan 160","address":"Planetenbaan 160","city":"De Bilt","operatorName":"Ubitricity","maxPowerKw":11,"isMegawatt":false,"status":"AVAILABLE","source":"ndw","priceKwh":0.388}},{"type":"Feature","geometry":{"type":"Point","coordinates":[5.1864414,52.129296]},"properties":{"type":"charge","layer":"passenger","locationId":"1717","name":"Shell Recharge NL Berkenlaan 21","address":"Berkenlaan 21","city":"Bilthoven","operatorName":"Ubitricity","maxPowerKw":22,"isMegawatt":false,"status":"AVAILABLE","source":"ndw","priceKwh":0.266}},{"type":"Feature","geometry":{"type":"Point","coordinates":[5.18854,52.13145]},"properties":{"type":"charge","layer":"passenger","locationId":"1453","name":"Shell Recharge NL Andoorn 1","address":"Andoorn 1","city":"De Bilt","operatorName":"Ubitricity","maxPowerKw":11,"isMegawatt":false,"status":"AVAILABLE","source":"ndw","priceKwh":0.388}},{"type":"Feature","geometry":{"type":"Point","coordinates":[5.19144,52.12752]},"properties":{"type":"charge","layer":"passenger","locationId":"274821cd-1fe8-4363-8d53-9911206a8cb6","name":"PP004093 - Bongerdlaan 45, Bilthoven","address":"45 Bongerdlaan","city":"Bilthoven","operatorName":"TotalEnergies","maxPowerKw":11,"isMegawatt":false,"status":"AVAILABLE","source":"ndw"}},{"type":"Feature","geometry":{"type":"Point","coordinates":[5.200845,52.129485]},"properties":{"type":"charge","layer":"passenger","locationId":"695d3dab2fcc203f34a3aa92","name":"maayke De Graaff 's station","address":"Rembrandtlaan  14P","city":"Bilthoven","operatorName":"E-Flux by Road","maxPowerKw":22,"isMegawatt":false,"status":"AVAILABLE","source":"ndw","priceKwh":0.48}},{"type":"Feature","geometry":{"type":"Point","coordinates":[5.18156,52.12437]},"properties":{"type":"charge","layer":"passenger","locationId":"81321b53-b804-49ca-8ffc-509f7ee1db92","name":"PP004138 - Van Heukelomlaan 162, Bilthoven","address":"162 Van Heukelomlaan","city":"Bilthoven","operatorName":"TotalEnergies","maxPowerKw":11,"isMegawatt":false,"status":"AVAILABLE","source":"ndw"}},{"type":"Feature","geometry":{"type":"Point","coordinates":[5.194999,52.134146]},"properties":{"type":"charge","layer":"passenger","locationId":"627e260635a8421a12a0d0c5","name":"Station Werkplaats Kindergemeenschap","address":"Kees Boekelaan 10","city":"Bilthoven","operatorName":"E-Flux by Road","maxPowerKw":50,"isMegawatt":false,"status":"AVAILABLE","source":"ndw","priceKwh":0.32}},{"type":"Feature","geometry":{"type":"Point","coordinates":[5.212624,52.14208]},"properties":{"type":"charge","layer":"passenger","locationId":"3d7eef1d-07f5-48c3-bfae-6e2fd4918776","name":"TNLP009037 - Hobbemalaan 11, Bilthoven","address":"11 Hobbemalaan","city":"Bilthoven","operatorName":"TotalEnergies","maxPowerKw":17,"isMegawatt":false,"status":"CHARGING","source":"ndw"}},{"type":"Feature","geometry":{"type":"Point","coordinates":[5.200448,52.129621]},"properties":{"type":"charge","layer":"passenger","locationId":"6a0d9491d0812dec776839b7","name":"maayke De Graaff 's station","address":"Rembrandtlaan  14a","city":"Bilthoven","operatorName":"E-Flux by Road","maxPowerKw":22,"isMegawatt":false,"status":"AVAILABLE","source":"ndw","priceKwh":0.48}},{"type":"Feature","geometry":{"type":"Point","coordinates":[5.16647,52.15912]},"properties":{"type":"charge","layer":"passenger","locationId":"13","name":"Shell Recharge NL Tolakkerweg 213","address":"Tolakkerweg 213","city":"Maartensdijk","operatorName":"Ubitricity","maxPowerKw":11,"isMegawatt":false,"status":"CHARGING","source":"ndw","priceKwh":0.388}},{"type":"Feature","geometry":{"type":"Point","coordinates":[5.192639,52.126267]},"properties":{"type":"charge","layer":"passenger","locationId":"684adf727766fc0a7224f7a7","name":"Leyensehof 113 O","address":"Leyenseweg  113 O","city":"Bilthoven","operatorName":"E-Flux by Road","maxPowerKw":22,"isMegawatt":false,"status":"AVAILABLE","source":"ndw","priceKwh":0.53}},{"type":"Feature","geometry":{"type":"Point","coordinates":[5.222685,52.13406]},"properties":{"type":"charge","layer":"passenger","locationId":"bf518e87-e515-4aa9-b1b1-3cc85313d868","name":"TNLP009860 - Oranje Nassaulaan 7, Bilthoven","address":"7 Oranje Nassaulaan","city":"Bilthoven","operatorName":"TotalEnergies","maxPowerKw":17,"isMegawatt":false,"status":"AVAILABLE","source":"ndw"}},{"type":"Feature","geometry":{"type":"Point","coordinates":[5.18139,52.11163]},"properties":{"type":"charge","layer":"passenger","locationId":"554","name":"Shell Recharge NL Buys Ballotweg 66","address":"Buys Ballotweg 66","city":"De Bilt","operatorName":"Ubitricity","maxPowerKw":11,"isMegawatt":false,"status":"CHARGING","source":"ndw","priceKwh":0.388}},{"type":"Feature","geometry":{"type":"Point","coordinates":[5.18719,52.109554]},"properties":{"type":"charge","layer":"passenger","locationId":"57ff531e-7d3d-4bb9-b2b9-2af17a6dba7d","name":"TNLP007905 - Troelstraweg 2, De Bilt","address":"2 Troelstraweg","city":"De Bilt","operatorName":"TotalEnergies","maxPowerKw":17,"isMegawatt":false,"status":"AVAILABLE","source":"ndw"}},{"type":"Feature","geometry":{"type":"Point","coordinates":[5.195557,52.13392]},"properties":{"type":"charge","layer":"passenger","locationId":"3b00728b-efe5-40f8-80ea-b0be6e5364b3","name":"TNLP009398 - Kees Boekelaan 12, Bilthoven","address":"12 Kees Boekelaan","city":"Bilthoven","operatorName":"TotalEnergies","maxPowerKw":17,"isMegawatt":false,"status":"CHARGING","source":"ndw"}},{"type":"Feature","geometry":{"type":"Point","coordinates":[5.194477,52.12268]},"properties":{"type":"charge","layer":"passenger","locationId":"e3db29d2-70ce-4e7e-b01a-8f00493cbb45","name":"TNLP008424 - Burgemeester Fabiuspark 9, Bilthoven","address":"9 Burgemeester Fabiuspark","city":"Bilthoven","operatorName":"TotalEnergies","maxPowerKw":13,"isMegawatt":false,"status":"AVAILABLE","source":"ndw"}},{"type":"Feature","geometry":{"type":"Point","coordinates":[5.211352,52.128955]},"properties":{"type":"charge","layer":"passenger","locationId":"6ac92ff5ef1d95231e37deb3eca67394","name":"Kramsvogellaan 72","address":"Kramsvogellaan 72","city":"Bilthoven","operatorName":"Vattenfall InCharge","maxPowerKw":11,"isMegawatt":false,"status":"CHARGING","source":"ndw"}},{"type":"Feature","geometry":{"type":"Point","coordinates":[5.21048,52.12738]},"properties":{"type":"charge","layer":"passenger","locationId":"25f8726f-c3f0-49eb-9a21-96ca37749654","name":"PP002502 - Kruisbeklaan 81, Bilthoven","address":"81 Kruisbeklaan","city":"Bilthoven","operatorName":"TotalEnergies","maxPowerKw":13,"isMegawatt":false,"status":"AVAILABLE","source":"ndw"}},{"type":"Feature","geometry":{"type":"Point","coordinates":[5.15747,52.09822]},"properties":{"type":"charge","layer":"passenger","locationId":"1649","name":"Shell Recharge NL Utrechtseweg 429","address":"Utrechtseweg 429","city":"De Bilt","operatorName":"Ubitricity","maxPowerKw":11,"isMegawatt":false,"status":"AVAILABLE","source":"ndw","priceKwh":0.388}},{"type":"Feature","geometry":{"type":"Point","coordinates":[5.18521,52.11278]},"properties":{"type":"charge","layer":"passenger","locationId":"434c18db-3ef9-423d-bb64-36ee8ecaa0d0","name":"TNLP005831 - Abt Ludolfweg 102, De Bilt","address":"102 Abt Ludolfweg","city":"De Bilt","operatorName":"TotalEnergies","maxPowerKw":11,"isMegawatt":false,"status":"AVAILABLE","source":"ndw"}},{"type":"Feature","geometry":{"type":"Point","coordinates":[5.20076,52.12519]},"properties":{"type":"charge","layer":"passenger","locationId":"E0A2BAFB-FD0B-40CA-967E-7C404BE8AEA6","name":"Eneco eMobility Leyenseweg 1 Bilthoven","address":"Leyenseweg 1","city":"Bilthoven","operatorName":"Eneco","maxPowerKw":22,"isMegawatt":false,"status":"AVAILABLE","source":"ndw","priceKwh":0.27}},{"type":"Feature","geometry":{"type":"Point","coordinates":[5.19464,52.13033]},"properties":{"type":"charge","layer":"passenger","locationId":"206ccde7-ec83-4ad2-966a-ebdce25a3f5d","name":"PP001711 - Dirk Boutslaan 14, Bilthoven","address":"14 Dirk Boutslaan","city":"Bilthoven","operatorName":"TotalEnergies","maxPowerKw":11,"isMegawatt":false,"status":"AVAILABLE","source":"ndw"}},{"type":"Feature","geometry":{"type":"Point","coordinates":[5.18697,52.12833]},"properties":{"type":"charge","layer":"passenger","locationId":"61c37392-2720-4786-910c-b377b3dc5025","name":"PP004147 - Iepenlaan 99, Bilthoven","address":"99 Iepenlaan","city":"Bilthoven","operatorName":"TotalEnergies","maxPowerKw":11,"isMegawatt":false,"status":"AVAILABLE","source":"ndw"}},{"type":"Feature","geometry":{"type":"Point","coordinates":[5.178033,52.116776]},"properties":{"type":"charge","layer":"passenger","locationId":"d311bc42-3095-46cc-98e0-a17e4ac9f69e","name":"TNLP006825 - Kometenlaan 10, Bilthoven","address":"10 Kometenlaan","city":"Bilthoven","operatorName":"TotalEnergies","maxPowerKw":17,"isMegawatt":false,"status":"AVAILABLE","source":"ndw"}},{"type":"Feature","geometry":{"type":"Point","coordinates":[5.209474,52.091114]},"properties":{"type":"charge","layer":"passenger","locationId":"cccecb99-5553-4c61-bc4b-cb1df5fe3e4e","name":"TNLP008483 - Noordweg 1a, De Bilt","address":"1a Noordweg","city":"De Bilt","operatorName":"TotalEnergies","maxPowerKw":13,"isMegawatt":false,"status":"AVAILABLE","source":"ndw"}},{"type":"Feature","geometry":{"type":"Point","coordinates":[5.224965,52.137012]},"properties":{"type":"charge","layer":"passenger","locationId":"6265dd1f-1d43-4a36-a82c-c05c0964296a","name":"TNLP009701 - Evert Cornelislaan 17, Bilthoven","address":"17 Evert Cornelislaan","city":"Bilthoven","operatorName":"TotalEnergies","maxPowerKw":17,"isMegawatt":false,"status":"CHARGING","source":"ndw"}},{"type":"Feature","geometry":{"type":"Point","coordinates":[5.197412,52.131484]},"properties":{"type":"charge","layer":"passenger","locationId":"909c0cfa5585e1ca7cc09468ffb9a278","name":"Cornelia de Rijcklaan 2","address":"Cornelia de Rijcklaan 2","city":"Bilthoven","operatorName":"Vattenfall InCharge","maxPowerKw":11,"isMegawatt":false,"status":"CHARGING","source":"ndw"}},{"type":"Feature","geometry":{"type":"Point","coordinates":[5.185645,52.10738]},"properties":{"type":"charge","layer":"passenger","locationId":"1e270ecd-cfe8-4372-a8bb-4281bc9329e2","name":"TNLP006599 - Seringstraat 2, De Bilt","address":"2 Seringstraat","city":"De Bilt","operatorName":"TotalEnergies","maxPowerKw":17,"isMegawatt":false,"status":"AVAILABLE","source":"ndw"}},{"type":"Feature","geometry":{"type":"Point","coordinates":[5.17171,52.10649]},"properties":{"type":"charge","layer":"passenger","locationId":"1600","name":"Shell Recharge NL Park Arenberg 102","address":"Park Arenberg 102","city":"De Bilt","operatorName":"Ubitricity","maxPowerKw":11,"isMegawatt":false,"status":"AVAILABLE","source":"ndw","priceKwh":0.388}},{"type":"Feature","geometry":{"type":"Point","coordinates":[5.163938,52.1409]},"properties":{"type":"charge","layer":"passenger","locationId":"2a34de58-89e4-4bb8-a1dd-b67483c5a8a4","name":"TNLP009384 - Nieuwe Weteringseweg 1, Groenekan","address":"1 Nieuwe Weteringseweg","city":"Groenekan","operatorName":"TotalEnergies","maxPowerKw":17,"isMegawatt":false,"status":"AVAILABLE","source":"ndw"}},{"type":"Feature","geometry":{"type":"Point","coordinates":[5.210026,52.129143]},"properties":{"type":"charge","layer":"passenger","locationId":"d359ac49-9247-4a0e-87eb-96403a9b3ceb","name":"TNLP009397 - Spreeuwlaan 22, Bilthoven","address":"22 Spreeuwlaan","city":"Bilthoven","operatorName":"TotalEnergies","maxPowerKw":17,"isMegawatt":false,"status":"AVAILABLE","source":"ndw"}},{"type":"Feature","geometry":{"type":"Point","coordinates":[5.192323,52.126404]},"properties":{"type":"charge","layer":"passenger","locationId":"684ade66ac106c659a265471","name":"Leyensehof 115 D","address":"Leyenseweg  115 D","city":"Bilthoven","operatorName":"E-Flux by Road","maxPowerKw":22,"isMegawatt":false,"status":"AVAILABLE","source":"ndw","priceKwh":0.53}},{"type":"Feature","geometry":{"type":"Point","coordinates":[5.18272,52.105442]},"properties":{"type":"charge","layer":"passenger","locationId":"2fe19fa0-deb9-4fef-9207-498974002a9b","name":"TNLP008426 - Jasmijnstraat 4, De Bilt","address":"4 Jasmijnstraat","city":"De Bilt","operatorName":"TotalEnergies","maxPowerKw":13,"isMegawatt":false,"status":"UNAVAILABLE","source":"ndw"}},{"type":"Feature","geometry":{"type":"Point","coordinates":[5.216347,52.12993]},"properties":{"type":"charge","layer":"passenger","locationId":"d48c4f10-f3ef-4e4f-9784-86d91d6dc42f","name":"TNLP009188 - Bosuillaan 143a, Bilthoven","address":"143a Bosuillaan","city":"Bilthoven","operatorName":"TotalEnergies","maxPowerKw":17,"isMegawatt":false,"status":"AVAILABLE","source":"ndw"}},{"type":"Feature","geometry":{"type":"Point","coordinates":[5.17159,52.108884]},"properties":{"type":"charge","layer":"passenger","locationId":"e6f583cc-8261-431c-a5ce-d024eb855386","name":"TNLP034357","address":"Albert Einsteinweg 35","city":"De Bilt","operatorName":"TotalEnergies","maxPowerKw":14,"isMegawatt":false,"status":"AVAILABLE","source":"ndw"}},{"type":"Feature","geometry":{"type":"Point","coordinates":[5.122929,52.149235]},"properties":{"type":"charge","layer":"passenger","locationId":"f69e3d46-63af-4823-a71f-b54203e24ac9","name":"TNLP009044 - Schutmeesterweg 40, Westbroek","address":"40 Schutmeesterweg","city":"Westbroek","operatorName":"TotalEnergies","maxPowerKw":17,"isMegawatt":false,"status":"AVAILABLE","source":"ndw"}},{"type":"Feature","geometry":{"type":"Point","coordinates":[5.175797,52.116367]},"properties":{"type":"charge","layer":"passenger","locationId":"32385","name":"Circle K Bilthoven inz Larenstein","address":"C. de Haasweg 2","city":"Bilthoven","operatorName":"Spirii","maxPowerKw":300,"isMegawatt":false,"status":"AVAILABLE","source":"ndw","priceKwh":0.65}},{"type":"Feature","geometry":{"type":"Point","coordinates":[5.193332,52.126424]},"properties":{"type":"charge","layer":"passenger","locationId":"684adda00988129a25b00694","name":"Leyensehof 111","address":"Leyenseweg  111","city":"Bilthoven","operatorName":"E-Flux by Road","maxPowerKw":11,"isMegawatt":false,"status":"AVAILABLE","source":"ndw","priceKwh":0.53}},{"type":"Feature","geometry":{"type":"Point","coordinates":[5.17162,52.10821]},"properties":{"type":"charge","layer":"passenger","locationId":"1559","name":"Shell Recharge NL Lester Pearsonweg 22","address":"Lester Pearsonweg 22","city":"De Bilt","operatorName":"Ubitricity","maxPowerKw":11,"isMegawatt":false,"status":"AVAILABLE","source":"ndw","priceKwh":0.388}},{"type":"Feature","geometry":{"type":"Point","coordinates":[5.197169,52.122418]},"properties":{"type":"charge","layer":"passenger","locationId":"9593abac-244d-46e0-a1bd-a963fd857b6f","name":"TNLP034349","address":"Jachtlaan 3","city":"Bilthoven","operatorName":"TotalEnergies","maxPowerKw":14,"isMegawatt":false,"status":"CHARGING","source":"ndw"}},{"type":"Feature","geometry":{"type":"Point","coordinates":[5.19257,52.12629]},"properties":{"type":"charge","layer":"passenger","locationId":"684adc0dac106c659a25be33","name":"Leyensehof 113 N","address":"Leyenseweg  113","city":"Bilthoven","operatorName":"E-Flux by Road","maxPowerKw":11,"isMegawatt":false,"status":"AVAILABLE","source":"ndw","priceKwh":0.53}},{"type":"Feature","geometry":{"type":"Point","coordinates":[5.178605,52.15154]},"properties":{"type":"charge","layer":"passenger","locationId":"6bfb9f53-206d-4720-9b0c-858987f92a8a","name":"TNLP009905 - Noordeinde 2, Maartensdijk","address":"2 Noordeinde","city":"Maartensdijk","operatorName":"TotalEnergies","maxPowerKw":17,"isMegawatt":false,"status":"CHARGING","source":"ndw"}},{"type":"Feature","geometry":{"type":"Point","coordinates":[5.18215,52.113754]},"properties":{"type":"charge","layer":"passenger","locationId":"7a39c49d-4c5c-41a2-ac83-8415d3183e97","name":"TNLP009108 - Buys Ballotweg 35, De Bilt","address":"35 Buys Ballotweg","city":"De Bilt","operatorName":"TotalEnergies","maxPowerKw":17,"isMegawatt":false,"status":"AVAILABLE","source":"ndw"}},{"type":"Feature","geometry":{"type":"Point","coordinates":[5.200448,52.129621]},"properties":{"type":"charge","layer":"passenger","locationId":"68aebd1eb240629d9e583ad8","name":"maayke De Graaff 's station","address":"Rembrandtlaan  14a","city":"Bilthoven","operatorName":"E-Flux by Road","maxPowerKw":7,"isMegawatt":false,"status":"AVAILABLE","source":"ndw","priceKwh":0.48}},{"type":"Feature","geometry":{"type":"Point","coordinates":[5.178014,52.107307]},"properties":{"type":"charge","layer":"passenger","locationId":"17466bb9-916a-43aa-9c1b-071f5113848f","name":"TNLP009321 - Burgemeester Van Heemstrakwartier 293, De Bilt","address":"293 Burgemeester Van Heemstrakwartier","city":"De Bilt","operatorName":"TotalEnergies","maxPowerKw":17,"isMegawatt":false,"status":"CHARGING","source":"ndw"}},{"type":"Feature","geometry":{"type":"Point","coordinates":[5.215153,52.176194]},"properties":{"type":"charge","layer":"passenger","locationId":"6996c424ccb64d6e9960e866","name":"TP - Lage Vuursche","address":"Koudelaan 25","city":"Bilthoven","operatorName":"Pluq","maxPowerKw":60,"isMegawatt":false,"status":"AVAILABLE","source":"ndw","priceKwh":0.4}},{"type":"Feature","geometry":{"type":"Point","coordinates":[5.191151,52.12412]},"properties":{"type":"charge","layer":"passenger","locationId":"4dbf5575-cd8a-45f9-97fc-8230a77d3f5f","name":"PP005519 - Snippenlaan 49, Bilthoven","address":"49 Snippenlaan","city":"Bilthoven","operatorName":"TotalEnergies","maxPowerKw":11,"isMegawatt":false,"status":"AVAILABLE","source":"ndw"}},{"type":"Feature","geometry":{"type":"Point","coordinates":[5.18473,52.1193]},"properties":{"type":"charge","layer":"passenger","locationId":"3dde42c7-3c90-458c-a3a2-f15cf8aa1e90","name":"PP004341 - Uranuslaan 10, Bilthoven","address":"10 Uranuslaan","city":"Bilthoven","operatorName":"TotalEnergies","maxPowerKw":11,"isMegawatt":false,"status":"AVAILABLE","source":"ndw"}},{"type":"Feature","geometry":{"type":"Point","coordinates":[5.189335,52.130015]},"properties":{"type":"charge","layer":"passenger","locationId":"6bdd242a-67cf-45cf-8f3b-70d62dd22a44","name":"TNLP015194","address":"Berlagelaan 70","city":"Bilthoven","operatorName":"TotalEnergies","maxPowerKw":17,"isMegawatt":false,"status":"AVAILABLE","source":"ndw"}},{"type":"Feature","geometry":{"type":"Point","coordinates":[5.17603,52.11453]},"properties":{"type":"charge","layer":"passenger","locationId":"276","name":"Shell Recharge NL Alfrednobellaan 661","address":"Alfrednobellaan 661","city":"De Bilt","operatorName":"Ubitricity","maxPowerKw":11,"isMegawatt":false,"status":"AVAILABLE","source":"ndw","priceKwh":0.388}},{"type":"Feature","geometry":{"type":"Point","coordinates":[5.1939642,52.1332474]},"properties":{"type":"charge","layer":"passenger","locationId":"2840","name":"Shell Recharge NL Citroenvlinder 26","address":"Citroenvlinder 26","city":"Bilthoven","operatorName":"Ubitricity","maxPowerKw":22,"isMegawatt":false,"status":"AVAILABLE","source":"ndw","priceKwh":0.266}},{"type":"Feature","geometry":{"type":"Point","coordinates":[5.151761,52.122731]},"properties":{"type":"charge","layer":"passenger","locationId":"3614242","name":"Laadnet bladt & zonen vastgoed bv","address":"Groenekanseweg 70","city":"De Bilt","operatorName":"Laadnet","maxPowerKw":7,"isMegawatt":false,"status":"AVAILABLE","source":"ndw"}},{"type":"Feature","geometry":{"type":"Point","coordinates":[5.210758,52.126811]},"properties":{"type":"charge","layer":"passenger","locationId":"51cef970-8034-4f8f-940a-978dc5b659cc","name":"TNLP034341","address":"Kruisbeklaan 14","city":"Bilthoven","operatorName":"TotalEnergies","maxPowerKw":14,"isMegawatt":false,"status":"AVAILABLE","source":"ndw"}},{"type":"Feature","geometry":{"type":"Point","coordinates":[5.196826,52.123602]},"properties":{"type":"charge","layer":"passenger","locationId":"9c872908-3dca-4293-b64c-9f3999e3df8c","name":"TNLP034353","address":"Nimrodlaan 22","city":"Bilthoven","operatorName":"TotalEnergies","maxPowerKw":14,"isMegawatt":false,"status":"CHARGING","source":"ndw"}},{"type":"Feature","geometry":{"type":"Point","coordinates":[5.12565,52.15079]},"properties":{"type":"charge","layer":"passenger","locationId":"1536","name":"Shell Recharge NL Kerkdijk 5","address":"Kerkdijk 5","city":"De Bilt","operatorName":"Ubitricity","maxPowerKw":11,"isMegawatt":false,"status":"AVAILABLE","source":"ndw","priceKwh":0.388}},{"type":"Feature","geometry":{"type":"Point","coordinates":[5.21041,52.12637]},"properties":{"type":"charge","layer":"passenger","locationId":"1614","name":"Shell Recharge NL Putterlaan 14","address":"Putterlaan 14","city":"De Bilt","operatorName":"Ubitricity","maxPowerKw":11,"isMegawatt":false,"status":"AVAILABLE","source":"ndw","priceKwh":0.388}},{"type":"Feature","geometry":{"type":"Point","coordinates":[5.184931,52.104424]},"properties":{"type":"charge","layer":"passenger","locationId":"7df8a687-9a96-48d0-8dc8-8e20c936299a","name":"TNLP007939 - Dorpsstraat vo Steenstraat 10, De Bilt","address":"10 Dorpsstraat vo Steenstraat","city":"De Bilt","operatorName":"TotalEnergies","maxPowerKw":13,"isMegawatt":false,"status":"AVAILABLE","source":"ndw"}},{"type":"Feature","geometry":{"type":"Point","coordinates":[5.173439,52.15757]},"properties":{"type":"charge","layer":"passenger","locationId":"0ad30c05-58d4-46ba-92d9-fe142906347c","name":"TNLP006574 - Graspieper 46, Maartensdijk","address":"46 Graspieper","city":"Maartensdijk","operatorName":"TotalEnergies","maxPowerKw":17,"isMegawatt":false,"status":"AVAILABLE","source":"ndw"}},{"type":"Feature","geometry":{"type":"Point","coordinates":[5.179269,52.103549]},"properties":{"type":"charge","layer":"passenger","locationId":"9","name":"Shell Recharge NL Dorpsstr VO Steenstr 96","address":"Dorpsstr VO Steenstr 96","city":"De Bilt","operatorName":"Ubitricity","maxPowerKw":11,"isMegawatt":false,"status":"AVAILABLE","source":"ndw","priceKwh":0.388}},{"type":"Feature","geometry":{"type":"Point","coordinates":[5.1849,52.11127]},"properties":{"type":"charge","layer":"passenger","locationId":"f84dd0ef-4fae-4a45-a1f7-960deadcfa2d","name":"PP005460 - Henrica van Erpweg 85, De Bilt","address":"85 Henrica van Erpweg","city":"De Bilt","operatorName":"TotalEnergies","maxPowerKw":11,"isMegawatt":false,"status":"UNAVAILABLE","source":"ndw"}},{"type":"Feature","geometry":{"type":"Point","coordinates":[5.195618,52.128867]},"properties":{"type":"charge","layer":"passenger","locationId":"c89c7f07-126e-4af5-bfee-f5de33a74cfc","name":"TNLP034148","address":"Rogier van der Weydenlaan 32","city":"Bilthoven","operatorName":"TotalEnergies","maxPowerKw":14,"isMegawatt":false,"status":"AVAILABLE","source":"ndw"}},{"type":"Feature","geometry":{"type":"Point","coordinates":[5.1791,52.114353]},"properties":{"type":"charge","layer":"passenger","locationId":"59b1de80-bc9b-4a75-882f-d081f114931c","name":"TNLP009046 - Prof. dr. F.Zernikeweg 38, De Bilt","address":"38 Prof. dr. F.Zernikeweg","city":"De Bilt","operatorName":"TotalEnergies","maxPowerKw":17,"isMegawatt":false,"status":"AVAILABLE","source":"ndw"}},{"type":"Feature","geometry":{"type":"Point","coordinates":[5.176975,52.11513]},"properties":{"type":"charge","layer":"passenger","locationId":"8fa70eab-1907-412f-ae7f-29d8420ddbd6","name":"TNLP006594 - Alfred Nobellaan 154, De Bilt","address":"154 Alfred Nobellaan","city":"De Bilt","operatorName":"TotalEnergies","maxPowerKw":17,"isMegawatt":false,"status":"AVAILABLE","source":"ndw"}},{"type":"Feature","geometry":{"type":"Point","coordinates":[5.19595,52.12596]},"properties":{"type":"charge","layer":"passenger","locationId":"508","name":"Shell Recharge NL Leyenseweg 99","address":"Leyenseweg 99","city":"Bilthoven","operatorName":"Ubitricity","maxPowerKw":11,"isMegawatt":false,"status":"AVAILABLE","source":"ndw","priceKwh":0.388}},{"type":"Feature","geometry":{"type":"Point","coordinates":[5.19056,52.13102]},"properties":{"type":"charge","layer":"passenger","locationId":"144","name":"Shell Recharge NL Purpervlinder 8","address":"Purpervlinder 8","city":"Bilthoven","operatorName":"Ubitricity","maxPowerKw":11,"isMegawatt":false,"status":"AVAILABLE","source":"ndw","priceKwh":0.388}},{"type":"Feature","geometry":{"type":"Point","coordinates":[5.191691,52.130014]},"properties":{"type":"charge","layer":"passenger","locationId":"825504d5aab2f40d063d1f89d41db66c","name":"Hans Memlinglaan 113","address":"Hans Memlinglaan 113","city":"Bilthoven","operatorName":"Vattenfall InCharge","maxPowerKw":11,"isMegawatt":false,"status":"AVAILABLE","source":"ndw"}},{"type":"Feature","geometry":{"type":"Point","coordinates":[5.172034,52.10337]},"properties":{"type":"charge","layer":"passenger","locationId":"76e5cd3c-af2f-4b2a-9d6d-76ae1804e7ab","name":"TNLP007092 - Kerklaan 29, De Bilt","address":"29 Kerklaan","city":"De Bilt","operatorName":"TotalEnergies","maxPowerKw":17,"isMegawatt":false,"status":"AVAILABLE","source":"ndw"}},{"type":"Feature","geometry":{"type":"Point","coordinates":[5.1857294,52.1272618]},"properties":{"type":"charge","layer":"passenger","locationId":"1224","name":"Shell Recharge NL Dudokkwartier 4","address":"Dudokkwartier 4","city":"Bilthoven","operatorName":"Ubitricity","maxPowerKw":22,"isMegawatt":false,"status":"AVAILABLE","source":"ndw","priceKwh":0.266}},{"type":"Feature","geometry":{"type":"Point","coordinates":[5.190523,52.1219131]},"properties":{"type":"charge","layer":"passenger","locationId":"2802","name":"Shell Recharge NL Konijnenlaan 4","address":"Konijnenlaan 4","city":"Bilthoven","operatorName":"Ubitricity","maxPowerKw":22,"isMegawatt":false,"status":"AVAILABLE","source":"ndw","priceKwh":0.266}},{"type":"Feature","geometry":{"type":"Point","coordinates":[5.125276,52.149633]},"properties":{"type":"charge","layer":"passenger","locationId":"3964878","name":"Laadnet Vink Witgoed","address":"Prinses Christinastraat 1","city":"Westbroek","operatorName":"Laadnet","maxPowerKw":11,"isMegawatt":false,"status":"AVAILABLE","source":"ndw"}},{"type":"Feature","geometry":{"type":"Point","coordinates":[5.18633,52.12304]},"properties":{"type":"charge","layer":"passenger","locationId":"9ec9fdb033659ce45b138b6ee9fa58d1","name":"Orionlaan 61","address":"Orionlaan 61","city":"Bilthoven","operatorName":"Vattenfall InCharge","maxPowerKw":11,"isMegawatt":false,"status":"AVAILABLE","source":"ndw"}},{"type":"Feature","geometry":{"type":"Point","coordinates":[5.211933,52.127613]},"properties":{"type":"charge","layer":"passenger","locationId":"16b478bf-af90-4603-a5bb-c71907dd9ce1","name":"PP005169 - Goudvinklaan 128TR, Bilthoven","address":"128TR Goudvinklaan","city":"Bilthoven","operatorName":"TotalEnergies","maxPowerKw":11,"isMegawatt":false,"status":"CHARGING","source":"ndw"}},{"type":"Feature","geometry":{"type":"Point","coordinates":[5.213393,52.12634]},"properties":{"type":"charge","layer":"passenger","locationId":"a9c6ed80-d8ca-4344-ba06-deb02f8082f2","name":"TNLP006576 - Kruisbeklaan 52, Bilthoven","address":"52 Kruisbeklaan","city":"Bilthoven","operatorName":"TotalEnergies","maxPowerKw":17,"isMegawatt":false,"status":"AVAILABLE","source":"ndw"}},{"type":"Feature","geometry":{"type":"Point","coordinates":[5.200404,52.12383]},"properties":{"type":"charge","layer":"passenger","locationId":"2f585a49-42f1-42c6-9e65-2acece1bcc14","name":"TNLP008312 - Soestdijkseweg Zuid 205, Bilthoven","address":"205 Soestdijkseweg Zuid","city":"Bilthoven","operatorName":"TotalEnergies","maxPowerKw":13,"isMegawatt":false,"status":"AVAILABLE","source":"ndw"}},{"type":"Feature","geometry":{"type":"Point","coordinates":[5.183774,52.126133]},"properties":{"type":"charge","layer":"passenger","locationId":"99471797-c6fb-4a3c-a87a-f80a2fde437f","name":"TNLP009887 - Kromhoutkwartier 24, Bilthoven","address":"24 Kromhoutkwartier","city":"Bilthoven","operatorName":"TotalEnergies","maxPowerKw":17,"isMegawatt":false,"status":"AVAILABLE","source":"ndw"}},{"type":"Feature","geometry":{"type":"Point","coordinates":[5.16808,52.178137]},"properties":{"type":"charge","layer":"passenger","locationId":"2720774","name":"Laadnet Egelshoek Park","address":"Graaf Floris v Weg 32","city":"Hollandsche Rading","operatorName":"Laadnet","maxPowerKw":22,"isMegawatt":false,"status":"CHARGING","source":"ndw"}},{"type":"Feature","geometry":{"type":"Point","coordinates":[5.20339,52.12283]},"properties":{"type":"charge","layer":"passenger","locationId":"1601","name":"Shell Recharge NL Parklaan 26","address":"Parklaan 26","city":"De Bilt","operatorName":"Ubitricity","maxPowerKw":11,"isMegawatt":false,"status":"AVAILABLE","source":"ndw","priceKwh":0.388}},{"type":"Feature","geometry":{"type":"Point","coordinates":[5.185,52.10834]},"properties":{"type":"charge","layer":"passenger","locationId":"449","name":"Shell Recharge NL Looydijk 46","address":"Looydijk 46","city":"De Bilt","operatorName":"Ubitricity","maxPowerKw":11,"isMegawatt":false,"status":"AVAILABLE","source":"ndw","priceKwh":0.388}},{"type":"Feature","geometry":{"type":"Point","coordinates":[5.18361,52.10448]},"properties":{"type":"charge","layer":"passenger","locationId":"1639","name":"Shell Recharge NL Steenstraat 36","address":"Steenstraat 36","city":"De Bilt","operatorName":"Ubitricity","maxPowerKw":11,"isMegawatt":false,"status":"CHARGING","source":"ndw","priceKwh":0.388}},{"type":"Feature","geometry":{"type":"Point","coordinates":[5.18327,52.12029]},"properties":{"type":"charge","layer":"passenger","locationId":"a9e80183-9a96-467c-bdbf-ecf435c20383","name":"PP001133 - Planetenbaan 81, Bilthoven","address":"81 Planetenbaan","city":"Bilthoven","operatorName":"TotalEnergies","maxPowerKw":11,"isMegawatt":false,"status":"UNAVAILABLE","source":"ndw"}},{"type":"Feature","geometry":{"type":"Point","coordinates":[5.178555,52.10527]},"properties":{"type":"charge","layer":"passenger","locationId":"df80cb1e-60e9-4bf6-925c-450eb297bc52","name":"PP005476 - Burgemeester De Withstraat 59, De Bilt","address":"59 Burgemeester De Withstraat","city":"De Bilt","operatorName":"TotalEnergies","maxPowerKw":11,"isMegawatt":false,"status":"AVAILABLE","source":"ndw"}},{"type":"Feature","geometry":{"type":"Point","coordinates":[5.215414,52.1255]},"properties":{"type":"charge","layer":"passenger","locationId":"cbb691c0-4586-4930-b709-77b341104c0a","name":"TNLP009178 - Spotvogellaan 24, Bilthoven","address":"24 Spotvogellaan","city":"Bilthoven","operatorName":"TotalEnergies","maxPowerKw":17,"isMegawatt":false,"status":"CHARGING","source":"ndw"}},{"type":"Feature","geometry":{"type":"Point","coordinates":[5.183542,52.10709]},"properties":{"type":"charge","layer":"passenger","locationId":"0871312c-12d4-4d97-b937-7d8750764ecd","name":"PP001014 - Jasmijnstraat 70, De Bilt","address":"70 Jasmijnstraat","city":"De Bilt","operatorName":"TotalEnergies","maxPowerKw":11,"isMegawatt":false,"status":"CHARGING","source":"ndw"}},{"type":"Feature","geometry":{"type":"Point","coordinates":[5.1709,52.10471]},"properties":{"type":"charge","layer":"passenger","locationId":"1537","name":"Shell Recharge NL Kerkdwarslaan 21","address":"Kerkdwarslaan 21","city":"De Bilt","operatorName":"Ubitricity","maxPowerKw":11,"isMegawatt":false,"status":"AVAILABLE","source":"ndw","priceKwh":0.388}},{"type":"Feature","geometry":{"type":"Point","coordinates":[5.17911,52.11891]},"properties":{"type":"charge","layer":"passenger","locationId":"1545","name":"Shell Recharge NL Kometenlaan 219","address":"Kometenlaan 219","city":"De Bilt","operatorName":"Ubitricity","maxPowerKw":11,"isMegawatt":false,"status":"AVAILABLE","source":"ndw","priceKwh":0.388}},{"type":"Feature","geometry":{"type":"Point","coordinates":[5.188448,52.12162]},"properties":{"type":"charge","layer":"passenger","locationId":"920470eb-75c0-423b-8584-95d7e933f065","name":"PP005459 - 1e Brandenburgerweg 144, Bilthoven","address":"144 1e Brandenburgerweg","city":"Bilthoven","operatorName":"TotalEnergies","maxPowerKw":11,"isMegawatt":false,"status":"AVAILABLE","source":"ndw"}},{"type":"Feature","geometry":{"type":"Point","coordinates":[5.22794,52.13459]},"properties":{"type":"charge","layer":"passenger","locationId":"1590","name":"Shell Recharge NL Oranje Nassaulaan 65","address":"Oranje Nassaulaan 65","city":"De Bilt","operatorName":"Ubitricity","maxPowerKw":11,"isMegawatt":false,"status":"CHARGING","source":"ndw","priceKwh":0.388}},{"type":"Feature","geometry":{"type":"Point","coordinates":[5.20887,52.1299]},"properties":{"type":"charge","layer":"passenger","locationId":"393","name":"Shell Recharge NL Julianalaan 61","address":"Julianalaan 61","city":"Bilthoven","operatorName":"Ubitricity","maxPowerKw":11,"isMegawatt":false,"status":"AVAILABLE","source":"ndw","priceKwh":0.388}},{"type":"Feature","geometry":{"type":"Point","coordinates":[5.206549,52.127589]},"properties":{"type":"charge","layer":"passenger","locationId":"10","name":"Shell Recharge NL Merellaan 9","address":"Merellaan 9","city":"Bilthoven","operatorName":"Ubitricity","maxPowerKw":11,"isMegawatt":false,"status":"CHARGING","source":"ndw","priceKwh":0.388}},{"type":"Feature","geometry":{"type":"Point","coordinates":[5.1724,52.1122]},"properties":{"type":"charge","layer":"passenger","locationId":"A6056A1A-9F73-4C2C-8122-B228A51A74AA","name":"Eneco eMobility Broekhuis Ford De Bilt","address":"Weltevreden 12","city":"De Bilt","operatorName":"Eneco","maxPowerKw":22,"isMegawatt":false,"status":"CHARGING","source":"ndw","priceKwh":0.45}},{"type":"Feature","geometry":{"type":"Point","coordinates":[5.189394,52.122314]},"properties":{"type":"charge","layer":"passenger","locationId":"7ab4afcd-c6e3-4b28-b5a2-f12636f89731","name":"PP001002 - Snippenlaan 5, Bilthoven","address":"5 Snippenlaan","city":"Bilthoven","operatorName":"TotalEnergies","maxPowerKw":11,"isMegawatt":false,"status":"AVAILABLE","source":"ndw"}},{"type":"Feature","geometry":{"type":"Point","coordinates":[5.174016,52.152447]},"properties":{"type":"charge","layer":"passenger","locationId":"0dfb8198-2bc3-4270-9fc6-599bc748cba4","name":"TNLP006543 - Grondzeiler 1, Maartensdijk","address":"1 Grondzeiler","city":"Maartensdijk","operatorName":"TotalEnergies","maxPowerKw":17,"isMegawatt":false,"status":"AVAILABLE","source":"ndw"}},{"type":"Feature","geometry":{"type":"Point","coordinates":[5.185193,52.103854]},"properties":{"type":"charge","layer":"passenger","locationId":"2197400","name":"Laadnet Buitenkoer","address":"Dorpsstraat 11-21","city":"De Bilt","operatorName":"Laadnet","maxPowerKw":11,"isMegawatt":false,"status":"AVAILABLE","source":"ndw"}},{"type":"Feature","geometry":{"type":"Point","coordinates":[5.199764,52.125397]},"properties":{"type":"charge","layer":"passenger","locationId":"01469a53-f62a-4e46-a6b6-15bdf512749b","name":"TNLP006610 - Prins Hendriklaan 44, Bilthoven","address":"44 Prins Hendriklaan","city":"Bilthoven","operatorName":"TotalEnergies","maxPowerKw":17,"isMegawatt":false,"status":"AVAILABLE","source":"ndw"}},{"type":"Feature","geometry":{"type":"Point","coordinates":[5.1805,52.122746]},"properties":{"type":"charge","layer":"passenger","locationId":"66ec4cf2-7616-4525-8f03-ddb62e4d93d0","name":"TNLP008216 - Tweelingen 140, Bilthoven","address":"140 Tweelingen","city":"Bilthoven","operatorName":"TotalEnergies","maxPowerKw":17,"isMegawatt":false,"status":"CHARGING","source":"ndw"}},{"type":"Feature","geometry":{"type":"Point","coordinates":[5.175878,52.109756]},"properties":{"type":"charge","layer":"passenger","locationId":"e8139d95-dc1e-4a6b-a5da-e7357fe8b792","name":"TNLP009518 - Albert Schweitzerweg 1, De Bilt","address":"1 Albert Schweitzerweg","city":"De Bilt","operatorName":"TotalEnergies","maxPowerKw":17,"isMegawatt":false,"status":"AVAILABLE","source":"ndw"}},{"type":"Feature","geometry":{"type":"Point","coordinates":[5.214057,52.144756]},"properties":{"type":"charge","layer":"passenger","locationId":"2e457650-fe76-4d53-b462-09f168a869c9","name":"TNLP007143 - Gerard Doulaan 21, Bilthoven","address":"21 Gerard Doulaan","city":"Bilthoven","operatorName":"TotalEnergies","maxPowerKw":17,"isMegawatt":false,"status":"AVAILABLE","source":"ndw"}},{"type":"Feature","geometry":{"type":"Point","coordinates":[5.17377,52.10938]},"properties":{"type":"charge","layer":"passenger","locationId":"4f543839-09c0-4e2d-bed0-345f527395a5","name":"PP002503 - Henri Dunantplein 1, De Bilt","address":"1 Henri Dunantplein","city":"De Bilt","operatorName":"TotalEnergies","maxPowerKw":13,"isMegawatt":false,"status":"UNAVAILABLE","source":"ndw"}},{"type":"Feature","geometry":{"type":"Point","coordinates":[5.18084,52.17398]},"properties":{"type":"charge","layer":"passenger","locationId":"f1a6c068a2a112998b28394223107d8b","name":"Dennenlaan 55","address":"Dennenlaan 55","city":"Hollandsche Rading","operatorName":"Vattenfall InCharge","maxPowerKw":11,"isMegawatt":false,"status":"AVAILABLE","source":"ndw"}},{"type":"Feature","geometry":{"type":"Point","coordinates":[5.187422,52.126157]},"properties":{"type":"charge","layer":"passenger","locationId":"f17959d0-d325-4939-bb87-dacab27976e8","name":"TNLP034151","address":"Berlagelaan 85","city":"Bilthoven","operatorName":"TotalEnergies","maxPowerKw":14,"isMegawatt":false,"status":"AVAILABLE","source":"ndw"}},{"type":"Feature","geometry":{"type":"Point","coordinates":[5.19747,52.13565]},"properties":{"type":"charge","layer":"passenger","locationId":"063798607f196e77635f4d572a4864f4","name":"Kees Boekelaan 1","address":"Kees Boekelaan 1","city":"Bilthoven","operatorName":"Vattenfall InCharge","maxPowerKw":11,"isMegawatt":false,"status":"AVAILABLE","source":"ndw"}},{"type":"Feature","geometry":{"type":"Point","coordinates":[5.173613,52.107532]},"properties":{"type":"charge","layer":"passenger","locationId":"584791fe6ec7276996cb58e3556c6187","name":"Otto Hahnweg 1","address":"Otto Hahnweg 1","city":"De Bilt","operatorName":"Vattenfall InCharge","maxPowerKw":11,"isMegawatt":false,"status":"AVAILABLE","source":"ndw"}},{"type":"Feature","geometry":{"type":"Point","coordinates":[5.18852,52.10897]},"properties":{"type":"charge","layer":"passenger","locationId":"495c3fd031b56eb8eea9d45b5dd0ce83","name":"Laan 1813 15","address":"Laan 1813 15","city":"De Bilt","operatorName":"Vattenfall InCharge","maxPowerKw":11,"isMegawatt":false,"status":"UNAVAILABLE","source":"ndw"}},{"type":"Feature","geometry":{"type":"MultiPolygon","coordinates":[[[[5.2160027292047495,52.18806152417253],[5.212075383482923,52.17637451170455],[5.21413138188635,52.176674591228945],[5.220994813959019,52.178261075333786],[5.221120365943579,52.17637288136626],[5.221218623118869,52.17457187473967],[5.222701468450234,52.17468772031349],[5.223888998044544,52.165380077698046],[5.224998607395888,52.16570011635646],[5.226702336201707,52.15416358693369],[5.2268832958147815,52.15299168953207],[5.229284828706641,52.13673042550372],[5.229298833120329,52.13663238446778],[5.229460545196414,52.13557035337123],[5.229573642177403,52.13458646384906],[5.228998288564387,52.1316553497961],[5.230231642909624,52.12262465453413],[5.230929922234691,52.11678892248145],[5.218218673431054,52.11367261764913],[5.220895892917766,52.106009715656356],[5.22232835452407,52.10389316591334],[5.215644156157341,52.102024021042524],[5.210809886933761,52.100721099116534],[5.211981118875063,52.09887955849559],[5.211406591017052,52.098310406219994],[5.212726635884143,52.09767418503237],[5.212318426870619,52.09700326045949],[5.208608183966195,52.09361875156125],[5.2095903342840195,52.09148265957741],[5.2105870680174355,52.09031427475521],[5.20722920754261,52.086439130375695],[5.2055166261005485,52.08682937522187],[5.206714452832371,52.0862703656859],[5.205524042215516,52.08489542530675],[5.192751476116649,52.08607624312723],[5.189757194890414,52.08633386510174],[5.186169459878412,52.092927459246425],[5.184618686223972,52.0931468954766],[5.182691347146867,52.09430740198424],[5.180702080650175,52.094608231125264],[5.1805635400760295,52.093131639156866],[5.176807132960889,52.093357104068325],[5.17600879974232,52.09408341249156],[5.175864220619765,52.09340884343874],[5.172011126933037,52.09378496658454],[5.166114625571195,52.093725300986485],[5.161320417921736,52.09438429923884],[5.157309095644058,52.0983390065041],[5.1564026050594185,52.09814840190773],[5.156269203208426,52.098401790917045],[5.1619145113045795,52.10721518220629],[5.157264096197167,52.10813905829987],[5.150380365878027,52.110875235970404],[5.14865067513071,52.11524361842219],[5.149309715818182,52.118491130779866],[5.146731630134715,52.12041268458411],[5.142623848548285,52.120844374978816],[5.142201820794998,52.12019189966139],[5.14159585244196,52.121174702050695],[5.140163100449493,52.120581967603954],[5.140396775500651,52.12099295117589],[5.12654811780144,52.124598716318005],[5.107092717197166,52.13321127855452],[5.110778630116203,52.13664134889044],[5.120528814140683,52.14554134373186],[5.095508881678334,52.15507869749709],[5.094889708331194,52.155349328448956],[5.118845097560383,52.172406472626996],[5.115311033018802,52.17981675649108],[5.1214124566751575,52.18095323697418],[5.1241104622297975,52.180827877978174],[5.143225057269274,52.17999958981466],[5.143344161702252,52.18029935055202],[5.1667400268552734,52.17897633362466],[5.169704633177786,52.17880324359693],[5.179431476762877,52.17821394388519],[5.184185378280763,52.17795522716844],[5.192585775882908,52.177833516045894],[5.215500636424269,52.20427411463778],[5.2163007911314505,52.203042157265635],[5.214109818428954,52.19916105733456],[5.213253948765507,52.19008249411766],[5.215046378162149,52.18875445147232],[5.2160027292047495,52.18806152417253]]]]},"properties":{"type":"boundary","gemeente":"De Bilt","code":"GM0310"}}]}