{"type":"FeatureCollection","metadata":{"gemeente":"De Fryske Marren","slug":"de-fryske-marren","code":"GM1940","generated_at":"2026-07-06T16:26:11.361Z","total_passenger":130,"total_freight":1,"bounds":[5.426245203659268,52.80369180900809,5.9378470188146295,53.058840022981954],"operators":["Alva Charging Services","DAEN Mobility","E-Flux by Road","Eneco","Fastned","Laadnet","Lanova Laadpalen","Pluq","PureCharged","TotalEnergies","Van Mossel Energie Lease","Vattenfall","Vattenfall InCharge","e-VOLTT"]},"features":[{"type":"Feature","geometry":{"type":"Point","coordinates":[5.716908,52.846355]},"properties":{"type":"charge","layer":"passenger","locationId":"3c34c693-4324-45aa-92fd-4dc691ab631b","name":"TNLP013224 - Gerben Bootsmastraat 37, Oudehaske","address":"37 Gerben Bootsmastraat","city":"Oudehaske","operatorName":"TotalEnergies","maxPowerKw":17,"isMegawatt":false,"status":"AVAILABLE","source":"ndw"}},{"type":"Feature","geometry":{"type":"Point","coordinates":[5.867467,52.956531]},"properties":{"type":"charge","layer":"passenger","locationId":"923291","name":"DAE_NL_2001016","address":"Reidkraach 8","city":"OUDEHASKE","operatorName":"DAEN Mobility","maxPowerKw":11,"isMegawatt":false,"status":"UNAVAILABLE","source":"ndw"}},{"type":"Feature","geometry":{"type":"Point","coordinates":[5.455526,52.868874]},"properties":{"type":"charge","layer":"passenger","locationId":"e2cd756b-6990-4679-86fe-a255c96e071a","name":"TNLP012213 - Sint Odulphusstraat 69, Bakhuizen","address":"69 Sint Odulphusstraat","city":"Bakhuizen","operatorName":"TotalEnergies","maxPowerKw":17,"isMegawatt":false,"status":"UNAVAILABLE","source":"ndw"}},{"type":"Feature","geometry":{"type":"Point","coordinates":[5.819068,52.873427]},"properties":{"type":"charge","layer":"passenger","locationId":"390c7799-3bac-4069-b9fa-ab48de97c865","name":"TNLP013135","address":"De Splitting 31","city":"Echtenbrug","operatorName":"TotalEnergies","maxPowerKw":17,"isMegawatt":false,"status":"AVAILABLE","source":"ndw"}},{"type":"Feature","geometry":{"type":"Point","coordinates":[5.88041,52.95406]},"properties":{"type":"charge","layer":"passenger","locationId":"1365857","name":"Laadnet Wielinga thuis","address":"Menning 12","city":"Oudehaske","operatorName":"Laadnet","maxPowerKw":22,"isMegawatt":false,"status":"UNAVAILABLE","source":"ndw"}},{"type":"Feature","geometry":{"type":"Point","coordinates":[5.713926,52.851046]},"properties":{"type":"charge","layer":"passenger","locationId":"69e8c5f30ea461a942189ec0","name":"Van Staveren Laadpunt Lemmer","address":"Melkweg 1","city":"Lemmer","operatorName":"E-Flux by Road","maxPowerKw":125,"isMegawatt":false,"status":"AVAILABLE","source":"ndw","priceKwh":0.68}},{"type":"Feature","geometry":{"type":"Point","coordinates":[5.704977,52.843825]},"properties":{"type":"charge","layer":"passenger","locationId":"66b5bb430094a8001bc32049","name":"Van Rhee Installatietechniek's station","address":"Vuurtorenweg 7","city":"Lemmer","operatorName":"E-Flux by Road","maxPowerKw":11,"isMegawatt":false,"status":"AVAILABLE","source":"ndw","priceKwh":0.4928}},{"type":"Feature","geometry":{"type":"Point","coordinates":[5.881173,52.95385]},"properties":{"type":"charge","layer":"passenger","locationId":"9cc4d77d-7486-4655-901f-e1119822f705","name":"TNLP012091 - Menning 22, Oudehaske","address":"22 Menning","city":"Oudehaske","operatorName":"TotalEnergies","maxPowerKw":17,"isMegawatt":false,"status":"AVAILABLE","source":"ndw"}},{"type":"Feature","geometry":{"type":"Point","coordinates":[5.571455,52.895275]},"properties":{"type":"charge","layer":"passenger","locationId":"67c059f3611306114d975ccb","name":"HOS Oil reloading Laadpaal 2","address":"Eigen haard 3","city":"Balk","operatorName":"E-Flux by Road","maxPowerKw":11,"isMegawatt":false,"status":"AVAILABLE","source":"ndw","priceKwh":0.41}},{"type":"Feature","geometry":{"type":"Point","coordinates":[5.71039,52.84638]},"properties":{"type":"charge","layer":"passenger","locationId":"7e49d7c6-b007-4428-b76f-d06057686fde","name":"TNLP012227 - Schoolstraat 7, Lemmer","address":"7 Schoolstraat","city":"Lemmer","operatorName":"TotalEnergies","maxPowerKw":17,"isMegawatt":false,"status":"AVAILABLE","source":"ndw"}},{"type":"Feature","geometry":{"type":"Point","coordinates":[5.785774,53.040881]},"properties":{"type":"charge","layer":"passenger","locationId":"617813d12d3df0dcebb7be58","name":"Mirjam Willemsen","address":"Kupersleantsje 34","city":"Terherne","operatorName":"E-Flux by Road","maxPowerKw":11,"isMegawatt":false,"status":"UNAVAILABLE","source":"ndw","priceKwh":0.88}},{"type":"Feature","geometry":{"type":"Point","coordinates":[5.705452,52.964017]},"properties":{"type":"charge","layer":"passenger","locationId":"6672dab97ca693001cc68db4","name":"De Hoek Watersport","address":"Nummer 1","city":"Dijken","operatorName":"E-Flux by Road","maxPowerKw":10,"isMegawatt":false,"status":"AVAILABLE","source":"ndw","priceKwh":0.53}},{"type":"Feature","geometry":{"type":"Point","coordinates":[5.577555,52.90019]},"properties":{"type":"charge","layer":"passenger","locationId":"c89ba1e6-6647-47fb-91d6-e36c4535f296","name":"TNLP013343 - De Eker 1, Balk","address":"1 De Eker","city":"Balk","operatorName":"TotalEnergies","maxPowerKw":17,"isMegawatt":false,"status":"CHARGING","source":"ndw"}},{"type":"Feature","geometry":{"type":"Point","coordinates":[5.835077,52.962671]},"properties":{"type":"charge","layer":"passenger","locationId":"669f52f9d64c82001c33c775","name":"Chiptuning Feno4","address":"Jentjemeer 6","city":"Joure","operatorName":"E-Flux by Road","maxPowerKw":22,"isMegawatt":false,"status":"CHARGING","source":"ndw","priceKwh":0.48}},{"type":"Feature","geometry":{"type":"Point","coordinates":[5.767237,53.041001]},"properties":{"type":"charge","layer":"passenger","locationId":"62028d6cdfc1d76e9df07de6","name":"Terherne laadpaal station","address":"Jongebuorren 52","city":"Terherne","operatorName":"E-Flux by Road","maxPowerKw":11,"isMegawatt":false,"status":"AVAILABLE","source":"ndw","priceKwh":0.77}},{"type":"Feature","geometry":{"type":"Point","coordinates":[5.835077,52.962671]},"properties":{"type":"charge","layer":"passenger","locationId":"671128d99d6cfc001cfb4e43","name":"Chiptuning Feno12","address":"Jentjemeer 6","city":"Joure","operatorName":"E-Flux by Road","maxPowerKw":22,"isMegawatt":false,"status":"CHARGING","source":"ndw","priceKwh":0.48}},{"type":"Feature","geometry":{"type":"Point","coordinates":[5.822019,52.875946]},"properties":{"type":"charge","layer":"passenger","locationId":"69bd59c76c6b567f2843a5ec","name":"BRH station","address":"Pier Christiaanswei 9","city":"Delfstrahuizen","operatorName":"E-Flux by Road","maxPowerKw":8,"isMegawatt":false,"status":"AVAILABLE","source":"ndw","priceKwh":0.47}},{"type":"Feature","geometry":{"type":"Point","coordinates":[5.751726,52.86961]},"properties":{"type":"charge","layer":"passenger","locationId":"88188864-8676-4b8f-b681-4ddaf9c9e92c","name":"TNLP013361 - Buren 40, Oosterzee","address":"40 Buren","city":"Oosterzee","operatorName":"TotalEnergies","maxPowerKw":17,"isMegawatt":false,"status":"AVAILABLE","source":"ndw"}},{"type":"Feature","geometry":{"type":"Point","coordinates":[5.746829,52.941989]},"properties":{"type":"charge","layer":"passenger","locationId":"6874fa15f335303833824e76","name":"Landhuis 11 laadstation","address":"Langwarderdyk  16-11","city":"Sint Nicolaasga","operatorName":"E-Flux by Road","maxPowerKw":14,"isMegawatt":false,"status":"AVAILABLE","source":"ndw","priceKwh":0.58}},{"type":"Feature","geometry":{"type":"Point","coordinates":[5.840374,52.864083]},"properties":{"type":"charge","layer":"passenger","locationId":"631b55cfab600364d2fec525","name":"Smukrecreatie","address":"Krompad  11","city":"Echtenerbrug","operatorName":"E-Flux by Road","maxPowerKw":22,"isMegawatt":false,"status":"AVAILABLE","source":"ndw","priceKwh":0.53}},{"type":"Feature","geometry":{"type":"Point","coordinates":[5.79776,52.96087]},"properties":{"type":"charge","layer":"passenger","locationId":"5468F53C-1A69-4056-8F5B-4869EAB4DC1A","name":"Eneco eMobility Prinses Beatrixstraat 24 Joure","address":"Prinses Beatrixstraat 24","city":"Joure","operatorName":"Eneco","maxPowerKw":22,"isMegawatt":false,"status":"UNAVAILABLE","source":"ndw","priceKwh":0.32}},{"type":"Feature","geometry":{"type":"Point","coordinates":[5.835077,52.962671]},"properties":{"type":"charge","layer":"passenger","locationId":"66f2cf40c4d114001cc877d5","name":"Chiptuning Feno8","address":"Jentjemeer 6","city":"Joure","operatorName":"E-Flux by Road","maxPowerKw":22,"isMegawatt":false,"status":"CHARGING","source":"ndw","priceKwh":0.48}},{"type":"Feature","geometry":{"type":"Point","coordinates":[5.835077,52.962671]},"properties":{"type":"charge","layer":"passenger","locationId":"671128640dbd42001c993497","name":"Chiptuning Feno10","address":"Jentjemeer 6","city":"Joure","operatorName":"E-Flux by Road","maxPowerKw":22,"isMegawatt":false,"status":"AVAILABLE","source":"ndw","priceKwh":0.48}},{"type":"Feature","geometry":{"type":"Point","coordinates":[5.713246,52.85416]},"properties":{"type":"charge","layer":"passenger","locationId":"1f5607da-cc9c-4c56-a5d5-ad58f51f2205","name":"TNLP013447 - Kastanjeleane 64, Lemmer","address":"64 Kastanjeleane","city":"Lemmer","operatorName":"TotalEnergies","maxPowerKw":17,"isMegawatt":false,"status":"AVAILABLE","source":"ndw"}},{"type":"Feature","geometry":{"type":"Point","coordinates":[5.571819,52.895462]},"properties":{"type":"charge","layer":"passenger","locationId":"67d098ea6f681ab572244d2b","name":"HOS Oil reloading Laadpaal 1","address":"Eigen haard 3","city":"Balk","operatorName":"E-Flux by Road","maxPowerKw":11,"isMegawatt":false,"status":"AVAILABLE","source":"ndw","priceKwh":0.41}},{"type":"Feature","geometry":{"type":"Point","coordinates":[5.708799,52.92917]},"properties":{"type":"charge","layer":"passenger","locationId":"65368331f45825001cde9497","name":"Watervilla 2Gebroeders - Recreatiepark Idskenhuizen","address":"Mastersein 14A","city":"Idskenhuizen","operatorName":"E-Flux by Road","maxPowerKw":11,"isMegawatt":false,"status":"AVAILABLE","source":"ndw","priceKwh":0.34}},{"type":"Feature","geometry":{"type":"Point","coordinates":[5.81353,52.963455]},"properties":{"type":"charge","layer":"passenger","locationId":"62305dcdacac590816e72896","name":"DMT's 1 station","address":"Yndustrywei 3","city":"Joure","operatorName":"E-Flux by Road","maxPowerKw":22,"isMegawatt":false,"status":"UNAVAILABLE","source":"ndw","priceKwh":0.46}},{"type":"Feature","geometry":{"type":"Point","coordinates":[5.711203,52.84498]},"properties":{"type":"charge","layer":"passenger","locationId":"9F81C984-FBF2-4107-89AD-3C9A6DAD3E0C","name":"Eneco eMobility Kerkhof 12","address":"Kerkhof 1","city":"Rhoon","operatorName":"Eneco","maxPowerKw":22,"isMegawatt":false,"status":"UNAVAILABLE","source":"ndw","priceKwh":0.32}},{"type":"Feature","geometry":{"type":"Point","coordinates":[5.709998,52.845705]},"properties":{"type":"charge","layer":"passenger","locationId":"67d409a9d4f6f238716b5946","name":"4104 - Allen","address":"Schoolstraat  12","city":"Lemmer","operatorName":"E-Flux by Road","maxPowerKw":22,"isMegawatt":false,"status":"AVAILABLE","source":"ndw","priceKwh":0.63}},{"type":"Feature","geometry":{"type":"Point","coordinates":[5.823393,52.874997]},"properties":{"type":"charge","layer":"passenger","locationId":"668ffc39fb6d81001cb8989c","name":"Laadpaal Docklodge 48","address":"Bûtertonne  48","city":"Delfstrahuizen","operatorName":"E-Flux by Road","maxPowerKw":11,"isMegawatt":false,"status":"AVAILABLE","source":"ndw","priceKwh":0.68}},{"type":"Feature","geometry":{"type":"Point","coordinates":[5.595915,52.893354]},"properties":{"type":"charge","layer":"passenger","locationId":"69ca5db8cd7d404d8247ecb3","name":"Swart campers  station","address":"Jachtlustweg 49A","city":"Wijckel","operatorName":"E-Flux by Road","maxPowerKw":320,"isMegawatt":false,"status":"UNAVAILABLE","source":"ndw","priceKwh":0.6}},{"type":"Feature","geometry":{"type":"Point","coordinates":[5.778341,52.9581]},"properties":{"type":"charge","layer":"passenger","locationId":"6a3bde4d0ccdf08bd3fd6621","name":"Zalm-Zonwering 's station","address":"Röntgenweg  2","city":"Joure","operatorName":"E-Flux by Road","maxPowerKw":22,"isMegawatt":false,"status":"AVAILABLE","source":"ndw","priceKwh":0.41}},{"type":"Feature","geometry":{"type":"Point","coordinates":[5.766537,53.039269]},"properties":{"type":"charge","layer":"passenger","locationId":"62012ba3b1158a41d14b78f9","name":"Jordi Wientjes 's station","address":"Jongebuorren 6","city":"Terherne","operatorName":"E-Flux by Road","maxPowerKw":11,"isMegawatt":false,"status":"AVAILABLE","source":"ndw","priceKwh":0.78}},{"type":"Feature","geometry":{"type":"Point","coordinates":[5.781499,53.045968]},"properties":{"type":"charge","layer":"passenger","locationId":"68baec6d575dc30a88112196","name":"Yachtcharter Wetterwille","address":"Jelle-paad 8","city":"Terherne","operatorName":"PureCharged","maxPowerKw":11,"isMegawatt":false,"status":"AVAILABLE","source":"ndw","priceKwh":0.53}},{"type":"Feature","geometry":{"type":"Point","coordinates":[5.78535,52.958096]},"properties":{"type":"charge","layer":"passenger","locationId":"67a0e6c80b6a5428b6af39c8","name":"Danny Bosma","address":"Albert Einsteinweg 8","city":"Joure","operatorName":"E-Flux by Road","maxPowerKw":22,"isMegawatt":false,"status":"AVAILABLE","source":"ndw","priceKwh":0.41}},{"type":"Feature","geometry":{"type":"Point","coordinates":[5.716964,52.85109]},"properties":{"type":"charge","layer":"passenger","locationId":"b483c199-d125-40ba-a522-a9dbe8cfffb5","name":"TNLP013441","address":"Straatweg 70","city":"Lemmer","operatorName":"TotalEnergies","maxPowerKw":17,"isMegawatt":false,"status":"AVAILABLE","source":"ndw"}},{"type":"Feature","geometry":{"type":"Point","coordinates":[5.571444,52.895247]},"properties":{"type":"charge","layer":"passenger","locationId":"67c05ba7611306114d9894a4","name":"HOS Oil reloading Laadpaal 6","address":"Eigen haard 3","city":"Balk","operatorName":"E-Flux by Road","maxPowerKw":11,"isMegawatt":false,"status":"AVAILABLE","source":"ndw","priceKwh":0.41}},{"type":"Feature","geometry":{"type":"Point","coordinates":[5.835077,52.962671]},"properties":{"type":"charge","layer":"passenger","locationId":"66aca4999e2055001cbca0ca","name":"Chiptuning Feno6","address":"Jentjemeer  6","city":"Joure","operatorName":"E-Flux by Road","maxPowerKw":22,"isMegawatt":false,"status":"AVAILABLE","source":"ndw","priceKwh":0.48}},{"type":"Feature","geometry":{"type":"Point","coordinates":[5.571551,52.895278]},"properties":{"type":"charge","layer":"passenger","locationId":"67c05b1ec39bc0297291add1","name":"HOS Oil reloading Laadpaal 5","address":"Eigen haard 3","city":"Balk","operatorName":"E-Flux by Road","maxPowerKw":11,"isMegawatt":false,"status":"AVAILABLE","source":"ndw","priceKwh":0.41}},{"type":"Feature","geometry":{"type":"Point","coordinates":[5.718627,52.847002]},"properties":{"type":"charge","layer":"passenger","locationId":"66aa0ae004d6db001c2f0f8d","name":"Auto Schaap BV","address":"Riensingel 9","city":"LEMMER","operatorName":"Alva Charging Services","maxPowerKw":22,"isMegawatt":false,"status":"AVAILABLE","source":"ndw","priceKwh":0.41}},{"type":"Feature","geometry":{"type":"Point","coordinates":[5.493704,52.865974]},"properties":{"type":"charge","layer":"passenger","locationId":"33e1dce3-e247-4e85-a83f-4d6d4d3f85db","name":"TNLP013239 - Mientwei 1, Rijs","address":"1 Mientwei","city":"Rijs","operatorName":"TotalEnergies","maxPowerKw":17,"isMegawatt":false,"status":"UNAVAILABLE","source":"ndw"}},{"type":"Feature","geometry":{"type":"Point","coordinates":[5.807484,52.9639]},"properties":{"type":"charge","layer":"passenger","locationId":"6c5aa2e5-96a8-4709-9ffa-ca54eb78055c","name":"TNLP013113 - de Warren 12, Joure","address":"12 de Warren","city":"Joure","operatorName":"TotalEnergies","maxPowerKw":17,"isMegawatt":false,"status":"UNAVAILABLE","source":"ndw"}},{"type":"Feature","geometry":{"type":"Point","coordinates":[5.811777,52.958572]},"properties":{"type":"charge","layer":"passenger","locationId":"a721fb7e-13c7-4e1f-b5c0-396f809e29da","name":"Sewei 4","address":"Sewei 4","city":"Joure","operatorName":"Vattenfall InCharge","maxPowerKw":50,"isMegawatt":false,"status":"AVAILABLE","source":"ndw"}},{"type":"Feature","geometry":{"type":"Point","coordinates":[5.87314,52.95562]},"properties":{"type":"charge","layer":"passenger","locationId":"e198a4c4-7217-4b72-9268-6669a0e4ab18","name":"TNLP013176 - Wibrandus van Haschastraat 17, Oudehaske","address":"17 Wibrandus van Haschastraat","city":"Oudehaske","operatorName":"TotalEnergies","maxPowerKw":17,"isMegawatt":false,"status":"UNAVAILABLE","source":"ndw"}},{"type":"Feature","geometry":{"type":"Point","coordinates":[5.712119,52.928722]},"properties":{"type":"charge","layer":"passenger","locationId":"9bdc8505-886c-451d-8dcc-8e67c6fe24dd","name":"TNLP012145 - De Ikkers 2, Idskenhuizen","address":"2 De Ikkers","city":"Idskenhuizen","operatorName":"TotalEnergies","maxPowerKw":17,"isMegawatt":false,"status":"UNAVAILABLE","source":"ndw"}},{"type":"Feature","geometry":{"type":"Point","coordinates":[5.798385,52.962242]},"properties":{"type":"charge","layer":"passenger","locationId":"5078beb0-3e86-4721-99a7-8e31d582cf72","name":"TNLP013297 - Koningin Julianalaan 1, Joure","address":"1 Koningin Julianalaan","city":"Joure","operatorName":"TotalEnergies","maxPowerKw":17,"isMegawatt":false,"status":"UNAVAILABLE","source":"ndw"}},{"type":"Feature","geometry":{"type":"Point","coordinates":[5.724381,52.95839]},"properties":{"type":"charge","layer":"passenger","locationId":"1b17f144-250c-48ee-b124-c102fca284ce","name":"TNLP012189 - Hendrik Dijkstraleane 16, Langweer","address":"16 Hendrik Dijkstraleane","city":"Langweer","operatorName":"TotalEnergies","maxPowerKw":17,"isMegawatt":false,"status":"UNAVAILABLE","source":"ndw"}},{"type":"Feature","geometry":{"type":"Point","coordinates":[5.745721,52.918315]},"properties":{"type":"charge","layer":"passenger","locationId":"610019a0783af82a8a3d8830","name":"Autobedrijf Bosma's Station","address":"Tsjukemarwei  18","city":"Sint Nicolaasga","operatorName":"E-Flux by Road","maxPowerKw":11,"isMegawatt":false,"status":"AVAILABLE","source":"ndw","priceKwh":0.48}},{"type":"Feature","geometry":{"type":"Point","coordinates":[5.873527,52.958957]},"properties":{"type":"charge","layer":"passenger","locationId":"6a32aa9b92a08d3027cfee81","name":"Stol Autoservice","address":"Appelhof 6","city":"Oudehaske","operatorName":"Vattenfall","maxPowerKw":14,"isMegawatt":false,"status":"AVAILABLE","source":"ndw","priceKwh":0.45}},{"type":"Feature","geometry":{"type":"Point","coordinates":[5.533692,52.8502]},"properties":{"type":"charge","layer":"passenger","locationId":"c48249ec-c189-4c95-a425-e39f5028b9df","name":"TNLP012119 - Hegewei 16, Oudemirdum","address":"16 Hegewei","city":"Oudemirdum","operatorName":"TotalEnergies","maxPowerKw":17,"isMegawatt":false,"status":"UNAVAILABLE","source":"ndw"}},{"type":"Feature","geometry":{"type":"Point","coordinates":[5.80742,52.95843]},"properties":{"type":"charge","layer":"passenger","locationId":"2a64604c-f3e8-40bd-8dda-e1bc0d2744a0","name":"TNLP013179 - Prins Willem Alexanderstraat 45, Joure","address":"45 Prins Willem Alexanderstraat","city":"Joure","operatorName":"TotalEnergies","maxPowerKw":17,"isMegawatt":false,"status":"UNAVAILABLE","source":"ndw"}},{"type":"Feature","geometry":{"type":"Point","coordinates":[5.721619,52.83869]},"properties":{"type":"charge","layer":"passenger","locationId":"1f50398f-5265-44e6-9b8a-39460e9e8dc8","name":"TNLP012030 - Schokker 42, Lemmer","address":"42 Schokker","city":"Lemmer","operatorName":"TotalEnergies","maxPowerKw":17,"isMegawatt":false,"status":"AVAILABLE","source":"ndw"}},{"type":"Feature","geometry":{"type":"Point","coordinates":[5.54225,52.869783]},"properties":{"type":"charge","layer":"passenger","locationId":"60efedc55f5eb37948dde725","name":"Golfclub Gaasterland's station","address":"Sminkewei  10","city":"Oudemirdum","operatorName":"E-Flux by Road","maxPowerKw":22,"isMegawatt":false,"status":"AVAILABLE","source":"ndw","priceKwh":0.62}},{"type":"Feature","geometry":{"type":"Point","coordinates":[5.70695,52.84936]},"properties":{"type":"charge","layer":"passenger","locationId":"23c9ac00-61d7-4813-8b98-0b0471ea12a5","name":"TNLP013204 - Urkerstraat 49, Lemmer","address":"49 Urkerstraat","city":"Lemmer","operatorName":"TotalEnergies","maxPowerKw":17,"isMegawatt":false,"status":"AVAILABLE","source":"ndw"}},{"type":"Feature","geometry":{"type":"Point","coordinates":[5.571385,52.895186]},"properties":{"type":"charge","layer":"passenger","locationId":"67c05c25d845a7cf059e9538","name":"HOS Oil reloading Laadpaal 7","address":"Eigen haard 3","city":"Balk","operatorName":"E-Flux by Road","maxPowerKw":11,"isMegawatt":false,"status":"AVAILABLE","source":"ndw","priceKwh":0.41}},{"type":"Feature","geometry":{"type":"Point","coordinates":[5.805886,52.960316]},"properties":{"type":"charge","layer":"passenger","locationId":"54db5e2b-71ea-4d38-b599-91a756effb76","name":"TNLP013290 - Rinzemastraat 8, Joure","address":"8 Rinzemastraat","city":"Joure","operatorName":"TotalEnergies","maxPowerKw":17,"isMegawatt":false,"status":"UNAVAILABLE","source":"ndw"}},{"type":"Feature","geometry":{"type":"Point","coordinates":[5.835077,52.962671]},"properties":{"type":"charge","layer":"passenger","locationId":"67ff97a587a0cfd52dba155b","name":"Chiptuning Feno1","address":"Jentjemeer 6","city":"Joure","operatorName":"E-Flux by Road","maxPowerKw":22,"isMegawatt":false,"status":"CHARGING","source":"ndw","priceKwh":0.48}},{"type":"Feature","geometry":{"type":"Point","coordinates":[5.822406,52.87301]},"properties":{"type":"charge","layer":"passenger","locationId":"da67c203-5715-405d-b37a-a092b469151d","name":"TNLP012082 - De Veenscheiding 2, Echtenerbrug","address":"2 De Veenscheiding","city":"Echtenerbrug","operatorName":"TotalEnergies","maxPowerKw":17,"isMegawatt":false,"status":"AVAILABLE","source":"ndw"}},{"type":"Feature","geometry":{"type":"Point","coordinates":[5.53698,52.849888]},"properties":{"type":"charge","layer":"passenger","locationId":"c9e75c6e-a615-4574-a738-662fdbcad5c8","name":"TNLP012081 - De Ikebosker 15, Oudemirdum","address":"15 De Ikebosker","city":"Oudemirdum","operatorName":"TotalEnergies","maxPowerKw":17,"isMegawatt":false,"status":"AVAILABLE","source":"ndw"}},{"type":"Feature","geometry":{"type":"Point","coordinates":[5.717872,52.84104]},"properties":{"type":"charge","layer":"passenger","locationId":"6bc742ca-6425-49dc-bd6c-fea38df91d02","name":"TNLP013144","address":"Brik 1","city":"Lemmer","operatorName":"TotalEnergies","maxPowerKw":17,"isMegawatt":false,"status":"AVAILABLE","source":"ndw"}},{"type":"Feature","geometry":{"type":"Point","coordinates":[5.782148,53.040805]},"properties":{"type":"charge","layer":"passenger","locationId":"69bbdf3af1ea0f8f22fdbb0c","name":"Tjitte Alkema 's station","address":"Kupersleantsje 3","city":"Terherne","operatorName":"Van Mossel Energie Lease","maxPowerKw":11,"isMegawatt":false,"status":"AVAILABLE","source":"ndw","priceKwh":0.44}},{"type":"Feature","geometry":{"type":"Point","coordinates":[5.816213,52.876598]},"properties":{"type":"charge","layer":"passenger","locationId":"6604119cfa3641001c39cf18","name":"Tjeukemeer watervilla","address":"Weversbled 14","city":"DELFSTRAHUIZEN","operatorName":"E-Flux by Road","maxPowerKw":11,"isMegawatt":false,"status":"AVAILABLE","source":"ndw","priceKwh":0.48}},{"type":"Feature","geometry":{"type":"Point","coordinates":[5.857313,52.931515]},"properties":{"type":"charge","layer":"passenger","locationId":"0caf2b91-008d-4934-a54a-ab25868601e9","name":"TNLP012109 - De Grie 49, Sintjohannesga","address":"49 De Grie","city":"Sintjohannesga","operatorName":"TotalEnergies","maxPowerKw":17,"isMegawatt":false,"status":"UNAVAILABLE","source":"ndw"}},{"type":"Feature","geometry":{"type":"Point","coordinates":[5.708878,52.850437]},"properties":{"type":"charge","layer":"passenger","locationId":"c087a8fe-7042-4ce6-8460-a56f65106440","name":"TNLP012067 - Zevengesternte 1, Lemmer","address":"1 Zevengesternte","city":"Lemmer","operatorName":"TotalEnergies","maxPowerKw":17,"isMegawatt":false,"status":"AVAILABLE","source":"ndw"}},{"type":"Feature","geometry":{"type":"Point","coordinates":[5.641117,52.901341]},"properties":{"type":"charge","layer":"passenger","locationId":"619dff4e885b235e0f6d8414","name":"Klaziena van der Zee 's station","address":"Lytse Jerden 1","city":"Sloten","operatorName":"E-Flux by Road","maxPowerKw":22,"isMegawatt":false,"status":"AVAILABLE","source":"ndw","priceKwh":0.53}},{"type":"Feature","geometry":{"type":"Point","coordinates":[5.823393,52.874997]},"properties":{"type":"charge","layer":"passenger","locationId":"6697d5e18e4b89001c6b971a","name":"Laadpaal 14","address":"Butertônne 14","city":"Delfstrahuizen","operatorName":"E-Flux by Road","maxPowerKw":11,"isMegawatt":false,"status":"AVAILABLE","source":"ndw","priceKwh":0.68}},{"type":"Feature","geometry":{"type":"Point","coordinates":[5.773601,52.874092]},"properties":{"type":"charge","layer":"passenger","locationId":"1440a4cd-ab46-46f2-9f1c-7e067b268fef","name":"TNLP012214 - De Akkers 4, Oosterzee","address":"4 De Akkers","city":"Oosterzee","operatorName":"TotalEnergies","maxPowerKw":17,"isMegawatt":false,"status":"AVAILABLE","source":"ndw"}},{"type":"Feature","geometry":{"type":"Point","coordinates":[5.712502,52.84354]},"properties":{"type":"charge","layer":"passenger","locationId":"68a57be92972fef63a90b94b","name":"Lemmer Centrum","address":"Lemmer Centrum","city":"Lemmer","operatorName":"E-Flux by Road","maxPowerKw":22,"isMegawatt":false,"status":"AVAILABLE","source":"ndw","priceKwh":0.36}},{"type":"Feature","geometry":{"type":"Point","coordinates":[5.711933,52.844887]},"properties":{"type":"charge","layer":"passenger","locationId":"0272c6ba-a7c9-4a13-a6fa-e0447c80f398","name":"TNLP012090 - Nieuwburen 16, Lemmer","address":"16 Nieuwburen","city":"Lemmer","operatorName":"TotalEnergies","maxPowerKw":17,"isMegawatt":false,"status":"AVAILABLE","source":"ndw"}},{"type":"Feature","geometry":{"type":"Point","coordinates":[5.747799,52.918776]},"properties":{"type":"charge","layer":"passenger","locationId":"68ff6b01482252ed37f94d86","name":"Kramer Molier 3","address":"Molier  3","city":"Sint Nicolaasga","operatorName":"E-Flux by Road","maxPowerKw":11,"isMegawatt":false,"status":"AVAILABLE","source":"ndw","priceKwh":0.48}},{"type":"Feature","geometry":{"type":"Point","coordinates":[5.779445,53.04098]},"properties":{"type":"charge","layer":"passenger","locationId":"4b883f2a-c7e5-4a2c-8180-d8b9cc295e58","name":"TNLP013311 - Syl 1a, Terherne","address":"1a Syl","city":"Terherne","operatorName":"TotalEnergies","maxPowerKw":17,"isMegawatt":false,"status":"UNAVAILABLE","source":"ndw"}},{"type":"Feature","geometry":{"type":"Point","coordinates":[5.81557,52.972122]},"properties":{"type":"charge","layer":"passenger","locationId":"b9a804c2-97a6-4f63-a304-09649ba9ea8d","name":"TNLP013379","address":"Aliehoeve 36","city":"Joure","operatorName":"TotalEnergies","maxPowerKw":17,"isMegawatt":false,"status":"AVAILABLE","source":"ndw"}},{"type":"Feature","geometry":{"type":"Point","coordinates":[5.64727,52.89586]},"properties":{"type":"charge","layer":"passenger","locationId":"73166140-e426-49cd-bced-0bc378e774b8","name":"TNLP013026 - Haverkamp 6, Sloten","address":"6 Haverkamp","city":"Sloten","operatorName":"TotalEnergies","maxPowerKw":17,"isMegawatt":false,"status":"UNAVAILABLE","source":"ndw"}},{"type":"Feature","geometry":{"type":"Point","coordinates":[5.718986,52.837637]},"properties":{"type":"charge","layer":"passenger","locationId":"65f3167f194fc3001d251395","name":"Station Muur","address":"Lemsterpad 24A","city":"Lemmer","operatorName":"E-Flux by Road","maxPowerKw":11,"isMegawatt":false,"status":"UNAVAILABLE","source":"ndw","priceKwh":0.52}},{"type":"Feature","geometry":{"type":"Point","coordinates":[5.571841,52.895424]},"properties":{"type":"charge","layer":"passenger","locationId":"67c060ed611306114d9a3809","name":"HOS Oil reloading Laadpaal 8","address":"Eigen haard 3","city":"Balk","operatorName":"E-Flux by Road","maxPowerKw":11,"isMegawatt":false,"status":"AVAILABLE","source":"ndw","priceKwh":0.41}},{"type":"Feature","geometry":{"type":"Point","coordinates":[5.690743,52.855205]},"properties":{"type":"charge","layer":"passenger","locationId":"666980e53a1c1c001c18226c","name":"Noord West prive terrein","address":"Brekkensweg 10","city":"Lemmer","operatorName":"E-Flux by Road","maxPowerKw":22,"isMegawatt":false,"status":"AVAILABLE","source":"ndw","priceKwh":0.3}},{"type":"Feature","geometry":{"type":"Point","coordinates":[5.561287,52.849337]},"properties":{"type":"charge","layer":"passenger","locationId":"66278b0c162911001cf43704","name":"Bekedamster's station","address":"Hoitebuorren  12","city":"Nijemirdum","operatorName":"E-Flux by Road","maxPowerKw":11,"isMegawatt":false,"status":"AVAILABLE","source":"ndw","priceKwh":0.38}},{"type":"Feature","geometry":{"type":"Point","coordinates":[5.715396,52.843893]},"properties":{"type":"charge","layer":"passenger","locationId":"6694e07407207d001c971175","name":"Hotel Lemmer B.V.","address":"Polderdijk 1","city":"Lemmer","operatorName":"Pluq","maxPowerKw":22,"isMegawatt":false,"status":"AVAILABLE","source":"ndw","priceKwh":0.37}},{"type":"Feature","geometry":{"type":"Point","coordinates":[5.76902,53.039969]},"properties":{"type":"charge","layer":"passenger","locationId":"686b7e119896bd0aab31cc3e","name":"Jongebuoren 7 Terherne","address":"Jongebuorren  7","city":"Terherne","operatorName":"E-Flux by Road","maxPowerKw":11,"isMegawatt":false,"status":"AVAILABLE","source":"ndw","priceKwh":0.38}},{"type":"Feature","geometry":{"type":"Point","coordinates":[5.709234,52.843105]},"properties":{"type":"charge","layer":"passenger","locationId":"4ecc2a2d-b509-4358-ae81-800bfb1288e3","name":"TNLP013276 - Tramhaven 1, Lemmer","address":"1 Tramhaven","city":"Lemmer","operatorName":"TotalEnergies","maxPowerKw":17,"isMegawatt":false,"status":"AVAILABLE","source":"ndw"}},{"type":"Feature","geometry":{"type":"Point","coordinates":[5.835077,52.962671]},"properties":{"type":"charge","layer":"passenger","locationId":"66aca4d9920aa5001c23f548","name":"Chiptuning Feno5","address":"Jentjemeer  6","city":"Joure","operatorName":"E-Flux by Road","maxPowerKw":22,"isMegawatt":false,"status":"AVAILABLE","source":"ndw","priceKwh":0.48}},{"type":"Feature","geometry":{"type":"Point","coordinates":[5.544966,52.860275]},"properties":{"type":"charge","layer":"passenger","locationId":"6410995a35c2be0012f55d57","name":"Camping de Wigwam","address":"Sminkewei 7","city":"Oudemirdum","operatorName":"E-Flux by Road","maxPowerKw":11,"isMegawatt":false,"status":"AVAILABLE","source":"ndw","priceKwh":0.5}},{"type":"Feature","geometry":{"type":"Point","coordinates":[5.831131,52.962465]},"properties":{"type":"charge","layer":"passenger","locationId":"64b7dd71b44228001c83f0f0","name":"Top-Crane 's station","address":"De Wielen  1","city":"Joure","operatorName":"Lanova Laadpalen","maxPowerKw":11,"isMegawatt":false,"status":"AVAILABLE","source":"ndw","priceKwh":0.63}},{"type":"Feature","geometry":{"type":"Point","coordinates":[5.692948,52.858217]},"properties":{"type":"charge","layer":"passenger","locationId":"66ab5563d85f84001c67b711","name":"Noord Oost prive terrein","address":"Brekkenweg 10","city":"Lemmer","operatorName":"E-Flux by Road","maxPowerKw":11,"isMegawatt":false,"status":"AVAILABLE","source":"ndw","priceKwh":0.3}},{"type":"Feature","geometry":{"type":"Point","coordinates":[5.891892,52.936061]},"properties":{"type":"charge","layer":"passenger","locationId":"686e1539664c6ee8852991a3","name":"Doarpshûs Rottum","address":"Binnendyk 22","city":"Rottum","operatorName":"E-Flux by Road","maxPowerKw":38,"isMegawatt":false,"status":"AVAILABLE","source":"ndw","priceKwh":0.48}},{"type":"Feature","geometry":{"type":"Point","coordinates":[5.727488,52.957812]},"properties":{"type":"charge","layer":"passenger","locationId":"923333","name":"DAE_NL_2001144","address":"Legebuorren 47","city":"Langweer","operatorName":"DAEN Mobility","maxPowerKw":11,"isMegawatt":false,"status":"AVAILABLE","source":"ndw","priceKwh":0.32}},{"type":"Feature","geometry":{"type":"Point","coordinates":[5.698468,52.852737]},"properties":{"type":"charge","layer":"passenger","locationId":"3fd72229-dc08-4a3b-a817-d10b2cc7e958","name":"TNLP012058 - Weegschaal 54, Lemmer","address":"54 Weegschaal","city":"Lemmer","operatorName":"TotalEnergies","maxPowerKw":17,"isMegawatt":false,"status":"AVAILABLE","source":"ndw"}},{"type":"Feature","geometry":{"type":"Point","coordinates":[5.818607,52.96091]},"properties":{"type":"charge","layer":"passenger","locationId":"671f7b1814146c001ccbbac4","name":"Wetterskip Fryslân - Werkplaats Joure","address":"Handelswei 25","city":"Joure","operatorName":"Alva Charging Services","maxPowerKw":22,"isMegawatt":false,"status":"AVAILABLE","source":"ndw","priceKwh":0.34}},{"type":"Feature","geometry":{"type":"Point","coordinates":[5.698125,52.85376]},"properties":{"type":"charge","layer":"passenger","locationId":"4eeb0d9b-02c4-4992-9c14-f1de09b672b4","name":"TNLP013388 - Gemini 79, Lemmer","address":"79 Gemini","city":"Lemmer","operatorName":"TotalEnergies","maxPowerKw":17,"isMegawatt":false,"status":"AVAILABLE","source":"ndw"}},{"type":"Feature","geometry":{"type":"Point","coordinates":[5.815566,52.844516]},"properties":{"type":"charge","layer":"passenger","locationId":"66a5478db0dc0e001c377cd1","name":"‘t Voorhuis","address":"Bandsloot 29","city":"Bantega","operatorName":"E-Flux by Road","maxPowerKw":11,"isMegawatt":false,"status":"AVAILABLE","source":"ndw","priceKwh":0.52}},{"type":"Feature","geometry":{"type":"Point","coordinates":[5.835077,52.962671]},"properties":{"type":"charge","layer":"passenger","locationId":"671129b581946f001c5e3bde","name":"Chiptuning Feno9","address":"Jentjemeer 6","city":"Joure","operatorName":"E-Flux by Road","maxPowerKw":22,"isMegawatt":false,"status":"CHARGING","source":"ndw","priceKwh":0.48}},{"type":"Feature","geometry":{"type":"Point","coordinates":[5.767556,53.04149]},"properties":{"type":"charge","layer":"passenger","locationId":"6244badc22e30c4bb08af9b0","name":"Jongebuorren 45","address":"Jongebuorren 45","city":"Terherne","operatorName":"E-Flux by Road","maxPowerKw":11,"isMegawatt":false,"status":"AVAILABLE","source":"ndw","priceKwh":0.68}},{"type":"Feature","geometry":{"type":"Point","coordinates":[5.771507,53.011]},"properties":{"type":"charge","layer":"passenger","locationId":"b5107c2e-1c2c-4738-be4e-26554485a9d1","name":"TNLP013298 - It Hôf 36, Goingarijp","address":"36 It Hôf","city":"Goingarijp","operatorName":"TotalEnergies","maxPowerKw":17,"isMegawatt":false,"status":"UNAVAILABLE","source":"ndw"}},{"type":"Feature","geometry":{"type":"Point","coordinates":[5.721883,52.84319]},"properties":{"type":"charge","layer":"passenger","locationId":"35377078-e46e-4120-a681-9268ddfb93fa","name":"TNLP013022 - Barkentijn 54, Lemmer","address":"54 Barkentijn","city":"Lemmer","operatorName":"TotalEnergies","maxPowerKw":17,"isMegawatt":false,"status":"AVAILABLE","source":"ndw"}},{"type":"Feature","geometry":{"type":"Point","coordinates":[5.70961,52.928775]},"properties":{"type":"charge","layer":"passenger","locationId":"60af759f99d564728bfe214a","name":"Peter Boots 's station","address":"Mastersein 14B","city":"Idskenhuizen","operatorName":"E-Flux by Road","maxPowerKw":11,"isMegawatt":false,"status":"AVAILABLE","source":"ndw"}},{"type":"Feature","geometry":{"type":"Point","coordinates":[5.781081,53.041965]},"properties":{"type":"charge","layer":"passenger","locationId":"3de51aee-601b-4dec-be29-27dc9bc8f05d","name":"TNLP012089 - Grintdyk 7, Terherne","address":"7 Grintdyk","city":"Terherne","operatorName":"TotalEnergies","maxPowerKw":17,"isMegawatt":false,"status":"UNAVAILABLE","source":"ndw"}},{"type":"Feature","geometry":{"type":"Point","coordinates":[5.703089,52.847717]},"properties":{"type":"charge","layer":"passenger","locationId":"ba52aa31-d4d7-4fc6-8a63-dce1fa061bd9","name":"TNLP012056 - Houtrib 18, Lemmer","address":"18 Houtrib","city":"Lemmer","operatorName":"TotalEnergies","maxPowerKw":17,"isMegawatt":false,"status":"AVAILABLE","source":"ndw"}},{"type":"Feature","geometry":{"type":"Point","coordinates":[5.720746,52.95932]},"properties":{"type":"charge","layer":"passenger","locationId":"e8fa2f72-b237-45b3-ae5f-0a555792d2a8","name":"TNLP012057 - Oasingaleane 28, Langweer","address":"28 Oasingaleane","city":"Langweer","operatorName":"TotalEnergies","maxPowerKw":17,"isMegawatt":false,"status":"UNAVAILABLE","source":"ndw"}},{"type":"Feature","geometry":{"type":"Point","coordinates":[5.571499,52.896929]},"properties":{"type":"charge","layer":"passenger","locationId":"656def209a82e3001bbdf62e","name":"Shell Recharge - Tankstation Mulder Balk","address":"Tjalke de Boerstrjitte 22","city":"Balk","operatorName":"E-Flux by Road","maxPowerKw":150,"isMegawatt":false,"status":"AVAILABLE","source":"ndw","priceKwh":0.68}},{"type":"Feature","geometry":{"type":"Point","coordinates":[5.705414,52.964044]},"properties":{"type":"charge","layer":"passenger","locationId":"6672da3ea8833f001c9d6601","name":"De Hoek Watersport","address":"Nummer 1","city":"Dijken","operatorName":"E-Flux by Road","maxPowerKw":22,"isMegawatt":false,"status":"AVAILABLE","source":"ndw","priceKwh":0.53}},{"type":"Feature","geometry":{"type":"Point","coordinates":[5.783716,53.03878]},"properties":{"type":"charge","layer":"passenger","locationId":"666853e298b5b2001ca50e6b","name":"Waterpark Oan'e Poel","address":"Oan'e Poel 41","city":"Terherne","operatorName":"E-Flux by Road","maxPowerKw":11,"isMegawatt":false,"status":"AVAILABLE","source":"ndw","priceKwh":0.73}},{"type":"Feature","geometry":{"type":"Point","coordinates":[5.706343,52.84581]},"properties":{"type":"charge","layer":"passenger","locationId":"75440eaa-df98-40df-9911-ef74026a7351","name":"TNLP012208 - Turfland 52, Lemmer","address":"52 Turfland","city":"Lemmer","operatorName":"TotalEnergies","maxPowerKw":17,"isMegawatt":false,"status":"AVAILABLE","source":"ndw"}},{"type":"Feature","geometry":{"type":"Point","coordinates":[5.79573,52.9631]},"properties":{"type":"charge","layer":"passenger","locationId":"76162d67-8f3e-4497-86fd-a32d0d5bb112","name":"TNLP013293 - Sjoerd Wiersmahof 9a, Joure","address":"9a Sjoerd Wiersmahof","city":"Joure","operatorName":"TotalEnergies","maxPowerKw":17,"isMegawatt":false,"status":"UNAVAILABLE","source":"ndw"}},{"type":"Feature","geometry":{"type":"Point","coordinates":[5.719934,52.958447]},"properties":{"type":"charge","layer":"passenger","locationId":"fc55acf0-81b5-41fa-a8c6-3a7d6124b93e","name":"TNLP012077 - Appelhôf 12, Langweer","address":"12 Appelhôf","city":"Langweer","operatorName":"TotalEnergies","maxPowerKw":17,"isMegawatt":false,"status":"UNAVAILABLE","source":"ndw"}},{"type":"Feature","geometry":{"type":"Point","coordinates":[5.769121,53.040541]},"properties":{"type":"charge","layer":"passenger","locationId":"620cba553941d47edf9e44e6","name":"C. Boer 's station","address":"Jongebuorren 34","city":"Terherne","operatorName":"E-Flux by Road","maxPowerKw":11,"isMegawatt":false,"status":"AVAILABLE","source":"ndw","priceKwh":0.58}},{"type":"Feature","geometry":{"type":"Point","coordinates":[5.835077,52.962671]},"properties":{"type":"charge","layer":"passenger","locationId":"669f5299405a7d001c155b5e","name":"Chiptuning Feno3","address":"Jentjemeer 6","city":"Joure","operatorName":"E-Flux by Road","maxPowerKw":22,"isMegawatt":false,"status":"CHARGING","source":"ndw","priceKwh":0.48}},{"type":"Feature","geometry":{"type":"Point","coordinates":[5.806432,52.969116]},"properties":{"type":"charge","layer":"passenger","locationId":"b0cb0049-dc8b-412e-ae2f-3eaab42ea77e","name":"TNLP013282 - Elias Annes Borgerstraat 106, Joure","address":"106 Elias Annes Borgerstraat","city":"Joure","operatorName":"TotalEnergies","maxPowerKw":17,"isMegawatt":false,"status":"UNAVAILABLE","source":"ndw"}},{"type":"Feature","geometry":{"type":"Point","coordinates":[5.739717,52.92586]},"properties":{"type":"charge","layer":"passenger","locationId":"b5bc5c9f-9479-4280-8bda-56c622aebad2","name":"TNLP012137 - Dobbeleane 15, Sint Nicolaasga","address":"15 Dobbeleane","city":"Sint Nicolaasga","operatorName":"TotalEnergies","maxPowerKw":17,"isMegawatt":false,"status":"UNAVAILABLE","source":"ndw"}},{"type":"Feature","geometry":{"type":"Point","coordinates":[5.542055,52.92826]},"properties":{"type":"charge","layer":"passenger","locationId":"5d57ac12-fb38-49ae-b050-c4256b311c91","name":"TNLP013162","address":"Mardyk 7","city":"Elahuizen","operatorName":"TotalEnergies","maxPowerKw":17,"isMegawatt":false,"status":"AVAILABLE","source":"ndw"}},{"type":"Feature","geometry":{"type":"Point","coordinates":[5.71541,52.85375]},"properties":{"type":"charge","layer":"passenger","locationId":"ede93065-9585-4e55-852d-71e2ced6dd65","name":"TNLP013202 - Kastanjeleane 96, Lemmer","address":"96 Kastanjeleane","city":"Lemmer","operatorName":"TotalEnergies","maxPowerKw":17,"isMegawatt":false,"status":"AVAILABLE","source":"ndw"}},{"type":"Feature","geometry":{"type":"Point","coordinates":[5.571397,52.895247]},"properties":{"type":"charge","layer":"passenger","locationId":"67c0323900b0ba9d391b77ad","name":"HOS Oil reloading Laadpaal 4","address":"Eigen haard 3","city":"Balk","operatorName":"E-Flux by Road","maxPowerKw":11,"isMegawatt":false,"status":"AVAILABLE","source":"ndw","priceKwh":0.41}},{"type":"Feature","geometry":{"type":"Point","coordinates":[5.582007,52.897995]},"properties":{"type":"charge","layer":"passenger","locationId":"cf88651d-0765-4edd-a537-7ca00ac2d2e5","name":"TNLP012072 - Bogermanstraat 10, Balk","address":"10 Bogermanstraat","city":"Balk","operatorName":"TotalEnergies","maxPowerKw":17,"isMegawatt":false,"status":"UNAVAILABLE","source":"ndw"}},{"type":"Feature","geometry":{"type":"Point","coordinates":[5.59721,52.90644]},"properties":{"type":"charge","layer":"passenger","locationId":"915b9b5d-e3c0-469b-8957-602763ce3c56","name":"TNLP012106 - Tsjamkedykje 10, Balk","address":"10 Tsjamkedykje","city":"Balk","operatorName":"TotalEnergies","maxPowerKw":17,"isMegawatt":false,"status":"UNAVAILABLE","source":"ndw"}},{"type":"Feature","geometry":{"type":"Point","coordinates":[5.823393,52.874997]},"properties":{"type":"charge","layer":"passenger","locationId":"OST23P0043_0008_0","name":"OST23P0043_0008_0","address":"De Butertonne 42","city":"Delfstrahuizen","operatorName":"e-VOLTT","maxPowerKw":19,"isMegawatt":false,"status":"AVAILABLE","source":"ndw","priceKwh":0.537}},{"type":"Feature","geometry":{"type":"Point","coordinates":[5.578594,52.896626]},"properties":{"type":"charge","layer":"passenger","locationId":"b6081eab-2d24-4a81-baf3-d8c6a3a3e72a","name":"TNLP012113 - Erasmusstraat 1, Balk","address":"1 Erasmusstraat","city":"Balk","operatorName":"TotalEnergies","maxPowerKw":17,"isMegawatt":false,"status":"UNAVAILABLE","source":"ndw"}},{"type":"Feature","geometry":{"type":"Point","coordinates":[5.704183,52.846764]},"properties":{"type":"charge","layer":"passenger","locationId":"a97f9d2a-881f-4a40-b396-70993b0b1c2b","name":"TNLP013342 - Houtrib 1, Lemmer","address":"1 Houtrib","city":"Lemmer","operatorName":"TotalEnergies","maxPowerKw":17,"isMegawatt":false,"status":"AVAILABLE","source":"ndw"}},{"type":"Feature","geometry":{"type":"Point","coordinates":[5.835077,52.962671]},"properties":{"type":"charge","layer":"passenger","locationId":"66f2cf69592eac001c75ee64","name":"Chiptuning Feno7","address":"Jentjemeer 6","city":"Joure","operatorName":"E-Flux by Road","maxPowerKw":22,"isMegawatt":false,"status":"CHARGING","source":"ndw","priceKwh":0.48}},{"type":"Feature","geometry":{"type":"Point","coordinates":[5.582934,52.898238]},"properties":{"type":"charge","layer":"passenger","locationId":"6718d90cfdbbd2001cf893d9","name":"Laadpaal Io7 Achterkant Tandartspraktijk Friese Meren Balk","address":"Dubbelstraat  6","city":"Balk","operatorName":"E-Flux by Road","maxPowerKw":22,"isMegawatt":false,"status":"AVAILABLE","source":"ndw","priceKwh":0.38}},{"type":"Feature","geometry":{"type":"Point","coordinates":[5.800602,52.96334]},"properties":{"type":"charge","layer":"passenger","locationId":"79631997-266e-4711-af63-c2579c093ecd","name":"TNLP012104 - Ter Huivra 50, Joure","address":"50 Ter Huivra","city":"Joure","operatorName":"TotalEnergies","maxPowerKw":17,"isMegawatt":false,"status":"UNAVAILABLE","source":"ndw"}},{"type":"Feature","geometry":{"type":"Point","coordinates":[5.77221,53.01314]},"properties":{"type":"charge","layer":"passenger","locationId":"c94d2c04-6475-473b-8950-08f9dc187ddb","name":"TNLP012101 - It String 7-0045, Goingarijp","address":"7-0045 It String","city":"Goingarijp","operatorName":"TotalEnergies","maxPowerKw":17,"isMegawatt":false,"status":"UNAVAILABLE","source":"ndw"}},{"type":"Feature","geometry":{"type":"Point","coordinates":[5.795382,52.968605]},"properties":{"type":"charge","layer":"passenger","locationId":"62827d48-21db-4c75-b090-7133055aac93","name":"TNLP013270 - Waagplein 1, Joure","address":"1 Waagplein","city":"Joure","operatorName":"TotalEnergies","maxPowerKw":17,"isMegawatt":false,"status":"UNAVAILABLE","source":"ndw"}},{"type":"Feature","geometry":{"type":"Point","coordinates":[5.819455,52.971607]},"properties":{"type":"charge","layer":"passenger","locationId":"bb3f484b-7349-4988-a9ac-1617b56a230d","name":"TNLP013267 - De Wilster 1, Joure","address":"1 De Wilster","city":"Joure","operatorName":"TotalEnergies","maxPowerKw":17,"isMegawatt":false,"status":"UNAVAILABLE","source":"ndw"}},{"type":"Feature","geometry":{"type":"Point","coordinates":[5.688688,52.854719]},"properties":{"type":"charge","layer":"passenger","locationId":"6666daf8fb3c18001cf9a4a1","name":"Zuid West prive terrein","address":"Brekkenweg  10","city":"Lemmer","operatorName":"E-Flux by Road","maxPowerKw":22,"isMegawatt":false,"status":"AVAILABLE","source":"ndw","priceKwh":0.3}},{"type":"Feature","geometry":{"type":"Point","coordinates":[5.801491,52.873365]},"properties":{"type":"charge","layer":"passenger","locationId":"632435a6699d9b7fd5cc7824","name":"Restaurant de Fuke-Food & Powerstation","address":"Hoofdweg 24","city":"Echten","operatorName":"E-Flux by Road","maxPowerKw":22,"isMegawatt":false,"status":"AVAILABLE","source":"ndw","priceKwh":0.78}},{"type":"Feature","geometry":{"type":"Point","coordinates":[5.57138,52.895275]},"properties":{"type":"charge","layer":"passenger","locationId":"67d09b19d9c23559a3aab1ee","name":"HOS Oil reloading Laadpaal 3","address":"Eigen haard 3","city":"Balk","operatorName":"E-Flux by Road","maxPowerKw":11,"isMegawatt":false,"status":"CHARGING","source":"ndw","priceKwh":0.41}},{"type":"Feature","geometry":{"type":"Point","coordinates":[5.498694,52.863262]},"properties":{"type":"charge","layer":"passenger","locationId":"2652177","name":"Laadnet De Witakker","address":"Marderleane 3","city":"Rijs","operatorName":"Laadnet","maxPowerKw":22,"isMegawatt":false,"status":"AVAILABLE","source":"ndw"}},{"type":"Feature","geometry":{"type":"Point","coordinates":[5.797353,52.974692]},"properties":{"type":"charge","layer":"passenger","locationId":"668e93e7994cab001c12382d","name":"Gastfrij Fryslan B.V.","address":"Vegelinsweg 20","city":"Joure","operatorName":"Pluq","maxPowerKw":22,"isMegawatt":false,"status":"AVAILABLE","source":"ndw","priceKwh":0.44}},{"type":"Feature","geometry":{"type":"Point","coordinates":[5.81353,52.963455]},"properties":{"type":"charge","layer":"passenger","locationId":"623062145a778642420549b7","name":"DMT's 2 station","address":"Yndustrywei 3","city":"Joure","operatorName":"E-Flux by Road","maxPowerKw":22,"isMegawatt":false,"status":"AVAILABLE","source":"ndw","priceKwh":0.46}},{"type":"Feature","geometry":{"type":"Point","coordinates":[5.834858,52.962155]},"properties":{"type":"charge","layer":"passenger","locationId":"66bdfa73283d89001c371a22","name":"Troost nautic","address":"Jentjemeer 2","city":"JOURE","operatorName":"E-Flux by Road","maxPowerKw":11,"isMegawatt":false,"status":"AVAILABLE","source":"ndw","priceKwh":0.53}},{"type":"Feature","geometry":{"type":"Point","coordinates":[5.835077,52.962671]},"properties":{"type":"charge","layer":"passenger","locationId":"6711289c81946f001c5e3576","name":"Chiptuning Feno11","address":"Jentjemeer 6","city":"Joure","operatorName":"E-Flux by Road","maxPowerKw":22,"isMegawatt":false,"status":"CHARGING","source":"ndw","priceKwh":0.48}},{"type":"Feature","geometry":{"type":"Point","coordinates":[5.84727,52.95827]},"properties":{"type":"charge","layer":"freight","locationId":"50937","name":"Fastned De Horne","address":"De Horne","city":"Skarsterlan / Friese Meren","operatorName":"Fastned","maxPowerKw":400,"isMegawatt":false,"status":"AVAILABLE","source":"ndw","priceKwh":0.6364,"freightKind":"hpc","freightReason":"power"}},{"type":"Feature","geometry":{"type":"MultiPolygon","coordinates":[[[[5.800272793724477,53.04790905884136],[5.809041483947887,53.043685201660466],[5.823185979154312,53.0384320311097],[5.836009010539388,53.030974219467986],[5.849335330725115,53.02390530826818],[5.857602910042002,53.017008701389486],[5.866126685649646,52.999796820883816],[5.877480590647702,52.99085504836224],[5.882840855404701,52.98672331155263],[5.8860765117039495,52.98402505033778],[5.887267146336507,52.98151542236891],[5.867215118594111,52.978621994452745],[5.869238805810013,52.96874084742298],[5.870970674814733,52.96444190014307],[5.887570757161092,52.96701048551889],[5.888076615074399,52.966457409684985],[5.885988754217555,52.966111719703655],[5.886154011264731,52.965711206600254],[5.888519863837067,52.965056635065096],[5.8910268019811785,52.961697241992695],[5.891682947438182,52.961915278618044],[5.891630163143089,52.962278373049216],[5.89476778292029,52.963179471269264],[5.89563336969882,52.96214777167273],[5.897415472296168,52.96307725180332],[5.898113164870091,52.962393640774074],[5.902305003162726,52.95736926628713],[5.905447564819415,52.95563029129398],[5.905711019761575,52.955515440995576],[5.90488561798527,52.95416417895619],[5.914181096336911,52.942922504758485],[5.912983577988462,52.94060294361876],[5.919088317308221,52.932949649379935],[5.9235696668696765,52.92730344678495],[5.933359790153074,52.91502461895552],[5.9378470188146295,52.911740766723405],[5.933073797482306,52.90734086988762],[5.92984624040882,52.90651533149886],[5.92505808955944,52.90385866406189],[5.911163871612101,52.8978278019034],[5.904175236170588,52.89670127361384],[5.901460576997717,52.897028473895865],[5.899026239512976,52.89562733721502],[5.896173050095667,52.895904615374086],[5.89066651287063,52.89538042068086],[5.886017648737881,52.89423974809623],[5.884970207382195,52.889815415537456],[5.883238423162534,52.889045997662286],[5.880513329414533,52.888808904591606],[5.876972203145921,52.886828363592635],[5.87110403738124,52.881673376546345],[5.868425120896881,52.88029846847024],[5.868099504747954,52.87903341174434],[5.864546474024009,52.87608778043798],[5.861755524341569,52.87467927436922],[5.856959747749347,52.8709756614938],[5.856057053705466,52.86764195307954],[5.85128063924005,52.86268971633631],[5.843928566351308,52.854874154681134],[5.840838239549771,52.84837412029302],[5.839910048799356,52.84692112267183],[5.840017995199295,52.84299656181002],[5.835880488363097,52.84104113726963],[5.833008742386094,52.83656041652691],[5.829237693138102,52.83346629994245],[5.828708678035871,52.83176840597422],[5.825747322591666,52.830170114649476],[5.827751408987996,52.82770974438751],[5.824729674584655,52.82559015944959],[5.821568332364664,52.82469032594381],[5.8190152320015205,52.823072673473256],[5.818128753652119,52.82166882002153],[5.818239011035039,52.81978067498041],[5.819745150948389,52.817278715896094],[5.817071708806861,52.81668871475643],[5.810016489336363,52.813883881183095],[5.7951779748440355,52.80652216357268],[5.789807612116147,52.80369180900809],[5.787376440938092,52.80896935439919],[5.784383102659829,52.81747611070471],[5.7488082744242535,52.83968000184113],[5.74571982999059,52.8402366492978],[5.724682830981626,52.843982677243154],[5.724824725917864,52.84362374253412],[5.727248153763831,52.8369166321707],[5.729574869293127,52.83372698909852],[5.728664311746872,52.83339844338408],[5.722699921539784,52.836075073309324],[5.713082180328173,52.83802768780208],[5.712363746275348,52.838300411017784],[5.712603374107695,52.83960578880447],[5.712054067295821,52.840075068132265],[5.712702099568482,52.840999703950594],[5.710655616869489,52.840403211626445],[5.710201209040827,52.83894983852147],[5.708841808341442,52.83848605154737],[5.710026628662689,52.84071530062036],[5.716630629630357,52.84256619016097],[5.714908510544265,52.84267728364215],[5.715264464909075,52.84328428679337],[5.714606292438593,52.84253570330769],[5.711367049114668,52.84164486164978],[5.709754006054797,52.84187717748178],[5.707940402073212,52.838146024886825],[5.7061647269246745,52.838786064239656],[5.707784569578922,52.84175172442072],[5.70259941918865,52.84362291288079],[5.702315760689467,52.84312736855508],[5.705673297718783,52.84170593654008],[5.706057125811345,52.840754844887],[5.705216178454084,52.839925164429765],[5.704593748419162,52.840157600179054],[5.7037161566878725,52.83889182381709],[5.704562854557644,52.83851915146023],[5.703305875481743,52.83775934797466],[5.699350379450777,52.84085884295342],[5.700195653751405,52.842917366515124],[5.69800563748156,52.84424066021076],[5.69516134155141,52.8446256803164],[5.694624227304003,52.844120483022095],[5.693946491847736,52.8443905362682],[5.693117132985858,52.84514367699559],[5.685150732410504,52.84594465239943],[5.683701774840727,52.84478305803547],[5.680318065377885,52.84525229415436],[5.680408320182963,52.845946381352555],[5.6796867515408245,52.84617097543747],[5.67853114553553,52.84513732515894],[5.673565251387066,52.845119594788564],[5.668238024608568,52.84464492098885],[5.669410689166896,52.841001573873655],[5.664615281338123,52.84432198043835],[5.657599076094039,52.84369621205417],[5.657175552027362,52.845108849925694],[5.65483430460345,52.845962677187075],[5.653904133965857,52.84724755831926],[5.654545909200844,52.847782043962454],[5.656382964302795,52.84767769259288],[5.6572494760505645,52.85399827833347],[5.644618780189603,52.8603861464597],[5.643374334357458,52.85990040352373],[5.641252574209238,52.86028261339488],[5.634625428916687,52.85836878357445],[5.618466143675004,52.85096674041597],[5.616605835847375,52.85070964583136],[5.607885161412594,52.851806755111014],[5.601375910837825,52.851985288329196],[5.585257422547643,52.84937898304382],[5.582704582570814,52.847339507465264],[5.58298184771001,52.8450983691127],[5.579995701608572,52.839732962250736],[5.57309165309088,52.836170255694604],[5.567341696426186,52.83423101812838],[5.558891115264077,52.83301320615588],[5.552766984913252,52.83259069508084],[5.544853760989749,52.83306665900762],[5.526952959053708,52.83745163488077],[5.500010253150292,52.84577410827984],[5.486179122155406,52.84918448214576],[5.472930814430433,52.851690999685296],[5.466934019168621,52.851926470563285],[5.453666076277136,52.854706933042706],[5.450423054432641,52.85408863564388],[5.449017045080136,52.85213308251576],[5.447329811990335,52.85152363206105],[5.441005112006909,52.850916636473755],[5.437421969155589,52.8597328683819],[5.438087860306236,52.86023894929684],[5.433352149226522,52.87010911994874],[5.432400791092044,52.869904600776245],[5.426245203659268,52.87332674542926],[5.4325324738587,52.8746503592613],[5.443652043842647,52.873721123144875],[5.447896105252195,52.87271090516188],[5.457437420385187,52.871677032284104],[5.45752683973436,52.87212728232588],[5.465129069422186,52.87130156085093],[5.4677186571120115,52.87256387828083],[5.468689241056769,52.87179459914801],[5.472470027295213,52.872972303364925],[5.47365828907294,52.87124191547606],[5.4770928305836595,52.86876671703547],[5.485234293849209,52.87169350903685],[5.487487089220237,52.873398973304546],[5.490171574675823,52.87143277059821],[5.495517188694403,52.87381618786381],[5.495902833072606,52.87605498911332],[5.5010972816256825,52.879571605600475],[5.50181903137986,52.880043968843005],[5.494327221370332,52.882957669869505],[5.489712584041911,52.88603046128591],[5.493844883525643,52.88983618999878],[5.488774388952114,52.89279026210285],[5.477120521539809,52.90258641816586],[5.489950298556159,52.911746187002215],[5.49521768572598,52.915576696638496],[5.511831630110297,52.92697516551863],[5.564474173046415,52.94736596465679],[5.569021812830508,52.94553537115435],[5.56957387608006,52.94474296183008],[5.572818966263478,52.942246928826066],[5.577259581818128,52.935204956636476],[5.578901189252807,52.93394210186104],[5.580528018181008,52.933959626254875],[5.5802748480856685,52.93275250110634],[5.582602515981865,52.92941351501092],[5.594259962546169,52.91541197605014],[5.620750891164916,52.91950396328524],[5.639634189364537,52.922416757869236],[5.639978673924253,52.92246986337271],[5.642455454209966,52.93616767850518],[5.655822833186643,52.93503904822522],[5.663772621604852,52.93432052330505],[5.679066851799129,52.93295217691657],[5.683340939630704,52.93388144433563],[5.689326583047099,52.932966985902695],[5.688141822386602,52.93627269086075],[5.689135047917682,52.9455206190822],[5.690750661104142,52.96255752676474],[5.69087355502,52.9670400184426],[5.690323240837968,52.9741938119032],[5.68744344375651,52.98208084248364],[5.6880907446910065,52.98486886237523],[5.6907021947224505,52.98817925334371],[5.690801549517752,52.98827201603201],[5.691859413804733,52.98859160808346],[5.697369672183576,52.98608844887742],[5.705174993820837,52.984243662964],[5.706542207255741,52.98447576168729],[5.707777291653193,52.98510930253786],[5.707188045957227,52.98658593685471],[5.713118075220862,52.99033133088108],[5.7144535799547835,52.99337463479961],[5.71613286776934,52.995164846214685],[5.721872578836292,52.99758255122106],[5.72316903137436,52.99905385579146],[5.731034343281181,53.001372430813994],[5.733566079821311,53.00093052109354],[5.738942678039972,53.00119664557533],[5.742258577670265,53.002301136145796],[5.741500231408017,53.00429833845387],[5.74218294337048,53.00535196459482],[5.748181588459463,53.007282440538745],[5.748891587069112,53.00784246509766],[5.748066285526954,53.00846192957952],[5.736164662056442,53.01389337348934],[5.733241669407697,53.015438654232696],[5.73670497541423,53.03015256478341],[5.755432416931511,53.04683877801618],[5.759838726158485,53.046690624563304],[5.767480266770107,53.04644836631357],[5.767290770157985,53.04728329735288],[5.7685389369003115,53.046672892930566],[5.770696713400453,53.04744372647852],[5.771012059040442,53.046968452406176],[5.769846974013599,53.04584994077223],[5.77391261643816,53.04592239247636],[5.79638627830574,53.058840022981954],[5.798748818349479,53.056196004705185],[5.795525254664181,53.05487706103026],[5.796458432172926,53.053737932896546],[5.795818069496858,53.05301666618486],[5.797947190627348,53.04980937669965],[5.800272793724477,53.04790905884136]]]]},"properties":{"type":"boundary","gemeente":"De Fryske Marren","code":"GM1940"}}]}