{"type":"FeatureCollection","metadata":{"gemeente":"De Ronde Venen","slug":"de-ronde-venen","code":"GM0736","generated_at":"2026-07-06T16:26:11.361Z","total_passenger":138,"total_freight":0,"bounds":[4.794430197216271,52.16146132298489,5.021866138297645,52.30367718715807],"operators":["Allego","ChargePoint","DAEN Mobility","E-Flux by Road","Electra","Eneco","Laadnet","TotalEnergies","Ubitricity","Vattenfall InCharge"]},"features":[{"type":"Feature","geometry":{"type":"Point","coordinates":[4.881458,52.209959]},"properties":{"type":"charge","layer":"passenger","locationId":"923066","name":"DAE-NL-2000227","address":"Constructieweg 80","city":"Mijdrecht","operatorName":"DAEN Mobility","maxPowerKw":11,"isMegawatt":false,"status":"CHARGING","source":"ndw","priceKwh":0.5}},{"type":"Feature","geometry":{"type":"Point","coordinates":[4.85636,52.20672]},"properties":{"type":"charge","layer":"passenger","locationId":"NLLOC000623","name":"NLD, Mijdrecht, Doctor J. van der Haarlaan 8","address":"Doctor J. van der Haarlaan 8","city":"Mijdrecht","operatorName":"Allego","maxPowerKw":11,"isMegawatt":false,"status":"AVAILABLE","source":"ndw","priceKwh":0.511}},{"type":"Feature","geometry":{"type":"Point","coordinates":[4.920343,52.212669]},"properties":{"type":"charge","layer":"passenger","locationId":"NLLOC013659","name":"NL, Meerkoetlaan, 20, 3645JN, Vinkeveen","address":"Meerkoetlaan 20","city":"Vinkeveen","operatorName":"Allego","maxPowerKw":11,"isMegawatt":false,"status":"AVAILABLE","source":"ndw","priceKwh":0.511}},{"type":"Feature","geometry":{"type":"Point","coordinates":[4.863761,52.2047]},"properties":{"type":"charge","layer":"passenger","locationId":"98b6bf60-f5c1-40ce-845b-9fded9278de5","name":"TNLP008282 - Anselmusstraat 21, Mijdrecht","address":"21 Anselmusstraat","city":"Mijdrecht","operatorName":"TotalEnergies","maxPowerKw":13,"isMegawatt":false,"status":"AVAILABLE","source":"ndw"}},{"type":"Feature","geometry":{"type":"Point","coordinates":[4.869137,52.204803]},"properties":{"type":"charge","layer":"passenger","locationId":"102b3e82-a916-4fe1-a833-9573fe759495","name":"TNLP008592 - Aan het Spoor 12, Mijdrecht","address":"12 Aan het Spoor","city":"Mijdrecht","operatorName":"TotalEnergies","maxPowerKw":13,"isMegawatt":false,"status":"AVAILABLE","source":"ndw"}},{"type":"Feature","geometry":{"type":"Point","coordinates":[4.973839,52.269211]},"properties":{"type":"charge","layer":"passenger","locationId":"NLLOC003414","name":"NLD, Abcoude, Koppeldijk 3","address":"Koppeldijk 3","city":"Abcoude","operatorName":"Allego","maxPowerKw":11,"isMegawatt":false,"status":"AVAILABLE","source":"ndw","priceKwh":0.511}},{"type":"Feature","geometry":{"type":"Point","coordinates":[4.896302,52.199846]},"properties":{"type":"charge","layer":"passenger","locationId":"NLLOC001846","name":"NLD, Wilnis, Molmlaan 15","address":"Molmlaan 15","city":"Wilnis","operatorName":"Allego","maxPowerKw":11,"isMegawatt":false,"status":"AVAILABLE","source":"ndw","priceKwh":0.511}},{"type":"Feature","geometry":{"type":"Point","coordinates":[4.864373,52.199039]},"properties":{"type":"charge","layer":"passenger","locationId":"NLLOC002366","name":"NLD, Molenwiek 52, 3642 BS, Mijdrecht","address":"Molenwiek 52","city":"Mijdrecht","operatorName":"Allego","maxPowerKw":11,"isMegawatt":false,"status":"AVAILABLE","source":"ndw","priceKwh":0.511}},{"type":"Feature","geometry":{"type":"Point","coordinates":[4.932058,52.207234]},"properties":{"type":"charge","layer":"passenger","locationId":"NLLOC001612","name":"NLD, Vinkeveen, Elzenhof 7","address":"Elzenhof 7","city":"Vinkeveen","operatorName":"Allego","maxPowerKw":22,"isMegawatt":false,"status":"AVAILABLE","source":"ndw","priceKwh":0.511}},{"type":"Feature","geometry":{"type":"Point","coordinates":[4.99352,52.24967]},"properties":{"type":"charge","layer":"passenger","locationId":"NLLOC002068","name":"NLD, Baambrugge, Rijksstraatweg 53","address":"Rijksstraatweg 53","city":"Baambrugge","operatorName":"Allego","maxPowerKw":11,"isMegawatt":false,"status":"AVAILABLE","source":"ndw","priceKwh":0.511}},{"type":"Feature","geometry":{"type":"Point","coordinates":[4.918035,52.207614]},"properties":{"type":"charge","layer":"passenger","locationId":"NLLOC002856","name":"NLD, Vinkeveen, Mijdrechtse Dwarsweg 2","address":"Mijdrechtse Dwarsweg 2","city":"Vinkeveen","operatorName":"Allego","maxPowerKw":11,"isMegawatt":false,"status":"AVAILABLE","source":"ndw","priceKwh":0.511}},{"type":"Feature","geometry":{"type":"Point","coordinates":[4.920207,52.208733]},"properties":{"type":"charge","layer":"passenger","locationId":"NLLOC002551","name":"NLD, Vinkeveen, Gemeeneland 16","address":"Gemeeneland 16","city":"Vinkeveen","operatorName":"Allego","maxPowerKw":11,"isMegawatt":false,"status":"AVAILABLE","source":"ndw","priceKwh":0.511}},{"type":"Feature","geometry":{"type":"Point","coordinates":[4.977559,52.276689]},"properties":{"type":"charge","layer":"passenger","locationId":"NLLOC001440","name":"NLD, Abcoude, Bovenkamp 5","address":"Bovenkamp 5","city":"Abcoude","operatorName":"Allego","maxPowerKw":11,"isMegawatt":false,"status":"CHARGING","source":"ndw","priceKwh":0.511}},{"type":"Feature","geometry":{"type":"Point","coordinates":[4.875897,52.216106]},"properties":{"type":"charge","layer":"passenger","locationId":"NL_ELD_PMIJHO","name":"Electra Mijdrecht - Hotel Mijdrecht Marickenland","address":"Provincialeweg 3","city":"Mijdrecht","operatorName":"Electra","maxPowerKw":150,"isMegawatt":false,"status":"AVAILABLE","source":"ndw","priceKwh":0.5702}},{"type":"Feature","geometry":{"type":"Point","coordinates":[4.85247,52.205792]},"properties":{"type":"charge","layer":"passenger","locationId":"cda301cdfdef5af80652e84996af135d","name":"Pimpernel 61","address":"Pimpernel 61","city":"Mijdrecht","operatorName":"Vattenfall InCharge","maxPowerKw":11,"isMegawatt":false,"status":"CHARGING","source":"ndw"}},{"type":"Feature","geometry":{"type":"Point","coordinates":[4.8814,52.210065]},"properties":{"type":"charge","layer":"passenger","locationId":"922695","name":"DAE-NL-2000174","address":"Constructieweg 78","city":"Mijdrecht","operatorName":"DAEN Mobility","maxPowerKw":11,"isMegawatt":false,"status":"AVAILABLE","source":"ndw","priceKwh":0.5}},{"type":"Feature","geometry":{"type":"Point","coordinates":[4.8300883,52.2295955]},"properties":{"type":"charge","layer":"passenger","locationId":"1093","name":"Shell Recharge NL Tymon van Hiltenstraat 11","address":"Tymon van Hiltenstraat 11","city":"Amstelhoek","operatorName":"Ubitricity","maxPowerKw":22,"isMegawatt":false,"status":"AVAILABLE","source":"ndw","priceKwh":0.266}},{"type":"Feature","geometry":{"type":"Point","coordinates":[4.86863,52.20551]},"properties":{"type":"charge","layer":"passenger","locationId":"cdbddf8d-db36-4945-ab28-1e4d442d9f99","name":"TNLP008518 - Aan het Spoor 2, Mijdrecht","address":"2 Aan het Spoor","city":"Mijdrecht","operatorName":"TotalEnergies","maxPowerKw":13,"isMegawatt":false,"status":"AVAILABLE","source":"ndw"}},{"type":"Feature","geometry":{"type":"Point","coordinates":[4.989952,52.247946]},"properties":{"type":"charge","layer":"passenger","locationId":"e7f738ee-620f-40aa-9187-e9a0baa93799","name":"TNLP034359","address":"Angstelhof 19","city":"Baambrugge","operatorName":"TotalEnergies","maxPowerKw":14,"isMegawatt":false,"status":"AVAILABLE","source":"ndw"}},{"type":"Feature","geometry":{"type":"Point","coordinates":[4.971823,52.271166]},"properties":{"type":"charge","layer":"passenger","locationId":"NLLOC004144","name":"NLD, Abcoude, Holendrecht 12","address":"Holendrecht 12","city":"Abcoude","operatorName":"Allego","maxPowerKw":11,"isMegawatt":false,"status":"AVAILABLE","source":"ndw","priceKwh":0.511}},{"type":"Feature","geometry":{"type":"Point","coordinates":[4.99004,52.246247]},"properties":{"type":"charge","layer":"passenger","locationId":"3639f7905bf0814f188eaf2afd7b1328","name":"Dorpsstraat 2","address":"Dorpsstraat 2","city":"Baambrugge","operatorName":"Vattenfall InCharge","maxPowerKw":11,"isMegawatt":false,"status":"AVAILABLE","source":"ndw"}},{"type":"Feature","geometry":{"type":"Point","coordinates":[4.8676095,52.20732]},"properties":{"type":"charge","layer":"passenger","locationId":"d2bb2a81-16a2-4901-8e3c-6aabe7f9190f","name":"EV Hub - Stationsweg 14, Mijdrecht","address":"14 Stationsweg","city":"Mijdrecht","operatorName":"TotalEnergies","maxPowerKw":50,"isMegawatt":false,"status":"AVAILABLE","source":"ndw"}},{"type":"Feature","geometry":{"type":"Point","coordinates":[4.93503,52.21689]},"properties":{"type":"charge","layer":"passenger","locationId":"1515","name":"Shell Recharge NL Herenweg 140","address":"Herenweg 140","city":"De Ronde Venen","operatorName":"Ubitricity","maxPowerKw":11,"isMegawatt":false,"status":"CHARGING","source":"ndw","priceKwh":0.388}},{"type":"Feature","geometry":{"type":"Point","coordinates":[4.991294,52.248189]},"properties":{"type":"charge","layer":"passenger","locationId":"492976ea09855bc0bfa6854cf7cbcf85","name":"Angstelhof 29","address":"Angstelhof 29","city":"Baambrugge","operatorName":"Vattenfall InCharge","maxPowerKw":11,"isMegawatt":false,"status":"CHARGING","source":"ndw"}},{"type":"Feature","geometry":{"type":"Point","coordinates":[4.878281,52.204465]},"properties":{"type":"charge","layer":"passenger","locationId":"NLCPIL7217375","name":"FOURCE BV MEIDRECHT 4","address":"8 Ondernemingsweg","city":"Mijdrecht","operatorName":"ChargePoint","maxPowerKw":11,"isMegawatt":false,"status":"AVAILABLE","source":"ndw","priceKwh":0.5}},{"type":"Feature","geometry":{"type":"Point","coordinates":[4.930949,52.204616]},"properties":{"type":"charge","layer":"passenger","locationId":"3964725","name":"Laadnet Kroese BV","address":"Demmerik 96b","city":"Vinkeveen","operatorName":"Laadnet","maxPowerKw":22,"isMegawatt":false,"status":"AVAILABLE","source":"ndw"}},{"type":"Feature","geometry":{"type":"Point","coordinates":[4.96987,52.2734]},"properties":{"type":"charge","layer":"passenger","locationId":"1d9c48bc98ed2e9b883ed73df782b108","name":"Schuttenburg 1","address":"Schuttenburg 1","city":"Abcoude","operatorName":"Vattenfall InCharge","maxPowerKw":11,"isMegawatt":false,"status":"AVAILABLE","source":"ndw"}},{"type":"Feature","geometry":{"type":"Point","coordinates":[4.894183,52.202501]},"properties":{"type":"charge","layer":"passenger","locationId":"923090","name":"DAE_NL_2000942","address":"Spoorzicht 20","city":"Wilnis","operatorName":"DAEN Mobility","maxPowerKw":11,"isMegawatt":false,"status":"AVAILABLE","source":"ndw","priceKwh":0.28}},{"type":"Feature","geometry":{"type":"Point","coordinates":[4.864229,52.20771]},"properties":{"type":"charge","layer":"passenger","locationId":"b1ca6e86-6c93-4efb-8f71-d56d0fd46db5","name":"TNLP009784 - Koningin Julianalaan 6, Mijdrecht","address":"6 Koningin Julianalaan","city":"Mijdrecht","operatorName":"TotalEnergies","maxPowerKw":17,"isMegawatt":false,"status":"AVAILABLE","source":"ndw"}},{"type":"Feature","geometry":{"type":"Point","coordinates":[4.883882,52.180347]},"properties":{"type":"charge","layer":"passenger","locationId":"643951cdac89610012e3a2e8","name":"GPW laadstation 1","address":"Bovendijk 16a","city":"Wilnis","operatorName":"E-Flux by Road","maxPowerKw":22,"isMegawatt":false,"status":"AVAILABLE","source":"ndw","priceKwh":0.52}},{"type":"Feature","geometry":{"type":"Point","coordinates":[4.863411,52.201295]},"properties":{"type":"charge","layer":"passenger","locationId":"3968090","name":"Laadnet Steven van Remelaerstraat","address":"Steven van Rumelaerstraat 63","city":"Mijdrecht","operatorName":"Laadnet","maxPowerKw":11,"isMegawatt":false,"status":"UNAVAILABLE","source":"ndw"}},{"type":"Feature","geometry":{"type":"Point","coordinates":[4.866769,52.209526]},"properties":{"type":"charge","layer":"passenger","locationId":"NLLOC004952","name":"NLD, Mijdrecht, Dorpsstraat 74","address":"Dorpsstraat 74","city":"Mijdrecht","operatorName":"Allego","maxPowerKw":11,"isMegawatt":false,"status":"AVAILABLE","source":"ndw","priceKwh":0.511}},{"type":"Feature","geometry":{"type":"Point","coordinates":[4.990214,52.247346]},"properties":{"type":"charge","layer":"passenger","locationId":"1721805","name":"Laadnet Petrogas","address":"Rijksstraatweg 38","city":"Baambrugge","operatorName":"Laadnet","maxPowerKw":22,"isMegawatt":false,"status":"AVAILABLE","source":"ndw"}},{"type":"Feature","geometry":{"type":"Point","coordinates":[4.8644257,52.2183947]},"properties":{"type":"charge","layer":"passenger","locationId":"944","name":"Shell Recharge NL Zirkoon 33","address":"Zirkoon 33","city":"Mijdrecht","operatorName":"Ubitricity","maxPowerKw":22,"isMegawatt":false,"status":"AVAILABLE","source":"ndw","priceKwh":0.266}},{"type":"Feature","geometry":{"type":"Point","coordinates":[4.9304495,52.2119455]},"properties":{"type":"charge","layer":"passenger","locationId":"1261","name":"Shell Recharge NL Heulweg 97","address":"Heulweg 97","city":"Vinkeveen","operatorName":"Ubitricity","maxPowerKw":22,"isMegawatt":false,"status":"AVAILABLE","source":"ndw","priceKwh":0.266}},{"type":"Feature","geometry":{"type":"Point","coordinates":[4.899923,52.199997]},"properties":{"type":"charge","layer":"passenger","locationId":"NLLOC007300","name":"NL, Diominee H. ten Brinckenplantsoen 16, 3648 VA, Wilnis","address":"Dominee H. ten Brinckenplantsoen 16","city":"Wilnis","operatorName":"Allego","maxPowerKw":11,"isMegawatt":false,"status":"CHARGING","source":"ndw","priceKwh":0.511}},{"type":"Feature","geometry":{"type":"Point","coordinates":[4.863292,52.2085077]},"properties":{"type":"charge","layer":"passenger","locationId":"2040","name":"Shell Recharge NL Prinses Wilhelminalaan 23","address":"Prinses Wilhelminalaan 23","city":"Mijdrecht","operatorName":"Ubitricity","maxPowerKw":22,"isMegawatt":false,"status":"AVAILABLE","source":"ndw","priceKwh":0.266}},{"type":"Feature","geometry":{"type":"Point","coordinates":[4.902583,52.195236]},"properties":{"type":"charge","layer":"passenger","locationId":"NLLOC007362","name":"NL, Dorpsstraat 5, 3648 AE, Wilnis","address":"Dorpsstraat 5","city":"Wilnis","operatorName":"Allego","maxPowerKw":11,"isMegawatt":false,"status":"AVAILABLE","source":"ndw","priceKwh":0.511}},{"type":"Feature","geometry":{"type":"Point","coordinates":[4.90219,52.22182]},"properties":{"type":"charge","layer":"passenger","locationId":"ee16df1a-6413-49f8-b6af-f9c8349c81cd","name":"TNLP009925 - Kreekrug 4, Waverveen","address":"4 Kreekrug","city":"Waverveen","operatorName":"TotalEnergies","maxPowerKw":17,"isMegawatt":false,"status":"AVAILABLE","source":"ndw"}},{"type":"Feature","geometry":{"type":"Point","coordinates":[4.865139,52.208455]},"properties":{"type":"charge","layer":"passenger","locationId":"68d29d318c169dc6a7044a9d","name":"Hoogvliet, Kerkvaart 7 Mijdrecht - I","address":"Kerkvaart  7","city":"Mijdrecht","operatorName":"E-Flux by Road","maxPowerKw":22,"isMegawatt":false,"status":"AVAILABLE","source":"ndw","priceKwh":0.38}},{"type":"Feature","geometry":{"type":"Point","coordinates":[4.854632,52.201927]},"properties":{"type":"charge","layer":"passenger","locationId":"NLLOC003515","name":"NLD, Mijdrecht, Grutto 9","address":"Grutto 9","city":"Mijdrecht","operatorName":"Allego","maxPowerKw":11,"isMegawatt":false,"status":"AVAILABLE","source":"ndw","priceKwh":0.511}},{"type":"Feature","geometry":{"type":"Point","coordinates":[4.933574,52.213815]},"properties":{"type":"charge","layer":"passenger","locationId":"05586625-5FB4-495A-B71A-E266941F00D4","name":"Eneco eMobility Careyn - Herenweg - Vinkeveen","address":"Herenweg 69","city":"Vinkeveen","operatorName":"Eneco","maxPowerKw":11,"isMegawatt":false,"status":"AVAILABLE","source":"ndw","priceKwh":0.32}},{"type":"Feature","geometry":{"type":"Point","coordinates":[4.816446,52.20199]},"properties":{"type":"charge","layer":"passenger","locationId":"NLLOC002048","name":"NLD, De Hoef, Merelslag 27","address":"Merelslag 27","city":"De Hoef","operatorName":"Allego","maxPowerKw":22,"isMegawatt":false,"status":"AVAILABLE","source":"ndw","priceKwh":0.511}},{"type":"Feature","geometry":{"type":"Point","coordinates":[4.859056,52.203545]},"properties":{"type":"charge","layer":"passenger","locationId":"5b38454d-c332-4866-a8e7-d18df588c3bf","name":"TNLP008607 - Buurmeesterstraat 1, Mijdrecht","address":"1 Buurmeesterstraat","city":"Mijdrecht","operatorName":"TotalEnergies","maxPowerKw":13,"isMegawatt":false,"status":"AVAILABLE","source":"ndw"}},{"type":"Feature","geometry":{"type":"Point","coordinates":[4.874858,52.203598]},"properties":{"type":"charge","layer":"passenger","locationId":"BB3F44AA-6F66-4D7D-96E5-8990DE872006","name":"Eneco eMobility Verhoeven Installaties - Nijverheidsweg 19 A - Mijdrecht","address":"Nijverheidsweg 19","city":"Mijdrecht","operatorName":"Eneco","maxPowerKw":11,"isMegawatt":false,"status":"AVAILABLE","source":"ndw","priceKwh":0.32}},{"type":"Feature","geometry":{"type":"Point","coordinates":[4.856747,52.205747]},"properties":{"type":"charge","layer":"passenger","locationId":"NLLOC012470","name":"NL, Markestraat, 7, 3641JN, Mijdrecht","address":"Markestraat 7","city":"Mijdrecht","operatorName":"Allego","maxPowerKw":11,"isMegawatt":false,"status":"CHARGING","source":"ndw","priceKwh":0.511}},{"type":"Feature","geometry":{"type":"Point","coordinates":[4.853545,52.208259]},"properties":{"type":"charge","layer":"passenger","locationId":"NLLOC006177","name":"NL, Korenbloem 26, 3641VP, Mijdrecht","address":"Korenbloem 26","city":"Mijdrecht","operatorName":"Allego","maxPowerKw":11,"isMegawatt":false,"status":"UNAVAILABLE","source":"ndw","priceKwh":0.511}},{"type":"Feature","geometry":{"type":"Point","coordinates":[4.876954,52.203463]},"properties":{"type":"charge","layer":"passenger","locationId":"3733091","name":"Laadnet van Walraven Parkeerterrein Personeel Mijdrecht","address":"Nijverheidsweg 26","city":"Mijdrecht","operatorName":"Laadnet","maxPowerKw":22,"isMegawatt":false,"status":"UNAVAILABLE","source":"ndw"}},{"type":"Feature","geometry":{"type":"Point","coordinates":[4.9345065,52.2160294]},"properties":{"type":"charge","layer":"passenger","locationId":"1273","name":"Shell Recharge NL Julianalaan 1A","address":"Julianalaan 1A","city":"Vinkeveen","operatorName":"Ubitricity","maxPowerKw":22,"isMegawatt":false,"status":"AVAILABLE","source":"ndw","priceKwh":0.266}},{"type":"Feature","geometry":{"type":"Point","coordinates":[4.892214,52.206542]},"properties":{"type":"charge","layer":"passenger","locationId":"5b62994f2935b628c239829ff81961ab","name":"Marickenlaan 2","address":"Marickenlaan 2","city":"Wilnis","operatorName":"Vattenfall InCharge","maxPowerKw":11,"isMegawatt":false,"status":"AVAILABLE","source":"ndw"}},{"type":"Feature","geometry":{"type":"Point","coordinates":[4.877385,52.211094]},"properties":{"type":"charge","layer":"passenger","locationId":"4174745","name":"Laadnet Van Schie B.V.","address":"Constructieweg 100","city":"Mijdrecht","operatorName":"Laadnet","maxPowerKw":22,"isMegawatt":false,"status":"AVAILABLE","source":"ndw"}},{"type":"Feature","geometry":{"type":"Point","coordinates":[4.85891,52.20722]},"properties":{"type":"charge","layer":"passenger","locationId":"f8ffd569b7a28e2810ee6b9999c6b36a","name":"Prinses Margrietlaan 51","address":"Prinses Margrietlaan 51","city":"Mijdrecht","operatorName":"Vattenfall InCharge","maxPowerKw":11,"isMegawatt":false,"status":"AVAILABLE","source":"ndw"}},{"type":"Feature","geometry":{"type":"Point","coordinates":[4.892776,52.206019]},"properties":{"type":"charge","layer":"passenger","locationId":"NLLOC003858","name":"NLD, Wilnis, Marickenlaan 1","address":"Marickenlaan 1","city":"Wilnis","operatorName":"Allego","maxPowerKw":11,"isMegawatt":false,"status":"AVAILABLE","source":"ndw","priceKwh":0.511}},{"type":"Feature","geometry":{"type":"Point","coordinates":[4.929835,52.279344]},"properties":{"type":"charge","layer":"passenger","locationId":"6419c0c5e6043100127ece38","name":"Villa Oldenhoff laadstation 1","address":"Voetangelweg 9","city":"Abcoude","operatorName":"E-Flux by Road","maxPowerKw":22,"isMegawatt":false,"status":"AVAILABLE","source":"ndw","priceKwh":0.43}},{"type":"Feature","geometry":{"type":"Point","coordinates":[4.963719,52.274226]},"properties":{"type":"charge","layer":"passenger","locationId":"NLLOC007225","name":"NL, De Cleijen 5, 1391RL, Abcoude","address":"De Cleijen 5","city":"Abcoude","operatorName":"Allego","maxPowerKw":11,"isMegawatt":false,"status":"AVAILABLE","source":"ndw","priceKwh":0.511}},{"type":"Feature","geometry":{"type":"Point","coordinates":[4.97288,52.24019]},"properties":{"type":"charge","layer":"passenger","locationId":"5c1591d17956c538942416b79930cb8b","name":"Vinkenkade 5","address":"Vinkenkade 5","city":"Vinkeveen","operatorName":"Vattenfall InCharge","maxPowerKw":11,"isMegawatt":false,"status":"CHARGING","source":"ndw"}},{"type":"Feature","geometry":{"type":"Point","coordinates":[4.866062,52.212337]},"properties":{"type":"charge","layer":"passenger","locationId":"ef105ffafdccdf197e777c673934e72b","name":"Schild 3","address":"Schild 3","city":"Mijdrecht","operatorName":"Vattenfall InCharge","maxPowerKw":11,"isMegawatt":false,"status":"CHARGING","source":"ndw"}},{"type":"Feature","geometry":{"type":"Point","coordinates":[4.876143,52.203016]},"properties":{"type":"charge","layer":"passenger","locationId":"3843560","name":"Laadnet van Walraven Receptie","address":"Nijverheidsweg 26","city":"Mijdrecht","operatorName":"Laadnet","maxPowerKw":22,"isMegawatt":false,"status":"UNAVAILABLE","source":"ndw"}},{"type":"Feature","geometry":{"type":"Point","coordinates":[4.9239032,52.2074543]},"properties":{"type":"charge","layer":"passenger","locationId":"1763","name":"Shell Recharge NL Loopveltweg 82","address":"Loopveltweg 82","city":"Vinkeveen","operatorName":"Ubitricity","maxPowerKw":22,"isMegawatt":false,"status":"CHARGING","source":"ndw","priceKwh":0.266}},{"type":"Feature","geometry":{"type":"Point","coordinates":[4.866805,52.19882]},"properties":{"type":"charge","layer":"passenger","locationId":"NLLOC002550","name":"NLD, Mijdrecht, Kruiwiel 28","address":"Kruiwiel 28","city":"Mijdrecht","operatorName":"Allego","maxPowerKw":11,"isMegawatt":false,"status":"AVAILABLE","source":"ndw","priceKwh":0.511}},{"type":"Feature","geometry":{"type":"Point","coordinates":[4.873076,52.207038]},"properties":{"type":"charge","layer":"passenger","locationId":"4147227","name":"Laadnet Roké Holding BV","address":"Industrieweg 19","city":"Mijdrecht","operatorName":"Laadnet","maxPowerKw":22,"isMegawatt":false,"status":"AVAILABLE","source":"ndw"}},{"type":"Feature","geometry":{"type":"Point","coordinates":[4.865133,52.208449]},"properties":{"type":"charge","layer":"passenger","locationId":"68d29d9b259eef7558a0a719","name":"Hoogvliet, Kerkstraat 7 Mijdrecht - II","address":"Kerkvaart  7","city":"Mijdrecht","operatorName":"E-Flux by Road","maxPowerKw":22,"isMegawatt":false,"status":"AVAILABLE","source":"ndw","priceKwh":0.38}},{"type":"Feature","geometry":{"type":"Point","coordinates":[4.859639,52.203286]},"properties":{"type":"charge","layer":"passenger","locationId":"NLLOC001540","name":"NLD, Mijdrecht, J. Inghenwinckelstraat 10","address":"J. Inghenwinckelstraat 10","city":"Mijdrecht","operatorName":"Allego","maxPowerKw":11,"isMegawatt":false,"status":"AVAILABLE","source":"ndw","priceKwh":0.511}},{"type":"Feature","geometry":{"type":"Point","coordinates":[4.860642,52.195963]},"properties":{"type":"charge","layer":"passenger","locationId":"NLLOC005212","name":"NLD, Mijdrecht, Verfmolen 1","address":"Verfmolen 1","city":"Mijdrecht","operatorName":"Allego","maxPowerKw":11,"isMegawatt":false,"status":"AVAILABLE","source":"ndw","priceKwh":0.511}},{"type":"Feature","geometry":{"type":"Point","coordinates":[4.9756826,52.2762979]},"properties":{"type":"charge","layer":"passenger","locationId":"1909","name":"Shell Recharge NL Fluitekruid 14","address":"Fluitekruid 14","city":"Abcoude","operatorName":"Ubitricity","maxPowerKw":22,"isMegawatt":false,"status":"CHARGING","source":"ndw","priceKwh":0.266}},{"type":"Feature","geometry":{"type":"Point","coordinates":[4.970926,52.274238]},"properties":{"type":"charge","layer":"passenger","locationId":"69e73fd6b374e265c21154c9","name":"PLUS Koot Abcoude","address":"Amsterdamsestraatweg 38","city":"Abcoude","operatorName":"E-Flux by Road","maxPowerKw":11,"isMegawatt":false,"status":"AVAILABLE","source":"ndw","priceKwh":0.48}},{"type":"Feature","geometry":{"type":"Point","coordinates":[4.900996,52.199778]},"properties":{"type":"charge","layer":"passenger","locationId":"NLLOC003106","name":"NLD, Wilnis, Dominee W.A. Willemseplantsoen 19","address":"Dominee W.A. Willemseplantsoen 19","city":"Wilnis","operatorName":"Allego","maxPowerKw":11,"isMegawatt":false,"status":"AVAILABLE","source":"ndw","priceKwh":0.511}},{"type":"Feature","geometry":{"type":"Point","coordinates":[4.8627026,52.1999443]},"properties":{"type":"charge","layer":"passenger","locationId":"996","name":"Shell Recharge NL Cornelis Beerninckstraat 100","address":"Cornelis Beerninckstraat 100","city":"Mijdrecht","operatorName":"Ubitricity","maxPowerKw":22,"isMegawatt":false,"status":"AVAILABLE","source":"ndw","priceKwh":0.266}},{"type":"Feature","geometry":{"type":"Point","coordinates":[4.96541,52.250778]},"properties":{"type":"charge","layer":"passenger","locationId":"NLLOC012408","name":"NL, Plaswijk 70, 3645 AW Vinkeveen","address":"Plaswijk 70","city":"Vinkeveen","operatorName":"Allego","maxPowerKw":11,"isMegawatt":false,"status":"AVAILABLE","source":"ndw","priceKwh":0.511}},{"type":"Feature","geometry":{"type":"Point","coordinates":[4.971565,52.264965]},"properties":{"type":"charge","layer":"passenger","locationId":"NLLOC002889","name":"NLD, Abcoude, De Cleijne Cleij 10G","address":"De Cleijne Cleij 10G","city":"Abcoude","operatorName":"Allego","maxPowerKw":11,"isMegawatt":false,"status":"AVAILABLE","source":"ndw","priceKwh":0.511}},{"type":"Feature","geometry":{"type":"Point","coordinates":[4.892514,52.203717]},"properties":{"type":"charge","layer":"passenger","locationId":"NLLOC013838","name":"NL, Marickenlaan, 64, 3648LE, Wilnis","address":"Marickenlaan 64","city":"Wilnis","operatorName":"Allego","maxPowerKw":11,"isMegawatt":false,"status":"AVAILABLE","source":"ndw","priceKwh":0.511}},{"type":"Feature","geometry":{"type":"Point","coordinates":[4.895196,52.220322]},"properties":{"type":"charge","layer":"passenger","locationId":"a7632a78a9cb1e49b2885561a2dc98ea","name":"Selijnsweg 54","address":"Selijnsweg 54","city":"Waverveen","operatorName":"Vattenfall InCharge","maxPowerKw":11,"isMegawatt":false,"status":"AVAILABLE","source":"ndw"}},{"type":"Feature","geometry":{"type":"Point","coordinates":[4.864855,52.217713]},"properties":{"type":"charge","layer":"passenger","locationId":"72111157-3a25-4cb6-9806-1cf67414c002","name":"TNLP034375","address":"Aquamarijn 108","city":"Mijdrecht","operatorName":"TotalEnergies","maxPowerKw":14,"isMegawatt":false,"status":"AVAILABLE","source":"ndw"}},{"type":"Feature","geometry":{"type":"Point","coordinates":[4.924075,52.225997]},"properties":{"type":"charge","layer":"passenger","locationId":"NLLOC002280","name":"NLD, Achterbos 73, 3645 CB, Vinkeveen","address":"Achterbos 73","city":"Vinkeveen","operatorName":"Allego","maxPowerKw":22,"isMegawatt":false,"status":"AVAILABLE","source":"ndw","priceKwh":0.511}},{"type":"Feature","geometry":{"type":"Point","coordinates":[4.920373,52.213296]},"properties":{"type":"charge","layer":"passenger","locationId":"NLLOC000755","name":"NLD, Vinkeveen, Meerkoetlaan 42","address":"Meerkoetlaan 42","city":"Vinkeveen","operatorName":"Allego","maxPowerKw":11,"isMegawatt":false,"status":"AVAILABLE","source":"ndw","priceKwh":0.511}},{"type":"Feature","geometry":{"type":"Point","coordinates":[4.864798,52.196198]},"properties":{"type":"charge","layer":"passenger","locationId":"b77d73d7-3e77-40b4-a3df-f2c17e7d79c9","name":"TNLP034519","address":"Stellingmolen 2","city":"Mijdrecht","operatorName":"TotalEnergies","maxPowerKw":14,"isMegawatt":false,"status":"AVAILABLE","source":"ndw"}},{"type":"Feature","geometry":{"type":"Point","coordinates":[4.921966,52.215437]},"properties":{"type":"charge","layer":"passenger","locationId":"NLLOC000624","name":"NLD, Vinkeveen, Dodaarslaan 67","address":"Dodaarslaan 67","city":"Vinkeveen","operatorName":"Allego","maxPowerKw":11,"isMegawatt":false,"status":"AVAILABLE","source":"ndw","priceKwh":0.511}},{"type":"Feature","geometry":{"type":"Point","coordinates":[4.97328,52.27405]},"properties":{"type":"charge","layer":"passenger","locationId":"ad8849e74a32e8fb82701fe1b362d5b9","name":"Dorpszicht 118","address":"Dorpszicht 118","city":"Abcoude","operatorName":"Vattenfall InCharge","maxPowerKw":11,"isMegawatt":false,"status":"AVAILABLE","source":"ndw"}},{"type":"Feature","geometry":{"type":"Point","coordinates":[4.853286,52.20242]},"properties":{"type":"charge","layer":"passenger","locationId":"NLLOC012721","name":"NL, Kievit 31, 3641 TD Mijdrecht","address":"Kievit 31","city":"Mijdrecht","operatorName":"Allego","maxPowerKw":11,"isMegawatt":false,"status":"AVAILABLE","source":"ndw","priceKwh":0.511}},{"type":"Feature","geometry":{"type":"Point","coordinates":[4.935982,52.212972]},"properties":{"type":"charge","layer":"passenger","locationId":"NLLOC007319","name":"NL, Heulweg 1, 3645 HA, Vinkeveen","address":"Heulweg 1","city":"Vinkeveen","operatorName":"Allego","maxPowerKw":11,"isMegawatt":false,"status":"AVAILABLE","source":"ndw","priceKwh":0.511}},{"type":"Feature","geometry":{"type":"Point","coordinates":[4.861168,52.208017]},"properties":{"type":"charge","layer":"passenger","locationId":"8438d04818e0e9cbb4f52fbf5f5f2d2e","name":"Stadhouderlaan 29","address":"Stadhouderlaan 29","city":"Mijdrecht","operatorName":"Vattenfall InCharge","maxPowerKw":11,"isMegawatt":false,"status":"AVAILABLE","source":"ndw"}},{"type":"Feature","geometry":{"type":"Point","coordinates":[4.890041,52.202788]},"properties":{"type":"charge","layer":"passenger","locationId":"NLLOC004063","name":"NLD, Wilnis, Wagenmaker 74","address":"Wagenmaker 74","city":"Wilnis","operatorName":"Allego","maxPowerKw":11,"isMegawatt":false,"status":"AVAILABLE","source":"ndw","priceKwh":0.511}},{"type":"Feature","geometry":{"type":"Point","coordinates":[4.864275,52.211917]},"properties":{"type":"charge","layer":"passenger","locationId":"NLLOC003521","name":"NLD, Mijdrecht, Zonnekroon 25","address":"Zonnekroon 25","city":"Mijdrecht","operatorName":"Allego","maxPowerKw":11,"isMegawatt":false,"status":"AVAILABLE","source":"ndw","priceKwh":0.511}},{"type":"Feature","geometry":{"type":"Point","coordinates":[4.87836,52.205643]},"properties":{"type":"charge","layer":"passenger","locationId":"NLCPIL7217285","name":"FOURCE BV MEIDRECHT 2","address":"8 Ondernemingsweg","city":"Mijdrecht","operatorName":"ChargePoint","maxPowerKw":11,"isMegawatt":false,"status":"AVAILABLE","source":"ndw","priceKwh":0.5}},{"type":"Feature","geometry":{"type":"Point","coordinates":[4.865975,52.214701]},"properties":{"type":"charge","layer":"passenger","locationId":"NLLOC002091","name":"NLD, Mijdrecht, Aquamarijn 16","address":"Aquamarijn 16","city":"Mijdrecht","operatorName":"Allego","maxPowerKw":11,"isMegawatt":false,"status":"AVAILABLE","source":"ndw","priceKwh":0.511}},{"type":"Feature","geometry":{"type":"Point","coordinates":[4.8953113,52.2013183]},"properties":{"type":"charge","layer":"passenger","locationId":"876","name":"Shell Recharge NL Rietvoorn 1","address":"Rietvoorn 1","city":"Wilnis","operatorName":"Ubitricity","maxPowerKw":22,"isMegawatt":false,"status":"CHARGING","source":"ndw","priceKwh":0.266}},{"type":"Feature","geometry":{"type":"Point","coordinates":[4.895302,52.202942]},"properties":{"type":"charge","layer":"passenger","locationId":"b874907340bf2a889c62882d21d48bff","name":"Spoorzicht 49","address":"Spoorzicht 49","city":"Wilnis","operatorName":"Vattenfall InCharge","maxPowerKw":11,"isMegawatt":false,"status":"AVAILABLE","source":"ndw"}},{"type":"Feature","geometry":{"type":"Point","coordinates":[4.9880562,52.2449926]},"properties":{"type":"charge","layer":"passenger","locationId":"1117","name":"Shell Recharge NL Wethouder van Oostveenstraat 25","address":"Wethouder van Oostveenstraat 25","city":"Baambrugge","operatorName":"Ubitricity","maxPowerKw":22,"isMegawatt":false,"status":"AVAILABLE","source":"ndw","priceKwh":0.266}},{"type":"Feature","geometry":{"type":"Point","coordinates":[4.925749,52.208016]},"properties":{"type":"charge","layer":"passenger","locationId":"NLLOC004479","name":"NLD, Klijne Meer 75 3645WS Vinkeveen","address":"Klijne Meer 75","city":"Vinkeveen","operatorName":"Allego","maxPowerKw":11,"isMegawatt":false,"status":"AVAILABLE","source":"ndw","priceKwh":0.511}},{"type":"Feature","geometry":{"type":"Point","coordinates":[4.853923,52.205817]},"properties":{"type":"charge","layer":"passenger","locationId":"fe7cf8c6-9b2f-446e-9a87-a84d378cf72a","name":"TNLP034344","address":"Weegbree 42","city":"Mijdrecht","operatorName":"TotalEnergies","maxPowerKw":14,"isMegawatt":false,"status":"CHARGING","source":"ndw"}},{"type":"Feature","geometry":{"type":"Point","coordinates":[4.988682,52.245754]},"properties":{"type":"charge","layer":"passenger","locationId":"NLLOC002673","name":"NLD, Baambrugge, Prins Mauritsstraat 2","address":"Prins Mauritsstraat 2","city":"Baambrugge","operatorName":"Allego","maxPowerKw":11,"isMegawatt":false,"status":"CHARGING","source":"ndw","priceKwh":0.511}},{"type":"Feature","geometry":{"type":"Point","coordinates":[4.965634,52.274038]},"properties":{"type":"charge","layer":"passenger","locationId":"NLLOC002230","name":"NLD, Leeuwenburgh 14, 1391 RE, Abcoude","address":"Leeuwenburgh 14","city":"Abcoude","operatorName":"Allego","maxPowerKw":11,"isMegawatt":false,"status":"AVAILABLE","source":"ndw","priceKwh":0.511}},{"type":"Feature","geometry":{"type":"Point","coordinates":[4.860266,52.215833]},"properties":{"type":"charge","layer":"passenger","locationId":"NLLOC007072","name":"NL, Diamant 35, 3643AK, Mijdrecht","address":"Diamant 35","city":"Mijdrecht","operatorName":"Allego","maxPowerKw":11,"isMegawatt":false,"status":"AVAILABLE","source":"ndw","priceKwh":0.511}},{"type":"Feature","geometry":{"type":"Point","coordinates":[4.867079,52.197374]},"properties":{"type":"charge","layer":"passenger","locationId":"81c565c1-e952-47bd-909d-4eaf34c72427","name":"TNLP034163","address":"Viergang 56","city":"Mijdrecht","operatorName":"TotalEnergies","maxPowerKw":14,"isMegawatt":false,"status":"AVAILABLE","source":"ndw"}},{"type":"Feature","geometry":{"type":"Point","coordinates":[4.8652146,52.2110732]},"properties":{"type":"charge","layer":"passenger","locationId":"826","name":"Shell Recharge NL Karolus 2","address":"Karolus 2","city":"Mijdrecht","operatorName":"Ubitricity","maxPowerKw":22,"isMegawatt":false,"status":"AVAILABLE","source":"ndw","priceKwh":0.266}},{"type":"Feature","geometry":{"type":"Point","coordinates":[4.8688046,52.216999]},"properties":{"type":"charge","layer":"passenger","locationId":"997","name":"Shell Recharge NL Koraal 20","address":"Koraal 20","city":"Mijdrecht","operatorName":"Ubitricity","maxPowerKw":22,"isMegawatt":false,"status":"AVAILABLE","source":"ndw","priceKwh":0.266}},{"type":"Feature","geometry":{"type":"Point","coordinates":[4.815381,52.203619]},"properties":{"type":"charge","layer":"passenger","locationId":"67bf38ce830796eb4ca8b31c","name":"De Strooppot laadstation","address":"De Hoef Oostzijde 42","city":"De Hoef","operatorName":"E-Flux by Road","maxPowerKw":11,"isMegawatt":false,"status":"UNAVAILABLE","source":"ndw","priceKwh":0.53}},{"type":"Feature","geometry":{"type":"Point","coordinates":[4.961901,52.273584]},"properties":{"type":"charge","layer":"passenger","locationId":"f8f3a0feda71388bb754f4256ffd86a2","name":"Molenwetering 5","address":"Molenwetering 5","city":"Abcoude","operatorName":"Vattenfall InCharge","maxPowerKw":11,"isMegawatt":false,"status":"AVAILABLE","source":"ndw"}},{"type":"Feature","geometry":{"type":"Point","coordinates":[4.86676,52.206061]},"properties":{"type":"charge","layer":"passenger","locationId":"NLLOC004262","name":"NLD, Croonstadtlaan 10, 3641 AL, Mijdrecht","address":"Croonstadtlaan 10","city":"Mijdrecht","operatorName":"Allego","maxPowerKw":11,"isMegawatt":false,"status":"AVAILABLE","source":"ndw","priceKwh":0.511}},{"type":"Feature","geometry":{"type":"Point","coordinates":[4.966807,52.269466]},"properties":{"type":"charge","layer":"passenger","locationId":"NLLOC003800","name":"NLD, Abcoude, Piet van Wijngaerdtlaan 18","address":"Piet van Wijngaerdtlaan 18","city":"Abcoude","operatorName":"Allego","maxPowerKw":11,"isMegawatt":false,"status":"AVAILABLE","source":"ndw","priceKwh":0.511}},{"type":"Feature","geometry":{"type":"Point","coordinates":[4.921687,52.206371]},"properties":{"type":"charge","layer":"passenger","locationId":"NLLOC006860","name":"NL, Regenboog 31, 3645 SC, Vinkeveen","address":"Regenboog 31","city":"Vinkeveen","operatorName":"Allego","maxPowerKw":11,"isMegawatt":false,"status":"AVAILABLE","source":"ndw","priceKwh":0.511}},{"type":"Feature","geometry":{"type":"Point","coordinates":[4.972959,52.273508]},"properties":{"type":"charge","layer":"passenger","locationId":"NLLOC003441","name":"NLD, Abcoude, Amsterdamsestraatweg 22","address":"Amsterdamsestraatweg 22","city":"Abcoude","operatorName":"Allego","maxPowerKw":11,"isMegawatt":false,"status":"AVAILABLE","source":"ndw","priceKwh":0.511}},{"type":"Feature","geometry":{"type":"Point","coordinates":[4.86236,52.203]},"properties":{"type":"charge","layer":"passenger","locationId":"1477","name":"Shell Recharge NL de Borsaliastraat 54","address":"de Borsaliastraat 54","city":"De Ronde Venen","operatorName":"Ubitricity","maxPowerKw":11,"isMegawatt":false,"status":"AVAILABLE","source":"ndw","priceKwh":0.388}},{"type":"Feature","geometry":{"type":"Point","coordinates":[4.972484,52.277132]},"properties":{"type":"charge","layer":"passenger","locationId":"NLLOC008432","name":"NLD, Haagwinde 38, 1391 XZ Abcoude","address":"Haagwinde 38","city":"Abcoude","operatorName":"Allego","maxPowerKw":11,"isMegawatt":false,"status":"AVAILABLE","source":"ndw","priceKwh":0.511}},{"type":"Feature","geometry":{"type":"Point","coordinates":[4.864533,52.197957]},"properties":{"type":"charge","layer":"passenger","locationId":"NLLOC002409","name":"Paltrok 51, 3642 CL, Mijdrecht","address":"Paltrok 51","city":"Mijdrecht","operatorName":"Allego","maxPowerKw":11,"isMegawatt":false,"status":"AVAILABLE","source":"ndw","priceKwh":0.511}},{"type":"Feature","geometry":{"type":"Point","coordinates":[4.883928,52.215333]},"properties":{"type":"charge","layer":"passenger","locationId":"4227616","name":"Laadnet Advisor ICT Solutions BV","address":"Communicatieweg 5","city":"Mijdrecht","operatorName":"Laadnet","maxPowerKw":22,"isMegawatt":false,"status":"AVAILABLE","source":"ndw"}},{"type":"Feature","geometry":{"type":"Point","coordinates":[4.927187,52.21096]},"properties":{"type":"charge","layer":"passenger","locationId":"NLLOC015869","name":"NL, Conincksmeer 38, 3645WH, Vinkeveen","address":"Conincksmeer 38","city":"Vinkeveen","operatorName":"Allego","maxPowerKw":11,"isMegawatt":false,"status":"AVAILABLE","source":"ndw","priceKwh":0.511}},{"type":"Feature","geometry":{"type":"Point","coordinates":[4.974641,52.270971]},"properties":{"type":"charge","layer":"passenger","locationId":"NLLOC002088","name":"NLD, Abcoude, 't Markvelt 1","address":"'t Markvelt 1","city":"Abcoude","operatorName":"Allego","maxPowerKw":11,"isMegawatt":false,"status":"AVAILABLE","source":"ndw","priceKwh":0.511}},{"type":"Feature","geometry":{"type":"Point","coordinates":[4.852813,52.202948]},"properties":{"type":"charge","layer":"passenger","locationId":"e1017a0c-7634-46dd-a436-199f57c6bf11","name":"TNLP034165","address":"Karekiet 46","city":"Mijdrecht","operatorName":"TotalEnergies","maxPowerKw":14,"isMegawatt":false,"status":"AVAILABLE","source":"ndw"}},{"type":"Feature","geometry":{"type":"Point","coordinates":[4.932851,52.219918]},"properties":{"type":"charge","layer":"passenger","locationId":"NLLOC000651","name":"NLD, Vinkeveen, Baambrugse Zuwe 1","address":"Baambrugse Zuwe 1","city":"Vinkeveen","operatorName":"Allego","maxPowerKw":11,"isMegawatt":false,"status":"AVAILABLE","source":"ndw","priceKwh":0.511}},{"type":"Feature","geometry":{"type":"Point","coordinates":[4.920152,52.215253]},"properties":{"type":"charge","layer":"passenger","locationId":"NLLOC006212","name":"NL, Dodaarslaan 150, 3645 JH, Vinkeveen","address":"Dodaarslaan 150","city":"Vinkeveen","operatorName":"Allego","maxPowerKw":11,"isMegawatt":false,"status":"AVAILABLE","source":"ndw","priceKwh":0.511}},{"type":"Feature","geometry":{"type":"Point","coordinates":[4.868996,52.216224]},"properties":{"type":"charge","layer":"passenger","locationId":"NLLOC007314","name":"NL, Granaat 34, 3643AP, Mijdrecht","address":"Granaat 34","city":"Mijdrecht","operatorName":"Allego","maxPowerKw":11,"isMegawatt":false,"status":"AVAILABLE","source":"ndw","priceKwh":0.511}},{"type":"Feature","geometry":{"type":"Point","coordinates":[4.851864,52.207177]},"properties":{"type":"charge","layer":"passenger","locationId":"NLLOC000691","name":"NLD, Mijdrecht, Korenbloem 72","address":"Korenbloem 72","city":"Mijdrecht","operatorName":"Allego","maxPowerKw":11,"isMegawatt":false,"status":"AVAILABLE","source":"ndw","priceKwh":0.511}},{"type":"Feature","geometry":{"type":"Point","coordinates":[4.889084,52.202666]},"properties":{"type":"charge","layer":"passenger","locationId":"b05bd73c-14d2-4d4e-a810-140eabee9981","name":"TNLP034167","address":"Wagenmaker 98","city":"Wilnis","operatorName":"TotalEnergies","maxPowerKw":14,"isMegawatt":false,"status":"AVAILABLE","source":"ndw"}},{"type":"Feature","geometry":{"type":"Point","coordinates":[4.865149,52.200105]},"properties":{"type":"charge","layer":"passenger","locationId":"3fe63b0c-07df-475b-a9f8-85dbb664d6ee","name":"TNLP034383","address":"Molenwiek 1","city":"Mijdrecht","operatorName":"TotalEnergies","maxPowerKw":14,"isMegawatt":false,"status":"AVAILABLE","source":"ndw"}},{"type":"Feature","geometry":{"type":"Point","coordinates":[4.887711,52.214633]},"properties":{"type":"charge","layer":"passenger","locationId":"3964806","name":"Laadnet OGMS 1 BV","address":"Vermogenweg 26","city":"Mijdrecht","operatorName":"Laadnet","maxPowerKw":22,"isMegawatt":false,"status":"AVAILABLE","source":"ndw"}},{"type":"Feature","geometry":{"type":"Point","coordinates":[4.8701105,52.2049072]},"properties":{"type":"charge","layer":"passenger","locationId":"874","name":"Shell Recharge NL Aan het Spoor 19","address":"Aan het Spoor 19","city":"Mijdrecht","operatorName":"Ubitricity","maxPowerKw":22,"isMegawatt":false,"status":"AVAILABLE","source":"ndw","priceKwh":0.266}},{"type":"Feature","geometry":{"type":"Point","coordinates":[4.973391,52.239276]},"properties":{"type":"charge","layer":"passenger","locationId":"NLLOC006938","name":"NL, Vinkenkade 1, 3645 AN, Vinkeveen","address":"Vinkenkade 1","city":"Vinkeveen","operatorName":"Allego","maxPowerKw":11,"isMegawatt":false,"status":"AVAILABLE","source":"ndw","priceKwh":0.511}},{"type":"Feature","geometry":{"type":"Point","coordinates":[4.870227,52.199827]},"properties":{"type":"charge","layer":"passenger","locationId":"NLLOC007287","name":"NL, Viergang 15, 3642 BJ, Mijdrecht","address":"Viergang 15","city":"Mijdrecht","operatorName":"Allego","maxPowerKw":11,"isMegawatt":false,"status":"AVAILABLE","source":"ndw","priceKwh":0.511}},{"type":"Feature","geometry":{"type":"Point","coordinates":[4.892751,52.200376]},"properties":{"type":"charge","layer":"passenger","locationId":"NLLOC001845","name":"NLD, Wilnis, Vossestaart 46","address":"Vossestaart 46","city":"Wilnis","operatorName":"Allego","maxPowerKw":22,"isMegawatt":false,"status":"AVAILABLE","source":"ndw","priceKwh":0.511}},{"type":"Feature","geometry":{"type":"Point","coordinates":[4.86304,52.218733]},"properties":{"type":"charge","layer":"passenger","locationId":"NLLOC001611","name":"NLD, Mijdrecht, Maansteen 15","address":"Maansteen 15","city":"Mijdrecht","operatorName":"Allego","maxPowerKw":22,"isMegawatt":false,"status":"CHARGING","source":"ndw","priceKwh":0.511}},{"type":"Feature","geometry":{"type":"Point","coordinates":[4.898024,52.201865]},"properties":{"type":"charge","layer":"passenger","locationId":"NLLOC002198","name":"NLD, Wethouder van Damlaan 62, 3648 XN, Wilnis","address":"Wethouder van Damlaan 62","city":"Wilnis","operatorName":"Allego","maxPowerKw":11,"isMegawatt":false,"status":"UNAVAILABLE","source":"ndw","priceKwh":0.511}},{"type":"Feature","geometry":{"type":"Point","coordinates":[4.970558,52.270182]},"properties":{"type":"charge","layer":"passenger","locationId":"4241063","name":"Laadnet Praktijk Wijnant Fysiotherapie B.V.","address":"Van Oosterhoutstraat 9","city":"Abcoude","operatorName":"Laadnet","maxPowerKw":22,"isMegawatt":false,"status":"AVAILABLE","source":"ndw"}},{"type":"Feature","geometry":{"type":"Point","coordinates":[4.968357,52.248522]},"properties":{"type":"charge","layer":"passenger","locationId":"NLLOC005269","name":"NLD, Vinkeveen, Vinkenkade 51","address":"Vinkenkade 51","city":"Vinkeveen","operatorName":"Allego","maxPowerKw":11,"isMegawatt":false,"status":"AVAILABLE","source":"ndw","priceKwh":0.511}},{"type":"Feature","geometry":{"type":"Point","coordinates":[4.970586,52.271937]},"properties":{"type":"charge","layer":"passenger","locationId":"NLLOC001293","name":"NLD, Abcoude, Oldenhoff 12","address":"Oldenhoff 12","city":"Abcoude","operatorName":"Allego","maxPowerKw":11,"isMegawatt":false,"status":"AVAILABLE","source":"ndw","priceKwh":0.511}},{"type":"Feature","geometry":{"type":"Point","coordinates":[4.974447,52.276387]},"properties":{"type":"charge","layer":"passenger","locationId":"NLLOC007306","name":"NL, Waterlelie 22, 1391 TN, Abcoude","address":"Waterlelie 22","city":"Abcoude","operatorName":"Allego","maxPowerKw":11,"isMegawatt":false,"status":"AVAILABLE","source":"ndw","priceKwh":0.511}},{"type":"Feature","geometry":{"type":"Point","coordinates":[4.860551,52.211891]},"properties":{"type":"charge","layer":"passenger","locationId":"NLLOC007496","name":"NL, Dubloen 44, 3641 ND, Mijdrecht","address":"Dubloen 44","city":"Mijdrecht","operatorName":"Allego","maxPowerKw":11,"isMegawatt":false,"status":"AVAILABLE","source":"ndw","priceKwh":0.511}},{"type":"Feature","geometry":{"type":"Point","coordinates":[4.972465,52.27924]},"properties":{"type":"charge","layer":"passenger","locationId":"NLENV709","name":"Abcoude, Hollandse Kade 7","address":"Hollandse Kade 7","city":"De Ronde Venen","operatorName":"","maxPowerKw":11,"isMegawatt":false,"status":"AVAILABLE","source":"ndw","priceKwh":0.5}},{"type":"Feature","geometry":{"type":"Point","coordinates":[4.872313,52.205429]},"properties":{"type":"charge","layer":"passenger","locationId":"4327313","name":"Laadnet Smit&Dorlas Koffiebranders BV","address":"Nijverheidsweg 1","city":"Mijdrecht","operatorName":"Laadnet","maxPowerKw":22,"isMegawatt":false,"status":"AVAILABLE","source":"ndw"}},{"type":"Feature","geometry":{"type":"Point","coordinates":[4.854712,52.203498]},"properties":{"type":"charge","layer":"passenger","locationId":"NLLOC001270","name":"NLD, De Ronde Venen, Kwikstaart 34","address":"Kwikstaart 34","city":"De Ronde Venen","operatorName":"Allego","maxPowerKw":11,"isMegawatt":false,"status":"AVAILABLE","source":"ndw","priceKwh":0.511}},{"type":"Feature","geometry":{"type":"Point","coordinates":[4.931431,52.213543]},"properties":{"type":"charge","layer":"passenger","locationId":"NLLOC004020","name":"NLD, Vinkeveen, Tuinderslaantje 1","address":"Tuinderslaantje 1","city":"Vinkeveen","operatorName":"Allego","maxPowerKw":11,"isMegawatt":false,"status":"AVAILABLE","source":"ndw","priceKwh":0.511}},{"type":"Feature","geometry":{"type":"Point","coordinates":[4.926517,52.210556]},"properties":{"type":"charge","layer":"passenger","locationId":"3d03a565-f14a-4cc0-bd84-4826543606ab","name":"TNLP015003 - Cuilensmeer 3, Vinkeveen","address":"3 Cuilensmeer","city":"Vinkeveen","operatorName":"TotalEnergies","maxPowerKw":17,"isMegawatt":false,"status":"AVAILABLE","source":"ndw"}},{"type":"Feature","geometry":{"type":"Point","coordinates":[4.894056,52.205375]},"properties":{"type":"charge","layer":"passenger","locationId":"ca4460c0-e424-4e5e-83d4-92f91cd951fe","name":"Waterpeil","address":"Waterpeil 14","city":"Wilnis","operatorName":"Vattenfall InCharge","maxPowerKw":22,"isMegawatt":false,"status":"UNAVAILABLE","source":"ndw"}},{"type":"Feature","geometry":{"type":"Point","coordinates":[4.868717,52.205283]},"properties":{"type":"charge","layer":"passenger","locationId":"e64acf572135baa9a823f414db15791e","name":"Aan het Spoor 6","address":"Aan het Spoor 6","city":"Mijdrecht","operatorName":"Vattenfall InCharge","maxPowerKw":11,"isMegawatt":false,"status":"AVAILABLE","source":"ndw"}},{"type":"Feature","geometry":{"type":"Point","coordinates":[4.889853,52.200383]},"properties":{"type":"charge","layer":"passenger","locationId":"08168a84f6c1551e6a96d9890b532296","name":"Zwenkgras 2","address":"Zwenkgras 2","city":"Wilnis","operatorName":"Vattenfall InCharge","maxPowerKw":11,"isMegawatt":false,"status":"AVAILABLE","source":"ndw"}},{"type":"Feature","geometry":{"type":"Point","coordinates":[4.991853,52.243857]},"properties":{"type":"charge","layer":"passenger","locationId":"68cd598d018195db513f6d4e","name":"Public Binnenweg","address":"Binnenweg 6","city":"Baambrugge","operatorName":"E-Flux by Road","maxPowerKw":21,"isMegawatt":false,"status":"AVAILABLE","source":"ndw","priceKwh":0.5}},{"type":"Feature","geometry":{"type":"Point","coordinates":[4.855895,52.204466]},"properties":{"type":"charge","layer":"passenger","locationId":"ddd1c830e41f5eeff70829f85f1d1ea0","name":"Landsherenstraat 5","address":"Landsherenstraat 5","city":"Mijdrecht","operatorName":"Vattenfall InCharge","maxPowerKw":11,"isMegawatt":false,"status":"AVAILABLE","source":"ndw"}},{"type":"Feature","geometry":{"type":"Point","coordinates":[4.930685,52.213667]},"properties":{"type":"charge","layer":"passenger","locationId":"9deb3b4b41cc043324c3e29557432098","name":"Tuinderslaantje 8","address":"Tuinderslaantje 8","city":"Vinkeveen","operatorName":"Vattenfall InCharge","maxPowerKw":11,"isMegawatt":false,"status":"AVAILABLE","source":"ndw"}},{"type":"Feature","geometry":{"type":"MultiPolygon","coordinates":[[[[5.021542170961115,52.302457121846565],[5.021866138297645,52.2826536195479],[5.014918909340865,52.25912828697363],[5.007462197662205,52.23170502984364],[5.007461821725964,52.23170499987425],[5.007049314409071,52.23167351192031],[5.003189794094531,52.23136418355406],[4.999829062610924,52.231080391626506],[4.9974141292390835,52.23081775954807],[4.994726745013959,52.23247474159568],[4.993586467421214,52.23209974855801],[4.994728985911526,52.230266856669964],[4.980413072106093,52.226847958634735],[4.982873587613789,52.22241611973637],[4.973746026924233,52.220598941170806],[4.968303203160246,52.207842693713594],[4.966595462265847,52.20005283338876],[4.961387433755811,52.199475639571666],[4.960808334529306,52.19782030176817],[4.950881086099067,52.19863902244351],[4.949556003560002,52.19349344075829],[4.948382590351272,52.193598703616935],[4.948276204927353,52.19253289874524],[4.949469472064655,52.192409132395426],[4.948571511246163,52.18578519636435],[4.9457125705200315,52.185813504335215],[4.93399530123821,52.17694554608199],[4.935006868592232,52.17585531252095],[4.933738865038058,52.174141013955996],[4.931618431704316,52.1737570892618],[4.932450654519666,52.17239925148908],[4.92860639030066,52.1672006147425],[4.909638065481338,52.16187140272743],[4.907806828600124,52.16146132298489],[4.903686663591049,52.16205129177619],[4.892178370616391,52.16179844162462],[4.86713009130561,52.173449788752734],[4.855465225719951,52.17895825276427],[4.844061649336885,52.18006622261704],[4.84299541466507,52.18081542546484],[4.83838339127874,52.18325883441287],[4.823616152061053,52.19316599876062],[4.822253679488669,52.19609404108511],[4.814400077573847,52.19930977274572],[4.813104927472833,52.201337000974505],[4.813594530719504,52.20184763688625],[4.802925307830707,52.20102826800868],[4.801615901135637,52.20400309132539],[4.801481047293984,52.2098919486679],[4.802147235567778,52.21764114063823],[4.7990146991385165,52.21931253408668],[4.794430197216271,52.22342389698308],[4.79457604267677,52.22673116021572],[4.801942940161571,52.22692270500944],[4.805275440058492,52.2279746704632],[4.8081986552368035,52.227115689882375],[4.814100420525075,52.22716983786126],[4.817193199099836,52.22832539991804],[4.822003057292789,52.229194902462176],[4.828614025394957,52.23059360275562],[4.8396330483824626,52.23539179806614],[4.842845661988305,52.23534774315215],[4.842996312821614,52.23679047507713],[4.845995528966204,52.23765828719522],[4.847326121795956,52.23978187297454],[4.8507924977365375,52.2386071172036],[4.852156914254267,52.23964171352128],[4.85127350941626,52.24189069090944],[4.85205362023979,52.242013981938335],[4.85493822956994,52.2421461102422],[4.855291294790591,52.24555644676876],[4.8565352528985954,52.24627623772671],[4.85752204054625,52.247723534052646],[4.86062114156089,52.248217285424985],[4.866113560127278,52.250988742205365],[4.868779368852733,52.25169880849903],[4.870121456918425,52.25328261331767],[4.872289847352671,52.25118251176188],[4.873853104880392,52.250743098908465],[4.877728991881835,52.25281656284586],[4.882718901672255,52.253711968744554],[4.887585690828076,52.25098969128087],[4.891759447212619,52.25326812095286],[4.89856844417796,52.25093270012661],[4.902930578718323,52.25318225711935],[4.908546827615968,52.25268306775168],[4.910969991841693,52.25268269199646],[4.917302931891849,52.25681768228412],[4.918553182383959,52.25858660448631],[4.918086487252731,52.26166555741229],[4.923136254087175,52.26302359376527],[4.924713146880873,52.26693766068561],[4.929389968394121,52.26835372680916],[4.929299434486484,52.269958710596555],[4.928014116851766,52.271742536322336],[4.92665089929144,52.272445168345435],[4.927654389861835,52.27380868889479],[4.925985157831769,52.278078663590236],[4.926402129624212,52.279709606384245],[4.928586623367918,52.27961162458724],[4.933754448502869,52.28089610652232],[4.942690806363441,52.27818431433237],[4.946666748854739,52.27899190336042],[4.953764099918933,52.278030009989],[4.955239692764816,52.27830526050004],[4.956570658271682,52.278666008678314],[4.961052750350602,52.27817456275634],[4.962631470552065,52.28029168231659],[4.965800914043409,52.280649231591816],[4.967575565108171,52.27956199494303],[4.9703713077372695,52.28348776000829],[4.971838525575415,52.284361035452314],[4.971850061196005,52.28436866166406],[4.983504882311181,52.29036845220841],[4.997474308976086,52.28911867895273],[5.001756835409493,52.2927728651477],[5.001850207621342,52.29587906721807],[5.003238907835259,52.29601822738203],[5.003244681600137,52.29639659621353],[5.003764070553211,52.29834077599172],[5.0052637559257045,52.29839311952958],[5.007950911732124,52.30154883322607],[5.012718695774712,52.30358440446725],[5.014263557680055,52.30367718715807],[5.016173159699203,52.303143149213355],[5.017701310313531,52.30271575576456],[5.021542170961115,52.302457121846565]]]]},"properties":{"type":"boundary","gemeente":"De Ronde Venen","code":"GM0736"}}]}