{"type":"FeatureCollection","metadata":{"gemeente":"Den Helder","slug":"den-helder","code":"GM0400","generated_at":"2026-07-06T16:26:11.361Z","total_passenger":130,"total_freight":0,"bounds":[4.709041145079972,52.87862685711188,4.809987734693538,52.96609738051193],"operators":["Allego","DAEN Mobility","E-Flux by Road","Eneco","Laadnet","Lidl","NXT Charging Solutions","Pluq","TotalEnergies","Ubitricity","Vattenfall InCharge"]},"features":[{"type":"Feature","geometry":{"type":"Point","coordinates":[4.764753,52.938187]},"properties":{"type":"charge","layer":"passenger","locationId":"77c97c19-02fe-486c-bda1-5498d6e5b237","name":"TNLP009383 - Graaf Willem II straat 53, Den Helder","address":"53 Graaf Willem II straat","city":"Den Helder","operatorName":"TotalEnergies","maxPowerKw":15,"isMegawatt":false,"status":"AVAILABLE","source":"ndw"}},{"type":"Feature","geometry":{"type":"Point","coordinates":[4.75144,52.896423]},"properties":{"type":"charge","layer":"passenger","locationId":"239d3d00-e77b-4e5e-a5af-8f054cbf1e6a","name":"TNLP008348 - Wethouder W. de Boerstraat 1, Julianadorp","address":"1 Wethouder W. de Boerstraat","city":"Julianadorp","operatorName":"TotalEnergies","maxPowerKw":14,"isMegawatt":false,"status":"AVAILABLE","source":"ndw"}},{"type":"Feature","geometry":{"type":"Point","coordinates":[4.746648,52.962788]},"properties":{"type":"charge","layer":"passenger","locationId":"af1e2c59-3311-49f5-af76-e89f1d4e24ce","name":"TNLP008416 - Jan Bijlstraat 2, Den Helder","address":"2 Jan Bijlstraat","city":"Den Helder","operatorName":"TotalEnergies","maxPowerKw":14,"isMegawatt":false,"status":"AVAILABLE","source":"ndw"}},{"type":"Feature","geometry":{"type":"Point","coordinates":[4.7738,52.95397]},"properties":{"type":"charge","layer":"passenger","locationId":"2f769bc2-da95-4aac-9dca-6245c5afd860","name":"TNLP008953 - Bakkerbreetstraat 25, Den Helder","address":"25 Bakkerbreetstraat","city":"Den Helder","operatorName":"TotalEnergies","maxPowerKw":17,"isMegawatt":false,"status":"AVAILABLE","source":"ndw"}},{"type":"Feature","geometry":{"type":"Point","coordinates":[4.71808,52.89588]},"properties":{"type":"charge","layer":"passenger","locationId":"cd8808f0-47dd-4be4-bfb2-dacc724c4323","name":"TNLP003636 - Zanddijk 255, Julianadorp","address":"255 Zanddijk","city":"Julianadorp","operatorName":"TotalEnergies","maxPowerKw":17,"isMegawatt":false,"status":"CHARGING","source":"ndw"}},{"type":"Feature","geometry":{"type":"Point","coordinates":[4.79316,52.91581]},"properties":{"type":"charge","layer":"passenger","locationId":"5e9306b5-80af-40d1-8966-cd9c6b3db44a","name":"Verkeerstorenweg","address":"Verkeerstorenweg 2","city":"Den Helder","operatorName":"Vattenfall InCharge","maxPowerKw":50,"isMegawatt":false,"status":"AVAILABLE","source":"ndw"}},{"type":"Feature","geometry":{"type":"Point","coordinates":[4.745562,52.889378]},"properties":{"type":"charge","layer":"passenger","locationId":"9c6c7d91-6f14-4e13-9ebf-5b99bb3c13b7","name":"TNLP006790 - Doorzwin 3318, Julianadorp","address":"3318 Doorzwin","city":"Julianadorp","operatorName":"TotalEnergies","maxPowerKw":15,"isMegawatt":false,"status":"AVAILABLE","source":"ndw"}},{"type":"Feature","geometry":{"type":"Point","coordinates":[4.748412,52.942539]},"properties":{"type":"charge","layer":"passenger","locationId":"NLLOC007996","name":"NL, Reggestraat 1 1784XM Den Helder","address":"Reggestraat 1","city":"Den Helder","operatorName":"Allego","maxPowerKw":11,"isMegawatt":false,"status":"AVAILABLE","source":"ndw","priceKwh":0.511}},{"type":"Feature","geometry":{"type":"Point","coordinates":[4.719532,52.90641]},"properties":{"type":"charge","layer":"passenger","locationId":"580b06ea-2110-4d7b-bebc-ccb6f9951544","name":"TNLP034098","address":"Orchis 1","city":"Julianadorp","operatorName":"TotalEnergies","maxPowerKw":14,"isMegawatt":false,"status":"CHARGING","source":"ndw"}},{"type":"Feature","geometry":{"type":"Point","coordinates":[4.768277,52.950314]},"properties":{"type":"charge","layer":"passenger","locationId":"8df227fb-37b6-4cc7-82ac-42d0bc2d2130","name":"TNLP006483 - Sternstraat 49, Den Helder","address":"49 Sternstraat","city":"Den Helder","operatorName":"TotalEnergies","maxPowerKw":15,"isMegawatt":false,"status":"AVAILABLE","source":"ndw"}},{"type":"Feature","geometry":{"type":"Point","coordinates":[4.746718,52.886996]},"properties":{"type":"charge","layer":"passenger","locationId":"NLLOC004915","name":"NLD, Doorzwin 4327 1788NX Julianadorp","address":"Doorzwin 4327","city":"Julianadorp","operatorName":"Allego","maxPowerKw":11,"isMegawatt":false,"status":"AVAILABLE","source":"ndw","priceKwh":0.511}},{"type":"Feature","geometry":{"type":"Point","coordinates":[4.780427,52.945046]},"properties":{"type":"charge","layer":"passenger","locationId":"NLLOC008832","name":"NLD, Marina-Park 461 1785DN Den Helder","address":"Marina-Park 461","city":"Den Helder","operatorName":"Allego","maxPowerKw":11,"isMegawatt":false,"status":"AVAILABLE","source":"ndw","priceKwh":0.511}},{"type":"Feature","geometry":{"type":"Point","coordinates":[4.771535,52.930687]},"properties":{"type":"charge","layer":"passenger","locationId":"8ef40683-cdcd-48c1-bb81-3ebf9979f511","name":"TNLP006391 - Pieter Straatlaan 74, Den Helder","address":"74 Pieter Straatlaan","city":"Den Helder","operatorName":"TotalEnergies","maxPowerKw":17,"isMegawatt":false,"status":"UNAVAILABLE","source":"ndw"}},{"type":"Feature","geometry":{"type":"Point","coordinates":[4.748662,52.938169]},"properties":{"type":"charge","layer":"passenger","locationId":"650da25da6be6500201b5758","name":"Oleahof Uitvaartzorg","address":"IJsselmeerstraat 63a","city":"Den Helder","operatorName":"E-Flux by Road","maxPowerKw":22,"isMegawatt":false,"status":"AVAILABLE","source":"ndw","priceKwh":0.51}},{"type":"Feature","geometry":{"type":"Point","coordinates":[4.7686031,52.9402878]},"properties":{"type":"charge","layer":"passenger","locationId":"1096","name":"Shell Recharge NL Heer Willem van Egmondstraat 70","address":"Heer Willem van Egmondstraat 70","city":"Den Helder","operatorName":"Ubitricity","maxPowerKw":22,"isMegawatt":false,"status":"AVAILABLE","source":"ndw","priceKwh":0.266}},{"type":"Feature","geometry":{"type":"Point","coordinates":[4.738301,52.945667]},"properties":{"type":"charge","layer":"passenger","locationId":"0b56b8fa-ba8a-4da5-baa4-02970758715b","name":"TNLP009337 - Seringenlaan 120, Den Helder","address":"120 Seringenlaan","city":"Den Helder","operatorName":"TotalEnergies","maxPowerKw":15,"isMegawatt":false,"status":"CHARGING","source":"ndw"}},{"type":"Feature","geometry":{"type":"Point","coordinates":[4.73546,52.93889]},"properties":{"type":"charge","layer":"passenger","locationId":"f1b268bf-3b26-4e7c-b0e3-ae871faff86d","name":"TNLP003516 - Jan Verfailleweg 5, Den Helder","address":"5 Jan Verfailleweg","city":"Den Helder","operatorName":"TotalEnergies","maxPowerKw":17,"isMegawatt":false,"status":"AVAILABLE","source":"ndw"}},{"type":"Feature","geometry":{"type":"Point","coordinates":[4.770055,52.94344]},"properties":{"type":"charge","layer":"passenger","locationId":"edcacd20-c992-4555-82cb-aa2a39f22f95","name":"TNLP034061","address":"Ravelijncenter 2","city":"Den Helder","operatorName":"TotalEnergies","maxPowerKw":14,"isMegawatt":false,"status":"AVAILABLE","source":"ndw"}},{"type":"Feature","geometry":{"type":"Point","coordinates":[4.719267,52.907891]},"properties":{"type":"charge","layer":"passenger","locationId":"67f385816d404e0faa2d75e6","name":"Residence Juliana","address":"residence juliana 2","city":"julianadorp","operatorName":"E-Flux by Road","maxPowerKw":11,"isMegawatt":false,"status":"AVAILABLE","source":"ndw","priceKwh":0.58}},{"type":"Feature","geometry":{"type":"Point","coordinates":[4.740754,52.884586]},"properties":{"type":"charge","layer":"passenger","locationId":"e0782f37-e364-4d95-accc-b3f79d27a896","name":"TNLP005857 - Boterzwin 3476, Julianadorp","address":"3476 Boterzwin","city":"Julianadorp","operatorName":"TotalEnergies","maxPowerKw":15,"isMegawatt":false,"status":"AVAILABLE","source":"ndw"}},{"type":"Feature","geometry":{"type":"Point","coordinates":[4.767895,52.954273]},"properties":{"type":"charge","layer":"passenger","locationId":"d9b07c7b-096b-4e1e-9dd3-f6a542ff127d","name":"TNLP008298 - Van Hogendorpstraat 40, Den Helder","address":"40 Van Hogendorpstraat","city":"Den Helder","operatorName":"TotalEnergies","maxPowerKw":14,"isMegawatt":false,"status":"CHARGING","source":"ndw"}},{"type":"Feature","geometry":{"type":"Point","coordinates":[4.726459,52.889863]},"properties":{"type":"charge","layer":"passenger","locationId":"6a466f3c0417921173ec93d1","name":"Dennis Buurs 's station","address":"Ooghduyne 89","city":"Julianadorp","operatorName":"E-Flux by Road","maxPowerKw":44,"isMegawatt":false,"status":"AVAILABLE","source":"ndw","priceKwh":0.48}},{"type":"Feature","geometry":{"type":"Point","coordinates":[4.74675,52.89551]},"properties":{"type":"charge","layer":"passenger","locationId":"d0722327-3fc7-49f4-85bf-655331a739b1","name":"TNLP009475 - Middelzand 3505, Julianadorp","address":"3505 Middelzand","city":"Julianadorp","operatorName":"TotalEnergies","maxPowerKw":15,"isMegawatt":false,"status":"AVAILABLE","source":"ndw"}},{"type":"Feature","geometry":{"type":"Point","coordinates":[4.739263,52.888068]},"properties":{"type":"charge","layer":"passenger","locationId":"4206495","name":"Laadnet KZ-VH-4120","address":"Kruiszwin 4120","city":"Julianadorp","operatorName":"Laadnet","maxPowerKw":11,"isMegawatt":false,"status":"CHARGING","source":"ndw"}},{"type":"Feature","geometry":{"type":"Point","coordinates":[4.7735694,52.9350874]},"properties":{"type":"charge","layer":"passenger","locationId":"1029","name":"Shell Recharge NL Heiligharn 398","address":"Heiligharn 398","city":"Den Helder","operatorName":"Ubitricity","maxPowerKw":22,"isMegawatt":false,"status":"AVAILABLE","source":"ndw","priceKwh":0.266}},{"type":"Feature","geometry":{"type":"Point","coordinates":[4.7336,52.944471]},"properties":{"type":"charge","layer":"passenger","locationId":"c6d5afae5baa83c9573fb875184f5663","name":"Duinroosstraat 4","address":"Duinroosstraat 4","city":"Den Helder","operatorName":"Vattenfall InCharge","maxPowerKw":11,"isMegawatt":false,"status":"CHARGING","source":"ndw"}},{"type":"Feature","geometry":{"type":"Point","coordinates":[4.744031,52.936398]},"properties":{"type":"charge","layer":"passenger","locationId":"ffae4ee6-4731-4f4f-8053-9ee93c182b1d","name":"TNLP006616 - Fregatstraat 180, Den Helder","address":"180 Fregatstraat","city":"Den Helder","operatorName":"TotalEnergies","maxPowerKw":15,"isMegawatt":false,"status":"AVAILABLE","source":"ndw"}},{"type":"Feature","geometry":{"type":"Point","coordinates":[4.7395919,52.8897938]},"properties":{"type":"charge","layer":"passenger","locationId":"1091","name":"Shell Recharge NL Kruiszwin 3410","address":"Kruiszwin 3410","city":"Julianadorp","operatorName":"Ubitricity","maxPowerKw":22,"isMegawatt":false,"status":"AVAILABLE","source":"ndw","priceKwh":0.266}},{"type":"Feature","geometry":{"type":"Point","coordinates":[4.735715,52.887266]},"properties":{"type":"charge","layer":"passenger","locationId":"NLLOC002513","name":"NLD, Julianadorp, Wierbalg 1983","address":"Wierbalg 1983","city":"Julianadorp","operatorName":"Allego","maxPowerKw":11,"isMegawatt":false,"status":"AVAILABLE","source":"ndw","priceKwh":0.511}},{"type":"Feature","geometry":{"type":"Point","coordinates":[4.71802,52.899423]},"properties":{"type":"charge","layer":"passenger","locationId":"633a96d630f6ee5231591d43","name":"Strandcamping Oase","address":"Zanddijk  75","city":"Julianadorp","operatorName":"E-Flux by Road","maxPowerKw":22,"isMegawatt":false,"status":"AVAILABLE","source":"ndw","priceKwh":0.52}},{"type":"Feature","geometry":{"type":"Point","coordinates":[4.78073,52.950214]},"properties":{"type":"charge","layer":"passenger","locationId":"7f47339c-ec23-44de-8350-13b17c4d608d","name":"TNLP009699 - Bassingracht 180, Den Helder","address":"180 Bassingracht","city":"Den Helder","operatorName":"TotalEnergies","maxPowerKw":15,"isMegawatt":false,"status":"AVAILABLE","source":"ndw"}},{"type":"Feature","geometry":{"type":"Point","coordinates":[4.757273,52.894745]},"properties":{"type":"charge","layer":"passenger","locationId":"97a02c73-dd69-4852-9f8b-76ef8d1da4ea","name":"TNLP006566 - Prinses Arianehof 9, Julianadorp","address":"9 Prinses Arianehof","city":"Julianadorp","operatorName":"TotalEnergies","maxPowerKw":15,"isMegawatt":false,"status":"AVAILABLE","source":"ndw"}},{"type":"Feature","geometry":{"type":"Point","coordinates":[4.752805,52.955136]},"properties":{"type":"charge","layer":"passenger","locationId":"NLLOC002419","name":"NLD, Ceramstraat 62, 1782 CD, Den Helder","address":"Ceramstraat 62","city":"Den-Helder","operatorName":"Allego","maxPowerKw":11,"isMegawatt":false,"status":"AVAILABLE","source":"ndw","priceKwh":0.511}},{"type":"Feature","geometry":{"type":"Point","coordinates":[4.742689,52.944748]},"properties":{"type":"charge","layer":"passenger","locationId":"211b1c0e-b519-4696-85ca-ead462d1c28c","name":"TNLP005881 - Marsdiepstraat 249, Den Helder","address":"249 Marsdiepstraat","city":"Den Helder","operatorName":"TotalEnergies","maxPowerKw":15,"isMegawatt":false,"status":"AVAILABLE","source":"ndw"}},{"type":"Feature","geometry":{"type":"Point","coordinates":[4.770576,52.935115]},"properties":{"type":"charge","layer":"passenger","locationId":"697c841cd2506a704c53f9fa","name":"Tank en Was Service Den Helder BV","address":"Baljuwstraat 139","city":"Den Helder","operatorName":"NXT Charging Solutions","maxPowerKw":11,"isMegawatt":false,"status":"AVAILABLE","source":"ndw","priceKwh":0.43}},{"type":"Feature","geometry":{"type":"Point","coordinates":[4.78364,52.94131]},"properties":{"type":"charge","layer":"passenger","locationId":"8FA78D9E-D341-4CAB-A100-2F6CBF248961","name":"Eneco eMobility Ambachstweg 31 Den Helder","address":"Ambachtsweg 31","city":"Den Helder","operatorName":"Eneco","maxPowerKw":22,"isMegawatt":false,"status":"AVAILABLE","source":"ndw","priceKwh":0.32}},{"type":"Feature","geometry":{"type":"Point","coordinates":[4.722165,52.9516]},"properties":{"type":"charge","layer":"passenger","locationId":"864d36eb-30b7-4f05-a8f3-29d57c3ac2d1","name":"TNLP005890 - Admiraal Verhuellplein 1, Huisduinen","address":"1 Admiraal Verhuellplein","city":"Huisduinen","operatorName":"TotalEnergies","maxPowerKw":15,"isMegawatt":false,"status":"AVAILABLE","source":"ndw"}},{"type":"Feature","geometry":{"type":"Point","coordinates":[4.755772,52.953342]},"properties":{"type":"charge","layer":"passenger","locationId":"7a5c6ea4-9d65-4f95-8986-40fc58fdce6b","name":"TNLP008385 - H.A. Lorentzstraat 43, Den Helder","address":"43 H.A. Lorentzstraat","city":"Den Helder","operatorName":"TotalEnergies","maxPowerKw":14,"isMegawatt":false,"status":"AVAILABLE","source":"ndw"}},{"type":"Feature","geometry":{"type":"Point","coordinates":[4.746598,52.93052]},"properties":{"type":"charge","layer":"passenger","locationId":"cbc8f85b-8ce3-401e-99dc-d5c7fe26a0cf","name":"TNLP008338 - Karveelstraat 21, Den Helder","address":"21 Karveelstraat","city":"Den Helder","operatorName":"TotalEnergies","maxPowerKw":14,"isMegawatt":false,"status":"AVAILABLE","source":"ndw"}},{"type":"Feature","geometry":{"type":"Point","coordinates":[4.736551,52.943523]},"properties":{"type":"charge","layer":"passenger","locationId":"NLLOC001519","name":"NLD, Den Helder, Wingerdstraat 3","address":"Wingerdstraat 3","city":"Den Helder","operatorName":"Allego","maxPowerKw":11,"isMegawatt":false,"status":"AVAILABLE","source":"ndw","priceKwh":0.511}},{"type":"Feature","geometry":{"type":"Point","coordinates":[4.757921,52.951157]},"properties":{"type":"charge","layer":"passenger","locationId":"b1d15b1d-79c5-4c11-ac30-d9b7b0cba22b","name":"TNLP007674 - Goudsbloemstraat 60, Den Helder","address":"60 Goudsbloemstraat","city":"Den Helder","operatorName":"TotalEnergies","maxPowerKw":15,"isMegawatt":false,"status":"AVAILABLE","source":"ndw"}},{"type":"Feature","geometry":{"type":"Point","coordinates":[4.765067,52.951862]},"properties":{"type":"charge","layer":"passenger","locationId":"NLLOC001148","name":"NLD, Den Helder, Reigerstraat 45","address":"Reigerstraat 45","city":"Den Helder","operatorName":"Allego","maxPowerKw":22,"isMegawatt":false,"status":"AVAILABLE","source":"ndw","priceKwh":0.511}},{"type":"Feature","geometry":{"type":"Point","coordinates":[4.745504,52.932105]},"properties":{"type":"charge","layer":"passenger","locationId":"NLLOC001151","name":"NLD, Den Helder, Het koggeschip 112","address":"Het koggeschip 112","city":"Den Helder","operatorName":"Allego","maxPowerKw":11,"isMegawatt":false,"status":"AVAILABLE","source":"ndw","priceKwh":0.511}},{"type":"Feature","geometry":{"type":"Point","coordinates":[4.781893,52.938988]},"properties":{"type":"charge","layer":"passenger","locationId":"e0f12c93-47ea-41a6-b96d-5531eae54c41","name":"TNLP008311 - Jan Aarjensz Prinsstraat 46, Den Helder","address":"46 Jan Aarjensz Prinsstraat","city":"Den Helder","operatorName":"TotalEnergies","maxPowerKw":14,"isMegawatt":false,"status":"AVAILABLE","source":"ndw"}},{"type":"Feature","geometry":{"type":"Point","coordinates":[4.765306,52.960011]},"properties":{"type":"charge","layer":"passenger","locationId":"0c76d960-8ca4-47b7-ac07-ac8cb72f8984","name":"TNLP034015","address":"Californiestraat 47","city":"Den Helder","operatorName":"TotalEnergies","maxPowerKw":14,"isMegawatt":false,"status":"AVAILABLE","source":"ndw"}},{"type":"Feature","geometry":{"type":"Point","coordinates":[4.754007,52.88502]},"properties":{"type":"charge","layer":"passenger","locationId":"fe19d6b8-712a-4636-9594-e4de90f088f0","name":"TNLP008474 - Notenhout 24, Julianadorp","address":"24 Notenhout","city":"Julianadorp","operatorName":"TotalEnergies","maxPowerKw":14,"isMegawatt":false,"status":"AVAILABLE","source":"ndw"}},{"type":"Feature","geometry":{"type":"Point","coordinates":[4.7698,52.94658]},"properties":{"type":"charge","layer":"passenger","locationId":"7FBAB7A1-7A4B-4942-9476-9D5D7B73AF44","name":"Eneco eMobility Nijverheidsweg 2C Den Helder","address":"Nijverheidsweg 2C","city":"Den Helder","operatorName":"Eneco","maxPowerKw":22,"isMegawatt":false,"status":"AVAILABLE","source":"ndw","priceKwh":0.32}},{"type":"Feature","geometry":{"type":"Point","coordinates":[4.754362,52.958642]},"properties":{"type":"charge","layer":"passenger","locationId":"NLLOC005421","name":"NLD, De la Reystraat 33 1782RR Den Helder","address":"De la Reystraat 33","city":"Den Helder","operatorName":"Allego","maxPowerKw":11,"isMegawatt":false,"status":"AVAILABLE","source":"ndw","priceKwh":0.511}},{"type":"Feature","geometry":{"type":"Point","coordinates":[4.756932,52.954525]},"properties":{"type":"charge","layer":"passenger","locationId":"e699d0fe-53c8-408f-ba64-2c5f31569db2","name":"TNLP008897 - Pasteurstraat 101, Den Helder","address":"101 Pasteurstraat","city":"Den Helder","operatorName":"TotalEnergies","maxPowerKw":14,"isMegawatt":false,"status":"AVAILABLE","source":"ndw"}},{"type":"Feature","geometry":{"type":"Point","coordinates":[4.72117,52.90699]},"properties":{"type":"charge","layer":"passenger","locationId":"5994fc53-4ace-4b1f-aff1-94590e93f45d","name":"TNLP003559 - Noorder Sandt 1, Julianadorp","address":"1 Noorder Sandt","city":"Julianadorp","operatorName":"TotalEnergies","maxPowerKw":17,"isMegawatt":false,"status":"AVAILABLE","source":"ndw"}},{"type":"Feature","geometry":{"type":"Point","coordinates":[4.746255,52.9604]},"properties":{"type":"charge","layer":"passenger","locationId":"9a39c062-715c-4e81-95d1-18bfbbc73535","name":"TNLP007861 - Jacob van Heemskerckstraat 36, Den Helder","address":"36 Jacob van Heemskerckstraat","city":"Den Helder","operatorName":"TotalEnergies","maxPowerKw":17,"isMegawatt":false,"status":"UNAVAILABLE","source":"ndw"}},{"type":"Feature","geometry":{"type":"Point","coordinates":[4.761786,52.95676]},"properties":{"type":"charge","layer":"passenger","locationId":"fea3b2a3-75cd-438b-81dd-89a24ab62b61","name":"TNLP006083 - Gorterstraat 7, Den Helder","address":"7 Gorterstraat","city":"Den Helder","operatorName":"TotalEnergies","maxPowerKw":17,"isMegawatt":false,"status":"UNAVAILABLE","source":"ndw"}},{"type":"Feature","geometry":{"type":"Point","coordinates":[4.768098,52.931607]},"properties":{"type":"charge","layer":"passenger","locationId":"1095d31d6ed71e49dd4c88e5ce4e86fb","name":"Jan Adriaansz Wentelstraat 9","address":"Jan Adriaansz Wentelstraat 9","city":"Den Helder","operatorName":"Vattenfall InCharge","maxPowerKw":11,"isMegawatt":false,"status":"AVAILABLE","source":"ndw"}},{"type":"Feature","geometry":{"type":"Point","coordinates":[4.749188,52.889065]},"properties":{"type":"charge","layer":"passenger","locationId":"0557dbb9-fa1f-4fa2-95d3-af8d4f63dba2","name":"TNLP007354 - Doorzwin 2609, Julianadorp","address":"2609 Doorzwin","city":"Julianadorp","operatorName":"TotalEnergies","maxPowerKw":17,"isMegawatt":false,"status":"UNAVAILABLE","source":"ndw"}},{"type":"Feature","geometry":{"type":"Point","coordinates":[4.777772,52.939007]},"properties":{"type":"charge","layer":"passenger","locationId":"d4027ff6-ae66-44f9-952f-02bc9b29ad39","name":"TNLP008345 - Jan Aarjensz Prinsstraat 2, Den Helder","address":"2 Jan Aarjensz Prinsstraat","city":"Den Helder","operatorName":"TotalEnergies","maxPowerKw":14,"isMegawatt":false,"status":"AVAILABLE","source":"ndw"}},{"type":"Feature","geometry":{"type":"Point","coordinates":[4.774228,52.940323]},"properties":{"type":"charge","layer":"passenger","locationId":"d9a3ecb7-e102-4a2f-a4b9-7c8736380b3b","name":"TNLP006603 - Hendrik Baskeweg 32, Den Helder","address":"32 Hendrik Baskeweg","city":"Den Helder","operatorName":"TotalEnergies","maxPowerKw":15,"isMegawatt":false,"status":"AVAILABLE","source":"ndw"}},{"type":"Feature","geometry":{"type":"Point","coordinates":[4.757717,52.956642]},"properties":{"type":"charge","layer":"passenger","locationId":"b84e5d26-a99b-4a9d-bcb0-5c0237a337d1","name":"TNLP006895 - Hector Treubstraat 1, Den Helder","address":"1 Hector Treubstraat","city":"Den Helder","operatorName":"TotalEnergies","maxPowerKw":17,"isMegawatt":false,"status":"UNAVAILABLE","source":"ndw"}},{"type":"Feature","geometry":{"type":"Point","coordinates":[4.74265,52.930725]},"properties":{"type":"charge","layer":"passenger","locationId":"2c18493f-2a78-4b29-8edb-98f37d05e63a","name":"TNLP006615 - Kanostraat 15, Den Helder","address":"15 Kanostraat","city":"Den Helder","operatorName":"TotalEnergies","maxPowerKw":17,"isMegawatt":false,"status":"UNAVAILABLE","source":"ndw"}},{"type":"Feature","geometry":{"type":"Point","coordinates":[4.756409,52.961615]},"properties":{"type":"charge","layer":"passenger","locationId":"44ac2821-e8a3-4474-aee6-fbea81c627dd","name":"TNLP015172","address":"van Galenstraat 21","city":"Den Helder","operatorName":"TotalEnergies","maxPowerKw":17,"isMegawatt":false,"status":"CHARGING","source":"ndw"}},{"type":"Feature","geometry":{"type":"Point","coordinates":[4.771536,52.93552]},"properties":{"type":"charge","layer":"passenger","locationId":"NLLOC001149","name":"NLD, Den Helder, Vrede en Vrijheid 18","address":"Vrede en Vrijheid 18","city":"Den Helder","operatorName":"Allego","maxPowerKw":11,"isMegawatt":false,"status":"AVAILABLE","source":"ndw","priceKwh":0.511}},{"type":"Feature","geometry":{"type":"Point","coordinates":[4.763008,52.950474]},"properties":{"type":"charge","layer":"passenger","locationId":"def49aba-e3b4-4588-9490-8a46a68474a3","name":"TNLP009910 - Kievitstraat 73, Den Helder","address":"73 Kievitstraat","city":"Den Helder","operatorName":"TotalEnergies","maxPowerKw":17,"isMegawatt":false,"status":"UNAVAILABLE","source":"ndw"}},{"type":"Feature","geometry":{"type":"Point","coordinates":[4.763242,52.895624]},"properties":{"type":"charge","layer":"passenger","locationId":"6639d9e47188f1001d7df857","name":"Berkman - Julianadorp Kiefte","address":"Schoolweg 72B","city":"Julianadorp","operatorName":"E-Flux by Road","maxPowerKw":11,"isMegawatt":false,"status":"AVAILABLE","source":"ndw","priceKwh":0.58}},{"type":"Feature","geometry":{"type":"Point","coordinates":[4.779398,52.932148]},"properties":{"type":"charge","layer":"passenger","locationId":"NLLOC001226","name":"NLD, Den Helder, Hendrik Broertjesstraat 49","address":"Hendrik Broertjesstraat 49","city":"Den Helder","operatorName":"Allego","maxPowerKw":11,"isMegawatt":false,"status":"AVAILABLE","source":"ndw","priceKwh":0.511}},{"type":"Feature","geometry":{"type":"Point","coordinates":[4.765312,52.93643]},"properties":{"type":"charge","layer":"passenger","locationId":"87a1093f-2e87-4a17-bdaf-d6c19b88c8ec","name":"TNLP005885 - Graaf Willem II straat 95, Den Helder","address":"95 Graaf Willem II straat","city":"Den Helder","operatorName":"TotalEnergies","maxPowerKw":15,"isMegawatt":false,"status":"AVAILABLE","source":"ndw"}},{"type":"Feature","geometry":{"type":"Point","coordinates":[4.743046,52.89073]},"properties":{"type":"charge","layer":"passenger","locationId":"6825a176-7703-4236-ad18-e7f5b169c083","name":"TNLP007914 - Kruiszwin 1102, Julianadorp","address":"1102 Kruiszwin","city":"Julianadorp","operatorName":"TotalEnergies","maxPowerKw":17,"isMegawatt":false,"status":"UNAVAILABLE","source":"ndw"}},{"type":"Feature","geometry":{"type":"Point","coordinates":[4.762439,52.894552]},"properties":{"type":"charge","layer":"passenger","locationId":"ece46360-f18e-434d-867e-b6b3b56cae05","name":"TNLP034041","address":"Prinses Margrietstraat 22","city":"Julianadorp","operatorName":"TotalEnergies","maxPowerKw":14,"isMegawatt":false,"status":"CHARGING","source":"ndw"}},{"type":"Feature","geometry":{"type":"Point","coordinates":[4.733824,52.889379]},"properties":{"type":"charge","layer":"passenger","locationId":"696164ffa144a133b6943e38","name":"Dylan IT Charger","address":"Wierbalg 1145","city":"Julianadorp","operatorName":"E-Flux by Road","maxPowerKw":11,"isMegawatt":false,"status":"AVAILABLE","source":"ndw","priceKwh":0.517}},{"type":"Feature","geometry":{"type":"Point","coordinates":[4.752716,52.9474147]},"properties":{"type":"charge","layer":"passenger","locationId":"1146","name":"Shell Recharge NL Texelstroomlaan 1","address":"Texelstroomlaan 1","city":"Den Helder","operatorName":"Ubitricity","maxPowerKw":22,"isMegawatt":false,"status":"AVAILABLE","source":"ndw","priceKwh":0.266}},{"type":"Feature","geometry":{"type":"Point","coordinates":[4.718311,52.896667]},"properties":{"type":"charge","layer":"passenger","locationId":"9166df66-7414-415c-9cab-11fdbaa4da2b","name":"TNLP007306 - Zanddijk 85, Julianadorp","address":"85 Zanddijk","city":"Julianadorp","operatorName":"TotalEnergies","maxPowerKw":15,"isMegawatt":false,"status":"AVAILABLE","source":"ndw"}},{"type":"Feature","geometry":{"type":"Point","coordinates":[4.770395,52.956559]},"properties":{"type":"charge","layer":"passenger","locationId":"NLLOC002832","name":"NLD, Den Helder, Vismarkt 6","address":"Vismarkt 6","city":"Den Helder","operatorName":"Allego","maxPowerKw":11,"isMegawatt":false,"status":"AVAILABLE","source":"ndw","priceKwh":0.511}},{"type":"Feature","geometry":{"type":"Point","coordinates":[4.766802,52.89612]},"properties":{"type":"charge","layer":"passenger","locationId":"692b34bf-051e-49c3-8bc7-267a8f0f7c57","name":"Lidl JULIANADORP","address":"Schoolweg","city":"Julianadorp","operatorName":"Lidl","maxPowerKw":22,"isMegawatt":false,"status":"AVAILABLE","source":"ndw"}},{"type":"Feature","geometry":{"type":"Point","coordinates":[4.76852,52.933919]},"properties":{"type":"charge","layer":"passenger","locationId":"NLLOC001152","name":"NLD, Den Helder, Pieter Korffstraat 44","address":"Pieter Korffstraat 44","city":"Den Helder","operatorName":"Allego","maxPowerKw":11,"isMegawatt":false,"status":"AVAILABLE","source":"ndw","priceKwh":0.511}},{"type":"Feature","geometry":{"type":"Point","coordinates":[4.743365,52.95829]},"properties":{"type":"charge","layer":"passenger","locationId":"6674097844b2fd001ce46ab4","name":"Noord West Ziekenhuisgroep Den Helder","address":"Huisduinerweg 3","city":"Den Helder","operatorName":"Pluq","maxPowerKw":22,"isMegawatt":false,"status":"AVAILABLE","source":"ndw","priceKwh":0.4}},{"type":"Feature","geometry":{"type":"Point","coordinates":[4.757366,52.948925]},"properties":{"type":"charge","layer":"passenger","locationId":"07ed27b9-504e-4548-a56a-d5fc23ff90ea","name":"TNLP009138 - Chrysanthof 28, Den Helder","address":"28 Chrysanthof","city":"Den Helder","operatorName":"TotalEnergies","maxPowerKw":15,"isMegawatt":false,"status":"AVAILABLE","source":"ndw"}},{"type":"Feature","geometry":{"type":"Point","coordinates":[4.776911,52.93788]},"properties":{"type":"charge","layer":"passenger","locationId":"f3656efc-510b-473a-b1ae-3a1fafc3fbf1","name":"TNLP006082 - Torp 74, Den Helder","address":"74 Torp","city":"Den Helder","operatorName":"TotalEnergies","maxPowerKw":15,"isMegawatt":false,"status":"AVAILABLE","source":"ndw"}},{"type":"Feature","geometry":{"type":"Point","coordinates":[4.755209,52.884236]},"properties":{"type":"charge","layer":"passenger","locationId":"NLLOC006862","name":"NL, Notenhout 50 D, 1787 RJ, Julianadorp","address":"Notenhout 50 D","city":"Julianadorp","operatorName":"Allego","maxPowerKw":11,"isMegawatt":false,"status":"AVAILABLE","source":"ndw","priceKwh":0.511}},{"type":"Feature","geometry":{"type":"Point","coordinates":[4.770416,52.961336]},"properties":{"type":"charge","layer":"passenger","locationId":"654118ff9edea4001cffc7b5","name":"Gebouw 39 Links","address":"Willemsoord 39","city":"Den Helder","operatorName":"E-Flux by Road","maxPowerKw":22,"isMegawatt":false,"status":"AVAILABLE","source":"ndw","priceKwh":0.46}},{"type":"Feature","geometry":{"type":"Point","coordinates":[4.742957,52.88737]},"properties":{"type":"charge","layer":"passenger","locationId":"74ab2e46-a15b-4ecb-8e38-ba1f11deeb7b","name":"TNLP006096 - Kruiszwin 5420, Julianadorp","address":"5420 Kruiszwin","city":"Julianadorp","operatorName":"TotalEnergies","maxPowerKw":17,"isMegawatt":false,"status":"UNAVAILABLE","source":"ndw"}},{"type":"Feature","geometry":{"type":"Point","coordinates":[4.780157,52.947533]},"properties":{"type":"charge","layer":"passenger","locationId":"69bf5c1c4c70bbdf165f51abec6da2da","name":"Saturnus 13","address":"Saturnus 13","city":"Den Helder","operatorName":"Vattenfall InCharge","maxPowerKw":11,"isMegawatt":false,"status":"AVAILABLE","source":"ndw"}},{"type":"Feature","geometry":{"type":"Point","coordinates":[4.750545,52.958405]},"properties":{"type":"charge","layer":"passenger","locationId":"9f9da942-44f3-414a-a726-5b28ec6feea2","name":"TNLP009825 - Lombokstraat 19, Den Helder","address":"19 Lombokstraat","city":"Den Helder","operatorName":"TotalEnergies","maxPowerKw":17,"isMegawatt":false,"status":"UNAVAILABLE","source":"ndw"}},{"type":"Feature","geometry":{"type":"Point","coordinates":[4.741783,52.931657]},"properties":{"type":"charge","layer":"passenger","locationId":"88b9cea3-f54d-429e-b1a7-706f61d51df9","name":"TNLP015398","address":"Jolstraat 13","city":"Den Helder","operatorName":"TotalEnergies","maxPowerKw":17,"isMegawatt":false,"status":"CHARGING","source":"ndw"}},{"type":"Feature","geometry":{"type":"Point","coordinates":[4.747232,52.952851]},"properties":{"type":"charge","layer":"passenger","locationId":"663a3b5430c6a7001b67a18f","name":"Hotel Den Helder.2","address":"Marsdiepstraat 2","city":"Den Helder","operatorName":"E-Flux by Road","maxPowerKw":19,"isMegawatt":false,"status":"AVAILABLE","source":"ndw","priceKwh":0.46}},{"type":"Feature","geometry":{"type":"Point","coordinates":[4.729728,52.894009]},"properties":{"type":"charge","layer":"passenger","locationId":"4237243","name":"Laadnet Ooghduyne 1","address":"Ooghduyne 1","city":"Julianadorp","operatorName":"Laadnet","maxPowerKw":22,"isMegawatt":false,"status":"AVAILABLE","source":"ndw"}},{"type":"Feature","geometry":{"type":"Point","coordinates":[4.753306,52.89268]},"properties":{"type":"charge","layer":"passenger","locationId":"1db14f14-2cb2-40f5-beb2-2a862af30d12","name":"TNLP006448 - Landbouwstraat 65, Julianadorp","address":"65 Landbouwstraat","city":"Julianadorp","operatorName":"TotalEnergies","maxPowerKw":17,"isMegawatt":false,"status":"UNAVAILABLE","source":"ndw"}},{"type":"Feature","geometry":{"type":"Point","coordinates":[4.770894,52.95385]},"properties":{"type":"charge","layer":"passenger","locationId":"0cb6c6ba-0bac-4ce9-8b4f-87e4e3e1e709","name":"TNLP007320 - Jan in 't Veltstraat 120, Den Helder","address":"120 Jan in 't Veltstraat","city":"Den Helder","operatorName":"TotalEnergies","maxPowerKw":17,"isMegawatt":false,"status":"UNAVAILABLE","source":"ndw"}},{"type":"Feature","geometry":{"type":"Point","coordinates":[4.747356,52.952812]},"properties":{"type":"charge","layer":"passenger","locationId":"663a39f030c6a7001b6788d1","name":"Hotel Den Helder.1","address":"Marsdiepstraat 2","city":"Den Helder","operatorName":"E-Flux by Road","maxPowerKw":19,"isMegawatt":false,"status":"AVAILABLE","source":"ndw","priceKwh":0.46}},{"type":"Feature","geometry":{"type":"Point","coordinates":[4.745255,52.938137]},"properties":{"type":"charge","layer":"passenger","locationId":"6e19fd2b-1edb-438c-983a-04976a85a229","name":"TNLP009827 - Korvethof 40, Den Helder","address":"40 Korvethof","city":"Den Helder","operatorName":"TotalEnergies","maxPowerKw":17,"isMegawatt":false,"status":"UNAVAILABLE","source":"ndw"}},{"type":"Feature","geometry":{"type":"Point","coordinates":[4.764813,52.932106]},"properties":{"type":"charge","layer":"passenger","locationId":"c094cf27-35b9-40ba-9522-f6bef7e28ec7","name":"TNLP008550 - Landmetersweg 1, Den Helder","address":"1 Landmetersweg","city":"Den Helder","operatorName":"TotalEnergies","maxPowerKw":14,"isMegawatt":false,"status":"AVAILABLE","source":"ndw"}},{"type":"Feature","geometry":{"type":"Point","coordinates":[4.725739,52.952984]},"properties":{"type":"charge","layer":"passenger","locationId":"NLLOC002825","name":"NLD, Den Helder, Anton Pieckhof 12","address":"Anton Pieckhof 12","city":"Den Helder","operatorName":"Allego","maxPowerKw":11,"isMegawatt":false,"status":"AVAILABLE","source":"ndw","priceKwh":0.511}},{"type":"Feature","geometry":{"type":"Point","coordinates":[4.759514,52.960735]},"properties":{"type":"charge","layer":"passenger","locationId":"NLLOC001147","name":"NLD, Den Helder, Polderweg 38","address":"Polderweg 38","city":"Den Helder","operatorName":"Allego","maxPowerKw":11,"isMegawatt":false,"status":"UNAVAILABLE","source":"ndw","priceKwh":0.511}},{"type":"Feature","geometry":{"type":"Point","coordinates":[4.730026,52.940964]},"properties":{"type":"charge","layer":"passenger","locationId":"11329654-d8ed-46e0-a0f2-2185721d46d5","name":"TNLP009212 - Elzenstraat 1, Den Helder","address":"1 Elzenstraat","city":"Den Helder","operatorName":"TotalEnergies","maxPowerKw":15,"isMegawatt":false,"status":"AVAILABLE","source":"ndw"}},{"type":"Feature","geometry":{"type":"Point","coordinates":[4.744531,52.897743]},"properties":{"type":"charge","layer":"passenger","locationId":"c83b78cc-6451-4204-a99f-d003a00de03c","name":"TNLP007913 - Middelzand 2634, Julianadorp","address":"2634 Middelzand","city":"Julianadorp","operatorName":"TotalEnergies","maxPowerKw":15,"isMegawatt":false,"status":"AVAILABLE","source":"ndw"}},{"type":"Feature","geometry":{"type":"Point","coordinates":[4.76986,52.938633]},"properties":{"type":"charge","layer":"passenger","locationId":"d11ba96b-7720-407f-b58d-0d8ed42fa789","name":"TNLP009257 - Schout en Schepenenstraat 334, Den Helder","address":"334 Schout en Schepenenstraat","city":"Den Helder","operatorName":"TotalEnergies","maxPowerKw":15,"isMegawatt":false,"status":"AVAILABLE","source":"ndw"}},{"type":"Feature","geometry":{"type":"Point","coordinates":[4.742147,52.889435]},"properties":{"type":"charge","layer":"passenger","locationId":"f8058222-5000-471e-a1d8-c89c2ed7899c","name":"TNLP007358 - Kruiszwin 2130, Julianadorp","address":"2130 Kruiszwin","city":"Julianadorp","operatorName":"TotalEnergies","maxPowerKw":15,"isMegawatt":false,"status":"AVAILABLE","source":"ndw"}},{"type":"Feature","geometry":{"type":"Point","coordinates":[4.767567,52.938106]},"properties":{"type":"charge","layer":"passenger","locationId":"2a3982c1-3993-46a5-bd99-30e5c53716d4","name":"TNLP015174","address":"Schout en Schepenenstraat 78","city":"Den Helder","operatorName":"TotalEnergies","maxPowerKw":17,"isMegawatt":false,"status":"AVAILABLE","source":"ndw"}},{"type":"Feature","geometry":{"type":"Point","coordinates":[4.754226,52.961326]},"properties":{"type":"charge","layer":"passenger","locationId":"NLLOC001150","name":"NLD, Den Helder, Van Speykstraat 4","address":"Van Speykstraat 4","city":"Den Helder","operatorName":"Allego","maxPowerKw":11,"isMegawatt":false,"status":"AVAILABLE","source":"ndw","priceKwh":0.511}},{"type":"Feature","geometry":{"type":"Point","coordinates":[4.76365,52.95235]},"properties":{"type":"charge","layer":"passenger","locationId":"47DF93D8-761E-4E50-9D86-EFAB0FF3A0CF","name":"Eneco eMobility Sperwerstraat 4 Den Helder","address":"Sperwerstraat 4","city":"Den Helder","operatorName":"Eneco","maxPowerKw":22,"isMegawatt":false,"status":"AVAILABLE","source":"ndw","priceKwh":0.32}},{"type":"Feature","geometry":{"type":"Point","coordinates":[4.745842,52.946542]},"properties":{"type":"charge","layer":"passenger","locationId":"NLLOC002553","name":"NLD, Den Helder, Rijnstraat 63","address":"Rijnstraat 63","city":"Den Helder","operatorName":"Allego","maxPowerKw":11,"isMegawatt":false,"status":"AVAILABLE","source":"ndw","priceKwh":0.511}},{"type":"Feature","geometry":{"type":"Point","coordinates":[4.732384,52.9402]},"properties":{"type":"charge","layer":"passenger","locationId":"NLLOC002700","name":"NLD, Den Helder, Berkenlaan 23","address":"Berkenlaan 23","city":"Den Helder","operatorName":"Allego","maxPowerKw":11,"isMegawatt":false,"status":"AVAILABLE","source":"ndw","priceKwh":0.511}},{"type":"Feature","geometry":{"type":"Point","coordinates":[4.740873,52.9416098]},"properties":{"type":"charge","layer":"passenger","locationId":"915","name":"Shell Recharge NL Marsdiepstraat 477","address":"Marsdiepstraat 477","city":"Den Helder","operatorName":"Ubitricity","maxPowerKw":22,"isMegawatt":false,"status":"CHARGING","source":"ndw","priceKwh":0.266}},{"type":"Feature","geometry":{"type":"Point","coordinates":[4.772846,52.94392]},"properties":{"type":"charge","layer":"passenger","locationId":"38ae35b8-4826-4c2a-a7bd-f6b255a2c961","name":"TNLP006497 - Industrieweg 6, Den Helder","address":"6 Industrieweg","city":"Den Helder","operatorName":"TotalEnergies","maxPowerKw":15,"isMegawatt":false,"status":"AVAILABLE","source":"ndw"}},{"type":"Feature","geometry":{"type":"Point","coordinates":[4.734824,52.888184]},"properties":{"type":"charge","layer":"passenger","locationId":"923138","name":"DAE_NL_2000933","address":"wierbalg 1841","city":"Julianadorp","operatorName":"DAEN Mobility","maxPowerKw":11,"isMegawatt":false,"status":"AVAILABLE","source":"ndw","priceKwh":0.45}},{"type":"Feature","geometry":{"type":"Point","coordinates":[4.746678,52.892857]},"properties":{"type":"charge","layer":"passenger","locationId":"8911dbe9-a95a-4b98-854b-e17f44985703","name":"TNLP009224 - Middelzand 5311, Julianadorp","address":"5311 Middelzand","city":"Julianadorp","operatorName":"TotalEnergies","maxPowerKw":15,"isMegawatt":false,"status":"AVAILABLE","source":"ndw"}},{"type":"Feature","geometry":{"type":"Point","coordinates":[4.741731,52.89121]},"properties":{"type":"charge","layer":"passenger","locationId":"4d3235bf-8d6a-4a3a-ab31-6737a156f4c0","name":"TNLP006135 - Kruiszwin 1166, Julianadorp","address":"1166 Kruiszwin","city":"Julianadorp","operatorName":"TotalEnergies","maxPowerKw":17,"isMegawatt":false,"status":"UNAVAILABLE","source":"ndw"}},{"type":"Feature","geometry":{"type":"Point","coordinates":[4.775794,52.932842]},"properties":{"type":"charge","layer":"passenger","locationId":"0db36fe9-8d53-4720-8095-0bf27e3a1d9b","name":"TNLP006716 - Waterkeringsweg 58, Den Helder","address":"58 Waterkeringsweg","city":"Den Helder","operatorName":"TotalEnergies","maxPowerKw":15,"isMegawatt":false,"status":"AVAILABLE","source":"ndw"}},{"type":"Feature","geometry":{"type":"Point","coordinates":[4.765021,52.95793]},"properties":{"type":"charge","layer":"passenger","locationId":"NLLOC007985","name":"Breewaterstraat 64 1781GV Den Helder","address":"Breewaterstraat 64","city":"Den Helder","operatorName":"Allego","maxPowerKw":11,"isMegawatt":false,"status":"AVAILABLE","source":"ndw","priceKwh":0.511}},{"type":"Feature","geometry":{"type":"Point","coordinates":[4.752417,52.959864]},"properties":{"type":"charge","layer":"passenger","locationId":"NLLOC003352","name":"NLD, Den Helder, Prins Willem-Alexandersingel 67","address":"Prins Willem-Alexandersingel 67","city":"Den Helder","operatorName":"Allego","maxPowerKw":11,"isMegawatt":false,"status":"AVAILABLE","source":"ndw","priceKwh":0.511}},{"type":"Feature","geometry":{"type":"Point","coordinates":[4.752149,52.939039]},"properties":{"type":"charge","layer":"passenger","locationId":"8e4d1b8bf176b565a98a1e1451b279fc","name":"Drs. F. Bijlweg 21","address":"Drs. F. Bijlweg 21","city":"Den Helder","operatorName":"Vattenfall InCharge","maxPowerKw":11,"isMegawatt":false,"status":"AVAILABLE","source":"ndw"}},{"type":"Feature","geometry":{"type":"Point","coordinates":[4.745223,52.939431]},"properties":{"type":"charge","layer":"passenger","locationId":"NLLOC002701","name":"NLD, Den Helder, Geulstraat 7","address":"Geulstraat 7","city":"Den Helder","operatorName":"Allego","maxPowerKw":11,"isMegawatt":false,"status":"AVAILABLE","source":"ndw","priceKwh":0.511}},{"type":"Feature","geometry":{"type":"Point","coordinates":[4.779743,52.93566]},"properties":{"type":"charge","layer":"passenger","locationId":"62de3850-cb83-45e3-89e7-2876c7df5785","name":"TNLP008252 - Gerrit Pietersz Blankmanstraat 160, Den Helder","address":"160 Gerrit Pietersz Blankmanstraat","city":"Den Helder","operatorName":"TotalEnergies","maxPowerKw":15,"isMegawatt":false,"status":"AVAILABLE","source":"ndw"}},{"type":"Feature","geometry":{"type":"Point","coordinates":[4.739592,52.883614]},"properties":{"type":"charge","layer":"passenger","locationId":"a194fbf1-62d3-47f1-9a89-5c5d827c2a4c","name":"TNLP009439 - Boterzwin 3444, Julianadorp","address":"3444 Boterzwin","city":"Julianadorp","operatorName":"TotalEnergies","maxPowerKw":15,"isMegawatt":false,"status":"CHARGING","source":"ndw"}},{"type":"Feature","geometry":{"type":"Point","coordinates":[4.741046,52.93936]},"properties":{"type":"charge","layer":"passenger","locationId":"594d5f1d-24e4-45f9-985b-6fc5cf24d859","name":"TNLP006714 - Dintelstraat 1, Den Helder","address":"1 Dintelstraat","city":"Den Helder","operatorName":"TotalEnergies","maxPowerKw":15,"isMegawatt":false,"status":"AVAILABLE","source":"ndw"}},{"type":"Feature","geometry":{"type":"Point","coordinates":[4.761433,52.952057]},"properties":{"type":"charge","layer":"passenger","locationId":"01e88035-1786-4724-9cde-5ca7ad2e515a","name":"TNLP006312 - Brakkeveldweg 76, Den Helder","address":"76 Brakkeveldweg","city":"Den Helder","operatorName":"TotalEnergies","maxPowerKw":17,"isMegawatt":false,"status":"UNAVAILABLE","source":"ndw"}},{"type":"Feature","geometry":{"type":"Point","coordinates":[4.77802,52.96217]},"properties":{"type":"charge","layer":"passenger","locationId":"41388b0e-6646-419a-b92f-ace2ed3246aa","name":"PP002388 - Havenplein 3, Den Helder","address":"3 Havenplein","city":"Den Helder","operatorName":"TotalEnergies","maxPowerKw":17,"isMegawatt":false,"status":"AVAILABLE","source":"ndw"}},{"type":"Feature","geometry":{"type":"Point","coordinates":[4.765789,52.962472]},"properties":{"type":"charge","layer":"passenger","locationId":"NLLOC004913","name":"NLD, Kuiperdwarsstraat 15 1781MC Den Helder","address":"Kuiperdwarsstraat 15","city":"Den Helder","operatorName":"Allego","maxPowerKw":11,"isMegawatt":false,"status":"AVAILABLE","source":"ndw","priceKwh":0.511}},{"type":"Feature","geometry":{"type":"Point","coordinates":[4.737681,52.936806]},"properties":{"type":"charge","layer":"passenger","locationId":"29cb9174-f6f3-4349-ba3e-d49c2835d4be","name":"TNLP007675 - Schoenerstraat 2, Den Helder","address":"2 Schoenerstraat","city":"Den Helder","operatorName":"TotalEnergies","maxPowerKw":17,"isMegawatt":false,"status":"UNAVAILABLE","source":"ndw"}},{"type":"Feature","geometry":{"type":"Point","coordinates":[4.77464,52.956928]},"properties":{"type":"charge","layer":"passenger","locationId":"NLLOC002240","name":"NLD, Den Helder, Ankerpark 6","address":"Ankerpark 6","city":"Den Helder","operatorName":"Allego","maxPowerKw":11,"isMegawatt":false,"status":"AVAILABLE","source":"ndw","priceKwh":0.511}},{"type":"Feature","geometry":{"type":"Point","coordinates":[4.779249,52.934146]},"properties":{"type":"charge","layer":"passenger","locationId":"NLLOC002523","name":"NLD, Den Helder, Gerbrands Scheltesstraat 77","address":"Gerbrands Scheltesstraat 77","city":"Den Helder","operatorName":"Allego","maxPowerKw":11,"isMegawatt":false,"status":"AVAILABLE","source":"ndw","priceKwh":0.511}},{"type":"Feature","geometry":{"type":"Point","coordinates":[4.749325,52.957213]},"properties":{"type":"charge","layer":"passenger","locationId":"NLLOC001225","name":"NLD, Den Helder, Celebesstraat 24","address":"Celebesstraat 24","city":"Den Helder","operatorName":"Allego","maxPowerKw":11,"isMegawatt":false,"status":"AVAILABLE","source":"ndw","priceKwh":0.511}},{"type":"Feature","geometry":{"type":"Point","coordinates":[4.75059,52.94793]},"properties":{"type":"charge","layer":"passenger","locationId":"1a2bbafe-4d8c-4de6-a47f-36b7e04365ba","name":"TNLP006304 - Dollardlaan 190, Den Helder","address":"190 Dollardlaan","city":"Den Helder","operatorName":"TotalEnergies","maxPowerKw":15,"isMegawatt":false,"status":"AVAILABLE","source":"ndw"}},{"type":"Feature","geometry":{"type":"Point","coordinates":[4.77048,52.96133]},"properties":{"type":"charge","layer":"passenger","locationId":"654119c89edea4001cfff988","name":"Gebouw 39 Rechts","address":"Willemsoord 39","city":"Den Helder","operatorName":"E-Flux by Road","maxPowerKw":22,"isMegawatt":false,"status":"AVAILABLE","source":"ndw","priceKwh":0.46}},{"type":"Feature","geometry":{"type":"Point","coordinates":[4.754487,52.951958]},"properties":{"type":"charge","layer":"passenger","locationId":"NLLOC007991","name":"Sportlaan 62 D 1782ND Den Helder","address":"Sportlaan 62 D","city":"Den Helder","operatorName":"Allego","maxPowerKw":11,"isMegawatt":false,"status":"AVAILABLE","source":"ndw","priceKwh":0.511}},{"type":"Feature","geometry":{"type":"Point","coordinates":[4.786703,52.911023]},"properties":{"type":"charge","layer":"passenger","locationId":"66b0d47c6ea6b4001c1df333","name":"Den Helder Vastgoed's station","address":"Ijzergietersweg 1","city":"Den Helder","operatorName":"E-Flux by Road","maxPowerKw":11,"isMegawatt":false,"status":"AVAILABLE","source":"ndw","priceKwh":0.658}},{"type":"Feature","geometry":{"type":"Point","coordinates":[4.762356,52.955595]},"properties":{"type":"charge","layer":"passenger","locationId":"399902d8-1555-44ff-a435-a3c830ea15e3","name":"TNLP034071","address":"Basstraat 18","city":"Den Helder","operatorName":"TotalEnergies","maxPowerKw":14,"isMegawatt":false,"status":"AVAILABLE","source":"ndw"}},{"type":"Feature","geometry":{"type":"Point","coordinates":[4.744682,52.898754]},"properties":{"type":"charge","layer":"passenger","locationId":"05ef3cbd-315d-4a24-b2f4-2078637f33ee","name":"TNLP006357 - Van Foreestweg 37, Julianadorp","address":"37 Van Foreestweg","city":"Julianadorp","operatorName":"TotalEnergies","maxPowerKw":15,"isMegawatt":false,"status":"AVAILABLE","source":"ndw"}},{"type":"Feature","geometry":{"type":"Point","coordinates":[4.733334,52.938824]},"properties":{"type":"charge","layer":"passenger","locationId":"3223a0bd-beed-4bc3-bf4d-a93fc96ce428","name":"TNLP007337 - Sparrenstraat 38, Den Helder","address":"38 Sparrenstraat","city":"Den Helder","operatorName":"TotalEnergies","maxPowerKw":17,"isMegawatt":false,"status":"UNAVAILABLE","source":"ndw"}},{"type":"Feature","geometry":{"type":"Point","coordinates":[4.766673,52.956673]},"properties":{"type":"charge","layer":"passenger","locationId":"cb024da5-18e8-45f8-a03d-3f8de52014fb","name":"TNLP009223 - Steengracht 7, Den Helder","address":"7 Steengracht","city":"Den Helder","operatorName":"TotalEnergies","maxPowerKw":17,"isMegawatt":false,"status":"UNAVAILABLE","source":"ndw"}},{"type":"Feature","geometry":{"type":"Point","coordinates":[4.758414,52.884351]},"properties":{"type":"charge","layer":"passenger","locationId":"644b7ff7df66ced5faace81169091658","name":"Kastanjehout 62","address":"Kastanjehout 62","city":"Julianadorp","operatorName":"Vattenfall InCharge","maxPowerKw":11,"isMegawatt":false,"status":"AVAILABLE","source":"ndw"}},{"type":"Feature","geometry":{"type":"Point","coordinates":[4.754932,52.938773]},"properties":{"type":"charge","layer":"passenger","locationId":"6107ffe66fcabe7e640e386d","name":"Den Koogh","address":"Drs. F. Bijlweg 4","city":"Den Helder","operatorName":"E-Flux by Road","maxPowerKw":22,"isMegawatt":false,"status":"AVAILABLE","source":"ndw","priceKwh":0.33}},{"type":"Feature","geometry":{"type":"Point","coordinates":[4.749017,52.942312]},"properties":{"type":"charge","layer":"passenger","locationId":"b2714ff3eba2b37aca99c9216deb7a60","name":"Schipbeekstraat 1a","address":"Schipbeekstraat 1a","city":"Den Helder","operatorName":"Vattenfall InCharge","maxPowerKw":11,"isMegawatt":false,"status":"AVAILABLE","source":"ndw"}},{"type":"Feature","geometry":{"type":"MultiPolygon","coordinates":[[[[4.784971618023904,52.965796616826665],[4.783326013294084,52.964049661361464],[4.784723099570871,52.96301257311362],[4.783594781640927,52.96230415914393],[4.781136570107124,52.96334286079537],[4.779195083282457,52.96167862148313],[4.7777449365511035,52.960917484705696],[4.774788090289952,52.96060860381552],[4.779194972697997,52.95453779239988],[4.7880375963454975,52.949180323144006],[4.790475877325419,52.94969391421052],[4.780445358441187,52.9555704814914],[4.778230389027442,52.95939682356931],[4.778416263227369,52.95943292084038],[4.779320424418178,52.958314573913974],[4.78102240626379,52.958770452352006],[4.7827359703815,52.9563381896025],[4.785087185804308,52.95690727795548],[4.78555610336943,52.95430668011568],[4.787294424400918,52.954410437984194],[4.786672785360116,52.9569989834493],[4.787272196641951,52.95705160687059],[4.787958627058008,52.95447468206285],[4.792069573800221,52.95501714933065],[4.790870641177575,52.95754365466649],[4.791469434056247,52.957647850048765],[4.792788947227265,52.95516990770839],[4.794387299066197,52.95549642961939],[4.793334647434677,52.95722388494705],[4.7937198844045,52.957253904661975],[4.794159444408559,52.956624079589794],[4.7964771263054375,52.957094647107525],[4.795513643979375,52.958810543296856],[4.793198442700871,52.95837771449145],[4.792992149054276,52.95860276915701],[4.798149631301523,52.95962199439297],[4.796571507429874,52.961878050269036],[4.794300130841203,52.96145062411855],[4.794805085899647,52.96020467378752],[4.793363892060227,52.95991300384223],[4.791639217467119,52.96220125447809],[4.789699389716975,52.96276442280939],[4.795875399303252,52.96447837922022],[4.801324158662413,52.964523631918546],[4.803419620488115,52.95918306721618],[4.801696508505825,52.953094953789986],[4.7928385365515425,52.94412489876951],[4.791301843012,52.93623127985399],[4.792011532082776,52.93516253718962],[4.792122765746721,52.93295342676794],[4.79418048427064,52.932814020116126],[4.794734128001309,52.929343676648266],[4.803269316196308,52.91739008486101],[4.805016340383583,52.91608473848307],[4.807061500618582,52.91594447476956],[4.808834808699522,52.915257592395946],[4.809987734693538,52.91435390894396],[4.808050101057069,52.913573751683764],[4.806308810950196,52.913979204186006],[4.806724180504278,52.91271511246642],[4.804530916589625,52.91048780207606],[4.797299304962697,52.91211479866538],[4.794908340942007,52.91257904174641],[4.787654034001032,52.902347152603205],[4.7822950882228445,52.89468649009272],[4.772084941474124,52.880249561296814],[4.770937917318667,52.87862685711188],[4.769366134256184,52.878923304324715],[4.749806202942725,52.88045583353599],[4.742539400035657,52.8810202235798],[4.734172082974911,52.88165905718499],[4.726788774985097,52.882208465503666],[4.709041145079972,52.88362247271309],[4.711434906823195,52.89340911397711],[4.712420992599359,52.901543061812106],[4.713398740567986,52.91582824997049],[4.713372716958548,52.93229384392502],[4.714535186521898,52.93830120269901],[4.717237876685762,52.94745484786843],[4.719418265592657,52.951135461187505],[4.729651908161605,52.96152842685247],[4.730838341287898,52.962574848128064],[4.7396859377736105,52.9638030788756],[4.748296010938685,52.964378004332],[4.755502909079649,52.96382792679957],[4.7592720695764745,52.9646055285082],[4.763209279052568,52.96538444245203],[4.77955795775079,52.965230033332986],[4.777820638823525,52.96396386944794],[4.777715406940572,52.96300689252032],[4.778284788585878,52.96275010227955],[4.781325348537083,52.96475938580234],[4.782358745371005,52.96444798622863],[4.784240587632736,52.96609738051193],[4.784971618023904,52.965796616826665]]]]},"properties":{"type":"boundary","gemeente":"Den Helder","code":"GM0400"}}]}