{"type":"FeatureCollection","metadata":{"gemeente":"Diemen","slug":"diemen","code":"GM0384","generated_at":"2026-07-06T16:26:11.361Z","total_passenger":158,"total_freight":0,"bounds":[4.942692748755328,52.31397907370968,5.0349427512267715,52.35610176568543],"operators":["Allego","ChargePoint","Eneco","Greenchoice B.V.","Laadnet","NXT50Five","TotalEnergies","Ubitricity","Vattenfall InCharge"]},"features":[{"type":"Feature","geometry":{"type":"Point","coordinates":[4.957039,52.340935]},"properties":{"type":"charge","layer":"passenger","locationId":"9342d6a3-2757-47b1-94ab-ea42e78c1615","name":"TNLP008008 - Jan Bertsstraat 43, Diemen","address":"43 Jan Bertsstraat","city":"Diemen","operatorName":"TotalEnergies","maxPowerKw":17,"isMegawatt":false,"status":"UNAVAILABLE","source":"ndw"}},{"type":"Feature","geometry":{"type":"Point","coordinates":[4.956589,52.32984]},"properties":{"type":"charge","layer":"passenger","locationId":"49a850ef-0fa9-4ef4-860c-142e64771185","name":"TNLP009624 - Dalsteindreef 6031, Diemen","address":"6031 Dalsteindreef","city":"Diemen","operatorName":"TotalEnergies","maxPowerKw":15,"isMegawatt":false,"status":"AVAILABLE","source":"ndw"}},{"type":"Feature","geometry":{"type":"Point","coordinates":[4.962756,52.336707]},"properties":{"type":"charge","layer":"passenger","locationId":"d5103ccb0ca8832345e7882a5e4e6dbd","name":"P.J. Ter Beekstraat 18","address":"P.J. Ter Beekstraat 18","city":"Diemen","operatorName":"Vattenfall InCharge","maxPowerKw":11,"isMegawatt":false,"status":"CHARGING","source":"ndw"}},{"type":"Feature","geometry":{"type":"Point","coordinates":[4.96658,52.33711]},"properties":{"type":"charge","layer":"passenger","locationId":"F5EF1C60-DB03-424A-8E97-4F82EE55BF3F","name":"Eneco eMobility CVF I Diemen - Punt Sniep","address":"Punt Sniep 400","city":"Diemen","operatorName":"Eneco","maxPowerKw":22,"isMegawatt":false,"status":"AVAILABLE","source":"ndw","priceKwh":0.38}},{"type":"Feature","geometry":{"type":"Point","coordinates":[4.982901,52.347565]},"properties":{"type":"charge","layer":"passenger","locationId":"f912023f-ebb6-473b-b0c6-4cba7c2e32a8","name":"TNLP008881 - Argusvlinder 18, Diemen","address":"18 Argusvlinder","city":"Diemen","operatorName":"TotalEnergies","maxPowerKw":14,"isMegawatt":false,"status":"UNAVAILABLE","source":"ndw"}},{"type":"Feature","geometry":{"type":"Point","coordinates":[4.955492,52.332897]},"properties":{"type":"charge","layer":"passenger","locationId":"3ae25737-0c6d-4c81-affa-383e83074fc2","name":"TNLP015011 - Vingerhoedskruid 2, Diemen","address":"2 Vingerhoedskruid","city":"Diemen","operatorName":"TotalEnergies","maxPowerKw":17,"isMegawatt":false,"status":"AVAILABLE","source":"ndw"}},{"type":"Feature","geometry":{"type":"Point","coordinates":[4.965533,52.332146]},"properties":{"type":"charge","layer":"passenger","locationId":"27a47e57-a980-41d5-8321-7060b699694a","name":"TNLP005975 - TNLP007907 - Verrijn Stuartweg 24, Diemen","address":"24 Verrijn Stuartweg","city":"Diemen","operatorName":"TotalEnergies","maxPowerKw":17,"isMegawatt":false,"status":"AVAILABLE","source":"ndw"}},{"type":"Feature","geometry":{"type":"Point","coordinates":[4.962149,52.34174]},"properties":{"type":"charge","layer":"passenger","locationId":"b1401c96-9bb2-4ede-b9cb-4676e79c4d7d","name":"EV Hub - Diemerplein 1, Diemen","address":"1 Diemerplein","city":"Diemen","operatorName":"TotalEnergies","maxPowerKw":50,"isMegawatt":false,"status":"UNAVAILABLE","source":"ndw"}},{"type":"Feature","geometry":{"type":"Point","coordinates":[4.9819129,52.349526]},"properties":{"type":"charge","layer":"passenger","locationId":"2281","name":"Shell Recharge NL Fregat 345","address":"Fregat 345","city":"Diemen","operatorName":"Ubitricity","maxPowerKw":22,"isMegawatt":false,"status":"CHARGING","source":"ndw","priceKwh":0.266}},{"type":"Feature","geometry":{"type":"Point","coordinates":[4.972345,52.33638]},"properties":{"type":"charge","layer":"passenger","locationId":"402e5fb8-6211-4c58-b8a7-7e7e6e2aa19b","name":"TNLP007082 - De Wissel 6, Diemen","address":"6 De Wissel","city":"Diemen","operatorName":"TotalEnergies","maxPowerKw":17,"isMegawatt":false,"status":"UNAVAILABLE","source":"ndw"}},{"type":"Feature","geometry":{"type":"Point","coordinates":[4.960132,52.33604]},"properties":{"type":"charge","layer":"passenger","locationId":"f60d8183-430a-43f9-8355-38504fb09518","name":"TNLP034251","address":"Schelpenhoek 100","city":"Diemen","operatorName":"TotalEnergies","maxPowerKw":14,"isMegawatt":false,"status":"AVAILABLE","source":"ndw"}},{"type":"Feature","geometry":{"type":"Point","coordinates":[4.98175,52.34985]},"properties":{"type":"charge","layer":"passenger","locationId":"b36931be-8049-4f89-add9-3d7151f0044c","name":"PP004245 - Fregat 241, Diemen","address":"241 Fregat","city":"Diemen","operatorName":"TotalEnergies","maxPowerKw":11,"isMegawatt":false,"status":"UNAVAILABLE","source":"ndw"}},{"type":"Feature","geometry":{"type":"Point","coordinates":[4.962105,52.339349]},"properties":{"type":"charge","layer":"passenger","locationId":"NLLOC001111","name":"NLD, Diemen, Van Medenbach Wakkerplein 1","address":"Van Medenbach Wakkerplein 1","city":"Diemen","operatorName":"Allego","maxPowerKw":11,"isMegawatt":false,"status":"AVAILABLE","source":"ndw","priceKwh":0.511}},{"type":"Feature","geometry":{"type":"Point","coordinates":[4.970096,52.352272]},"properties":{"type":"charge","layer":"passenger","locationId":"16b9838f-321a-4ae9-a3ae-51e941999cf7","name":"TNLP008894 - Houtbosch 47, Diemen","address":"47 Houtbosch","city":"Diemen","operatorName":"TotalEnergies","maxPowerKw":14,"isMegawatt":false,"status":"AVAILABLE","source":"ndw"}},{"type":"Feature","geometry":{"type":"Point","coordinates":[4.95295,52.32363]},"properties":{"type":"charge","layer":"passenger","locationId":"568581CC-524C-4E12-AB5F-0300CD7A747D","name":"Eneco eMobility Randstad N.V. - Diemermere - Diemen","address":"Diemermere 25","city":"Diemen","operatorName":"Eneco","maxPowerKw":22,"isMegawatt":false,"status":"AVAILABLE","source":"ndw","priceKwh":0.31}},{"type":"Feature","geometry":{"type":"Point","coordinates":[4.967207,52.336586]},"properties":{"type":"charge","layer":"passenger","locationId":"82f7e378-df6d-4461-9268-78a73461877e","name":"TNLP008800 - Punt Sniep 306, Diemen","address":"306 Punt Sniep","city":"Diemen","operatorName":"TotalEnergies","maxPowerKw":14,"isMegawatt":false,"status":"CHARGING","source":"ndw"}},{"type":"Feature","geometry":{"type":"Point","coordinates":[4.944208,52.328323]},"properties":{"type":"charge","layer":"passenger","locationId":"c07ce14c-6323-495b-b55f-1f1d7b59a4ab","name":"PP005548 - Biesbosch 37, Diemen","address":"37 Biesbosch","city":"Diemen","operatorName":"TotalEnergies","maxPowerKw":15,"isMegawatt":false,"status":"AVAILABLE","source":"ndw"}},{"type":"Feature","geometry":{"type":"Point","coordinates":[4.972494,52.35289]},"properties":{"type":"charge","layer":"passenger","locationId":"0712a396-8169-4266-b6e4-74e2263b652d","name":"TNLP007272 - Vredelust 26, Diemen","address":"26 Vredelust","city":"Diemen","operatorName":"TotalEnergies","maxPowerKw":17,"isMegawatt":false,"status":"UNAVAILABLE","source":"ndw"}},{"type":"Feature","geometry":{"type":"Point","coordinates":[4.957774,52.333813]},"properties":{"type":"charge","layer":"passenger","locationId":"69ba81fb19f2354da04a556e","name":"NXT 50Five - Diemen - Kruidenhof 22","address":"Kruidenhof 22","city":"Diemen","operatorName":"NXT50Five","maxPowerKw":300,"isMegawatt":false,"status":"AVAILABLE","source":"ndw","priceKwh":0.6}},{"type":"Feature","geometry":{"type":"Point","coordinates":[4.9701,52.34554]},"properties":{"type":"charge","layer":"passenger","locationId":"d964c79e867538bc2d67f196c60bd649","name":"Buitenlust 42-2","address":"Buitenlust 42-2","city":"Diemen","operatorName":"Vattenfall InCharge","maxPowerKw":11,"isMegawatt":false,"status":"AVAILABLE","source":"ndw"}},{"type":"Feature","geometry":{"type":"Point","coordinates":[4.965009,52.340623]},"properties":{"type":"charge","layer":"passenger","locationId":"f8eb2d08-25a9-4a19-b70c-2ca2dc407e8f","name":"Prinses Beatrixlaan","address":"Prinses Beatrixlaan 7","city":"Diemen","operatorName":"Vattenfall InCharge","maxPowerKw":11,"isMegawatt":false,"status":"AVAILABLE","source":"ndw"}},{"type":"Feature","geometry":{"type":"Point","coordinates":[4.970184,52.339283]},"properties":{"type":"charge","layer":"passenger","locationId":"184baeeb-16a2-402b-be9e-23d7227ab2b5","name":"TNLP008246 - Willem de Zwijgerlaan 2, Diemen","address":"2 Willem de Zwijgerlaan","city":"Diemen","operatorName":"TotalEnergies","maxPowerKw":15,"isMegawatt":false,"status":"AVAILABLE","source":"ndw"}},{"type":"Feature","geometry":{"type":"Point","coordinates":[4.966555,52.337559]},"properties":{"type":"charge","layer":"passenger","locationId":"NLLOC003520","name":"NLD, Diemen, Nicolaas Lublinkstraat 2","address":"Nicolaas Lublinkstraat 2","city":"Diemen","operatorName":"Allego","maxPowerKw":11,"isMegawatt":false,"status":"AVAILABLE","source":"ndw","priceKwh":0.511}},{"type":"Feature","geometry":{"type":"Point","coordinates":[4.963992,52.333138]},"properties":{"type":"charge","layer":"passenger","locationId":"cacd9df1-0b76-4f87-aba5-56d6ca189cf7","name":"Test-Lab Diemen","address":"Venserweg 21F","city":"Diemen","operatorName":"Vattenfall InCharge","maxPowerKw":150,"isMegawatt":false,"status":"AVAILABLE","source":"ndw"}},{"type":"Feature","geometry":{"type":"Point","coordinates":[4.964706,52.343768]},"properties":{"type":"charge","layer":"passenger","locationId":"NLLOC007746","name":"NL, Albert Loethoelistraat 210, 1111KZ, Diemen","address":"Albert Loethoelistraat 210","city":"Diemen","operatorName":"Allego","maxPowerKw":11,"isMegawatt":false,"status":"AVAILABLE","source":"ndw","priceKwh":0.511}},{"type":"Feature","geometry":{"type":"Point","coordinates":[4.9527368,52.3340489]},"properties":{"type":"charge","layer":"passenger","locationId":"1371","name":"Shell Recharge NL Tarwekamp 9","address":"Tarwekamp 9","city":"Diemen","operatorName":"Ubitricity","maxPowerKw":22,"isMegawatt":false,"status":"AVAILABLE","source":"ndw","priceKwh":0.266}},{"type":"Feature","geometry":{"type":"Point","coordinates":[4.960065,52.33387]},"properties":{"type":"charge","layer":"passenger","locationId":"4b6a663d-33d9-4cd9-97c2-cde5947e3e42","name":"TNLP006919 - Tapijtschelp 62, Diemen","address":"62 Tapijtschelp","city":"Diemen","operatorName":"TotalEnergies","maxPowerKw":17,"isMegawatt":false,"status":"UNAVAILABLE","source":"ndw"}},{"type":"Feature","geometry":{"type":"Point","coordinates":[4.98663,52.331848]},"properties":{"type":"charge","layer":"passenger","locationId":"27665B24-ED59-4D58-A2C0-6EEB9038D22D","name":"Eneco eMobility Scholte en de Vries beheer - Stammerhove 5 - Diemen","address":"Stammerhove 5","city":"Diemen","operatorName":"Eneco","maxPowerKw":11,"isMegawatt":false,"status":"AVAILABLE","source":"ndw","priceKwh":0.48}},{"type":"Feature","geometry":{"type":"Point","coordinates":[4.964721,52.339593]},"properties":{"type":"charge","layer":"passenger","locationId":"13a7d3dd425c5fcb036ed0cc0d4b3d02","name":"Pr. Margrietstraat 30","address":"Pr. Margrietstraat 30","city":"Diemen","operatorName":"Vattenfall InCharge","maxPowerKw":11,"isMegawatt":false,"status":"AVAILABLE","source":"ndw"}},{"type":"Feature","geometry":{"type":"Point","coordinates":[4.966691,52.331562]},"properties":{"type":"charge","layer":"passenger","locationId":"3572541","name":"Laadnet Hofman Dujardin Vastgoed B.V.","address":"Verrijn Stuartweg 30D","city":"Diemen","operatorName":"Laadnet","maxPowerKw":22,"isMegawatt":false,"status":"AVAILABLE","source":"ndw"}},{"type":"Feature","geometry":{"type":"Point","coordinates":[4.971399,52.341712]},"properties":{"type":"charge","layer":"passenger","locationId":"NLLOC010354","name":"NL, Rode Kruislaan, 1260, 1111XB, Diemen","address":"Rode Kruislaan 1260","city":"Diemen","operatorName":"Allego","maxPowerKw":11,"isMegawatt":false,"status":"AVAILABLE","source":"ndw","priceKwh":0.511}},{"type":"Feature","geometry":{"type":"Point","coordinates":[4.967836,52.343758]},"properties":{"type":"charge","layer":"passenger","locationId":"e29ccf48-fb03-4d01-b020-40ffe21a81d0","name":"TNLP006277 - Rode Kruislaan 85, Diemen","address":"85 Rode Kruislaan","city":"Diemen","operatorName":"TotalEnergies","maxPowerKw":17,"isMegawatt":false,"status":"UNAVAILABLE","source":"ndw"}},{"type":"Feature","geometry":{"type":"Point","coordinates":[4.967978,52.331347]},"properties":{"type":"charge","layer":"passenger","locationId":"4349465","name":"Laadnet Hartman & Van Vliet Strafrechtadvocaten","address":"Verrijn Stuartweg 42A","city":"Diemen","operatorName":"Laadnet","maxPowerKw":22,"isMegawatt":false,"status":"UNAVAILABLE","source":"ndw"}},{"type":"Feature","geometry":{"type":"Point","coordinates":[4.953401,52.337563]},"properties":{"type":"charge","layer":"passenger","locationId":"NLLOC001052","name":"NLD, Diemen, Meidoornplein 24","address":"Meidoornplein 24","city":"Diemen","operatorName":"Allego","maxPowerKw":11,"isMegawatt":false,"status":"AVAILABLE","source":"ndw","priceKwh":0.511}},{"type":"Feature","geometry":{"type":"Point","coordinates":[4.953265,52.326828]},"properties":{"type":"charge","layer":"passenger","locationId":"66d96e91e5f709001c766993","name":"Manpower Diemen","address":"Diemerhof 16","city":"Diemen","operatorName":"Greenchoice B.V.","maxPowerKw":22,"isMegawatt":false,"status":"AVAILABLE","source":"ndw","priceKwh":0.53}},{"type":"Feature","geometry":{"type":"Point","coordinates":[4.956242,52.333633]},"properties":{"type":"charge","layer":"passenger","locationId":"882c4f6c-e344-4a68-bc4e-29cf0296a4be","name":"PP005119 - Sint Janskruid 24, Diemen","address":"24 Sint Janskruid","city":"Diemen","operatorName":"TotalEnergies","maxPowerKw":11,"isMegawatt":false,"status":"UNAVAILABLE","source":"ndw"}},{"type":"Feature","geometry":{"type":"Point","coordinates":[4.96027,52.34179]},"properties":{"type":"charge","layer":"passenger","locationId":"0f227019-2353-4cdc-b9ff-f60cb78a7d61","name":"PP004030 - Wilhelminaplantsoen 194, Diemen","address":"194 Wilhelminaplantsoen","city":"Diemen","operatorName":"TotalEnergies","maxPowerKw":15,"isMegawatt":false,"status":"AVAILABLE","source":"ndw"}},{"type":"Feature","geometry":{"type":"Point","coordinates":[4.978767,52.347633]},"properties":{"type":"charge","layer":"passenger","locationId":"d7cd83cf-336c-4faf-be44-3c14c50fe98c","name":"TNLP008919 - Schoener 37, Diemen","address":"37 Schoener","city":"Diemen","operatorName":"TotalEnergies","maxPowerKw":13,"isMegawatt":false,"status":"UNAVAILABLE","source":"ndw"}},{"type":"Feature","geometry":{"type":"Point","coordinates":[4.944734,52.32915]},"properties":{"type":"charge","layer":"passenger","locationId":"1a5d8b93-21a1-4b66-9e1d-0dfce82b6b0e","name":"TNLP009306 - Groote Peel 80, Diemen","address":"80 Groote Peel","city":"Diemen","operatorName":"TotalEnergies","maxPowerKw":15,"isMegawatt":false,"status":"CHARGING","source":"ndw"}},{"type":"Feature","geometry":{"type":"Point","coordinates":[4.969808,52.350742]},"properties":{"type":"charge","layer":"passenger","locationId":"3a3ea7c8-63eb-4951-97c5-a7641cba9230","name":"TNLP009113 - Steenen Kamer 33, Diemen","address":"33 Steenen Kamer","city":"Diemen","operatorName":"TotalEnergies","maxPowerKw":15,"isMegawatt":false,"status":"AVAILABLE","source":"ndw"}},{"type":"Feature","geometry":{"type":"Point","coordinates":[4.969744,52.352185]},"properties":{"type":"charge","layer":"passenger","locationId":"1818185","name":"Laadnet Matthieu laden","address":"Houtbosch 39","city":"Diemen","operatorName":"Laadnet","maxPowerKw":11,"isMegawatt":false,"status":"AVAILABLE","source":"ndw"}},{"type":"Feature","geometry":{"type":"Point","coordinates":[4.94971,52.33583]},"properties":{"type":"charge","layer":"passenger","locationId":"6c19633e-95ea-4339-bb2c-27b9ddec4d29","name":"TNLP003517 - Vlasdonk 11, Diemen","address":"11 Vlasdonk","city":"Diemen","operatorName":"TotalEnergies","maxPowerKw":17,"isMegawatt":false,"status":"AVAILABLE","source":"ndw"}},{"type":"Feature","geometry":{"type":"Point","coordinates":[4.974447,52.334408]},"properties":{"type":"charge","layer":"passenger","locationId":"4eeb6250-6767-48a8-8fd4-d70771c714c6","name":"TNLP008283 - Mariënburg 400, Diemen","address":"400 Mariënburg","city":"Diemen","operatorName":"TotalEnergies","maxPowerKw":13,"isMegawatt":false,"status":"UNAVAILABLE","source":"ndw"}},{"type":"Feature","geometry":{"type":"Point","coordinates":[4.98445,52.33267]},"properties":{"type":"charge","layer":"passenger","locationId":"ac19f960-0b84-48cb-a4ca-08059ae9156a","name":"PP004271 - Stammerkamp 1, Diemen","address":"1 Stammerkamp","city":"Diemen","operatorName":"TotalEnergies","maxPowerKw":15,"isMegawatt":false,"status":"AVAILABLE","source":"ndw"}},{"type":"Feature","geometry":{"type":"Point","coordinates":[4.9648489,52.3380996]},"properties":{"type":"charge","layer":"passenger","locationId":"886","name":"Shell Recharge NL Burgemeester de Kievietstraat 62","address":"Burgemeester de Kievietstraat 62","city":"Diemen","operatorName":"Ubitricity","maxPowerKw":22,"isMegawatt":false,"status":"AVAILABLE","source":"ndw","priceKwh":0.266}},{"type":"Feature","geometry":{"type":"Point","coordinates":[4.954861,52.338195]},"properties":{"type":"charge","layer":"passenger","locationId":"NLLOC009371","name":"Bomenrijk 7 1112EL Diemen","address":"Bomenrijk 7","city":"Diemen","operatorName":"Allego","maxPowerKw":11,"isMegawatt":false,"status":"AVAILABLE","source":"ndw","priceKwh":0.511}},{"type":"Feature","geometry":{"type":"Point","coordinates":[4.959956,52.32961]},"properties":{"type":"charge","layer":"passenger","locationId":"31d7080c-d074-4f86-bdba-ab57e62e8d0c","name":"Laadplein - TNLP006404 - Willem Dudokhof 109, Diemen","address":"109 Willem Dudokhof","city":"Diemen","operatorName":"TotalEnergies","maxPowerKw":15,"isMegawatt":false,"status":"AVAILABLE","source":"ndw"}},{"type":"Feature","geometry":{"type":"Point","coordinates":[4.960892,52.345073]},"properties":{"type":"charge","layer":"passenger","locationId":"NLLOC020379","name":"NL, Tobias Asserlaan 346, 1111KA Diemen","address":"Tobias Asserlaan 346","city":"Diemen","operatorName":"Allego","maxPowerKw":11,"isMegawatt":false,"status":"AVAILABLE","source":"ndw","priceKwh":0.511}},{"type":"Feature","geometry":{"type":"Point","coordinates":[4.974575,52.34954]},"properties":{"type":"charge","layer":"passenger","locationId":"6d12d920-e5ec-4f61-82a3-1746f55bc4c4","name":"TNLP009682 - Tureluurweg 27, Diemen","address":"27 Tureluurweg","city":"Diemen","operatorName":"TotalEnergies","maxPowerKw":15,"isMegawatt":false,"status":"AVAILABLE","source":"ndw"}},{"type":"Feature","geometry":{"type":"Point","coordinates":[4.969012,52.3382]},"properties":{"type":"charge","layer":"passenger","locationId":"4b97ebf3-fc6f-4c0f-b04e-0e76841abbf5","name":"TNLP008300 - Prins Bernhardlaan 2, Diemen","address":"2 Prins Bernhardlaan","city":"Diemen","operatorName":"TotalEnergies","maxPowerKw":14,"isMegawatt":false,"status":"AVAILABLE","source":"ndw"}},{"type":"Feature","geometry":{"type":"Point","coordinates":[4.985313,52.34774]},"properties":{"type":"charge","layer":"passenger","locationId":"190688e7-3a73-4230-be24-a6bec83e59f1","name":"TNLP006721 - Hermelijnvlinder 187, Diemen","address":"187 Hermelijnvlinder","city":"Diemen","operatorName":"TotalEnergies","maxPowerKw":17,"isMegawatt":false,"status":"UNAVAILABLE","source":"ndw"}},{"type":"Feature","geometry":{"type":"Point","coordinates":[4.960769,52.337142]},"properties":{"type":"charge","layer":"passenger","locationId":"NLLOC002296","name":"NLD, Diemen, Anne Frankstraat 1","address":"Anne Frankstraat 1","city":"Diemen","operatorName":"Allego","maxPowerKw":11,"isMegawatt":false,"status":"AVAILABLE","source":"ndw","priceKwh":0.511}},{"type":"Feature","geometry":{"type":"Point","coordinates":[4.9661126,52.3449425]},"properties":{"type":"charge","layer":"passenger","locationId":"974","name":"Shell Recharge NL Martin Luther Kinglaan 2","address":"Martin Luther Kinglaan 2","city":"Diemen","operatorName":"Ubitricity","maxPowerKw":22,"isMegawatt":false,"status":"AVAILABLE","source":"ndw","priceKwh":0.266}},{"type":"Feature","geometry":{"type":"Point","coordinates":[4.98694,52.330978]},"properties":{"type":"charge","layer":"passenger","locationId":"67f32164-0e81-4f33-8af7-bb1176bed29a","name":"TNLP034080","address":"Stammerhove 13","city":"Diemen","operatorName":"TotalEnergies","maxPowerKw":14,"isMegawatt":false,"status":"AVAILABLE","source":"ndw"}},{"type":"Feature","geometry":{"type":"Point","coordinates":[4.957422,52.34248]},"properties":{"type":"charge","layer":"passenger","locationId":"35c22650-4a68-4d15-98e9-864c534c0955","name":"PP005344 - Arent Krijtsstraat 53, Diemen","address":"53 Arent Krijtsstraat","city":"Diemen","operatorName":"TotalEnergies","maxPowerKw":11,"isMegawatt":false,"status":"UNAVAILABLE","source":"ndw"}},{"type":"Feature","geometry":{"type":"Point","coordinates":[4.960328,52.33919]},"properties":{"type":"charge","layer":"passenger","locationId":"e866b99d-5ef4-47ba-a689-167be0a5ec92","name":"TNLP015475 - Burgemeester Bickerstraat 7, Diemen","address":"7 Burgemeester Bickerstraat","city":"Diemen","operatorName":"TotalEnergies","maxPowerKw":17,"isMegawatt":false,"status":"UNAVAILABLE","source":"ndw"}},{"type":"Feature","geometry":{"type":"Point","coordinates":[4.95854,52.337255]},"properties":{"type":"charge","layer":"passenger","locationId":"NLLOC003458","name":"NLD, Diemen, Beukenhorst 304, 1112 BL","address":"Beukenhorst 304","city":"Diemen","operatorName":"Allego","maxPowerKw":11,"isMegawatt":false,"status":"AVAILABLE","source":"ndw","priceKwh":0.511}},{"type":"Feature","geometry":{"type":"Point","coordinates":[4.952504,52.331455]},"properties":{"type":"charge","layer":"passenger","locationId":"c5a6b4f8-1fc5-4d01-aa91-df2216b0c7c3","name":"TNLP007782 - Polderland 66, Diemen","address":"66 Polderland","city":"Diemen","operatorName":"TotalEnergies","maxPowerKw":15,"isMegawatt":false,"status":"AVAILABLE","source":"ndw"}},{"type":"Feature","geometry":{"type":"Point","coordinates":[4.960736,52.33458]},"properties":{"type":"charge","layer":"passenger","locationId":"550cf9bc-971a-4b14-bf4b-e7685a96b9cc","name":"TNLP009197 - Hartschelp 35, Diemen","address":"35 Hartschelp","city":"Diemen","operatorName":"TotalEnergies","maxPowerKw":15,"isMegawatt":false,"status":"AVAILABLE","source":"ndw"}},{"type":"Feature","geometry":{"type":"Point","coordinates":[4.970578,52.349693]},"properties":{"type":"charge","layer":"passenger","locationId":"5bbdca54-ac3b-4a29-826e-290be35606b1","name":"PP005440 - Vergulden Wagen 8, Diemen","address":"8 Vergulden Wagen","city":"Diemen","operatorName":"TotalEnergies","maxPowerKw":11,"isMegawatt":false,"status":"UNAVAILABLE","source":"ndw"}},{"type":"Feature","geometry":{"type":"Point","coordinates":[4.977358,52.34902]},"properties":{"type":"charge","layer":"passenger","locationId":"2f127445-dfaa-48e2-b752-cfae4c9198c3","name":"TNLP009088 - Kwikstaart 1, Diemen","address":"1 Kwikstaart","city":"Diemen","operatorName":"TotalEnergies","maxPowerKw":17,"isMegawatt":false,"status":"UNAVAILABLE","source":"ndw"}},{"type":"Feature","geometry":{"type":"Point","coordinates":[4.970278,52.345657]},"properties":{"type":"charge","layer":"passenger","locationId":"6ffa1963-c72a-4c5c-a002-cf126ed114cf","name":"PP005549 - Buitenlust 42, Diemen","address":"42 Buitenlust","city":"Diemen","operatorName":"TotalEnergies","maxPowerKw":11,"isMegawatt":false,"status":"UNAVAILABLE","source":"ndw"}},{"type":"Feature","geometry":{"type":"Point","coordinates":[4.982471,52.345966]},"properties":{"type":"charge","layer":"passenger","locationId":"cf36c43c-0480-4857-b446-c74764db3e0e","name":"PP005045 - Agaatvlinder 27, Diemen","address":"27 Agaatvlinder","city":"Diemen","operatorName":"TotalEnergies","maxPowerKw":11,"isMegawatt":false,"status":"UNAVAILABLE","source":"ndw"}},{"type":"Feature","geometry":{"type":"Point","coordinates":[4.949902,52.326084]},"properties":{"type":"charge","layer":"passenger","locationId":"0ef30914-957e-4983-9008-328e037231d7","name":"TNLP005972 - Diemerhof 12, Diemen","address":"12 Diemerhof","city":"Diemen","operatorName":"TotalEnergies","maxPowerKw":15,"isMegawatt":false,"status":"AVAILABLE","source":"ndw"}},{"type":"Feature","geometry":{"type":"Point","coordinates":[4.9782,52.34999]},"properties":{"type":"charge","layer":"passenger","locationId":"4eb53998-5c8b-4d0d-af1b-8cf7315b8c31","name":"TNLP015142 - Gruttoplein 17, Diemen","address":"17 Gruttoplein","city":"Diemen","operatorName":"TotalEnergies","maxPowerKw":17,"isMegawatt":false,"status":"AVAILABLE","source":"ndw"}},{"type":"Feature","geometry":{"type":"Point","coordinates":[4.954501,52.34037]},"properties":{"type":"charge","layer":"passenger","locationId":"NLLOC002847","name":"NLD, Diemen, Johan van Soesdijkstraat 38","address":"Johan van Soesdijkstraat 38","city":"Diemen","operatorName":"Allego","maxPowerKw":11,"isMegawatt":false,"status":"AVAILABLE","source":"ndw","priceKwh":0.511}},{"type":"Feature","geometry":{"type":"Point","coordinates":[4.946669,52.329365]},"properties":{"type":"charge","layer":"passenger","locationId":"1b35964a-b817-47d0-96ee-82b01713abc3","name":"TNLP006853 - Griend 48, Diemen","address":"48 Griend","city":"Diemen","operatorName":"TotalEnergies","maxPowerKw":15,"isMegawatt":false,"status":"AVAILABLE","source":"ndw"}},{"type":"Feature","geometry":{"type":"Point","coordinates":[4.960353,52.327432]},"properties":{"type":"charge","layer":"passenger","locationId":"3caaa160972a35d119fc8f672c57105a","name":"Jan Wolkerslaan 713","address":"Jan Wolkerslaan 713","city":"Diemen","operatorName":"Vattenfall InCharge","maxPowerKw":11,"isMegawatt":false,"status":"CHARGING","source":"ndw"}},{"type":"Feature","geometry":{"type":"Point","coordinates":[4.973453,52.335417]},"properties":{"type":"charge","layer":"passenger","locationId":"NLLOC002627","name":"NLD, Diemen, Keulse Vaart 95","address":"Keulse Vaart 95","city":"Diemen","operatorName":"Allego","maxPowerKw":11,"isMegawatt":false,"status":"CHARGING","source":"ndw","priceKwh":0.511}},{"type":"Feature","geometry":{"type":"Point","coordinates":[4.9553418,52.3361313]},"properties":{"type":"charge","layer":"passenger","locationId":"579","name":"Shell Recharge NL Meelbeskamp 1","address":"Meelbeskamp 1","city":"Diemen","operatorName":"Ubitricity","maxPowerKw":11,"isMegawatt":false,"status":"AVAILABLE","source":"ndw","priceKwh":0.388}},{"type":"Feature","geometry":{"type":"Point","coordinates":[4.974151,52.345375]},"properties":{"type":"charge","layer":"passenger","locationId":"c8d87ad5-9158-4ad8-83a3-dd25983fbbde","name":"TNLP007007 - Landlust 2, Diemen","address":"2 Landlust","city":"Diemen","operatorName":"TotalEnergies","maxPowerKw":15,"isMegawatt":false,"status":"AVAILABLE","source":"ndw"}},{"type":"Feature","geometry":{"type":"Point","coordinates":[4.9818533,52.3490125]},"properties":{"type":"charge","layer":"passenger","locationId":"1171","name":"Shell Recharge NL Klipperweg 111","address":"Klipperweg 111","city":"Diemen","operatorName":"Ubitricity","maxPowerKw":22,"isMegawatt":false,"status":"CHARGING","source":"ndw","priceKwh":0.266}},{"type":"Feature","geometry":{"type":"Point","coordinates":[4.974827,52.353302]},"properties":{"type":"charge","layer":"passenger","locationId":"a62d257d-f55a-449a-a00d-c87f11b1e6f1","name":"TNLP007551 - Zeezigt 2, Diemen","address":"2 Zeezigt","city":"Diemen","operatorName":"TotalEnergies","maxPowerKw":17,"isMegawatt":false,"status":"UNAVAILABLE","source":"ndw"}},{"type":"Feature","geometry":{"type":"Point","coordinates":[4.9854604,52.3471737]},"properties":{"type":"charge","layer":"passenger","locationId":"1094","name":"Shell Recharge NL Hermelijnvlinder 32","address":"Hermelijnvlinder 32","city":"Diemen","operatorName":"Ubitricity","maxPowerKw":22,"isMegawatt":false,"status":"AVAILABLE","source":"ndw","priceKwh":0.266}},{"type":"Feature","geometry":{"type":"Point","coordinates":[4.961753,52.3417]},"properties":{"type":"charge","layer":"passenger","locationId":"b660beec-150b-431d-82d4-94acfc68172c","name":"TNLP007455 - Diemerplein 1, Diemen","address":"1 Diemerplein","city":"Diemen","operatorName":"TotalEnergies","maxPowerKw":15,"isMegawatt":false,"status":"AVAILABLE","source":"ndw"}},{"type":"Feature","geometry":{"type":"Point","coordinates":[4.9683447,52.3529319]},"properties":{"type":"charge","layer":"passenger","locationId":"1017","name":"Shell Recharge NL Hofstedenweg 60","address":"Hofstedenweg 60","city":"Diemen","operatorName":"Ubitricity","maxPowerKw":22,"isMegawatt":false,"status":"AVAILABLE","source":"ndw","priceKwh":0.266}},{"type":"Feature","geometry":{"type":"Point","coordinates":[4.98523,52.34795]},"properties":{"type":"charge","layer":"passenger","locationId":"552","name":"Shell Recharge NL Hermelijnvlinder 177","address":"Hermelijnvlinder 177","city":"Diemen","operatorName":"Ubitricity","maxPowerKw":11,"isMegawatt":false,"status":"AVAILABLE","source":"ndw","priceKwh":0.388}},{"type":"Feature","geometry":{"type":"Point","coordinates":[4.9653749,52.3445766]},"properties":{"type":"charge","layer":"passenger","locationId":"2292","name":"Shell Recharge NL Martin Luther Kinglaan 122","address":"Martin Luther Kinglaan 122","city":"Diemen","operatorName":"Ubitricity","maxPowerKw":22,"isMegawatt":false,"status":"AVAILABLE","source":"ndw","priceKwh":0.266}},{"type":"Feature","geometry":{"type":"Point","coordinates":[4.951956,52.32645]},"properties":{"type":"charge","layer":"passenger","locationId":"e131ccee-27ee-4210-bece-3462d0e1e197","name":"TNLP003668 - Diemerhof 12, Diemen","address":"12 Diemerhof","city":"Diemen","operatorName":"TotalEnergies","maxPowerKw":17,"isMegawatt":false,"status":"AVAILABLE","source":"ndw"}},{"type":"Feature","geometry":{"type":"Point","coordinates":[4.975264,52.350613]},"properties":{"type":"charge","layer":"passenger","locationId":"1028ed2f-6365-47a7-972a-6f467b03722d","name":"PP005350 - Rietgors 37, Diemen","address":"37 Rietgors","city":"Diemen","operatorName":"TotalEnergies","maxPowerKw":11,"isMegawatt":false,"status":"UNAVAILABLE","source":"ndw"}},{"type":"Feature","geometry":{"type":"Point","coordinates":[4.9782494,52.337904]},"properties":{"type":"charge","layer":"passenger","locationId":"356","name":"Shell Recharge NL Sportlaan 2","address":"Sportlaan 2","city":"Diemen","operatorName":"Ubitricity","maxPowerKw":11,"isMegawatt":false,"status":"AVAILABLE","source":"ndw","priceKwh":0.388}},{"type":"Feature","geometry":{"type":"Point","coordinates":[4.956185,52.339417]},"properties":{"type":"charge","layer":"passenger","locationId":"127a0334-0ae4-40b0-a18c-bdd322049e88","name":"TNLP005908 - Hartveldseweg 45, Diemen","address":"45 Hartveldseweg","city":"Diemen","operatorName":"TotalEnergies","maxPowerKw":11,"isMegawatt":false,"status":"UNAVAILABLE","source":"ndw"}},{"type":"Feature","geometry":{"type":"Point","coordinates":[4.966072,52.341232]},"properties":{"type":"charge","layer":"passenger","locationId":"c8a7d1f9-9708-42f1-a344-79e11d3d128f","name":"TNLP009687 - D.J. den Hartoglaan 5, Diemen","address":"5 D.J. den Hartoglaan","city":"Diemen","operatorName":"TotalEnergies","maxPowerKw":15,"isMegawatt":false,"status":"AVAILABLE","source":"ndw"}},{"type":"Feature","geometry":{"type":"Point","coordinates":[4.9575,52.33928]},"properties":{"type":"charge","layer":"passenger","locationId":"3414f665c8023c57c2fe7965aade2a46","name":"Raadhuisstraat 2","address":"Raadhuisstraat 2","city":"Diemen","operatorName":"Vattenfall InCharge","maxPowerKw":11,"isMegawatt":false,"status":"CHARGING","source":"ndw"}},{"type":"Feature","geometry":{"type":"Point","coordinates":[4.95794,52.34328]},"properties":{"type":"charge","layer":"passenger","locationId":"c171e67c-900c-4663-885b-06ae875ec81f","name":"TNLP007057 - Arent Krijtsstraat 115, Diemen","address":"115 Arent Krijtsstraat","city":"Diemen","operatorName":"TotalEnergies","maxPowerKw":17,"isMegawatt":false,"status":"UNAVAILABLE","source":"ndw"}},{"type":"Feature","geometry":{"type":"Point","coordinates":[4.977251,52.352013]},"properties":{"type":"charge","layer":"passenger","locationId":"fd6cf084-03e2-4226-95ab-cd78eca53479","name":"TNLP006176 - Meerkoet 125, Diemen","address":"125 Meerkoet","city":"Diemen","operatorName":"TotalEnergies","maxPowerKw":17,"isMegawatt":false,"status":"UNAVAILABLE","source":"ndw"}},{"type":"Feature","geometry":{"type":"Point","coordinates":[4.962059,52.34321]},"properties":{"type":"charge","layer":"passenger","locationId":"237bfee0-4686-4750-980d-e6a776bac9b5","name":"TNLP009952 - Alfred Nobelstraat 3, Diemen","address":"3 Alfred Nobelstraat","city":"Diemen","operatorName":"TotalEnergies","maxPowerKw":17,"isMegawatt":false,"status":"UNAVAILABLE","source":"ndw"}},{"type":"Feature","geometry":{"type":"Point","coordinates":[4.94628,52.32928]},"properties":{"type":"charge","layer":"passenger","locationId":"50798809-259f-441d-b42b-4ed3e3ae498c","name":"PP004223 - Griend 37, Diemen","address":"37 Griend","city":"Diemen","operatorName":"TotalEnergies","maxPowerKw":11,"isMegawatt":false,"status":"UNAVAILABLE","source":"ndw"}},{"type":"Feature","geometry":{"type":"Point","coordinates":[4.953358,52.33713]},"properties":{"type":"charge","layer":"passenger","locationId":"db3a8d59-40f9-46d4-a833-8535b785ce3f","name":"TNLP009249 - Amberboomstede 5, Diemen","address":"5 Amberboomstede","city":"Diemen","operatorName":"TotalEnergies","maxPowerKw":15,"isMegawatt":false,"status":"AVAILABLE","source":"ndw"}},{"type":"Feature","geometry":{"type":"Point","coordinates":[4.964913,52.333945]},"properties":{"type":"charge","layer":"passenger","locationId":"a4b53cda-2741-4e62-8307-3cb06077c5ff","name":"Venserweg 21F","address":"Venserweg 21F","city":"Diemen","operatorName":"Vattenfall InCharge","maxPowerKw":22,"isMegawatt":false,"status":"AVAILABLE","source":"ndw"}},{"type":"Feature","geometry":{"type":"Point","coordinates":[4.963041,52.332692]},"properties":{"type":"charge","layer":"passenger","locationId":"NLCPIL6665715","name":"CHPT AMS LAB PLACES 3 & 4","address":"Verrijn Stuartweg 3h","city":"Diemen","operatorName":"ChargePoint","maxPowerKw":22,"isMegawatt":false,"status":"AVAILABLE","source":"ndw","priceKwh":0.48}},{"type":"Feature","geometry":{"type":"Point","coordinates":[4.953917,52.332714]},"properties":{"type":"charge","layer":"passenger","locationId":"ad64a3e0-aa75-40c4-a20a-7df13d71761d","name":"PP005228 - Ringkade 32, Diemen","address":"32 Ringkade","city":"Diemen","operatorName":"TotalEnergies","maxPowerKw":11,"isMegawatt":false,"status":"UNAVAILABLE","source":"ndw"}},{"type":"Feature","geometry":{"type":"Point","coordinates":[4.960206,52.341495]},"properties":{"type":"charge","layer":"passenger","locationId":"NLLOC013902","name":"NL, Wilhelminaplantsoen 43, 1111 CK Diemen","address":"Wilhelminaplantsoen 43","city":"Diemen","operatorName":"Allego","maxPowerKw":11,"isMegawatt":false,"status":"AVAILABLE","source":"ndw","priceKwh":0.511}},{"type":"Feature","geometry":{"type":"Point","coordinates":[4.975882,52.350265]},"properties":{"type":"charge","layer":"passenger","locationId":"ab928cba-22e8-4784-9146-70dbdd3ca493","name":"TNLP034245","address":"Wulp 25","city":"Diemen","operatorName":"TotalEnergies","maxPowerKw":14,"isMegawatt":false,"status":"AVAILABLE","source":"ndw"}},{"type":"Feature","geometry":{"type":"Point","coordinates":[4.9503723,52.335202]},"properties":{"type":"charge","layer":"passenger","locationId":"1300","name":"Shell Recharge NL Maanzaaderf 2","address":"Maanzaaderf 2","city":"Diemen","operatorName":"Ubitricity","maxPowerKw":22,"isMegawatt":false,"status":"AVAILABLE","source":"ndw","priceKwh":0.266}},{"type":"Feature","geometry":{"type":"Point","coordinates":[4.960612,52.34361]},"properties":{"type":"charge","layer":"passenger","locationId":"91e87216-37c8-4000-96c3-1ff502f6b6a6","name":"TNLP009933 - Albert Schweitzerstraat 1, Diemen","address":"1 Albert Schweitzerstraat","city":"Diemen","operatorName":"TotalEnergies","maxPowerKw":17,"isMegawatt":false,"status":"UNAVAILABLE","source":"ndw"}},{"type":"Feature","geometry":{"type":"Point","coordinates":[4.969118,52.343768]},"properties":{"type":"charge","layer":"passenger","locationId":"0e1a72bcae010db38268f38791445273","name":"Rode Kruislaan 417","address":"Rode Kruislaan 417","city":"Diemen","operatorName":"Vattenfall InCharge","maxPowerKw":11,"isMegawatt":false,"status":"CHARGING","source":"ndw"}},{"type":"Feature","geometry":{"type":"Point","coordinates":[4.952154,52.332875]},"properties":{"type":"charge","layer":"passenger","locationId":"NLLOC013255","name":"NL, Polderland 124, 1112RR, Diemen","address":"Polderland 124","city":"Diemen","operatorName":"Allego","maxPowerKw":11,"isMegawatt":false,"status":"AVAILABLE","source":"ndw","priceKwh":0.511}},{"type":"Feature","geometry":{"type":"Point","coordinates":[4.965932,52.339203]},"properties":{"type":"charge","layer":"passenger","locationId":"b1e39681f2539f83f3953d5052465548","name":"Pr. Marijkestraat 20","address":"Pr. Marijkestraat 20","city":"Diemen","operatorName":"Vattenfall InCharge","maxPowerKw":11,"isMegawatt":false,"status":"AVAILABLE","source":"ndw"}},{"type":"Feature","geometry":{"type":"Point","coordinates":[4.95742,52.33314]},"properties":{"type":"charge","layer":"passenger","locationId":"1551","name":"Shell Recharge NL Kruidenhof 31","address":"Kruidenhof 31","city":"Diemen","operatorName":"Ubitricity","maxPowerKw":11,"isMegawatt":false,"status":"AVAILABLE","source":"ndw","priceKwh":0.388}},{"type":"Feature","geometry":{"type":"Point","coordinates":[4.957126,52.33507]},"properties":{"type":"charge","layer":"passenger","locationId":"0636c16a-3229-4e7f-8ea3-602ba921ed70","name":"TNLP008900 - Speenkruid 94, Diemen","address":"94 Speenkruid","city":"Diemen","operatorName":"TotalEnergies","maxPowerKw":14,"isMegawatt":false,"status":"AVAILABLE","source":"ndw"}},{"type":"Feature","geometry":{"type":"Point","coordinates":[4.954946,52.333786]},"properties":{"type":"charge","layer":"passenger","locationId":"423c801c-bd85-49d4-8813-61364276af8a","name":"TNLP015207","address":"Havikskruid 139","city":"Diemen","operatorName":"TotalEnergies","maxPowerKw":17,"isMegawatt":false,"status":"AVAILABLE","source":"ndw"}},{"type":"Feature","geometry":{"type":"Point","coordinates":[4.954235,52.334827]},"properties":{"type":"charge","layer":"passenger","locationId":"8a4cb8f2-0bd1-41b2-9f58-a37727ea73b8","name":"TNLP006720 - Meelbeskamp 47, Diemen","address":"47 Meelbeskamp","city":"Diemen","operatorName":"TotalEnergies","maxPowerKw":17,"isMegawatt":false,"status":"UNAVAILABLE","source":"ndw"}},{"type":"Feature","geometry":{"type":"Point","coordinates":[4.967701,52.33775]},"properties":{"type":"charge","layer":"passenger","locationId":"b1642671-65ac-4a66-b4eb-3152a28bb2ad","name":"TNLP006915 - Burgemeester de Kievietstraat 124, Diemen","address":"124 Burgemeester de Kievietstraat","city":"Diemen","operatorName":"TotalEnergies","maxPowerKw":17,"isMegawatt":false,"status":"UNAVAILABLE","source":"ndw"}},{"type":"Feature","geometry":{"type":"Point","coordinates":[4.961741,52.34419]},"properties":{"type":"charge","layer":"passenger","locationId":"ee1f965d-6706-4535-bfa5-258edc379e8d","name":"TNLP006389 - Albert Schweitzerstraat 37, Diemen","address":"37 Albert Schweitzerstraat","city":"Diemen","operatorName":"TotalEnergies","maxPowerKw":17,"isMegawatt":false,"status":"UNAVAILABLE","source":"ndw"}},{"type":"Feature","geometry":{"type":"Point","coordinates":[4.962161,52.336323]},"properties":{"type":"charge","layer":"passenger","locationId":"93592fcb-705e-4c3b-a8ab-61d86e2ab1e7","name":"TNLP007179 - Hector Petersenstraat 2, Diemen","address":"2 Hector Petersenstraat","city":"Diemen","operatorName":"TotalEnergies","maxPowerKw":17,"isMegawatt":false,"status":"UNAVAILABLE","source":"ndw"}},{"type":"Feature","geometry":{"type":"Point","coordinates":[4.971064,52.336942]},"properties":{"type":"charge","layer":"passenger","locationId":"28701381-fd2c-43f6-af5a-c50a402a1ba7","name":"TNLP005880","address":"Het Pontveer 14","city":"Diemen","operatorName":"TotalEnergies","maxPowerKw":11,"isMegawatt":false,"status":"CHARGING","source":"ndw"}},{"type":"Feature","geometry":{"type":"Point","coordinates":[4.976597,52.350754]},"properties":{"type":"charge","layer":"passenger","locationId":"034c1e70-b0d1-4639-b681-842d3ef5f0de","name":"TNLP007726 - Kolgans 43, Diemen","address":"43 Kolgans","city":"Diemen","operatorName":"TotalEnergies","maxPowerKw":17,"isMegawatt":false,"status":"UNAVAILABLE","source":"ndw"}},{"type":"Feature","geometry":{"type":"Point","coordinates":[4.953833,52.335884]},"properties":{"type":"charge","layer":"passenger","locationId":"b802eca0-a559-46f5-b673-425c887e17b2","name":"TNLP007056 - Pluimeshof 3, Diemen","address":"3 Pluimeshof","city":"Diemen","operatorName":"TotalEnergies","maxPowerKw":17,"isMegawatt":false,"status":"UNAVAILABLE","source":"ndw"}},{"type":"Feature","geometry":{"type":"Point","coordinates":[4.989691,52.333153]},"properties":{"type":"charge","layer":"passenger","locationId":"7459c7ac-c29e-4f29-99a1-d713e31e5b73","name":"TNLP007148 - Diemerbospad 1, Diemen","address":"1 Diemerbospad","city":"Diemen","operatorName":"TotalEnergies","maxPowerKw":15,"isMegawatt":false,"status":"AVAILABLE","source":"ndw"}},{"type":"Feature","geometry":{"type":"Point","coordinates":[4.966623,52.34046]},"properties":{"type":"charge","layer":"passenger","locationId":"cbfd5016-f790-4e8f-92f4-4c61411a0c24","name":"TNLP009230 - Prinses Beatrixlaan 63, Diemen","address":"63 Prinses Beatrixlaan","city":"Diemen","operatorName":"TotalEnergies","maxPowerKw":17,"isMegawatt":false,"status":"UNAVAILABLE","source":"ndw"}},{"type":"Feature","geometry":{"type":"Point","coordinates":[4.955305,52.336044]},"properties":{"type":"charge","layer":"passenger","locationId":"d5f81e60-c011-41d6-a942-6a03b17168b3","name":"PP005266 - Meelbeskamp 1b, Diemen","address":"1b Meelbeskamp","city":"Diemen","operatorName":"TotalEnergies","maxPowerKw":11,"isMegawatt":false,"status":"UNAVAILABLE","source":"ndw"}},{"type":"Feature","geometry":{"type":"Point","coordinates":[4.968424,52.3418]},"properties":{"type":"charge","layer":"passenger","locationId":"9249d76a-08ae-448e-a1fe-7fec267b403e","name":"TNLP009388 - Henry Dunantlaan 47, Diemen","address":"47 Henry Dunantlaan","city":"Diemen","operatorName":"TotalEnergies","maxPowerKw":15,"isMegawatt":false,"status":"CHARGING","source":"ndw"}},{"type":"Feature","geometry":{"type":"Point","coordinates":[4.970929,52.352524]},"properties":{"type":"charge","layer":"passenger","locationId":"NLLOC001053","name":"NLD, Diemen, Houtbosch 61","address":"Houtbosch 61","city":"Diemen","operatorName":"Allego","maxPowerKw":11,"isMegawatt":false,"status":"AVAILABLE","source":"ndw","priceKwh":0.511}},{"type":"Feature","geometry":{"type":"Point","coordinates":[4.972172,52.33591]},"properties":{"type":"charge","layer":"passenger","locationId":"6fb5ca06-3621-44fb-be4b-d77e819b8226","name":"TNLP015014 - Keulse Vaart 76, Diemen","address":"76 Keulse Vaart","city":"Diemen","operatorName":"TotalEnergies","maxPowerKw":17,"isMegawatt":false,"status":"UNAVAILABLE","source":"ndw"}},{"type":"Feature","geometry":{"type":"Point","coordinates":[4.95905,52.3408]},"properties":{"type":"charge","layer":"passenger","locationId":"1628","name":"Shell Recharge NL Schoolstraat 54","address":"Schoolstraat 54","city":"Diemen","operatorName":"Ubitricity","maxPowerKw":22,"isMegawatt":false,"status":"AVAILABLE","source":"ndw","priceKwh":0.388}},{"type":"Feature","geometry":{"type":"Point","coordinates":[4.958655,52.329906]},"properties":{"type":"charge","layer":"passenger","locationId":"e48cfd9b-4c44-4b90-80e5-28fbdee04b0b","name":"Laadplein - TNLP006782 - Piet Mondriaansingel 1, Diemen","address":"1 Piet Mondriaansingel","city":"Diemen","operatorName":"TotalEnergies","maxPowerKw":15,"isMegawatt":false,"status":"AVAILABLE","source":"ndw"}},{"type":"Feature","geometry":{"type":"Point","coordinates":[4.976268,52.334747]},"properties":{"type":"charge","layer":"passenger","locationId":"5b180d30-0eaa-44dd-8ba1-c8a3c33e8c68","name":"TNLP007053 - Keulse Vaart 131, Diemen","address":"131 Keulse Vaart","city":"Diemen","operatorName":"TotalEnergies","maxPowerKw":17,"isMegawatt":false,"status":"UNAVAILABLE","source":"ndw"}},{"type":"Feature","geometry":{"type":"Point","coordinates":[4.967216,52.34099]},"properties":{"type":"charge","layer":"passenger","locationId":"e8274ec6-7572-4ed9-b28e-49a256dc552a","name":"PP005109 - Julianaplantsoen 50, Diemen","address":"50 Julianaplantsoen","city":"Diemen","operatorName":"TotalEnergies","maxPowerKw":11,"isMegawatt":false,"status":"UNAVAILABLE","source":"ndw"}},{"type":"Feature","geometry":{"type":"Point","coordinates":[4.963924,52.340115]},"properties":{"type":"charge","layer":"passenger","locationId":"05cf783c-4a7a-44a3-9db4-778ca82c7fd8","name":"PP005564 - Prinses Irenestraat 80, Diemen","address":"80 Prinses Irenestraat","city":"Diemen","operatorName":"TotalEnergies","maxPowerKw":11,"isMegawatt":false,"status":"UNAVAILABLE","source":"ndw"}},{"type":"Feature","geometry":{"type":"Point","coordinates":[4.96921,52.34716]},"properties":{"type":"charge","layer":"passenger","locationId":"e847ba6c-f19b-4343-ad47-b1bab2998871","name":"PP001206 - Harmonielaan 100, Diemen","address":"100 Harmonielaan","city":"Diemen","operatorName":"TotalEnergies","maxPowerKw":11,"isMegawatt":false,"status":"AVAILABLE","source":"ndw"}},{"type":"Feature","geometry":{"type":"Point","coordinates":[4.983812,52.348503]},"properties":{"type":"charge","layer":"passenger","locationId":"0785c984-94b7-43ed-8924-be810cd91b9e","name":"TNLP007912 - Hermelijnvlinder 1, Diemen","address":"1 Hermelijnvlinder","city":"Diemen","operatorName":"TotalEnergies","maxPowerKw":17,"isMegawatt":false,"status":"UNAVAILABLE","source":"ndw"}},{"type":"Feature","geometry":{"type":"Point","coordinates":[4.970225,52.33746]},"properties":{"type":"charge","layer":"passenger","locationId":"b4b329d5-d506-4756-b63f-cf8c671c0a3d","name":"TNLP015105 - De Gooische Tram 13, Diemen","address":"13 De Gooische Tram","city":"Diemen","operatorName":"TotalEnergies","maxPowerKw":17,"isMegawatt":false,"status":"UNAVAILABLE","source":"ndw"}},{"type":"Feature","geometry":{"type":"Point","coordinates":[4.969466,52.351849]},"properties":{"type":"charge","layer":"passenger","locationId":"NLLOC007751","name":"NL, Gravenland 18, 1111 SM, Diemen","address":"Gravenland 18","city":"Diemen","operatorName":"Allego","maxPowerKw":11,"isMegawatt":false,"status":"AVAILABLE","source":"ndw","priceKwh":0.511}},{"type":"Feature","geometry":{"type":"Point","coordinates":[4.959374,52.344139]},"properties":{"type":"charge","layer":"passenger","locationId":"NLLOC009237","name":"NL, Tobias Asserlaan 200, 111JS Diemen","address":"Tobias Asserlaan 200","city":"Diemen","operatorName":"Allego","maxPowerKw":11,"isMegawatt":false,"status":"AVAILABLE","source":"ndw","priceKwh":0.511}},{"type":"Feature","geometry":{"type":"Point","coordinates":[4.986717,52.332496]},"properties":{"type":"charge","layer":"passenger","locationId":"2FA5C2C8-40E2-44C2-B2D2-6DE3D1CCC8CA","name":"Eneco eMobility Naura Group - Diemen","address":"Stammerhove 1","city":"Diemen","operatorName":"Eneco","maxPowerKw":11,"isMegawatt":false,"status":"AVAILABLE","source":"ndw","priceKwh":0.32}},{"type":"Feature","geometry":{"type":"Point","coordinates":[4.961865,52.346252]},"properties":{"type":"charge","layer":"passenger","locationId":"89d3996a-befa-49b7-874f-9ac4503ce386","name":"TNLP007815 - Tobias Asserlaan 423, Diemen","address":"423 Tobias Asserlaan","city":"Diemen","operatorName":"TotalEnergies","maxPowerKw":17,"isMegawatt":false,"status":"UNAVAILABLE","source":"ndw"}},{"type":"Feature","geometry":{"type":"Point","coordinates":[4.976985,52.351124]},"properties":{"type":"charge","layer":"passenger","locationId":"47747841-ad44-4b33-a558-88001b41778f","name":"TNLP009680 - Kolgans 29, Diemen","address":"29 Kolgans","city":"Diemen","operatorName":"TotalEnergies","maxPowerKw":17,"isMegawatt":false,"status":"UNAVAILABLE","source":"ndw"}},{"type":"Feature","geometry":{"type":"Point","coordinates":[4.9809316,52.3500802]},"properties":{"type":"charge","layer":"passenger","locationId":"1242","name":"Shell Recharge NL Fregat 125","address":"Fregat 125","city":"Diemen","operatorName":"Ubitricity","maxPowerKw":22,"isMegawatt":false,"status":"AVAILABLE","source":"ndw","priceKwh":0.266}},{"type":"Feature","geometry":{"type":"Point","coordinates":[4.954523,52.336075]},"properties":{"type":"charge","layer":"passenger","locationId":"85c30b93-a21c-4d3d-afd1-29c1a55240d5","name":"TNLP007357 - Krenteboompjeshof 2, Diemen","address":"2 Krenteboompjeshof","city":"Diemen","operatorName":"TotalEnergies","maxPowerKw":17,"isMegawatt":false,"status":"UNAVAILABLE","source":"ndw"}},{"type":"Feature","geometry":{"type":"Point","coordinates":[4.969322,52.34017]},"properties":{"type":"charge","layer":"passenger","locationId":"80efc94f-7e85-487d-8305-f8f67fe32151","name":"TNLP015356 - Julianaplantsoen 234, Diemen","address":"234 Julianaplantsoen","city":"Diemen","operatorName":"TotalEnergies","maxPowerKw":17,"isMegawatt":false,"status":"AVAILABLE","source":"ndw"}},{"type":"Feature","geometry":{"type":"Point","coordinates":[4.979154,52.34846]},"properties":{"type":"charge","layer":"passenger","locationId":"9a2011139c791b06e55a3fdc4524a7ab","name":"Schouw 46","address":"Schouw 46","city":"Diemen","operatorName":"Vattenfall InCharge","maxPowerKw":11,"isMegawatt":false,"status":"AVAILABLE","source":"ndw"}},{"type":"Feature","geometry":{"type":"Point","coordinates":[4.972635,52.349483]},"properties":{"type":"charge","layer":"passenger","locationId":"92fa20f4-3c57-41d6-954f-eca652e6e5b7","name":"TNLP006627 - Rietzangerweg 1, Diemen","address":"1 Rietzangerweg","city":"Diemen","operatorName":"TotalEnergies","maxPowerKw":17,"isMegawatt":false,"status":"UNAVAILABLE","source":"ndw"}},{"type":"Feature","geometry":{"type":"Point","coordinates":[4.968736,52.351734]},"properties":{"type":"charge","layer":"passenger","locationId":"9a422e19-d3d4-4c9c-9d1e-754208e7c651","name":"TNLP006170 - Hofstedenweg 28, Diemen","address":"28 Hofstedenweg","city":"Diemen","operatorName":"TotalEnergies","maxPowerKw":17,"isMegawatt":false,"status":"UNAVAILABLE","source":"ndw"}},{"type":"Feature","geometry":{"type":"Point","coordinates":[4.978372,52.347004]},"properties":{"type":"charge","layer":"passenger","locationId":"302000e1-1368-46aa-8d5a-188ac3b77785","name":"TNLP005924 - Klipperweg 21, Diemen","address":"21 Klipperweg","city":"Diemen","operatorName":"TotalEnergies","maxPowerKw":17,"isMegawatt":false,"status":"UNAVAILABLE","source":"ndw"}},{"type":"Feature","geometry":{"type":"Point","coordinates":[4.963011,52.338722]},"properties":{"type":"charge","layer":"passenger","locationId":"690f7b26-7c5a-4f3c-9186-72aba69024aa","name":"TNLP006393 - Burgemeester de Kievietstraat 12, Diemen","address":"12 Burgemeester de Kievietstraat","city":"Diemen","operatorName":"TotalEnergies","maxPowerKw":17,"isMegawatt":false,"status":"UNAVAILABLE","source":"ndw"}},{"type":"Feature","geometry":{"type":"Point","coordinates":[4.978925,52.349342]},"properties":{"type":"charge","layer":"passenger","locationId":"ad86935d-2c10-4797-81cb-50b72f80bae5","name":"TNLP015289","address":"Tjalk 4","city":"Diemen","operatorName":"TotalEnergies","maxPowerKw":17,"isMegawatt":false,"status":"CHARGING","source":"ndw"}},{"type":"Feature","geometry":{"type":"Point","coordinates":[4.963045,52.3448]},"properties":{"type":"charge","layer":"passenger","locationId":"NLLOC001054","name":"NLD, Diemen, Martin Luther Kinglaan 412","address":"Martin Luther Kinglaan 412","city":"Diemen","operatorName":"Allego","maxPowerKw":22,"isMegawatt":false,"status":"AVAILABLE","source":"ndw","priceKwh":0.511}},{"type":"Feature","geometry":{"type":"Point","coordinates":[4.962654,52.328022]},"properties":{"type":"charge","layer":"passenger","locationId":"22dfafa9-f1e7-47e0-a39c-e1080e023625","name":"PP005465 - Wildenborch 6, Diemen","address":"6 Wildenborch","city":"Diemen","operatorName":"TotalEnergies","maxPowerKw":11,"isMegawatt":false,"status":"UNAVAILABLE","source":"ndw"}},{"type":"Feature","geometry":{"type":"Point","coordinates":[4.975226,52.335033]},"properties":{"type":"charge","layer":"passenger","locationId":"b21dc437-6aa2-43d8-9f28-60b8fbff2bf7","name":"TNLP005779 - Keulse Vaart 119, Diemen","address":"119 Keulse Vaart","city":"Diemen","operatorName":"TotalEnergies","maxPowerKw":11,"isMegawatt":false,"status":"UNAVAILABLE","source":"ndw"}},{"type":"Feature","geometry":{"type":"Point","coordinates":[4.9768,52.33231]},"properties":{"type":"charge","layer":"passenger","locationId":"8CDBC3C9-80FD-4F61-BFCF-07A1B4681589","name":"Eneco eMobility Sniep 47 Diemen","address":"Sniep 47","city":"Diemen","operatorName":"Eneco","maxPowerKw":22,"isMegawatt":false,"status":"UNAVAILABLE","source":"ndw","priceKwh":0.65}},{"type":"Feature","geometry":{"type":"Point","coordinates":[4.963254,52.345762]},"properties":{"type":"charge","layer":"passenger","locationId":"e627faef-3b36-4b45-96d4-dbb308fe1419","name":"TNLP034365","address":"Martin Luther Kinglaan 554","city":"Diemen","operatorName":"TotalEnergies","maxPowerKw":14,"isMegawatt":false,"status":"AVAILABLE","source":"ndw"}},{"type":"Feature","geometry":{"type":"Point","coordinates":[4.983818,52.34696]},"properties":{"type":"charge","layer":"passenger","locationId":"44ea6e02-9de7-40f6-96c9-d8cb999347f9","name":"TNLP006437 - Kuifvlinder 1, Diemen","address":"1 Kuifvlinder","city":"Diemen","operatorName":"TotalEnergies","maxPowerKw":17,"isMegawatt":false,"status":"UNAVAILABLE","source":"ndw"}},{"type":"Feature","geometry":{"type":"Point","coordinates":[4.973763,52.350244]},"properties":{"type":"charge","layer":"passenger","locationId":"NLLOC001375","name":"NL, Rietgors 11, 1111 VP Diemen","address":"Rietgors 11","city":"Diemen","operatorName":"Allego","maxPowerKw":22,"isMegawatt":false,"status":"AVAILABLE","source":"ndw","priceKwh":0.511}},{"type":"Feature","geometry":{"type":"Point","coordinates":[4.967419,52.34218]},"properties":{"type":"charge","layer":"passenger","locationId":"d3e02878-9859-475f-a201-a833a66ef56c","name":"TNLP006270 - Henri Dunantlaan 23, Diemen","address":"23 Henri Dunantlaan","city":"Diemen","operatorName":"TotalEnergies","maxPowerKw":17,"isMegawatt":false,"status":"UNAVAILABLE","source":"ndw"}},{"type":"Feature","geometry":{"type":"Point","coordinates":[4.973358,52.35397]},"properties":{"type":"charge","layer":"passenger","locationId":"71c02098-dd06-411b-b10d-a867f82d614d","name":"PP005219 - Zeezigt 258, Diemen","address":"258 Zeezigt","city":"Diemen","operatorName":"TotalEnergies","maxPowerKw":11,"isMegawatt":false,"status":"UNAVAILABLE","source":"ndw"}},{"type":"Feature","geometry":{"type":"Point","coordinates":[4.958251,52.3375]},"properties":{"type":"charge","layer":"passenger","locationId":"c5783b53-3da4-475a-98a8-548a54de4eaa","name":"PP005331 - Beukenhorst 4, Diemen","address":"4 Beukenhorst","city":"Diemen","operatorName":"TotalEnergies","maxPowerKw":17,"isMegawatt":false,"status":"UNAVAILABLE","source":"ndw"}},{"type":"Feature","geometry":{"type":"Point","coordinates":[4.9644,52.34422]},"properties":{"type":"charge","layer":"passenger","locationId":"b3edab82-a5e0-4ad3-9bbf-9a4dd8517586","name":"PP004220 - Pater Pirestraat 43, Diemen","address":"43 Pater Pirestraat","city":"Diemen","operatorName":"TotalEnergies","maxPowerKw":11,"isMegawatt":false,"status":"UNAVAILABLE","source":"ndw"}},{"type":"Feature","geometry":{"type":"Point","coordinates":[4.97301,52.338783]},"properties":{"type":"charge","layer":"passenger","locationId":"cb671be4-b941-4540-9625-2fef74886d6d","name":"TNLP006445 - Het Betonijzer 258, Diemen","address":"258 Het Betonijzer","city":"Diemen","operatorName":"TotalEnergies","maxPowerKw":17,"isMegawatt":false,"status":"UNAVAILABLE","source":"ndw"}},{"type":"Feature","geometry":{"type":"Point","coordinates":[4.96881,52.33121]},"properties":{"type":"charge","layer":"passenger","locationId":"6ac20cb5-10b0-4687-b096-486006f8c2dc","name":"PP004267 - Verrijn Stuartweg 48, Diemen","address":"48 Verrijn Stuartweg","city":"Diemen","operatorName":"TotalEnergies","maxPowerKw":15,"isMegawatt":false,"status":"AVAILABLE","source":"ndw"}},{"type":"Feature","geometry":{"type":"Point","coordinates":[4.97145,52.34266]},"properties":{"type":"charge","layer":"passenger","locationId":"e3d13ec43baa11d69dc6e2c3af309cd7","name":"Rode Kruislaan 855","address":"Rode Kruislaan 855","city":"Diemen","operatorName":"Vattenfall InCharge","maxPowerKw":11,"isMegawatt":false,"status":"AVAILABLE","source":"ndw"}},{"type":"Feature","geometry":{"type":"Point","coordinates":[4.955868,52.342384]},"properties":{"type":"charge","layer":"passenger","locationId":"f68123f7-fb37-4956-8fd8-7011814b4778","name":"TNLP008006 - Diemerkade 39, Diemen","address":"39 Diemerkade","city":"Diemen","operatorName":"TotalEnergies","maxPowerKw":17,"isMegawatt":false,"status":"UNAVAILABLE","source":"ndw"}},{"type":"Feature","geometry":{"type":"Point","coordinates":[4.955757,52.34106]},"properties":{"type":"charge","layer":"passenger","locationId":"516af312-fa67-4d35-a45e-80be215ef8f3","name":"TNLP006157 - Arent Krijtsstraat 21, Diemen","address":"21 Arent Krijtsstraat","city":"Diemen","operatorName":"TotalEnergies","maxPowerKw":17,"isMegawatt":false,"status":"UNAVAILABLE","source":"ndw"}},{"type":"Feature","geometry":{"type":"Point","coordinates":[4.98135,52.347219]},"properties":{"type":"charge","layer":"passenger","locationId":"NLLOC002757","name":"NLD, Diemen, Distelvlinderweg 78","address":"Distelvlinderweg 78","city":"Diemen","operatorName":"Allego","maxPowerKw":11,"isMegawatt":false,"status":"AVAILABLE","source":"ndw","priceKwh":0.511}},{"type":"Feature","geometry":{"type":"Point","coordinates":[4.9766,52.3481]},"properties":{"type":"charge","layer":"passenger","locationId":"96dcc052-2089-4685-8243-e36f87a91848","name":"PP004025 - Botterweg 32, Diemen","address":"32 Botterweg","city":"Diemen","operatorName":"TotalEnergies","maxPowerKw":11,"isMegawatt":false,"status":"UNAVAILABLE","source":"ndw"}},{"type":"Feature","geometry":{"type":"Point","coordinates":[4.969414,52.341513]},"properties":{"type":"charge","layer":"passenger","locationId":"NLLOC001055","name":"NLD, Diemen, Henry Dunantlaan 71","address":"Henry Dunantlaan 71","city":"Diemen","operatorName":"Allego","maxPowerKw":11,"isMegawatt":false,"status":"AVAILABLE","source":"ndw","priceKwh":0.511}},{"type":"Feature","geometry":{"type":"Point","coordinates":[4.959872,52.3295]},"properties":{"type":"charge","layer":"passenger","locationId":"4c16d496435cac49ebb07e1b2ee2d323","name":"Charley Tooropgracht 269","address":"Charley Tooropgracht 269","city":"Diemen","operatorName":"Vattenfall InCharge","maxPowerKw":11,"isMegawatt":false,"status":"CHARGING","source":"ndw"}},{"type":"Feature","geometry":{"type":"Point","coordinates":[4.964913,52.333945]},"properties":{"type":"charge","layer":"passenger","locationId":"77885b2606ef0c65f5686a3f6ab16b31","name":"Venserweg 21F","address":"Venserweg 21F","city":"Diemen","operatorName":"Vattenfall InCharge","maxPowerKw":22,"isMegawatt":false,"status":"AVAILABLE","source":"ndw"}},{"type":"Feature","geometry":{"type":"MultiPolygon","coordinates":[[[[4.972479643820476,52.355456440907005],[4.976708149432128,52.353491984545045],[4.980361288807645,52.35154424100777],[4.983802734955567,52.34971003701147],[4.989911509967188,52.34646084631841],[4.99834211098455,52.34201145432753],[4.999319605280254,52.3415364617522],[5.004161138140434,52.342577646390396],[5.009067418981604,52.34189155061917],[5.0122571764207855,52.34380127611778],[5.012303318408372,52.34384643799024],[5.012539329700853,52.34394054674287],[5.013373278591369,52.34376241672403],[5.014788675486061,52.34456959941291],[5.015469742430733,52.343690183594454],[5.0153236792531395,52.34326173146808],[5.0157838813980025,52.34316202583384],[5.0162118492109515,52.343738376523675],[5.016023301614893,52.345273653228816],[5.016546015994832,52.34572360662109],[5.015118003700797,52.347433523868126],[5.015293605536972,52.34763377109576],[5.016750060012406,52.34589924540608],[5.019048561557354,52.34787764434593],[5.023652602956775,52.34802432175765],[5.026859502763817,52.34877246496357],[5.0349427512267715,52.34452948197423],[5.033995620084208,52.340638997337535],[5.0261875434965795,52.338062914120385],[5.026137596861561,52.33749088794054],[5.027415734886801,52.337833137767],[5.02748541761594,52.33771924377973],[5.025342543940281,52.33704917534534],[5.018461516566727,52.33407459653868],[5.014991284379589,52.331776632500606],[5.01444908778175,52.33143149147709],[5.012792826488169,52.33020759973367],[5.016132661646647,52.324512315232774],[4.998078172317928,52.31403507374317],[4.997859321189485,52.31397907370968],[4.9974551440503925,52.31424634084367],[4.997296853530035,52.31419581149418],[4.99709006746162,52.31445586359224],[4.997424569346034,52.31673592276079],[4.996894734040293,52.31764256996235],[4.991670742112256,52.32443787205818],[4.9896026769172135,52.3275478955995],[4.98618094423099,52.329719998877515],[4.983945700357753,52.33066936937267],[4.980110101962624,52.330906598379386],[4.977736052159866,52.331026731194505],[4.977135287910449,52.330642931563524],[4.975306156785085,52.33056182657678],[4.9706635803588695,52.3263831971803],[4.97047266035933,52.326288154602736],[4.97027315274498,52.32617996206996],[4.967540264633463,52.327757742395576],[4.95675057830976,52.324044791122695],[4.956710696175857,52.32403094329588],[4.952674810773805,52.322644198181244],[4.948119757855344,52.32762963457013],[4.947657847250122,52.32813841424942],[4.9447153803244115,52.32712985173148],[4.942692748755328,52.329334392637584],[4.948907357068008,52.33152553774938],[4.94867011850004,52.33171374683458],[4.946005158890673,52.333767719107726],[4.948004684332483,52.335003750062775],[4.950447529384571,52.33777278007984],[4.950615840344534,52.33793647174874],[4.950326306850983,52.33863752286342],[4.949859310548102,52.33852835308899],[4.949700477843318,52.338727562921925],[4.952498313117899,52.340006851495986],[4.952730077900426,52.34015874037741],[4.956266986209952,52.34358696005464],[4.956359775404378,52.34368011397219],[4.960376313848473,52.34788582837356],[4.960427586892412,52.34793597949167],[4.964537534221084,52.35277328174519],[4.965856136395225,52.35465124446453],[4.966238875160494,52.3541638558781],[4.968873128613061,52.355153734472296],[4.9695214058787975,52.3554982660028],[4.969500510893287,52.355576996279034],[4.969312794618649,52.35561031610119],[4.9695937716506355,52.35610176568543],[4.972479643820476,52.355456440907005]]]]},"properties":{"type":"boundary","gemeente":"Diemen","code":"GM0384"}}]}