{"type":"FeatureCollection","metadata":{"gemeente":"Drechterland","slug":"drechterland","code":"GM0498","generated_at":"2026-07-06T16:26:11.361Z","total_passenger":43,"total_freight":0,"bounds":[5.091751583476005,52.619879600421,5.246480051971645,52.70745171884734],"operators":["E-Flux by Road","Eneco","Laadnet","TotalEnergies","Ubitricity","Vattenfall InCharge"]},"features":[{"type":"Feature","geometry":{"type":"Point","coordinates":[5.16301,52.64083]},"properties":{"type":"charge","layer":"passenger","locationId":"36122726-5b75-4150-bc09-5c7159d9bf83","name":"TNLP008905 - Kollislaan 1, Wijdenes","address":"1 Kollislaan","city":"Wijdenes","operatorName":"TotalEnergies","maxPowerKw":14,"isMegawatt":false,"status":"AVAILABLE","source":"ndw"}},{"type":"Feature","geometry":{"type":"Point","coordinates":[5.166394,52.694748]},"properties":{"type":"charge","layer":"passenger","locationId":"b8e9ddc6-7615-4d85-bc1d-b5690acc9420","name":"TNLP005808 - Graspieper 16, Hoogkarspel","address":"16 Graspieper","city":"Hoogkarspel","operatorName":"TotalEnergies","maxPowerKw":13,"isMegawatt":false,"status":"AVAILABLE","source":"ndw"}},{"type":"Feature","geometry":{"type":"Point","coordinates":[5.169682,52.69107]},"properties":{"type":"charge","layer":"passenger","locationId":"d5a12d6b-2f21-42b1-b614-99dd8a1cb21e","name":"TNLP008340 - Rietgans 31, Hoogkarspel","address":"31 Rietgans","city":"Hoogkarspel","operatorName":"TotalEnergies","maxPowerKw":13,"isMegawatt":false,"status":"AVAILABLE","source":"ndw"}},{"type":"Feature","geometry":{"type":"Point","coordinates":[5.166021,52.690895]},"properties":{"type":"charge","layer":"passenger","locationId":"08008c4b-6780-471c-a6c5-dc5accf774fd","name":"TNLP009479 - Waterput 15, Hoogkarspel","address":"15 Waterput","city":"Hoogkarspel","operatorName":"TotalEnergies","maxPowerKw":13,"isMegawatt":false,"status":"AVAILABLE","source":"ndw"}},{"type":"Feature","geometry":{"type":"Point","coordinates":[5.20184,52.66522]},"properties":{"type":"charge","layer":"passenger","locationId":"9aec3630-8eb3-48fa-a14a-e38b6f94cb51","name":"TNLP009729 - Nieuwstraat 17, Venhuizen","address":"17 Nieuwstraat","city":"Venhuizen","operatorName":"TotalEnergies","maxPowerKw":13,"isMegawatt":false,"status":"AVAILABLE","source":"ndw"}},{"type":"Feature","geometry":{"type":"Point","coordinates":[5.160939,52.634385]},"properties":{"type":"charge","layer":"passenger","locationId":"4fd4591523b9b213192fc42819a3ddc8","name":"Het Wuiver 16","address":"Het Wuiver 16","city":"Wijdenes","operatorName":"Vattenfall InCharge","maxPowerKw":14,"isMegawatt":false,"status":"AVAILABLE","source":"ndw"}},{"type":"Feature","geometry":{"type":"Point","coordinates":[5.1197586,52.6708829]},"properties":{"type":"charge","layer":"passenger","locationId":"975","name":"Shell Recharge NL De Eenhoorn 130","address":"De Eenhoorn 130","city":"Oosterblokker","operatorName":"Ubitricity","maxPowerKw":22,"isMegawatt":false,"status":"AVAILABLE","source":"ndw","priceKwh":0.266}},{"type":"Feature","geometry":{"type":"Point","coordinates":[5.1714,52.69]},"properties":{"type":"charge","layer":"passenger","locationId":"446","name":"Shell Recharge NL Blauwe Reiger 61","address":"Blauwe Reiger 61","city":"Hoogkarpsel","operatorName":"Ubitricity","maxPowerKw":11,"isMegawatt":false,"status":"AVAILABLE","source":"ndw","priceKwh":0.388}},{"type":"Feature","geometry":{"type":"Point","coordinates":[5.21582,52.66835]},"properties":{"type":"charge","layer":"passenger","locationId":"214","name":"Shell Recharge NL Kerkweg 109","address":"Kerkweg 109","city":"Venhuizen","operatorName":"Ubitricity","maxPowerKw":11,"isMegawatt":false,"status":"AVAILABLE","source":"ndw","priceKwh":0.388}},{"type":"Feature","geometry":{"type":"Point","coordinates":[5.1827292,52.661632]},"properties":{"type":"charge","layer":"passenger","locationId":"820","name":"Shell Recharge NL Noorder Sluisstraat 31","address":"Noorder Sluisstraat 31","city":"Hem","operatorName":"Ubitricity","maxPowerKw":22,"isMegawatt":false,"status":"AVAILABLE","source":"ndw","priceKwh":0.266}},{"type":"Feature","geometry":{"type":"Point","coordinates":[5.18222,52.6602]},"properties":{"type":"charge","layer":"passenger","locationId":"6270e05ed15ddcf8432e6321","name":"Lader thuis","address":"Hertog Willemweg 1","city":"Hem","operatorName":"E-Flux by Road","maxPowerKw":22,"isMegawatt":false,"status":"AVAILABLE","source":"ndw","priceKwh":0.47}},{"type":"Feature","geometry":{"type":"Point","coordinates":[5.2159349,52.6759217]},"properties":{"type":"charge","layer":"passenger","locationId":"924","name":"Shell Recharge NL Kerkweg 2","address":"Kerkweg 2","city":"Venhuizen","operatorName":"Ubitricity","maxPowerKw":22,"isMegawatt":false,"status":"AVAILABLE","source":"ndw","priceKwh":0.266}},{"type":"Feature","geometry":{"type":"Point","coordinates":[5.12083,52.63635]},"properties":{"type":"charge","layer":"passenger","locationId":"637","name":"Shell Recharge NL Ravenstraat 80","address":"Ravenstraat 80","city":"Schellinkhout","operatorName":"Ubitricity","maxPowerKw":11,"isMegawatt":false,"status":"AVAILABLE","source":"ndw","priceKwh":0.388}},{"type":"Feature","geometry":{"type":"Point","coordinates":[5.212767,52.66485]},"properties":{"type":"charge","layer":"passenger","locationId":"397153f0-5fe7-4436-be67-6191314d0f99","name":"TNLP009611 - Osseweid 46, Venhuizen","address":"46 Osseweid","city":"Venhuizen","operatorName":"TotalEnergies","maxPowerKw":15,"isMegawatt":false,"status":"AVAILABLE","source":"ndw"}},{"type":"Feature","geometry":{"type":"Point","coordinates":[5.188484,52.688784]},"properties":{"type":"charge","layer":"passenger","locationId":"4757599","name":"Laadnet Gebr. Kok","address":"Zuiderwijzend 2","city":"Hoogkarspel","operatorName":"Laadnet","maxPowerKw":22,"isMegawatt":false,"status":"AVAILABLE","source":"ndw"}},{"type":"Feature","geometry":{"type":"Point","coordinates":[5.17471,52.696]},"properties":{"type":"charge","layer":"passenger","locationId":"24e8e9f6-0d91-43ff-ab29-730e31f0ebe8","name":"PP004071 - Om de Noord 3, Hoogkarspel","address":"3 Om de Noord","city":"Hoogkarspel","operatorName":"TotalEnergies","maxPowerKw":13,"isMegawatt":false,"status":"AVAILABLE","source":"ndw"}},{"type":"Feature","geometry":{"type":"Point","coordinates":[5.207961,52.665054]},"properties":{"type":"charge","layer":"passenger","locationId":"601","name":"Shell Recharge NL Putter 6","address":"Putter 6","city":"Venhuizen","operatorName":"Ubitricity","maxPowerKw":11,"isMegawatt":false,"status":"AVAILABLE","source":"ndw","priceKwh":0.388}},{"type":"Feature","geometry":{"type":"Point","coordinates":[5.135784,52.678342]},"properties":{"type":"charge","layer":"passenger","locationId":"61e8706b1b64961ddcbfedcd","name":"Bas Koeten Racing b.v. 1","address":"Industrieweg 3","city":"Westwoud","operatorName":"E-Flux by Road","maxPowerKw":22,"isMegawatt":false,"status":"AVAILABLE","source":"ndw","priceKwh":0.46}},{"type":"Feature","geometry":{"type":"Point","coordinates":[5.18192,52.65773]},"properties":{"type":"charge","layer":"passenger","locationId":"167","name":"Shell Recharge NL Hertog Willemweg 44","address":"Hertog Willemweg 44","city":"Hem","operatorName":"Ubitricity","maxPowerKw":11,"isMegawatt":false,"status":"AVAILABLE","source":"ndw","priceKwh":0.388}},{"type":"Feature","geometry":{"type":"Point","coordinates":[5.207789,52.66359]},"properties":{"type":"charge","layer":"passenger","locationId":"62bf1b4d-9e76-4138-93a7-0af63272cb35","name":"TNLP034327","address":"Merel 31","city":"Venhuizen","operatorName":"TotalEnergies","maxPowerKw":14,"isMegawatt":false,"status":"AVAILABLE","source":"ndw"}},{"type":"Feature","geometry":{"type":"Point","coordinates":[5.182005,52.69266]},"properties":{"type":"charge","layer":"passenger","locationId":"5ed19904-5ad9-4d9e-bc80-91e6d456dc7b","name":"TNLP034318","address":"Dahliastraat 110","city":"Hoogkarspel","operatorName":"TotalEnergies","maxPowerKw":14,"isMegawatt":false,"status":"AVAILABLE","source":"ndw"}},{"type":"Feature","geometry":{"type":"Point","coordinates":[5.131729,52.686571]},"properties":{"type":"charge","layer":"passenger","locationId":"511378ae29e999450ece370e31627799","name":"Hanebalk 2","address":"Hanebalk 2","city":"Westwoud","operatorName":"Vattenfall InCharge","maxPowerKw":11,"isMegawatt":false,"status":"CHARGING","source":"ndw"}},{"type":"Feature","geometry":{"type":"Point","coordinates":[5.116127,52.669376]},"properties":{"type":"charge","layer":"passenger","locationId":"1913eb72-9a71-4f96-bf42-56d9af3f332c","name":"TNLP006980 - Pennekamplaan 41, Oosterblokker","address":"41 Pennekamplaan","city":"Oosterblokker","operatorName":"TotalEnergies","maxPowerKw":15,"isMegawatt":false,"status":"AVAILABLE","source":"ndw"}},{"type":"Feature","geometry":{"type":"Point","coordinates":[5.167259,52.694023]},"properties":{"type":"charge","layer":"passenger","locationId":"431d025b-f2e7-4b3d-9d73-f3ecd636b4d8","name":"TNLP006460 - Zanglijster 12, Hoogkarspel","address":"12 Zanglijster","city":"Hoogkarspel","operatorName":"TotalEnergies","maxPowerKw":15,"isMegawatt":false,"status":"AVAILABLE","source":"ndw"}},{"type":"Feature","geometry":{"type":"Point","coordinates":[5.172879,52.693535]},"properties":{"type":"charge","layer":"passenger","locationId":"fe298307-2906-4473-9d15-cce7afedb2f4","name":"TNLP009201 - Streekweg 172, Hoogkarspel","address":"172 Streekweg","city":"Hoogkarspel","operatorName":"TotalEnergies","maxPowerKw":15,"isMegawatt":false,"status":"AVAILABLE","source":"ndw"}},{"type":"Feature","geometry":{"type":"Point","coordinates":[5.18843,52.65506]},"properties":{"type":"charge","layer":"passenger","locationId":"064B6C80-607B-4FE8-A42F-C47F84AE4E22","name":"Eneco eMobility Schadenberg Groep - Hem","address":"Groeneweg 7","city":"Hem","operatorName":"Eneco","maxPowerKw":22,"isMegawatt":false,"status":"UNAVAILABLE","source":"ndw","priceKwh":0.32}},{"type":"Feature","geometry":{"type":"Point","coordinates":[5.17476,52.697033]},"properties":{"type":"charge","layer":"passenger","locationId":"19204fcc-e5b3-4653-b4c8-307bad37935e","name":"TNLP008586 - De Scherper 1, Hoogkarspel","address":"1 De Scherper","city":"Hoogkarspel","operatorName":"TotalEnergies","maxPowerKw":13,"isMegawatt":false,"status":"AVAILABLE","source":"ndw"}},{"type":"Feature","geometry":{"type":"Point","coordinates":[5.189096,52.692142]},"properties":{"type":"charge","layer":"passenger","locationId":"544b9ac8-3077-4600-b2b9-89f741a004a7","name":"PP005036 - Anemonenlaan 96, Hoogkarspel","address":"96 Anemonenlaan","city":"Hoogkarspel","operatorName":"TotalEnergies","maxPowerKw":15,"isMegawatt":false,"status":"AVAILABLE","source":"ndw"}},{"type":"Feature","geometry":{"type":"Point","coordinates":[5.135955,52.678159]},"properties":{"type":"charge","layer":"passenger","locationId":"61e870f4f0f12924d1bd8d68","name":"Bas Koeten Racing b.v. 2","address":"Industrieweg 3","city":"Westwoud","operatorName":"E-Flux by Road","maxPowerKw":22,"isMegawatt":false,"status":"AVAILABLE","source":"ndw","priceKwh":0.46}},{"type":"Feature","geometry":{"type":"Point","coordinates":[5.177139,52.695084]},"properties":{"type":"charge","layer":"passenger","locationId":"857e67f6-052e-4daf-b08d-d1669f29f78d","name":"TNLP006490 - Raadhuisplein 24, Hoogkarspel","address":"24 Raadhuisplein","city":"Hoogkarspel","operatorName":"TotalEnergies","maxPowerKw":15,"isMegawatt":false,"status":"AVAILABLE","source":"ndw"}},{"type":"Feature","geometry":{"type":"Point","coordinates":[5.177604,52.695206]},"properties":{"type":"charge","layer":"passenger","locationId":"69286a7f3aee71933d840e69","name":"Parkeergarage gemeentehuis Drechterland","address":"Raadhuisplein 1","city":"Hoogkarspel","operatorName":"E-Flux by Road","maxPowerKw":11,"isMegawatt":false,"status":"AVAILABLE","source":"ndw","priceKwh":0.26}},{"type":"Feature","geometry":{"type":"Point","coordinates":[5.20128,52.66103]},"properties":{"type":"charge","layer":"passenger","locationId":"9165e71f-dde9-462e-9d77-eb44e17a1b1e","name":"PP004069 - De Stad Riga 11, Venhuizen","address":"11 De Stad Riga","city":"Venhuizen","operatorName":"TotalEnergies","maxPowerKw":13,"isMegawatt":false,"status":"AVAILABLE","source":"ndw"}},{"type":"Feature","geometry":{"type":"Point","coordinates":[5.20135,52.662758]},"properties":{"type":"charge","layer":"passenger","locationId":"9eb6d3a2-0567-444f-90f3-58588401500f","name":"TNLP009072 - Tuinstraat 4, Venhuizen","address":"4 Tuinstraat","city":"Venhuizen","operatorName":"TotalEnergies","maxPowerKw":15,"isMegawatt":false,"status":"AVAILABLE","source":"ndw"}},{"type":"Feature","geometry":{"type":"Point","coordinates":[5.182006,52.692672]},"properties":{"type":"charge","layer":"passenger","locationId":"62143562754c6061ce138db7b3cfd5a2","name":"Dahliastraat 110","address":"Dahliastraat 110","city":"Hoogkarspel","operatorName":"Vattenfall InCharge","maxPowerKw":11,"isMegawatt":false,"status":"AVAILABLE","source":"ndw"}},{"type":"Feature","geometry":{"type":"Point","coordinates":[5.197569,52.638929]},"properties":{"type":"charge","layer":"passenger","locationId":"62726bed856f62798ec61f7a","name":"Karin Bakker 's station","address":"Oosterleek  10","city":"Oosterleek","operatorName":"E-Flux by Road","maxPowerKw":22,"isMegawatt":false,"status":"AVAILABLE","source":"ndw","priceKwh":0.38}},{"type":"Feature","geometry":{"type":"Point","coordinates":[5.185379,52.69715]},"properties":{"type":"charge","layer":"passenger","locationId":"4ccd9ba6-cd51-40ee-8526-dbe56ab0e118","name":"TNLP006492 - Kamille 2, Hoogkarspel","address":"2 Kamille","city":"Hoogkarspel","operatorName":"TotalEnergies","maxPowerKw":13,"isMegawatt":false,"status":"AVAILABLE","source":"ndw"}},{"type":"Feature","geometry":{"type":"Point","coordinates":[5.177315,52.694539]},"properties":{"type":"charge","layer":"passenger","locationId":"75784951-9910-4F15-8DA5-FA61425AFF3B","name":"Eneco eMobility Albert Heijn - Streekweg 210","address":"Streekweg 210","city":"Hoogkarspel","operatorName":"Eneco","maxPowerKw":150,"isMegawatt":false,"status":"CHARGING","source":"ndw","priceKwh":0.62}},{"type":"Feature","geometry":{"type":"Point","coordinates":[5.169866,52.695835]},"properties":{"type":"charge","layer":"passenger","locationId":"df0fae68-b80c-4c8f-9eb8-25e0818df299","name":"TNLP009480 - Roodborst 22, Hoogkarspel","address":"22 Roodborst","city":"Hoogkarspel","operatorName":"TotalEnergies","maxPowerKw":15,"isMegawatt":false,"status":"CHARGING","source":"ndw"}},{"type":"Feature","geometry":{"type":"Point","coordinates":[5.166918,52.689423]},"properties":{"type":"charge","layer":"passenger","locationId":"089cbb5f-c6b8-4ce6-b699-7a773d3f90cf","name":"TNLP008611 - Bronstijd 19, Hoogkarspel","address":"19 Bronstijd","city":"Hoogkarspel","operatorName":"TotalEnergies","maxPowerKw":14,"isMegawatt":false,"status":"AVAILABLE","source":"ndw"}},{"type":"Feature","geometry":{"type":"Point","coordinates":[5.189537,52.699898]},"properties":{"type":"charge","layer":"passenger","locationId":"a252ebff-5c1c-4be5-bbfd-4d115b2c6758","name":"TNLP008060 - Laurier 18, Hoogkarspel","address":"18 Laurier","city":"Hoogkarspel","operatorName":"TotalEnergies","maxPowerKw":13,"isMegawatt":false,"status":"AVAILABLE","source":"ndw"}},{"type":"Feature","geometry":{"type":"Point","coordinates":[5.20263,52.66374]},"properties":{"type":"charge","layer":"passenger","locationId":"9c8b131fa67144060c9aea2de5c0bb7f","name":"Sint Lucasstraat 12","address":"Sint Lucasstraat 12","city":"Venhuizen","operatorName":"Vattenfall InCharge","maxPowerKw":11,"isMegawatt":false,"status":"AVAILABLE","source":"ndw"}},{"type":"Feature","geometry":{"type":"Point","coordinates":[5.181006,52.69762]},"properties":{"type":"charge","layer":"passenger","locationId":"67fa7f9d-3241-4530-bc83-4892f299356e","name":"TNLP008640 - Klokkeweid 14, Hoogkarspel","address":"14 Klokkeweid","city":"Hoogkarspel","operatorName":"TotalEnergies","maxPowerKw":14,"isMegawatt":false,"status":"AVAILABLE","source":"ndw"}},{"type":"Feature","geometry":{"type":"Point","coordinates":[5.163982,52.696358]},"properties":{"type":"charge","layer":"passenger","locationId":"0d355c67-fdec-48b4-b16e-33f9ee4f120f","name":"TNLP008805 - Pimpelmees 30, Hoogkarspel","address":"30 Pimpelmees","city":"Hoogkarspel","operatorName":"TotalEnergies","maxPowerKw":14,"isMegawatt":false,"status":"AVAILABLE","source":"ndw"}},{"type":"Feature","geometry":{"type":"MultiPolygon","coordinates":[[[[5.195694510066434,52.69221464737095],[5.204594768582464,52.67761344972595],[5.2046996984105744,52.67794038948038],[5.206231240645117,52.68259433131849],[5.208790128931569,52.68380904045498],[5.214435221543939,52.68434619092658],[5.215235838779568,52.68442191079532],[5.224861327094485,52.68523648788418],[5.233168850254991,52.68589901996744],[5.235432526192401,52.68602905205993],[5.243421206028294,52.68624347528763],[5.246017101006418,52.686393110507375],[5.246055887796709,52.68584370076229],[5.246480051971645,52.68551182985405],[5.245709144843538,52.684987505497084],[5.245273918940471,52.682156400480494],[5.24383006367729,52.681657966655145],[5.243232898115527,52.67765161386381],[5.242664871850196,52.672631191898084],[5.238180842348962,52.665350750733694],[5.235781877201011,52.65706879291567],[5.230643304808455,52.65276851321992],[5.207080534681608,52.6445738131555],[5.201355840056432,52.64104472863363],[5.198524608796234,52.636312328687666],[5.190104836757874,52.6367121897139],[5.185432467381821,52.63588007233081],[5.177729295936219,52.63420255656811],[5.1745601025087895,52.633019506091635],[5.17087284050808,52.63069011584635],[5.164202373516652,52.62689371554262],[5.159312948799982,52.62318182608866],[5.149655292486863,52.62363959886268],[5.1470401511806205,52.62267010877551],[5.145944009773741,52.6231275970382],[5.142218553289287,52.62238277260254],[5.12788905241555,52.619879600421],[5.125406739671286,52.621902961582315],[5.1262845216174915,52.623380754963975],[5.128058709419327,52.62431026248103],[5.128688887647556,52.626093087925476],[5.1273340285350075,52.626829334190504],[5.125375609673306,52.62960065391766],[5.121025938799833,52.63261777480487],[5.1172183241021365,52.63288907810571],[5.111608246751692,52.63228132729211],[5.109007853437434,52.6313841869714],[5.106546750046956,52.63157413050027],[5.101263099488727,52.63367667833572],[5.1007532284218655,52.63473708012531],[5.106044080822065,52.63558977591778],[5.103603991008606,52.6417365369922],[5.101963081769099,52.64702842302741],[5.105191188829083,52.64779058790854],[5.117077395173096,52.64998570853967],[5.1164402064962236,52.65062285962236],[5.119413074866138,52.65116312579681],[5.1161147090055135,52.65431154901307],[5.114758037801182,52.653782829446264],[5.110684451979001,52.65670538864338],[5.111338720094011,52.65722188673205],[5.1075902841658705,52.65971998902358],[5.108071480045633,52.65994850088449],[5.10800305401053,52.66026944711218],[5.108230631752388,52.66040155928344],[5.108039096427103,52.660692757698754],[5.108324253287692,52.66079574281277],[5.10723204070408,52.66199564580914],[5.107633807011073,52.662157412151096],[5.106553195554269,52.663149825708224],[5.106270469176403,52.66300445653871],[5.104861058023319,52.664295780831424],[5.104051895723283,52.66395544414866],[5.103410665132382,52.66456750770737],[5.103098973966122,52.6648959425213],[5.102782833475216,52.664772569256186],[5.101418910051386,52.66603184744811],[5.100887921228645,52.6658199167446],[5.09874877032586,52.66743633879652],[5.0962652888185325,52.669722833796854],[5.096206974466625,52.66981363096835],[5.096933226682678,52.670107615479466],[5.096668801193146,52.670345981422166],[5.0988174792778675,52.67126182817852],[5.0964837445641535,52.67433035088683],[5.096104415937745,52.67488897816504],[5.091751583476005,52.67892371219081],[5.125179001159571,52.69107574400128],[5.14449701581835,52.6963247363736],[5.145794932619035,52.69667670819369],[5.153173921243626,52.698914628448],[5.160121315821058,52.70100758460173],[5.1870227804555125,52.70745171884734],[5.190246904630498,52.702056793577874],[5.190337263530942,52.70190289034105],[5.192766143140535,52.69784350123337],[5.1934362871273665,52.69659427381794],[5.195729940691309,52.692746652114295],[5.195805348449234,52.69260806566132],[5.195999267001417,52.692277363473195],[5.195694510066434,52.69221464737095]]]]},"properties":{"type":"boundary","gemeente":"Drechterland","code":"GM0498"}}]}