{"type":"FeatureCollection","metadata":{"gemeente":"Eemnes","slug":"eemnes","code":"GM0317","generated_at":"2026-07-06T16:26:11.361Z","total_passenger":53,"total_freight":0,"bounds":[5.222901202129095,52.21946004369295,5.331241010796636,52.28164509035289],"operators":["E-Flux by Road","Fastned","Laadnet","TotalEnergies","Ubitricity","Vattenfall InCharge"]},"features":[{"type":"Feature","geometry":{"type":"Point","coordinates":[5.24679,52.2545]},"properties":{"type":"charge","layer":"passenger","locationId":"8c304818-0327-44a7-9f63-433576f05059","name":"PP004148 - Laarderweg 116, Eemnes","address":"116 Laarderweg","city":"Eemnes","operatorName":"TotalEnergies","maxPowerKw":11,"isMegawatt":false,"status":"AVAILABLE","source":"ndw"}},{"type":"Feature","geometry":{"type":"Point","coordinates":[5.25598,52.26434]},"properties":{"type":"charge","layer":"passenger","locationId":"31218","name":"Fastned Eemakker","address":"Eemakker A27","city":"Eemnes","operatorName":"Fastned","maxPowerKw":300,"isMegawatt":false,"status":"AVAILABLE","source":"ndw","priceKwh":0.6364}},{"type":"Feature","geometry":{"type":"Point","coordinates":[5.257853,52.25886]},"properties":{"type":"charge","layer":"passenger","locationId":"238df22e-6c02-465c-8a9a-bbfca1bf3725","name":"TNLP007765 - Eemhof 39, Eemnes","address":"39 Eemhof","city":"Eemnes","operatorName":"TotalEnergies","maxPowerKw":17,"isMegawatt":false,"status":"AVAILABLE","source":"ndw"}},{"type":"Feature","geometry":{"type":"Point","coordinates":[5.25214,52.24638]},"properties":{"type":"charge","layer":"passenger","locationId":"3344f5d9-fb3c-4644-ad37-b8e7198c377a","name":"PP001716 - Ruizendaallaan 22, Eemnes","address":"22 Ruizendaallaan","city":"Eemnes","operatorName":"TotalEnergies","maxPowerKw":11,"isMegawatt":false,"status":"AVAILABLE","source":"ndw"}},{"type":"Feature","geometry":{"type":"Point","coordinates":[5.253433,52.264814]},"properties":{"type":"charge","layer":"passenger","locationId":"50758","name":"Fastned 't Veentje","address":"A27, 't Veentje, Eemnes","city":"Eemnes","operatorName":"Fastned","maxPowerKw":300,"isMegawatt":false,"status":"AVAILABLE","source":"ndw","priceKwh":0.6364}},{"type":"Feature","geometry":{"type":"Point","coordinates":[5.24515,52.22964]},"properties":{"type":"charge","layer":"passenger","locationId":"1670396","name":"Laadnet Fonds De Heren van het Pakhuis","address":"Eikenlaan 12","city":"Eemnes","operatorName":"Laadnet","maxPowerKw":22,"isMegawatt":false,"status":"AVAILABLE","source":"ndw"}},{"type":"Feature","geometry":{"type":"Point","coordinates":[5.254826,52.24856]},"properties":{"type":"charge","layer":"passenger","locationId":"2e95cada-2de1-4894-b988-526e4d0ac603","name":"PP001764 - Ruwbeemd 2, Eemnes","address":"2 Ruwbeemd","city":"Eemnes","operatorName":"TotalEnergies","maxPowerKw":11,"isMegawatt":false,"status":"CHARGING","source":"ndw"}},{"type":"Feature","geometry":{"type":"Point","coordinates":[5.258894,52.247512]},"properties":{"type":"charge","layer":"passenger","locationId":"509","name":"Shell Recharge NL Kamille 17","address":"Kamille 17","city":"Eemnes","operatorName":"Ubitricity","maxPowerKw":11,"isMegawatt":false,"status":"AVAILABLE","source":"ndw","priceKwh":0.388}},{"type":"Feature","geometry":{"type":"Point","coordinates":[5.249051,52.246759]},"properties":{"type":"charge","layer":"passenger","locationId":"68d40acc0c1f7be25a4fa0a7","name":"Randy de Rooij 's station 1","address":"Vlierberg 18","city":"Eemnes","operatorName":"E-Flux by Road","maxPowerKw":22,"isMegawatt":false,"status":"AVAILABLE","source":"ndw","priceKwh":0.53}},{"type":"Feature","geometry":{"type":"Point","coordinates":[5.2579207,52.2476032]},"properties":{"type":"charge","layer":"passenger","locationId":"1828","name":"Shell Recharge NL Kamille 1","address":"Kamille 1","city":"Eemnes","operatorName":"Ubitricity","maxPowerKw":22,"isMegawatt":false,"status":"AVAILABLE","source":"ndw","priceKwh":0.266}},{"type":"Feature","geometry":{"type":"Point","coordinates":[5.249051,52.246759]},"properties":{"type":"charge","layer":"passenger","locationId":"68d40982b5120cdbb567d306","name":"Randy de Rooij 's station 2","address":"Vlierberg 18","city":"Eemnes","operatorName":"E-Flux by Road","maxPowerKw":22,"isMegawatt":false,"status":"AVAILABLE","source":"ndw","priceKwh":0.53}},{"type":"Feature","geometry":{"type":"Point","coordinates":[5.2552279,52.2570725]},"properties":{"type":"charge","layer":"passenger","locationId":"878","name":"Shell Recharge NL Willemserf 53","address":"Willemserf 53","city":"Eemnes","operatorName":"Ubitricity","maxPowerKw":22,"isMegawatt":false,"status":"AVAILABLE","source":"ndw","priceKwh":0.266}},{"type":"Feature","geometry":{"type":"Point","coordinates":[5.2570787,52.2541934]},"properties":{"type":"charge","layer":"passenger","locationId":"2193","name":"Shell Recharge NL Hiltlaan 8","address":"Hiltlaan 8","city":"Eemnes","operatorName":"Ubitricity","maxPowerKw":22,"isMegawatt":false,"status":"AVAILABLE","source":"ndw","priceKwh":0.266}},{"type":"Feature","geometry":{"type":"Point","coordinates":[5.253033,52.25703]},"properties":{"type":"charge","layer":"passenger","locationId":"d3b7d69e-27b1-43ea-9ef8-ea07ae57c8d1","name":"TNLP009813 - Jonneveen 16, Eemnes","address":"16 Jonneveen","city":"Eemnes","operatorName":"TotalEnergies","maxPowerKw":17,"isMegawatt":false,"status":"AVAILABLE","source":"ndw"}},{"type":"Feature","geometry":{"type":"Point","coordinates":[5.307301,52.220842]},"properties":{"type":"charge","layer":"passenger","locationId":"4216622","name":"Laadnet Van der Wardt Beheer BV","address":"Eemweg 29B","city":"Eemnes","operatorName":"Laadnet","maxPowerKw":22,"isMegawatt":false,"status":"AVAILABLE","source":"ndw"}},{"type":"Feature","geometry":{"type":"Point","coordinates":[5.25383,52.25885]},"properties":{"type":"charge","layer":"passenger","locationId":"47dddb1333249922e4f72ee355b55f6c","name":"Meeuwiskamp 22","address":"Meeuwiskamp 22","city":"Eemnes","operatorName":"Vattenfall InCharge","maxPowerKw":11,"isMegawatt":false,"status":"AVAILABLE","source":"ndw"}},{"type":"Feature","geometry":{"type":"Point","coordinates":[5.259284,52.25256]},"properties":{"type":"charge","layer":"passenger","locationId":"a7d276d8-7201-440a-b287-76d6466fe1d7","name":"TNLP007766 - Torenzicht 72, Eemnes","address":"72 Torenzicht","city":"Eemnes","operatorName":"TotalEnergies","maxPowerKw":17,"isMegawatt":false,"status":"CHARGING","source":"ndw"}},{"type":"Feature","geometry":{"type":"Point","coordinates":[5.249051,52.246759]},"properties":{"type":"charge","layer":"passenger","locationId":"68d409f08956efcbecea1606","name":"Randy de Rooij 's station 3","address":"Vlierberg 18","city":"Eemnes","operatorName":"E-Flux by Road","maxPowerKw":22,"isMegawatt":false,"status":"AVAILABLE","source":"ndw","priceKwh":0.53}},{"type":"Feature","geometry":{"type":"Point","coordinates":[5.25602,52.247616]},"properties":{"type":"charge","layer":"passenger","locationId":"183da9fb-7b66-4beb-bb35-2513073a8f13","name":"TNLP007686 - Wezeboom 40, Eemnes","address":"40 Wezeboom","city":"Eemnes","operatorName":"TotalEnergies","maxPowerKw":17,"isMegawatt":false,"status":"AVAILABLE","source":"ndw"}},{"type":"Feature","geometry":{"type":"Point","coordinates":[5.250819,52.245409]},"properties":{"type":"charge","layer":"passenger","locationId":"dcf84def12ab94688e20e5aab4edd037","name":"Zuidersingel 51","address":"Zuidersingel 51","city":"Eemnes","operatorName":"Vattenfall InCharge","maxPowerKw":11,"isMegawatt":false,"status":"AVAILABLE","source":"ndw"}},{"type":"Feature","geometry":{"type":"Point","coordinates":[5.259998,52.259575]},"properties":{"type":"charge","layer":"passenger","locationId":"3829f51c-f86e-49de-83bc-22a207971740","name":"TNLP006210 - Zomertaling 24, Eemnes","address":"24 Zomertaling","city":"Eemnes","operatorName":"TotalEnergies","maxPowerKw":17,"isMegawatt":false,"status":"AVAILABLE","source":"ndw"}},{"type":"Feature","geometry":{"type":"Point","coordinates":[5.253459,52.255394]},"properties":{"type":"charge","layer":"passenger","locationId":"d4a47151-afa5-46cc-a33d-518916e13f24","name":"TNLP007171 - Aartseveen 22, Eemnes","address":"22 Aartseveen","city":"Eemnes","operatorName":"TotalEnergies","maxPowerKw":17,"isMegawatt":false,"status":"AVAILABLE","source":"ndw"}},{"type":"Feature","geometry":{"type":"Point","coordinates":[5.25488,52.24482]},"properties":{"type":"charge","layer":"passenger","locationId":"d7da170903d9eca97ec26f27bb5de7de","name":"Blomsingel 19","address":"Blomsingel 19","city":"Eemnes","operatorName":"Vattenfall InCharge","maxPowerKw":11,"isMegawatt":false,"status":"AVAILABLE","source":"ndw"}},{"type":"Feature","geometry":{"type":"Point","coordinates":[5.264567,52.260155]},"properties":{"type":"charge","layer":"passenger","locationId":"620a04fc7f268971c676fd8f","name":"Lader van Ties & Linda","address":"Zeeltweg 10","city":"Eemnes","operatorName":"E-Flux by Road","maxPowerKw":11,"isMegawatt":false,"status":"AVAILABLE","source":"ndw","priceKwh":0.53}},{"type":"Feature","geometry":{"type":"Point","coordinates":[5.261453,52.260536]},"properties":{"type":"charge","layer":"passenger","locationId":"68415a39-c671-4ff2-ba6e-53234b9cff13","name":"TNLP008121 - Kolbleistraat 2, Eemnes","address":"2 Kolbleistraat","city":"Eemnes","operatorName":"TotalEnergies","maxPowerKw":17,"isMegawatt":false,"status":"AVAILABLE","source":"ndw"}},{"type":"Feature","geometry":{"type":"Point","coordinates":[5.262122,52.25399]},"properties":{"type":"charge","layer":"passenger","locationId":"156f19fc-a029-4509-a0cc-445609e69b1a","name":"TNLP008583 - Fazantenhof 55, Eemnes","address":"55 Fazantenhof","city":"Eemnes","operatorName":"TotalEnergies","maxPowerKw":13,"isMegawatt":false,"status":"AVAILABLE","source":"ndw"}},{"type":"Feature","geometry":{"type":"Point","coordinates":[5.261594,52.254807]},"properties":{"type":"charge","layer":"passenger","locationId":"5a2bc066-15bb-4990-9da2-1f11650f5170","name":"TNLP015167 - Fazantenhof 28, Eemnes","address":"28 Fazantenhof","city":"Eemnes","operatorName":"TotalEnergies","maxPowerKw":17,"isMegawatt":false,"status":"AVAILABLE","source":"ndw"}},{"type":"Feature","geometry":{"type":"Point","coordinates":[5.258924,52.2512]},"properties":{"type":"charge","layer":"passenger","locationId":"059822d4-5799-4d8e-bc6a-fd272251dfa6","name":"TNLP008494 - Raadhuislaan 80, Eemnes","address":"80 Raadhuislaan","city":"Eemnes","operatorName":"TotalEnergies","maxPowerKw":13,"isMegawatt":false,"status":"AVAILABLE","source":"ndw"}},{"type":"Feature","geometry":{"type":"Point","coordinates":[5.260541,52.258118]},"properties":{"type":"charge","layer":"passenger","locationId":"6684fb48679511001c78b6e6","name":"Theo van den Berg 's station","address":"Rietgors 15","city":"Eemnes","operatorName":"E-Flux by Road","maxPowerKw":22,"isMegawatt":false,"status":"CHARGING","source":"ndw","priceKwh":0.75}},{"type":"Feature","geometry":{"type":"Point","coordinates":[5.2588,52.26051]},"properties":{"type":"charge","layer":"passenger","locationId":"422","name":"Shell Recharge NL Karperweg 1","address":"Karperweg 1","city":"Eemnes","operatorName":"Ubitricity","maxPowerKw":11,"isMegawatt":false,"status":"AVAILABLE","source":"ndw","priceKwh":0.388}},{"type":"Feature","geometry":{"type":"Point","coordinates":[5.25777,52.25027]},"properties":{"type":"charge","layer":"passenger","locationId":"548","name":"Shell Recharge NL Ploeglaan 36","address":"Ploeglaan 36","city":"Eemnes","operatorName":"Ubitricity","maxPowerKw":11,"isMegawatt":false,"status":"AVAILABLE","source":"ndw","priceKwh":0.388}},{"type":"Feature","geometry":{"type":"Point","coordinates":[5.249051,52.246759]},"properties":{"type":"charge","layer":"passenger","locationId":"68d40a309a06e808d1f3a7cb","name":"Randy de Rooij 's station 4","address":"Vlierberg 18","city":"Eemnes","operatorName":"E-Flux by Road","maxPowerKw":22,"isMegawatt":false,"status":"AVAILABLE","source":"ndw","priceKwh":0.53}},{"type":"Feature","geometry":{"type":"Point","coordinates":[5.26403,52.255104]},"properties":{"type":"charge","layer":"passenger","locationId":"b01621a7-3467-47d3-aed3-ea1ddd0923d2","name":"TNLP009186 - Noordersingel 4, Eemnes","address":"4 Noordersingel","city":"Eemnes","operatorName":"TotalEnergies","maxPowerKw":17,"isMegawatt":false,"status":"AVAILABLE","source":"ndw"}},{"type":"Feature","geometry":{"type":"Point","coordinates":[5.2527705,52.2519226]},"properties":{"type":"charge","layer":"passenger","locationId":"2354","name":"Shell Recharge NL Vierkante Bosje 2","address":"Vierkante Bosje 2","city":"Eemnes","operatorName":"Ubitricity","maxPowerKw":22,"isMegawatt":false,"status":"AVAILABLE","source":"ndw","priceKwh":0.266}},{"type":"Feature","geometry":{"type":"Point","coordinates":[5.306891,52.220252]},"properties":{"type":"charge","layer":"passenger","locationId":"3632167","name":"Laadnet Nexus Automotive Nederland BV","address":"Eemweg 31","city":"Eemnes","operatorName":"Laadnet","maxPowerKw":22,"isMegawatt":false,"status":"AVAILABLE","source":"ndw"}},{"type":"Feature","geometry":{"type":"Point","coordinates":[5.25561,52.24651]},"properties":{"type":"charge","layer":"passenger","locationId":"e01c914a-7f9c-4210-bc2d-e5b4e060cc2e","name":"TNLP009442 - Ruizendaallaan 90, Eemnes","address":"90 Ruizendaallaan","city":"Eemnes","operatorName":"TotalEnergies","maxPowerKw":17,"isMegawatt":false,"status":"AVAILABLE","source":"ndw"}},{"type":"Feature","geometry":{"type":"Point","coordinates":[5.255726,52.261089]},"properties":{"type":"charge","layer":"passenger","locationId":"8e77edf13ce6bec581b3584286b25d40","name":"Brasemstraat 2","address":"Brasemstraat 2","city":"Eemnes","operatorName":"Vattenfall InCharge","maxPowerKw":11,"isMegawatt":false,"status":"CHARGING","source":"ndw"}},{"type":"Feature","geometry":{"type":"Point","coordinates":[5.25508,52.26092]},"properties":{"type":"charge","layer":"passenger","locationId":"423","name":"Shell Recharge NL Brasemstraat 1","address":"Brasemstraat 1","city":"Eemnes","operatorName":"Ubitricity","maxPowerKw":11,"isMegawatt":false,"status":"UNAVAILABLE","source":"ndw","priceKwh":0.388}},{"type":"Feature","geometry":{"type":"Point","coordinates":[5.2573978,52.2442685]},"properties":{"type":"charge","layer":"passenger","locationId":"1264","name":"Shell Recharge NL Hoogeboomstraat 65","address":"Hoogeboomstraat 65","city":"Eemnes","operatorName":"Ubitricity","maxPowerKw":22,"isMegawatt":false,"status":"AVAILABLE","source":"ndw","priceKwh":0.266}},{"type":"Feature","geometry":{"type":"Point","coordinates":[5.2594558,52.2562608]},"properties":{"type":"charge","layer":"passenger","locationId":"1327","name":"Shell Recharge NL Patrijzenhof 179","address":"Patrijzenhof 179","city":"Eemnes","operatorName":"Ubitricity","maxPowerKw":22,"isMegawatt":false,"status":"CHARGING","source":"ndw","priceKwh":0.266}},{"type":"Feature","geometry":{"type":"Point","coordinates":[5.2545547,52.2452018]},"properties":{"type":"charge","layer":"passenger","locationId":"1839","name":"Shell Recharge NL Van Eijdenplantsoen 22","address":"Van Eijdenplantsoen 22","city":"Eemnes","operatorName":"Ubitricity","maxPowerKw":22,"isMegawatt":false,"status":"AVAILABLE","source":"ndw","priceKwh":0.266}},{"type":"Feature","geometry":{"type":"Point","coordinates":[5.257395,52.244865]},"properties":{"type":"charge","layer":"passenger","locationId":"8f8a435a-a76d-402f-8cae-db8b798c70a1","name":"TNLP005703 - Hoogeboomstraat 11, Eemnes","address":"11 Hoogeboomstraat","city":"Eemnes","operatorName":"TotalEnergies","maxPowerKw":11,"isMegawatt":false,"status":"AVAILABLE","source":"ndw"}},{"type":"Feature","geometry":{"type":"Point","coordinates":[5.255084,52.259113]},"properties":{"type":"charge","layer":"passenger","locationId":"e2fb4415-05cd-41cd-bd42-955186036364","name":"TNLP007768 - Simonsveen 14, Eemnes","address":"14 Simonsveen","city":"Eemnes","operatorName":"TotalEnergies","maxPowerKw":17,"isMegawatt":false,"status":"AVAILABLE","source":"ndw"}},{"type":"Feature","geometry":{"type":"Point","coordinates":[5.254085,52.257874]},"properties":{"type":"charge","layer":"passenger","locationId":"dfeb3701-6702-43bf-9799-bfc6ddd0eea4","name":"TNLP009920 - Lambertsveen 17, Eemnes","address":"17 Lambertsveen","city":"Eemnes","operatorName":"TotalEnergies","maxPowerKw":17,"isMegawatt":false,"status":"AVAILABLE","source":"ndw"}},{"type":"Feature","geometry":{"type":"Point","coordinates":[5.2638,52.25343]},"properties":{"type":"charge","layer":"passenger","locationId":"a9afdc81-33b8-4f1d-92e0-aa7c921437af","name":"TNLP003665 - De Minnehof 48, Eemnes","address":"48 De Minnehof","city":"Eemnes","operatorName":"TotalEnergies","maxPowerKw":17,"isMegawatt":false,"status":"AVAILABLE","source":"ndw"}},{"type":"Feature","geometry":{"type":"Point","coordinates":[5.263046,52.25089]},"properties":{"type":"charge","layer":"passenger","locationId":"5fce9cfd-4354-4697-8e7e-ba876f0b9c8d","name":"PP005503 - Raadhuislaan 30, Eemnes","address":"30 Raadhuislaan","city":"Eemnes","operatorName":"TotalEnergies","maxPowerKw":11,"isMegawatt":false,"status":"CHARGING","source":"ndw"}},{"type":"Feature","geometry":{"type":"Point","coordinates":[5.256624,52.257168]},"properties":{"type":"charge","layer":"passenger","locationId":"d3575e26-e6a8-46ae-93eb-e214c02defbc","name":"TNLP007323 - Willemserf 25, Eemnes","address":"25 Willemserf","city":"Eemnes","operatorName":"TotalEnergies","maxPowerKw":17,"isMegawatt":false,"status":"AVAILABLE","source":"ndw"}},{"type":"Feature","geometry":{"type":"Point","coordinates":[5.2604,52.25636]},"properties":{"type":"charge","layer":"passenger","locationId":"448","name":"Shell Recharge NL Patrijzenhof 163","address":"Patrijzenhof 163","city":"Eemnes","operatorName":"Ubitricity","maxPowerKw":11,"isMegawatt":false,"status":"AVAILABLE","source":"ndw","priceKwh":0.388}},{"type":"Feature","geometry":{"type":"Point","coordinates":[5.25059,52.247765]},"properties":{"type":"charge","layer":"passenger","locationId":"6a157507-1a3b-48d5-83c4-c513002900d5","name":"TNLP008558 - Vlierberg 13, Eemnes","address":"13 Vlierberg","city":"Eemnes","operatorName":"TotalEnergies","maxPowerKw":13,"isMegawatt":false,"status":"AVAILABLE","source":"ndw"}},{"type":"Feature","geometry":{"type":"Point","coordinates":[5.253331,52.252407]},"properties":{"type":"charge","layer":"passenger","locationId":"95de89a9-7bdc-4ed4-a1bf-28450b2d8701","name":"TNLP007260 - Vierkante Bosje 8, Eemnes","address":"8 Vierkante Bosje","city":"Eemnes","operatorName":"TotalEnergies","maxPowerKw":17,"isMegawatt":false,"status":"AVAILABLE","source":"ndw"}},{"type":"Feature","geometry":{"type":"Point","coordinates":[5.260314,52.248787]},"properties":{"type":"charge","layer":"passenger","locationId":"d7da2911-e82c-4785-bad7-090cc7ad9dcb","name":"TNLP008215 - Melkpad 43, Eemnes","address":"43 Melkpad","city":"Eemnes","operatorName":"TotalEnergies","maxPowerKw":17,"isMegawatt":false,"status":"AVAILABLE","source":"ndw"}},{"type":"Feature","geometry":{"type":"Point","coordinates":[5.255014,52.2496]},"properties":{"type":"charge","layer":"passenger","locationId":"3bf4ccd2-426f-416e-bfea-ab39e8fd414d","name":"TNLP008122 - Struisgras 5, Eemnes","address":"5 Struisgras","city":"Eemnes","operatorName":"TotalEnergies","maxPowerKw":17,"isMegawatt":false,"status":"CHARGING","source":"ndw"}},{"type":"Feature","geometry":{"type":"Point","coordinates":[5.264733,52.258366]},"properties":{"type":"charge","layer":"passenger","locationId":"278c2950-0db2-4134-a90d-095326df1053","name":"TNLP008508 - Roerdomp 39, Eemnes","address":"39 Roerdomp","city":"Eemnes","operatorName":"TotalEnergies","maxPowerKw":13,"isMegawatt":false,"status":"CHARGING","source":"ndw"}},{"type":"Feature","geometry":{"type":"MultiPolygon","coordinates":[[[[5.278663974824311,52.28047296383985],[5.305825694785738,52.27733016836472],[5.306465417729661,52.2776062372763],[5.308873627302143,52.27638635580333],[5.310669457521104,52.274300815224706],[5.315450193494342,52.27410207776996],[5.321053491838837,52.27239726112817],[5.327448452517171,52.27369413741646],[5.331241010796636,52.273611314773326],[5.328534430877973,52.26870649317169],[5.326728589115525,52.26614560080364],[5.322621650312399,52.26388208277057],[5.322032299250828,52.26232669557921],[5.323177617023093,52.26054416667588],[5.32836850776639,52.257170885354206],[5.328583317428291,52.25531817074042],[5.324231787160498,52.25298405463525],[5.3141291813498075,52.25195487607876],[5.310662214634204,52.24632662820141],[5.310893288982008,52.24212029836299],[5.313410305356732,52.235253153312804],[5.312278190105686,52.232829592798026],[5.309767780277088,52.232186800984444],[5.307683021013354,52.2315972835994],[5.30661168595693,52.23026866464862],[5.307400879937246,52.22919078141612],[5.310642657261601,52.227592046580334],[5.3115939121791405,52.226508595336654],[5.310649519897819,52.226227990134056],[5.310079684861622,52.22596484309751],[5.311207195089187,52.224568248555286],[5.313403922598905,52.22470270558663],[5.312617530197702,52.225289771630294],[5.313128784974558,52.22564979423442],[5.314613257248008,52.22453607483996],[5.313158099155882,52.221952063242426],[5.306444211676269,52.21946004369295],[5.302654370776342,52.22148226635335],[5.302721673969992,52.22237214514101],[5.300969724821716,52.223525059715385],[5.294168403408736,52.22354588232862],[5.288803507564134,52.22299329723715],[5.287574681828678,52.22288325559039],[5.283107099450136,52.223541037522146],[5.270572560482946,52.2240071717686],[5.255725579672227,52.22441126363331],[5.255589341532973,52.22441395744871],[5.254167286047286,52.22444594640703],[5.2326330835619475,52.22498916722568],[5.22473020042936,52.22519776730182],[5.222901202129095,52.22526162122147],[5.2318796208365494,52.23707830251419],[5.237368782698727,52.244277176679304],[5.2384077015797335,52.24566093324625],[5.24509310340458,52.25443165253913],[5.244081106572214,52.25466336576721],[5.261101759829455,52.275836287629936],[5.26566315695993,52.28150584222706],[5.265769062667428,52.28164509035289],[5.269207489475246,52.281544875112004],[5.277129479926115,52.28063835341469],[5.278663974824311,52.28047296383985]]]]},"properties":{"type":"boundary","gemeente":"Eemnes","code":"GM0317"}}]}