{"type":"FeatureCollection","metadata":{"gemeente":"Enkhuizen","slug":"enkhuizen","code":"GM0388","generated_at":"2026-07-06T16:26:11.361Z","total_passenger":168,"total_freight":0,"bounds":[5.218133741286154,52.68412848675338,5.307770950289838,52.80544939562568],"operators":["E-Flux by Road","Eneco","Laadnet","TotalEnergies","Ubitricity","Vattenfall InCharge","e-VOLTT"]},"features":[{"type":"Feature","geometry":{"type":"Point","coordinates":[5.291776,52.710281]},"properties":{"type":"charge","layer":"passenger","locationId":"OST24P0014_0157_6","name":"OST24P0014_0157_6","address":"Kooizandweg 6-532","city":"Enkhuizen","operatorName":"e-VOLTT","maxPowerKw":19,"isMegawatt":false,"status":"CHARGING","source":"ndw","priceKwh":0.62}},{"type":"Feature","geometry":{"type":"Point","coordinates":[5.291776,52.710281]},"properties":{"type":"charge","layer":"passenger","locationId":"OST24P0014_0052_2","name":"OST24P0014_0052_2","address":"Kooizandweg 6-459","city":"Enkhuizen","operatorName":"e-VOLTT","maxPowerKw":19,"isMegawatt":false,"status":"AVAILABLE","source":"ndw","priceKwh":0.62}},{"type":"Feature","geometry":{"type":"Point","coordinates":[5.291776,52.710281]},"properties":{"type":"charge","layer":"passenger","locationId":"OST24P0014_0077_6","name":"OST24P0014_0077_6","address":"Kooizandweg 6-439","city":"Enkhuizen","operatorName":"e-VOLTT","maxPowerKw":19,"isMegawatt":false,"status":"UNAVAILABLE","source":"ndw","priceKwh":0.62}},{"type":"Feature","geometry":{"type":"Point","coordinates":[5.291776,52.710281]},"properties":{"type":"charge","layer":"passenger","locationId":"OST24P0014_0011_5","name":"OST24P0014_0011_5","address":"Kooizandweg 6-549","city":"Enkhuizen","operatorName":"e-VOLTT","maxPowerKw":38,"isMegawatt":false,"status":"AVAILABLE","source":"ndw","priceKwh":0.62}},{"type":"Feature","geometry":{"type":"Point","coordinates":[5.291776,52.710281]},"properties":{"type":"charge","layer":"passenger","locationId":"OST24P0014_0022_0","name":"OST24P0014_0022_0","address":"Kooizandweg 6-406","city":"Enkhuizen","operatorName":"e-VOLTT","maxPowerKw":19,"isMegawatt":false,"status":"AVAILABLE","source":"ndw","priceKwh":0.62}},{"type":"Feature","geometry":{"type":"Point","coordinates":[5.291776,52.710281]},"properties":{"type":"charge","layer":"passenger","locationId":"OST24P0014_0157_0","name":"OST24P0014_0157_0","address":"Kooizandweg 6-526","city":"Enkhuizen","operatorName":"e-VOLTT","maxPowerKw":19,"isMegawatt":false,"status":"AVAILABLE","source":"ndw","priceKwh":0.62}},{"type":"Feature","geometry":{"type":"Point","coordinates":[5.291776,52.710281]},"properties":{"type":"charge","layer":"passenger","locationId":"OST24P0014_0102_0","name":"OST24P0014_0102_0","address":"Kooizandweg 6-456","city":"Enkhuizen","operatorName":"e-VOLTT","maxPowerKw":19,"isMegawatt":false,"status":"AVAILABLE","source":"ndw","priceKwh":0.62}},{"type":"Feature","geometry":{"type":"Point","coordinates":[5.291776,52.710281]},"properties":{"type":"charge","layer":"passenger","locationId":"OST24P0014_0020_7","name":"OST24P0014_0020_7","address":"Kooizandweg 6-419","city":"Enkhuizen","operatorName":"e-VOLTT","maxPowerKw":19,"isMegawatt":false,"status":"AVAILABLE","source":"ndw","priceKwh":0.62}},{"type":"Feature","geometry":{"type":"Point","coordinates":[5.291776,52.710281]},"properties":{"type":"charge","layer":"passenger","locationId":"OST24P0014_0077_8","name":"OST24P0014_0077_8","address":"Kooizandweg 6-441","city":"Enkhuizen","operatorName":"e-VOLTT","maxPowerKw":19,"isMegawatt":false,"status":"AVAILABLE","source":"ndw","priceKwh":0.62}},{"type":"Feature","geometry":{"type":"Point","coordinates":[5.279839,52.716522]},"properties":{"type":"charge","layer":"passenger","locationId":"322d9f5d-b2fe-44b9-982b-4e01bb0c4c20","name":"TNLP009457 - Seyndersloot 48, Enkhuizen","address":"48 Seyndersloot","city":"Enkhuizen","operatorName":"TotalEnergies","maxPowerKw":15,"isMegawatt":false,"status":"CHARGING","source":"ndw"}},{"type":"Feature","geometry":{"type":"Point","coordinates":[5.265263,52.713806]},"properties":{"type":"charge","layer":"passenger","locationId":"711976e7-85d1-4b92-b98c-024339f60a40","name":"TNLP003593 - Douwe Brouwerweg 76, Enkhuizen","address":"76 Douwe Brouwerweg","city":"Enkhuizen","operatorName":"TotalEnergies","maxPowerKw":17,"isMegawatt":false,"status":"AVAILABLE","source":"ndw"}},{"type":"Feature","geometry":{"type":"Point","coordinates":[5.291776,52.710281]},"properties":{"type":"charge","layer":"passenger","locationId":"OST24P0014_0022_1","name":"OST24P0014_0022_1","address":"Kooizandweg 6-407","city":"Enkhuizen","operatorName":"e-VOLTT","maxPowerKw":19,"isMegawatt":false,"status":"AVAILABLE","source":"ndw","priceKwh":0.62}},{"type":"Feature","geometry":{"type":"Point","coordinates":[5.29447,52.70878]},"properties":{"type":"charge","layer":"passenger","locationId":"OST24P0014_0102_2","name":"OST24P0014_0102_2","address":"Kooizandweg 6","city":"Enkhuizen","operatorName":"e-VOLTT","maxPowerKw":19,"isMegawatt":false,"status":"AVAILABLE","source":"ndw","priceKwh":0.62}},{"type":"Feature","geometry":{"type":"Point","coordinates":[5.291776,52.710281]},"properties":{"type":"charge","layer":"passenger","locationId":"OST24P0014_0020_8","name":"OST24P0014_0020_8","address":"Kooizandweg 6-420","city":"Enkhuizen","operatorName":"e-VOLTT","maxPowerKw":38,"isMegawatt":false,"status":"AVAILABLE","source":"ndw","priceKwh":0.62}},{"type":"Feature","geometry":{"type":"Point","coordinates":[5.291776,52.710281]},"properties":{"type":"charge","layer":"passenger","locationId":"OST24P0014_0178_2","name":"OST24P0014_0178_2","address":"Kooizandweg 6-553","city":"Enkhuizen","operatorName":"e-VOLTT","maxPowerKw":38,"isMegawatt":false,"status":"UNAVAILABLE","source":"ndw","priceKwh":0.62}},{"type":"Feature","geometry":{"type":"Point","coordinates":[5.291776,52.710281]},"properties":{"type":"charge","layer":"passenger","locationId":"OST24P0014_0035_4","name":"OST24P0014_0035_4","address":"Kooizandweg 6-434","city":"Enkhuizen","operatorName":"e-VOLTT","maxPowerKw":19,"isMegawatt":false,"status":"UNAVAILABLE","source":"ndw","priceKwh":0.62}},{"type":"Feature","geometry":{"type":"Point","coordinates":[5.291776,52.710281]},"properties":{"type":"charge","layer":"passenger","locationId":"OST24P0014_0034_5","name":"OST24P0014_0034_5","address":"Kooizandweg 6-425","city":"Enkhuizen","operatorName":"e-VOLTT","maxPowerKw":19,"isMegawatt":false,"status":"AVAILABLE","source":"ndw","priceKwh":0.62}},{"type":"Feature","geometry":{"type":"Point","coordinates":[5.291776,52.710281]},"properties":{"type":"charge","layer":"passenger","locationId":"OST24P0014_0022_9","name":"OST24P0014_0022_9","address":"Kooizandweg 6-424","city":"Enkhuizen","operatorName":"e-VOLTT","maxPowerKw":19,"isMegawatt":false,"status":"AVAILABLE","source":"ndw","priceKwh":0.62}},{"type":"Feature","geometry":{"type":"Point","coordinates":[5.291776,52.710281]},"properties":{"type":"charge","layer":"passenger","locationId":"OST24P0014_0160_1","name":"OST24P0014_0160_1","address":"Kooizandweg 6-555","city":"Enkhuizen","operatorName":"e-VOLTT","maxPowerKw":19,"isMegawatt":false,"status":"AVAILABLE","source":"ndw","priceKwh":0.62}},{"type":"Feature","geometry":{"type":"Point","coordinates":[5.291776,52.710281]},"properties":{"type":"charge","layer":"passenger","locationId":"OST24P0014_0005_3","name":"OST24P0014_0005_3","address":"Kooizandweg 6-539","city":"Enkhuizen","operatorName":"e-VOLTT","maxPowerKw":19,"isMegawatt":false,"status":"AVAILABLE","source":"ndw","priceKwh":0.62}},{"type":"Feature","geometry":{"type":"Point","coordinates":[5.2817325,52.6994316]},"properties":{"type":"charge","layer":"passenger","locationId":"1863","name":"Shell Recharge NL Lange Tuinstraat 44","address":"Lange Tuinstraat 44","city":"Enkhuizen","operatorName":"Ubitricity","maxPowerKw":22,"isMegawatt":false,"status":"AVAILABLE","source":"ndw","priceKwh":0.266}},{"type":"Feature","geometry":{"type":"Point","coordinates":[5.291776,52.710281]},"properties":{"type":"charge","layer":"passenger","locationId":"OST24P0014_0152_3","name":"OST24P0014_0152_3","address":"Kooizandweg 6-509","city":"Enkhuizen","operatorName":"e-VOLTT","maxPowerKw":19,"isMegawatt":false,"status":"AVAILABLE","source":"ndw","priceKwh":0.62}},{"type":"Feature","geometry":{"type":"Point","coordinates":[5.291776,52.710281]},"properties":{"type":"charge","layer":"passenger","locationId":"OST24P0014_0020_3","name":"OST24P0014_0020_3","address":"Kooizandweg 6-403","city":"Enkhuizen","operatorName":"e-VOLTT","maxPowerKw":19,"isMegawatt":false,"status":"AVAILABLE","source":"ndw","priceKwh":0.62}},{"type":"Feature","geometry":{"type":"Point","coordinates":[5.291776,52.710281]},"properties":{"type":"charge","layer":"passenger","locationId":"OST24P0014_0122_1","name":"OST24P0014_0122_1","address":"Kooizandweg 6-515A","city":"Enkhuizen","operatorName":"e-VOLTT","maxPowerKw":19,"isMegawatt":false,"status":"AVAILABLE","source":"ndw","priceKwh":0.62}},{"type":"Feature","geometry":{"type":"Point","coordinates":[5.291776,52.710281]},"properties":{"type":"charge","layer":"passenger","locationId":"OST24P0014_0157_1","name":"OST24P0014_0157_1","address":"Kooizandweg 6-527","city":"Enkhuizen","operatorName":"e-VOLTT","maxPowerKw":19,"isMegawatt":false,"status":"AVAILABLE","source":"ndw","priceKwh":0.62}},{"type":"Feature","geometry":{"type":"Point","coordinates":[5.28194,52.70348]},"properties":{"type":"charge","layer":"passenger","locationId":"8f711072-252a-4d57-91f9-180a972d0216","name":"PP001510 - Molenweg 27, Enkhuizen","address":"27 Molenweg","city":"Enkhuizen","operatorName":"TotalEnergies","maxPowerKw":11,"isMegawatt":false,"status":"CHARGING","source":"ndw"}},{"type":"Feature","geometry":{"type":"Point","coordinates":[5.291776,52.710281]},"properties":{"type":"charge","layer":"passenger","locationId":"OST24P0014_0048_1","name":"OST24P0014_0048_1","address":"Kooizandweg 6-464","city":"Enkhuizen","operatorName":"e-VOLTT","maxPowerKw":19,"isMegawatt":false,"status":"UNAVAILABLE","source":"ndw","priceKwh":0.62}},{"type":"Feature","geometry":{"type":"Point","coordinates":[5.291776,52.710281]},"properties":{"type":"charge","layer":"passenger","locationId":"OST24P0014_0077_1","name":"OST24P0014_0077_1","address":"Kooizandweg 6-467","city":"Enkhuizen","operatorName":"e-VOLTT","maxPowerKw":19,"isMegawatt":false,"status":"AVAILABLE","source":"ndw","priceKwh":0.62}},{"type":"Feature","geometry":{"type":"Point","coordinates":[5.291776,52.710281]},"properties":{"type":"charge","layer":"passenger","locationId":"OST24P0014_0052_3","name":"OST24P0014_0052_3","address":"Kooizandweg 6-460","city":"Enkhuizen","operatorName":"e-VOLTT","maxPowerKw":19,"isMegawatt":false,"status":"AVAILABLE","source":"ndw","priceKwh":0.62}},{"type":"Feature","geometry":{"type":"Point","coordinates":[5.291776,52.710281]},"properties":{"type":"charge","layer":"passenger","locationId":"OST24P0014_0020_2","name":"OST24P0014_0020_2","address":"Kooizandweg 6-402","city":"Enkhuizen","operatorName":"e-VOLTT","maxPowerKw":19,"isMegawatt":false,"status":"AVAILABLE","source":"ndw","priceKwh":0.62}},{"type":"Feature","geometry":{"type":"Point","coordinates":[5.291776,52.710281]},"properties":{"type":"charge","layer":"passenger","locationId":"OST24P0014_0099_0","name":"OST24P0014_0099_0","address":"Kooizandweg 6-478","city":"Enkhuizen","operatorName":"e-VOLTT","maxPowerKw":19,"isMegawatt":false,"status":"AVAILABLE","source":"ndw","priceKwh":0.62}},{"type":"Feature","geometry":{"type":"Point","coordinates":[5.291776,52.710281]},"properties":{"type":"charge","layer":"passenger","locationId":"OST24P0014_0122_4","name":"OST24P0014_0122_4","address":"Kooizandweg 6-501","city":"Enkhuizen","operatorName":"e-VOLTT","maxPowerKw":19,"isMegawatt":false,"status":"AVAILABLE","source":"ndw","priceKwh":0.62}},{"type":"Feature","geometry":{"type":"Point","coordinates":[5.291776,52.710281]},"properties":{"type":"charge","layer":"passenger","locationId":"OST24P0014_0011_4","name":"OST24P0014_0011_4","address":"Kooizandweg 6-548","city":"Enkhuizen","operatorName":"e-VOLTT","maxPowerKw":38,"isMegawatt":false,"status":"AVAILABLE","source":"ndw","priceKwh":0.62}},{"type":"Feature","geometry":{"type":"Point","coordinates":[5.291776,52.710281]},"properties":{"type":"charge","layer":"passenger","locationId":"OST24P0014_0052_1","name":"OST24P0014_0052_1","address":"Kooizandweg 6-458","city":"Enkhuizen","operatorName":"e-VOLTT","maxPowerKw":19,"isMegawatt":false,"status":"AVAILABLE","source":"ndw","priceKwh":0.62}},{"type":"Feature","geometry":{"type":"Point","coordinates":[5.291776,52.710281]},"properties":{"type":"charge","layer":"passenger","locationId":"OST24P0014_0122_3","name":"OST24P0014_0122_3","address":"Kooizandweg 6-500","city":"Enkhuizen","operatorName":"e-VOLTT","maxPowerKw":19,"isMegawatt":false,"status":"AVAILABLE","source":"ndw","priceKwh":0.62}},{"type":"Feature","geometry":{"type":"Point","coordinates":[5.291776,52.710281]},"properties":{"type":"charge","layer":"passenger","locationId":"OST24P0014_0157_2","name":"OST24P0014_0157_2","address":"Kooizandweg 6-528","city":"Enkhuizen","operatorName":"e-VOLTT","maxPowerKw":19,"isMegawatt":false,"status":"AVAILABLE","source":"ndw","priceKwh":0.62}},{"type":"Feature","geometry":{"type":"Point","coordinates":[5.289145,52.700783]},"properties":{"type":"charge","layer":"passenger","locationId":"5c7a662c-2588-45e8-9c71-dbce9d4d1cb9","name":"TNLP007803 - Havenweg 29, Enkhuizen","address":"29 Havenweg","city":"Enkhuizen","operatorName":"TotalEnergies","maxPowerKw":13,"isMegawatt":false,"status":"AVAILABLE","source":"ndw"}},{"type":"Feature","geometry":{"type":"Point","coordinates":[5.262445,52.716494]},"properties":{"type":"charge","layer":"passenger","locationId":"68e7f5c626652ebed8d8f688","name":"Tuindershof 13","address":"Tuindershof 13","city":"Enkhuizen","operatorName":"E-Flux by Road","maxPowerKw":22,"isMegawatt":false,"status":"AVAILABLE","source":"ndw","priceKwh":0.33}},{"type":"Feature","geometry":{"type":"Point","coordinates":[5.291776,52.710281]},"properties":{"type":"charge","layer":"passenger","locationId":"OST24P0014_0154_0","name":"OST24P0014_0154_0","address":"Kooizandweg 6-510","city":"Enkhuizen","operatorName":"e-VOLTT","maxPowerKw":19,"isMegawatt":false,"status":"AVAILABLE","source":"ndw","priceKwh":0.62}},{"type":"Feature","geometry":{"type":"Point","coordinates":[5.291776,52.710281]},"properties":{"type":"charge","layer":"passenger","locationId":"OST24P0014_0178_3","name":"OST24P0014_0178_3","address":"Kooizandweg 6-554","city":"Enkhuizen","operatorName":"e-VOLTT","maxPowerKw":38,"isMegawatt":false,"status":"AVAILABLE","source":"ndw","priceKwh":0.62}},{"type":"Feature","geometry":{"type":"Point","coordinates":[5.287485,52.699814]},"properties":{"type":"charge","layer":"passenger","locationId":"e83b08df-bc31-4d80-98d7-f3deedd3c9b4","name":"TNLP003682 - Stationsplein 3, Enkhuizen","address":"3 Stationsplein","city":"Enkhuizen","operatorName":"TotalEnergies","maxPowerKw":17,"isMegawatt":false,"status":"AVAILABLE","source":"ndw"}},{"type":"Feature","geometry":{"type":"Point","coordinates":[5.291776,52.710281]},"properties":{"type":"charge","layer":"passenger","locationId":"OST24P0014_0099_3","name":"OST24P0014_0099_3","address":"Kooizandweg 6-481","city":"Enkhuizen","operatorName":"e-VOLTT","maxPowerKw":19,"isMegawatt":false,"status":"AVAILABLE","source":"ndw","priceKwh":0.62}},{"type":"Feature","geometry":{"type":"Point","coordinates":[5.291776,52.710281]},"properties":{"type":"charge","layer":"passenger","locationId":"OST24P0014_0034_6","name":"OST24P0014_0034_6","address":"Kooizandweg 6-426","city":"Enkhuizen","operatorName":"e-VOLTT","maxPowerKw":19,"isMegawatt":false,"status":"UNAVAILABLE","source":"ndw","priceKwh":0.62}},{"type":"Feature","geometry":{"type":"Point","coordinates":[5.291776,52.710281]},"properties":{"type":"charge","layer":"passenger","locationId":"OST24P0014_0077_0","name":"OST24P0014_0077_0","address":"Kooizandweg 6-466","city":"Enkhuizen","operatorName":"e-VOLTT","maxPowerKw":19,"isMegawatt":false,"status":"AVAILABLE","source":"ndw","priceKwh":0.62}},{"type":"Feature","geometry":{"type":"Point","coordinates":[5.291776,52.710281]},"properties":{"type":"charge","layer":"passenger","locationId":"OST24P0014_0084_0","name":"OST24P0014_0084_0","address":"Kooizandweg 6-471","city":"Enkhuizen","operatorName":"e-VOLTT","maxPowerKw":19,"isMegawatt":false,"status":"AVAILABLE","source":"ndw","priceKwh":0.62}},{"type":"Feature","geometry":{"type":"Point","coordinates":[5.291776,52.710281]},"properties":{"type":"charge","layer":"passenger","locationId":"OST24P0014_0178_1","name":"OST24P0014_0178_1","address":"Kooizandweg 6-541","city":"Enkhuizen","operatorName":"e-VOLTT","maxPowerKw":38,"isMegawatt":false,"status":"AVAILABLE","source":"ndw","priceKwh":0.62}},{"type":"Feature","geometry":{"type":"Point","coordinates":[5.291776,52.710281]},"properties":{"type":"charge","layer":"passenger","locationId":"OST24P0014_0034_9","name":"OST24P0014_0034_9","address":"Kooizandweg 6-429","city":"Enkhuizen","operatorName":"e-VOLTT","maxPowerKw":19,"isMegawatt":false,"status":"AVAILABLE","source":"ndw","priceKwh":0.62}},{"type":"Feature","geometry":{"type":"Point","coordinates":[5.291776,52.710281]},"properties":{"type":"charge","layer":"passenger","locationId":"OST24P0014_0034_2","name":"OST24P0014_0034_2","address":"Kooizandweg 6-414","city":"Enkhuizen","operatorName":"e-VOLTT","maxPowerKw":19,"isMegawatt":false,"status":"AVAILABLE","source":"ndw","priceKwh":0.62}},{"type":"Feature","geometry":{"type":"Point","coordinates":[5.29821,52.703214]},"properties":{"type":"charge","layer":"passenger","locationId":"64393370799f6d0012495e0a","name":"Compagnieshaven","address":"Compagnieshaven  7","city":"Enkhuizen","operatorName":"E-Flux by Road","maxPowerKw":22,"isMegawatt":false,"status":"UNAVAILABLE","source":"ndw","priceKwh":0.53}},{"type":"Feature","geometry":{"type":"Point","coordinates":[5.291776,52.710281]},"properties":{"type":"charge","layer":"passenger","locationId":"OST24P0014_0022_2","name":"OST24P0014_0022_2","address":"Kooizandweg 6-408","city":"Enkhuizen","operatorName":"e-VOLTT","maxPowerKw":19,"isMegawatt":false,"status":"AVAILABLE","source":"ndw","priceKwh":0.62}},{"type":"Feature","geometry":{"type":"Point","coordinates":[5.291776,52.710281]},"properties":{"type":"charge","layer":"passenger","locationId":"OST24P0014_0084_2","name":"OST24P0014_0084_2","address":"Kooizandweg 6-473","city":"Enkhuizen","operatorName":"e-VOLTT","maxPowerKw":19,"isMegawatt":false,"status":"AVAILABLE","source":"ndw","priceKwh":0.62}},{"type":"Feature","geometry":{"type":"Point","coordinates":[5.291776,52.710281]},"properties":{"type":"charge","layer":"passenger","locationId":"OST24P0014_0099_2","name":"OST24P0014_0099_2","address":"Kooizandweg 6-480","city":"Enkhuizen","operatorName":"e-VOLTT","maxPowerKw":19,"isMegawatt":false,"status":"AVAILABLE","source":"ndw","priceKwh":0.62}},{"type":"Feature","geometry":{"type":"Point","coordinates":[5.2766,52.71182]},"properties":{"type":"charge","layer":"passenger","locationId":"39e6ab46-e5cc-40c2-ab7b-b1c3785064a4","name":"PP004026 - Kwartellaan 19, Enkhuizen","address":"19 Kwartellaan","city":"Enkhuizen","operatorName":"TotalEnergies","maxPowerKw":13,"isMegawatt":false,"status":"AVAILABLE","source":"ndw"}},{"type":"Feature","geometry":{"type":"Point","coordinates":[5.291776,52.710281]},"properties":{"type":"charge","layer":"passenger","locationId":"OST24P0014_0122_0","name":"OST24P0014_0122_0","address":"Kooizandweg 6-515","city":"Enkhuizen","operatorName":"e-VOLTT","maxPowerKw":19,"isMegawatt":false,"status":"AVAILABLE","source":"ndw","priceKwh":0.62}},{"type":"Feature","geometry":{"type":"Point","coordinates":[5.291776,52.710281]},"properties":{"type":"charge","layer":"passenger","locationId":"OST24P0014_0020_4","name":"OST24P0014_0020_4","address":"Kooizandweg 6-404","city":"Enkhuizen","operatorName":"e-VOLTT","maxPowerKw":19,"isMegawatt":false,"status":"AVAILABLE","source":"ndw","priceKwh":0.62}},{"type":"Feature","geometry":{"type":"Point","coordinates":[5.29254,52.70264]},"properties":{"type":"charge","layer":"passenger","locationId":"442","name":"Shell Recharge NL Vrijdom 7","address":"Vrijdom 7","city":"Enkhuizen","operatorName":"Ubitricity","maxPowerKw":11,"isMegawatt":false,"status":"AVAILABLE","source":"ndw","priceKwh":0.388}},{"type":"Feature","geometry":{"type":"Point","coordinates":[5.281206,52.701475]},"properties":{"type":"charge","layer":"passenger","locationId":"669","name":"Shell Recharge NL Nassaustraat 2","address":"Nassaustraat 2","city":"Enkhuizen","operatorName":"Ubitricity","maxPowerKw":11,"isMegawatt":false,"status":"CHARGING","source":"ndw","priceKwh":0.388}},{"type":"Feature","geometry":{"type":"Point","coordinates":[5.294531,52.708827]},"properties":{"type":"charge","layer":"passenger","locationId":"OST24P0014_0084_3","name":"OST24P0014_0084_3","address":"Kooizandweg 6","city":"Enkhuizen","operatorName":"e-VOLTT","maxPowerKw":10,"isMegawatt":false,"status":"AVAILABLE","source":"ndw","priceKwh":0.62}},{"type":"Feature","geometry":{"type":"Point","coordinates":[5.26717,52.71108]},"properties":{"type":"charge","layer":"passenger","locationId":"402","name":"Shell Recharge NL Kweekwal 2","address":"Kweekwal 2","city":"Enkhuizen","operatorName":"Ubitricity","maxPowerKw":11,"isMegawatt":false,"status":"AVAILABLE","source":"ndw","priceKwh":0.388}},{"type":"Feature","geometry":{"type":"Point","coordinates":[5.291776,52.710281]},"properties":{"type":"charge","layer":"passenger","locationId":"OST24P0014_0178_0","name":"OST24P0014_0178_0","address":"Kooizandweg 6-540","city":"Enkhuizen","operatorName":"e-VOLTT","maxPowerKw":38,"isMegawatt":false,"status":"AVAILABLE","source":"ndw","priceKwh":0.62}},{"type":"Feature","geometry":{"type":"Point","coordinates":[5.291776,52.710281]},"properties":{"type":"charge","layer":"passenger","locationId":"OST24P0014_0178_4","name":"OST24P0014_0178_4","address":"Kooizandweg 6-542","city":"Enkhuizen","operatorName":"e-VOLTT","maxPowerKw":38,"isMegawatt":false,"status":"AVAILABLE","source":"ndw","priceKwh":0.62}},{"type":"Feature","geometry":{"type":"Point","coordinates":[5.287932,52.703204]},"properties":{"type":"charge","layer":"passenger","locationId":"2127451","name":"Laadnet Weeshuis","address":"Westerstraat 111","city":"Enkhuizen","operatorName":"Laadnet","maxPowerKw":11,"isMegawatt":false,"status":"AVAILABLE","source":"ndw"}},{"type":"Feature","geometry":{"type":"Point","coordinates":[5.28797,52.70003]},"properties":{"type":"charge","layer":"passenger","locationId":"736","name":"Shell Recharge NL Stationsplein 5","address":"Stationsplein 5","city":"Enkhuizen","operatorName":"Ubitricity","maxPowerKw":11,"isMegawatt":false,"status":"AVAILABLE","source":"ndw","priceKwh":0.388}},{"type":"Feature","geometry":{"type":"Point","coordinates":[5.275483,52.708668]},"properties":{"type":"charge","layer":"passenger","locationId":"eb1d14b6-9624-490d-97fd-7f3871dfc876","name":"TNLP009588 - Seringenhof 7, Enkhuizen","address":"7 Seringenhof","city":"Enkhuizen","operatorName":"TotalEnergies","maxPowerKw":15,"isMegawatt":false,"status":"AVAILABLE","source":"ndw"}},{"type":"Feature","geometry":{"type":"Point","coordinates":[5.291776,52.710281]},"properties":{"type":"charge","layer":"passenger","locationId":"OST24P0014_0022_4","name":"OST24P0014_0022_4","address":"Kooizandweg 6-410","city":"Enkhuizen","operatorName":"e-VOLTT","maxPowerKw":19,"isMegawatt":false,"status":"AVAILABLE","source":"ndw","priceKwh":0.62}},{"type":"Feature","geometry":{"type":"Point","coordinates":[5.291776,52.710281]},"properties":{"type":"charge","layer":"passenger","locationId":"OST24P0014_0092_0","name":"OST24P0014_0092_0","address":"Kooizandweg 6-489","city":"Enkhuizen","operatorName":"e-VOLTT","maxPowerKw":19,"isMegawatt":false,"status":"AVAILABLE","source":"ndw","priceKwh":0.62}},{"type":"Feature","geometry":{"type":"Point","coordinates":[5.291776,52.710281]},"properties":{"type":"charge","layer":"passenger","locationId":"OST24P0014_0011_0","name":"OST24P0014_0011_0","address":"Kooizandweg 6-544","city":"Enkhuizen","operatorName":"e-VOLTT","maxPowerKw":38,"isMegawatt":false,"status":"AVAILABLE","source":"ndw","priceKwh":0.62}},{"type":"Feature","geometry":{"type":"Point","coordinates":[5.27394,52.71893]},"properties":{"type":"charge","layer":"passenger","locationId":"364","name":"Shell Recharge NL Voor Anker 2","address":"Voor Anker 2","city":"Enkhuizen","operatorName":"Ubitricity","maxPowerKw":11,"isMegawatt":false,"status":"AVAILABLE","source":"ndw","priceKwh":0.388}},{"type":"Feature","geometry":{"type":"Point","coordinates":[5.291776,52.710281]},"properties":{"type":"charge","layer":"passenger","locationId":"OST24P0014_0052_4","name":"OST24P0014_0052_4","address":"Kooizandweg 6-461","city":"Enkhuizen","operatorName":"e-VOLTT","maxPowerKw":19,"isMegawatt":false,"status":"AVAILABLE","source":"ndw","priceKwh":0.62}},{"type":"Feature","geometry":{"type":"Point","coordinates":[5.294239,52.708752]},"properties":{"type":"charge","layer":"passenger","locationId":"OST24P0014_0178_5","name":"OST24P0014_0178_5","address":"Kooizandweg 6","city":"Enkhuizen","operatorName":"e-VOLTT","maxPowerKw":38,"isMegawatt":false,"status":"AVAILABLE","source":"ndw","priceKwh":0.62}},{"type":"Feature","geometry":{"type":"Point","coordinates":[5.271712,52.708336]},"properties":{"type":"charge","layer":"passenger","locationId":"f997bee1-fdf4-4d03-bea5-f088d3edf358","name":"TNLP008080 - Middenstuk 1, Enkhuizen","address":"1 Middenstuk","city":"Enkhuizen","operatorName":"TotalEnergies","maxPowerKw":15,"isMegawatt":false,"status":"AVAILABLE","source":"ndw"}},{"type":"Feature","geometry":{"type":"Point","coordinates":[5.287157,52.702698]},"properties":{"type":"charge","layer":"passenger","locationId":"e6a496b7-2f2c-427e-ab10-88a1f5a03ced","name":"TNLP008846 - Patershof 2, Enkhuizen","address":"2 Patershof","city":"Enkhuizen","operatorName":"TotalEnergies","maxPowerKw":14,"isMegawatt":false,"status":"CHARGING","source":"ndw"}},{"type":"Feature","geometry":{"type":"Point","coordinates":[5.291776,52.710281]},"properties":{"type":"charge","layer":"passenger","locationId":"OST24P0014_0077_7","name":"OST24P0014_0077_7","address":"Kooizandweg 6-440","city":"Enkhuizen","operatorName":"e-VOLTT","maxPowerKw":19,"isMegawatt":false,"status":"AVAILABLE","source":"ndw","priceKwh":0.62}},{"type":"Feature","geometry":{"type":"Point","coordinates":[5.291776,52.710281]},"properties":{"type":"charge","layer":"passenger","locationId":"OST24P0014_0154_2","name":"OST24P0014_0154_2","address":"Kooizandweg 6-512","city":"Enkhuizen","operatorName":"e-VOLTT","maxPowerKw":19,"isMegawatt":false,"status":"AVAILABLE","source":"ndw","priceKwh":0.62}},{"type":"Feature","geometry":{"type":"Point","coordinates":[5.291776,52.710281]},"properties":{"type":"charge","layer":"passenger","locationId":"OST24P0014_0005_1","name":"OST24P0014_0005_1","address":"Kooizandweg 6-537","city":"Enkhuizen","operatorName":"e-VOLTT","maxPowerKw":19,"isMegawatt":false,"status":"AVAILABLE","source":"ndw","priceKwh":0.62}},{"type":"Feature","geometry":{"type":"Point","coordinates":[5.291776,52.710281]},"properties":{"type":"charge","layer":"passenger","locationId":"OST24P0014_0052_8","name":"OST24P0014_0052_8","address":"Kooizandweg 6-485","city":"Enkhuizen","operatorName":"e-VOLTT","maxPowerKw":38,"isMegawatt":false,"status":"AVAILABLE","source":"ndw","priceKwh":0.62}},{"type":"Feature","geometry":{"type":"Point","coordinates":[5.291776,52.710281]},"properties":{"type":"charge","layer":"passenger","locationId":"OST24P0014_0154_3","name":"OST24P0014_0154_3","address":"Kooizandweg 6-513","city":"Enkhuizen","operatorName":"e-VOLTT","maxPowerKw":19,"isMegawatt":false,"status":"AVAILABLE","source":"ndw","priceKwh":0.62}},{"type":"Feature","geometry":{"type":"Point","coordinates":[5.29333,52.70644]},"properties":{"type":"charge","layer":"passenger","locationId":"e758bf2d-23d7-43c8-935c-46ca1eb0d700","name":"PP004263 - Wilhelminaplantsoen 7, Enkhuizen","address":"7 Wilhelminaplantsoen","city":"Enkhuizen","operatorName":"TotalEnergies","maxPowerKw":13,"isMegawatt":false,"status":"CHARGING","source":"ndw"}},{"type":"Feature","geometry":{"type":"Point","coordinates":[5.27712,52.71572]},"properties":{"type":"charge","layer":"passenger","locationId":"444","name":"Shell Recharge NL Lepelaarshof 12","address":"Lepelaarshof 12","city":"Enkhuizen","operatorName":"Ubitricity","maxPowerKw":11,"isMegawatt":false,"status":"AVAILABLE","source":"ndw","priceKwh":0.388}},{"type":"Feature","geometry":{"type":"Point","coordinates":[5.291776,52.710281]},"properties":{"type":"charge","layer":"passenger","locationId":"OST24P0014_0122_2","name":"OST24P0014_0122_2","address":"Kooizandweg 6-515B","city":"Enkhuizen","operatorName":"e-VOLTT","maxPowerKw":19,"isMegawatt":false,"status":"AVAILABLE","source":"ndw","priceKwh":0.62}},{"type":"Feature","geometry":{"type":"Point","coordinates":[5.291776,52.710281]},"properties":{"type":"charge","layer":"passenger","locationId":"OST24P0014_0157_7","name":"OST24P0014_0157_7","address":"Kooizandweg 6-533","city":"Enkhuizen","operatorName":"e-VOLTT","maxPowerKw":19,"isMegawatt":false,"status":"AVAILABLE","source":"ndw","priceKwh":0.62}},{"type":"Feature","geometry":{"type":"Point","coordinates":[5.294195,52.708818]},"properties":{"type":"charge","layer":"passenger","locationId":"OST24P0014_0160_0","name":"OST24P0014_0160_0","address":"Kooizandweg 6","city":"Enkhuizen","operatorName":"e-VOLTT","maxPowerKw":38,"isMegawatt":false,"status":"AVAILABLE","source":"ndw","priceKwh":0.62}},{"type":"Feature","geometry":{"type":"Point","coordinates":[5.273453,52.71724]},"properties":{"type":"charge","layer":"passenger","locationId":"6456860accd7670821b10b8a26376acc","name":"In Het Want 27","address":"In Het Want 27","city":"Enkhuizen","operatorName":"Vattenfall InCharge","maxPowerKw":11,"isMegawatt":false,"status":"AVAILABLE","source":"ndw"}},{"type":"Feature","geometry":{"type":"Point","coordinates":[5.2917466,52.7059526]},"properties":{"type":"charge","layer":"passenger","locationId":"1391","name":"Shell Recharge NL Vissersdijk 39","address":"Vissersdijk 39","city":"Enkhuizen","operatorName":"Ubitricity","maxPowerKw":22,"isMegawatt":false,"status":"CHARGING","source":"ndw","priceKwh":0.266}},{"type":"Feature","geometry":{"type":"Point","coordinates":[5.27965,52.71517]},"properties":{"type":"charge","layer":"passenger","locationId":"83334516-517a-4535-9c9f-717643929b4f","name":"PP004024 - Gruttolaan 114, Enkhuizen","address":"114 Gruttolaan","city":"Enkhuizen","operatorName":"TotalEnergies","maxPowerKw":13,"isMegawatt":false,"status":"AVAILABLE","source":"ndw"}},{"type":"Feature","geometry":{"type":"Point","coordinates":[5.2785431,52.7132055]},"properties":{"type":"charge","layer":"passenger","locationId":"917","name":"Shell Recharge NL Kievitstraat 34","address":"Kievitstraat 34","city":"Enkhuizen","operatorName":"Ubitricity","maxPowerKw":22,"isMegawatt":false,"status":"AVAILABLE","source":"ndw","priceKwh":0.266}},{"type":"Feature","geometry":{"type":"Point","coordinates":[5.291776,52.710281]},"properties":{"type":"charge","layer":"passenger","locationId":"OST24P0014_0034_1","name":"OST24P0014_0034_1","address":"Kooizandweg 6-413","city":"Enkhuizen","operatorName":"e-VOLTT","maxPowerKw":19,"isMegawatt":false,"status":"AVAILABLE","source":"ndw","priceKwh":0.62}},{"type":"Feature","geometry":{"type":"Point","coordinates":[5.291776,52.710281]},"properties":{"type":"charge","layer":"passenger","locationId":"OST24P0014_0020_6","name":"OST24P0014_0020_6","address":"Kooizandweg 6-418","city":"Enkhuizen","operatorName":"e-VOLTT","maxPowerKw":19,"isMegawatt":false,"status":"AVAILABLE","source":"ndw","priceKwh":0.62}},{"type":"Feature","geometry":{"type":"Point","coordinates":[5.288137,52.70403]},"properties":{"type":"charge","layer":"passenger","locationId":"394d9110-8ef7-4eb0-baf7-f20035855dbc","name":"TNLP008133 - Semeinszstraat 10, Enkhuizen","address":"10 Semeinszstraat","city":"Enkhuizen","operatorName":"TotalEnergies","maxPowerKw":13,"isMegawatt":false,"status":"AVAILABLE","source":"ndw"}},{"type":"Feature","geometry":{"type":"Point","coordinates":[5.281083,52.709476]},"properties":{"type":"charge","layer":"passenger","locationId":"5a73f377-cffb-4554-8310-0a615d6a1a10","name":"TNLP015131 - Wilgenkade 1, Enkhuizen","address":"1 Wilgenkade","city":"Enkhuizen","operatorName":"TotalEnergies","maxPowerKw":17,"isMegawatt":false,"status":"UNAVAILABLE","source":"ndw"}},{"type":"Feature","geometry":{"type":"Point","coordinates":[5.291776,52.710281]},"properties":{"type":"charge","layer":"passenger","locationId":"OST24P0014_0122_7","name":"OST24P0014_0122_7","address":"Kooizandweg 6-504","city":"Enkhuizen","operatorName":"e-VOLTT","maxPowerKw":19,"isMegawatt":false,"status":"AVAILABLE","source":"ndw","priceKwh":0.62}},{"type":"Feature","geometry":{"type":"Point","coordinates":[5.291776,52.710281]},"properties":{"type":"charge","layer":"passenger","locationId":"OST24P0014_0052_5","name":"OST24P0014_0052_5","address":"Kooizandweg 6-462","city":"Enkhuizen","operatorName":"e-VOLTT","maxPowerKw":19,"isMegawatt":false,"status":"AVAILABLE","source":"ndw","priceKwh":0.62}},{"type":"Feature","geometry":{"type":"Point","coordinates":[5.264909,52.717377]},"properties":{"type":"charge","layer":"passenger","locationId":"34dd89e8-3307-44a9-b590-5b853e7b2631","name":"TNLP009745 - Smak 22, Enkhuizen","address":"22 Smak","city":"Enkhuizen","operatorName":"TotalEnergies","maxPowerKw":13,"isMegawatt":false,"status":"AVAILABLE","source":"ndw"}},{"type":"Feature","geometry":{"type":"Point","coordinates":[5.294235,52.708845]},"properties":{"type":"charge","layer":"passenger","locationId":"OST24P0014_0099_4","name":"OST24P0014_0099_4","address":"Kooizandweg 6","city":"Enkhuizen","operatorName":"e-VOLTT","maxPowerKw":19,"isMegawatt":false,"status":"AVAILABLE","source":"ndw","priceKwh":0.62}},{"type":"Feature","geometry":{"type":"Point","coordinates":[5.291776,52.710281]},"properties":{"type":"charge","layer":"passenger","locationId":"OST24P0014_0092_5","name":"OST24P0014_0092_5","address":"Kooizandweg 6-494","city":"Enkhuizen","operatorName":"e-VOLTT","maxPowerKw":19,"isMegawatt":false,"status":"AVAILABLE","source":"ndw","priceKwh":0.62}},{"type":"Feature","geometry":{"type":"Point","coordinates":[5.286021,52.70679]},"properties":{"type":"charge","layer":"passenger","locationId":"44f1fe0b-d7ae-41de-adee-c125ae30653d","name":"TNLP015221 - Kruislaan 70, Enkhuizen","address":"70 Kruislaan","city":"Enkhuizen","operatorName":"TotalEnergies","maxPowerKw":13,"isMegawatt":false,"status":"AVAILABLE","source":"ndw"}},{"type":"Feature","geometry":{"type":"Point","coordinates":[5.291776,52.710281]},"properties":{"type":"charge","layer":"passenger","locationId":"OST24P0014_0084_1","name":"OST24P0014_0084_1","address":"Kooizandweg 6-472","city":"Enkhuizen","operatorName":"e-VOLTT","maxPowerKw":19,"isMegawatt":false,"status":"AVAILABLE","source":"ndw","priceKwh":0.62}},{"type":"Feature","geometry":{"type":"Point","coordinates":[5.291776,52.710281]},"properties":{"type":"charge","layer":"passenger","locationId":"OST24P0014_0122_5","name":"OST24P0014_0122_5","address":"Kooizandweg 6-502","city":"Enkhuizen","operatorName":"e-VOLTT","maxPowerKw":19,"isMegawatt":false,"status":"AVAILABLE","source":"ndw","priceKwh":0.62}},{"type":"Feature","geometry":{"type":"Point","coordinates":[5.291776,52.710281]},"properties":{"type":"charge","layer":"passenger","locationId":"OST24P0014_0022_6","name":"OST24P0014_0022_6","address":"Kooizandweg 6-421","city":"Enkhuizen","operatorName":"e-VOLTT","maxPowerKw":19,"isMegawatt":false,"status":"AVAILABLE","source":"ndw","priceKwh":0.62}},{"type":"Feature","geometry":{"type":"Point","coordinates":[5.27319,52.69532]},"properties":{"type":"charge","layer":"passenger","locationId":"19A8B4F9-1750-4C0E-A95D-96DD13A532CC","name":"Eneco eMobility Broekhuis Volkswagen Seat Skoda Enkhuizen","address":"De Dolfijn 1","city":"Enkhuizen","operatorName":"Eneco","maxPowerKw":22,"isMegawatt":false,"status":"AVAILABLE","source":"ndw","priceKwh":0.45}},{"type":"Feature","geometry":{"type":"Point","coordinates":[5.28213,52.69995]},"properties":{"type":"charge","layer":"passenger","locationId":"282","name":"Shell Recharge NL Admiraliteitsweg 15","address":"Admiraliteitsweg 15","city":"Enkhuizen","operatorName":"Ubitricity","maxPowerKw":11,"isMegawatt":false,"status":"AVAILABLE","source":"ndw","priceKwh":0.388}},{"type":"Feature","geometry":{"type":"Point","coordinates":[5.291776,52.710281]},"properties":{"type":"charge","layer":"passenger","locationId":"OST24P0014_0178_7","name":"OST24P0014_0178_7","address":"Kooizandweg 6-552","city":"Enkhuizen","operatorName":"e-VOLTT","maxPowerKw":38,"isMegawatt":false,"status":"AVAILABLE","source":"ndw","priceKwh":0.62}},{"type":"Feature","geometry":{"type":"Point","coordinates":[5.291776,52.710281]},"properties":{"type":"charge","layer":"passenger","locationId":"OST24P0014_0152_1","name":"OST24P0014_0152_1","address":"Kooizandweg 6-507","city":"Enkhuizen","operatorName":"e-VOLTT","maxPowerKw":19,"isMegawatt":false,"status":"AVAILABLE","source":"ndw","priceKwh":0.62}},{"type":"Feature","geometry":{"type":"Point","coordinates":[5.291776,52.710281]},"properties":{"type":"charge","layer":"passenger","locationId":"OST24P0014_0092_3","name":"OST24P0014_0092_3","address":"Kooizandweg 6-492","city":"Enkhuizen","operatorName":"e-VOLTT","maxPowerKw":19,"isMegawatt":false,"status":"AVAILABLE","source":"ndw","priceKwh":0.62}},{"type":"Feature","geometry":{"type":"Point","coordinates":[5.291776,52.710281]},"properties":{"type":"charge","layer":"passenger","locationId":"OST24P0014_0154_4","name":"OST24P0014_0154_4","address":"Kooizandweg 6-514","city":"Enkhuizen","operatorName":"e-VOLTT","maxPowerKw":19,"isMegawatt":false,"status":"AVAILABLE","source":"ndw","priceKwh":0.62}},{"type":"Feature","geometry":{"type":"Point","coordinates":[5.291776,52.710281]},"properties":{"type":"charge","layer":"passenger","locationId":"OST24P0014_0034_0","name":"OST24P0014_0034_0","address":"Kooizandweg 6-412","city":"Enkhuizen","operatorName":"e-VOLTT","maxPowerKw":19,"isMegawatt":false,"status":"AVAILABLE","source":"ndw","priceKwh":0.62}},{"type":"Feature","geometry":{"type":"Point","coordinates":[5.291776,52.710281]},"properties":{"type":"charge","layer":"passenger","locationId":"OST24P0014_0048_0","name":"OST24P0014_0048_0","address":"Kooizandweg 6-463","city":"Enkhuizen","operatorName":"e-VOLTT","maxPowerKw":19,"isMegawatt":false,"status":"AVAILABLE","source":"ndw","priceKwh":0.62}},{"type":"Feature","geometry":{"type":"Point","coordinates":[5.291776,52.710281]},"properties":{"type":"charge","layer":"passenger","locationId":"OST24P0014_0035_0","name":"OST24P0014_0035_0","address":"Kooizandweg 6-430","city":"Enkhuizen","operatorName":"e-VOLTT","maxPowerKw":19,"isMegawatt":false,"status":"AVAILABLE","source":"ndw","priceKwh":0.413}},{"type":"Feature","geometry":{"type":"Point","coordinates":[5.294204,52.708866]},"properties":{"type":"charge","layer":"passenger","locationId":"OST24P0014_0035_7","name":"OST24P0014_0035_7","address":"Kooizandweg 6","city":"Enkhuizen","operatorName":"e-VOLTT","maxPowerKw":19,"isMegawatt":false,"status":"AVAILABLE","source":"ndw","priceKwh":0.62}},{"type":"Feature","geometry":{"type":"Point","coordinates":[5.28567,52.7015]},"properties":{"type":"charge","layer":"passenger","locationId":"659","name":"Shell Recharge NL Waaigat 44","address":"Waaigat 44","city":"Enkhuizen","operatorName":"Ubitricity","maxPowerKw":11,"isMegawatt":false,"status":"AVAILABLE","source":"ndw","priceKwh":0.388}},{"type":"Feature","geometry":{"type":"Point","coordinates":[5.291776,52.710281]},"properties":{"type":"charge","layer":"passenger","locationId":"OST24P0014_0048_5","name":"OST24P0014_0048_5","address":"Kooizandweg 6-488","city":"Enkhuizen","operatorName":"e-VOLTT","maxPowerKw":19,"isMegawatt":false,"status":"AVAILABLE","source":"ndw","priceKwh":0.62}},{"type":"Feature","geometry":{"type":"Point","coordinates":[5.295493,52.70406]},"properties":{"type":"charge","layer":"passenger","locationId":"24cf91d1-2ef5-4a8a-90ca-26c3da00ed06","name":"TNLP008101 - Hoogstraat 10, Enkhuizen","address":"10 Hoogstraat","city":"Enkhuizen","operatorName":"TotalEnergies","maxPowerKw":13,"isMegawatt":false,"status":"AVAILABLE","source":"ndw"}},{"type":"Feature","geometry":{"type":"Point","coordinates":[5.296592,52.704033]},"properties":{"type":"charge","layer":"passenger","locationId":"92d3d062-87ba-4407-b05b-360799ea93bc","name":"TNLP015110 - Noorderkade 7, Enkhuizen","address":"7 Noorderkade","city":"Enkhuizen","operatorName":"TotalEnergies","maxPowerKw":13,"isMegawatt":false,"status":"AVAILABLE","source":"ndw"}},{"type":"Feature","geometry":{"type":"Point","coordinates":[5.291776,52.710281]},"properties":{"type":"charge","layer":"passenger","locationId":"OST24P0014_0099_1","name":"OST24P0014_0099_1","address":"Kooizandweg 6-479","city":"Enkhuizen","operatorName":"e-VOLTT","maxPowerKw":19,"isMegawatt":false,"status":"AVAILABLE","source":"ndw","priceKwh":0.62}},{"type":"Feature","geometry":{"type":"Point","coordinates":[5.283287,52.712234]},"properties":{"type":"charge","layer":"passenger","locationId":"693c5a0a-85ef-4eba-899f-66e446631724","name":"TNLP015357 - Tulpenplein 2, Enkhuizen","address":"2 Tulpenplein","city":"Enkhuizen","operatorName":"TotalEnergies","maxPowerKw":13,"isMegawatt":false,"status":"CHARGING","source":"ndw"}},{"type":"Feature","geometry":{"type":"Point","coordinates":[5.2701059,52.7146568]},"properties":{"type":"charge","layer":"passenger","locationId":"1082","name":"Shell Recharge NL Douwe Brouwerweg 25","address":"Douwe Brouwerweg 25","city":"Enkhuizen","operatorName":"Ubitricity","maxPowerKw":22,"isMegawatt":false,"status":"AVAILABLE","source":"ndw","priceKwh":0.266}},{"type":"Feature","geometry":{"type":"Point","coordinates":[5.294363,52.708828]},"properties":{"type":"charge","layer":"passenger","locationId":"OST24P0014_0102_6","name":"OST24P0014_0102_6","address":"Kooizandweg 6","city":"Enkhuizen","operatorName":"e-VOLTT","maxPowerKw":19,"isMegawatt":false,"status":"UNAVAILABLE","source":"ndw","priceKwh":0.413}},{"type":"Feature","geometry":{"type":"Point","coordinates":[5.29214,52.70351]},"properties":{"type":"charge","layer":"passenger","locationId":"808d9a40-f6a2-4a7c-be2c-6032ae4332d8","name":"PP001372 - Zuiderkerkplein 9, Enkhuizen","address":"9 Zuiderkerkplein","city":"Enkhuizen","operatorName":"TotalEnergies","maxPowerKw":11,"isMegawatt":false,"status":"AVAILABLE","source":"ndw"}},{"type":"Feature","geometry":{"type":"Point","coordinates":[5.291776,52.710281]},"properties":{"type":"charge","layer":"passenger","locationId":"OST24P0014_0020_0","name":"OST24P0014_0020_0","address":"Kooizandweg 6-400","city":"Enkhuizen","operatorName":"e-VOLTT","maxPowerKw":19,"isMegawatt":false,"status":"AVAILABLE","source":"ndw","priceKwh":0.62}},{"type":"Feature","geometry":{"type":"Point","coordinates":[5.28189,52.70677]},"properties":{"type":"charge","layer":"passenger","locationId":"198","name":"Shell Recharge NL Kolhornstraat 9","address":"Kolhornstraat 9","city":"Enkhuizen","operatorName":"Ubitricity","maxPowerKw":11,"isMegawatt":false,"status":"AVAILABLE","source":"ndw","priceKwh":0.388}},{"type":"Feature","geometry":{"type":"Point","coordinates":[5.291776,52.710281]},"properties":{"type":"charge","layer":"passenger","locationId":"OST24P0014_0122_6","name":"OST24P0014_0122_6","address":"Kooizandweg 6-503","city":"Enkhuizen","operatorName":"e-VOLTT","maxPowerKw":19,"isMegawatt":false,"status":"AVAILABLE","source":"ndw","priceKwh":0.62}},{"type":"Feature","geometry":{"type":"Point","coordinates":[5.291776,52.710281]},"properties":{"type":"charge","layer":"passenger","locationId":"OST24P0014_0005_2","name":"OST24P0014_0005_2","address":"Kooizandweg 6-538","city":"Enkhuizen","operatorName":"e-VOLTT","maxPowerKw":19,"isMegawatt":false,"status":"AVAILABLE","source":"ndw","priceKwh":0.62}},{"type":"Feature","geometry":{"type":"Point","coordinates":[5.291776,52.710281]},"properties":{"type":"charge","layer":"passenger","locationId":"OST24P0014_0052_0","name":"OST24P0014_0052_0","address":"Kooizandweg 6-457","city":"Enkhuizen","operatorName":"e-VOLTT","maxPowerKw":19,"isMegawatt":false,"status":"AVAILABLE","source":"ndw","priceKwh":0.62}},{"type":"Feature","geometry":{"type":"Point","coordinates":[5.291776,52.710281]},"properties":{"type":"charge","layer":"passenger","locationId":"OST24P0014_0154_6","name":"OST24P0014_0154_6","address":"Kooizandweg 6-522","city":"Enkhuizen","operatorName":"e-VOLTT","maxPowerKw":19,"isMegawatt":false,"status":"AVAILABLE","source":"ndw","priceKwh":0.62}},{"type":"Feature","geometry":{"type":"Point","coordinates":[5.291776,52.710281]},"properties":{"type":"charge","layer":"passenger","locationId":"OST24P0014_0048_4","name":"OST24P0014_0048_4","address":"Kooizandweg 6-487","city":"Enkhuizen","operatorName":"e-VOLTT","maxPowerKw":19,"isMegawatt":false,"status":"AVAILABLE","source":"ndw","priceKwh":0.62}},{"type":"Feature","geometry":{"type":"Point","coordinates":[5.291776,52.710281]},"properties":{"type":"charge","layer":"passenger","locationId":"OST24P0014_0005_0","name":"OST24P0014_0005_0","address":"Kooizandweg 6-534","city":"Enkhuizen","operatorName":"e-VOLTT","maxPowerKw":19,"isMegawatt":false,"status":"AVAILABLE","source":"ndw","priceKwh":0.62}},{"type":"Feature","geometry":{"type":"Point","coordinates":[5.26881,52.71928]},"properties":{"type":"charge","layer":"passenger","locationId":"480","name":"Shell Recharge NL Noordvaarder 4","address":"Noordvaarder 4","city":"Enkhuizen","operatorName":"Ubitricity","maxPowerKw":11,"isMegawatt":false,"status":"CHARGING","source":"ndw","priceKwh":0.388}},{"type":"Feature","geometry":{"type":"Point","coordinates":[5.291776,52.710281]},"properties":{"type":"charge","layer":"passenger","locationId":"OST24P0014_0035_1","name":"OST24P0014_0035_1","address":"Kooizandweg 6-431","city":"Enkhuizen","operatorName":"e-VOLTT","maxPowerKw":19,"isMegawatt":false,"status":"AVAILABLE","source":"ndw","priceKwh":0.62}},{"type":"Feature","geometry":{"type":"Point","coordinates":[5.291776,52.710281]},"properties":{"type":"charge","layer":"passenger","locationId":"OST24P0014_0092_1","name":"OST24P0014_0092_1","address":"Kooizandweg 6-490","city":"Enkhuizen","operatorName":"e-VOLTT","maxPowerKw":19,"isMegawatt":false,"status":"AVAILABLE","source":"ndw","priceKwh":0.62}},{"type":"Feature","geometry":{"type":"Point","coordinates":[5.262957,52.718052]},"properties":{"type":"charge","layer":"passenger","locationId":"680819e9-1fa7-4943-afa4-abe08ffe9dcc","name":"PP005370 - Om de Lande 39, Enkhuizen","address":"39 Om de Lande","city":"Enkhuizen","operatorName":"TotalEnergies","maxPowerKw":13,"isMegawatt":false,"status":"AVAILABLE","source":"ndw"}},{"type":"Feature","geometry":{"type":"Point","coordinates":[5.271833,52.694009]},"properties":{"type":"charge","layer":"passenger","locationId":"64fed45343d335001c31236e","name":"Slittech","address":"De Dolfijn 16","city":"Enkhuizen","operatorName":"E-Flux by Road","maxPowerKw":22,"isMegawatt":false,"status":"AVAILABLE","source":"ndw","priceKwh":0.68}},{"type":"Feature","geometry":{"type":"Point","coordinates":[5.291776,52.710281]},"properties":{"type":"charge","layer":"passenger","locationId":"OST24P0014_0020_1","name":"OST24P0014_0020_1","address":"Kooizandweg 6-401","city":"Enkhuizen","operatorName":"e-VOLTT","maxPowerKw":19,"isMegawatt":false,"status":"AVAILABLE","source":"ndw","priceKwh":0.62}},{"type":"Feature","geometry":{"type":"Point","coordinates":[5.291776,52.710281]},"properties":{"type":"charge","layer":"passenger","locationId":"OST24P0014_0034_8","name":"OST24P0014_0034_8","address":"Kooizandweg 6-428","city":"Enkhuizen","operatorName":"e-VOLTT","maxPowerKw":19,"isMegawatt":false,"status":"AVAILABLE","source":"ndw","priceKwh":0.62}},{"type":"Feature","geometry":{"type":"Point","coordinates":[5.291776,52.710281]},"properties":{"type":"charge","layer":"passenger","locationId":"OST24P0014_0035_5","name":"OST24P0014_0035_5","address":"Kooizandweg 6-435","city":"Enkhuizen","operatorName":"e-VOLTT","maxPowerKw":19,"isMegawatt":false,"status":"UNAVAILABLE","source":"ndw","priceKwh":0.62}},{"type":"Feature","geometry":{"type":"Point","coordinates":[5.291776,52.710281]},"properties":{"type":"charge","layer":"passenger","locationId":"OST24P0014_0034_4","name":"OST24P0014_0034_4","address":"Kooizandweg 6-416","city":"Enkhuizen","operatorName":"e-VOLTT","maxPowerKw":19,"isMegawatt":false,"status":"AVAILABLE","source":"ndw","priceKwh":0.62}},{"type":"Feature","geometry":{"type":"Point","coordinates":[5.27373,52.71314]},"properties":{"type":"charge","layer":"passenger","locationId":"149c1495-f9a5-4937-bb7d-9b4694a567e4","name":"PP004197 - Kerkeland 60, Enkhuizen","address":"60 Kerkeland","city":"Enkhuizen","operatorName":"TotalEnergies","maxPowerKw":13,"isMegawatt":false,"status":"AVAILABLE","source":"ndw"}},{"type":"Feature","geometry":{"type":"Point","coordinates":[5.291776,52.710281]},"properties":{"type":"charge","layer":"passenger","locationId":"OST24P0014_0157_5","name":"OST24P0014_0157_5","address":"Kooizandweg 6-531","city":"Enkhuizen","operatorName":"e-VOLTT","maxPowerKw":19,"isMegawatt":false,"status":"AVAILABLE","source":"ndw","priceKwh":0.62}},{"type":"Feature","geometry":{"type":"Point","coordinates":[5.291776,52.710281]},"properties":{"type":"charge","layer":"passenger","locationId":"OST24P0014_0048_3","name":"OST24P0014_0048_3","address":"Kooizandweg 6-486","city":"Enkhuizen","operatorName":"e-VOLTT","maxPowerKw":19,"isMegawatt":false,"status":"AVAILABLE","source":"ndw","priceKwh":0.62}},{"type":"Feature","geometry":{"type":"Point","coordinates":[5.291776,52.710281]},"properties":{"type":"charge","layer":"passenger","locationId":"OST24P0014_0077_5","name":"OST24P0014_0077_5","address":"Kooizandweg 6-438","city":"Enkhuizen","operatorName":"e-VOLTT","maxPowerKw":19,"isMegawatt":false,"status":"AVAILABLE","source":"ndw","priceKwh":0.62}},{"type":"Feature","geometry":{"type":"Point","coordinates":[5.291776,52.710281]},"properties":{"type":"charge","layer":"passenger","locationId":"OST24P0014_0077_3","name":"OST24P0014_0077_3","address":"Kooizandweg 6-469","city":"Enkhuizen","operatorName":"e-VOLTT","maxPowerKw":19,"isMegawatt":false,"status":"AVAILABLE","source":"ndw","priceKwh":0.62}},{"type":"Feature","geometry":{"type":"Point","coordinates":[5.291776,52.710281]},"properties":{"type":"charge","layer":"passenger","locationId":"OST24P0014_0048_2","name":"OST24P0014_0048_2","address":"Kooizandweg 6-465","city":"Enkhuizen","operatorName":"e-VOLTT","maxPowerKw":19,"isMegawatt":false,"status":"AVAILABLE","source":"ndw","priceKwh":0.62}},{"type":"Feature","geometry":{"type":"Point","coordinates":[5.291776,52.710281]},"properties":{"type":"charge","layer":"passenger","locationId":"OST24P0014_0035_6","name":"OST24P0014_0035_6","address":"Kooizandweg 6-437","city":"Enkhuizen","operatorName":"e-VOLTT","maxPowerKw":19,"isMegawatt":false,"status":"UNAVAILABLE","source":"ndw","priceKwh":0.62}},{"type":"Feature","geometry":{"type":"Point","coordinates":[5.285888,52.70147]},"properties":{"type":"charge","layer":"passenger","locationId":"83844ea1-d811-49c0-9e2f-689774936794","name":"TNLP009597 - Waaigat 44 A, Enkhuizen","address":"44 A Waaigat","city":"Enkhuizen","operatorName":"TotalEnergies","maxPowerKw":13,"isMegawatt":false,"status":"CHARGING","source":"ndw"}},{"type":"Feature","geometry":{"type":"Point","coordinates":[5.291776,52.710281]},"properties":{"type":"charge","layer":"passenger","locationId":"OST24P0014_0152_2","name":"OST24P0014_0152_2","address":"Kooizandweg 6-508","city":"Enkhuizen","operatorName":"e-VOLTT","maxPowerKw":19,"isMegawatt":false,"status":"AVAILABLE","source":"ndw","priceKwh":0.62}},{"type":"Feature","geometry":{"type":"Point","coordinates":[5.291776,52.710281]},"properties":{"type":"charge","layer":"passenger","locationId":"OST24P0014_0022_8","name":"OST24P0014_0022_8","address":"Kooizandweg 6-423","city":"Enkhuizen","operatorName":"e-VOLTT","maxPowerKw":19,"isMegawatt":false,"status":"AVAILABLE","source":"ndw","priceKwh":0.62}},{"type":"Feature","geometry":{"type":"Point","coordinates":[5.291776,52.710281]},"properties":{"type":"charge","layer":"passenger","locationId":"OST24P0014_0020_5","name":"OST24P0014_0020_5","address":"Kooizandweg 6-405","city":"Enkhuizen","operatorName":"e-VOLTT","maxPowerKw":19,"isMegawatt":false,"status":"AVAILABLE","source":"ndw","priceKwh":0.62}},{"type":"Feature","geometry":{"type":"Point","coordinates":[5.291776,52.710281]},"properties":{"type":"charge","layer":"passenger","locationId":"OST24P0014_0022_7","name":"OST24P0014_0022_7","address":"Kooizandweg 6-422","city":"Enkhuizen","operatorName":"e-VOLTT","maxPowerKw":19,"isMegawatt":false,"status":"AVAILABLE","source":"ndw","priceKwh":0.62}},{"type":"Feature","geometry":{"type":"Point","coordinates":[5.291776,52.710281]},"properties":{"type":"charge","layer":"passenger","locationId":"OST24P0014_0035_3","name":"OST24P0014_0035_3","address":"Kooizandweg 6-433","city":"Enkhuizen","operatorName":"e-VOLTT","maxPowerKw":19,"isMegawatt":false,"status":"UNAVAILABLE","source":"ndw","priceKwh":0.413}},{"type":"Feature","geometry":{"type":"Point","coordinates":[5.291776,52.710281]},"properties":{"type":"charge","layer":"passenger","locationId":"OST24P0014_0077_2","name":"OST24P0014_0077_2","address":"Kooizandweg 6-468","city":"Enkhuizen","operatorName":"e-VOLTT","maxPowerKw":19,"isMegawatt":false,"status":"AVAILABLE","source":"ndw","priceKwh":0.62}},{"type":"Feature","geometry":{"type":"Point","coordinates":[5.291776,52.710281]},"properties":{"type":"charge","layer":"passenger","locationId":"OST24P0014_0102_1","name":"OST24P0014_0102_1","address":"Kooizandweg 6-482","city":"Enkhuizen","operatorName":"e-VOLTT","maxPowerKw":19,"isMegawatt":false,"status":"AVAILABLE","source":"ndw","priceKwh":0.62}},{"type":"Feature","geometry":{"type":"Point","coordinates":[5.291776,52.710281]},"properties":{"type":"charge","layer":"passenger","locationId":"OST24P0014_0052_6","name":"OST24P0014_0052_6","address":"Kooizandweg 6-483","city":"Enkhuizen","operatorName":"e-VOLTT","maxPowerKw":38,"isMegawatt":false,"status":"AVAILABLE","source":"ndw","priceKwh":0.62}},{"type":"Feature","geometry":{"type":"Point","coordinates":[5.291776,52.710281]},"properties":{"type":"charge","layer":"passenger","locationId":"OST24P0014_0152_4","name":"OST24P0014_0152_4","address":"Kooizandweg 6-516","city":"Enkhuizen","operatorName":"e-VOLTT","maxPowerKw":19,"isMegawatt":false,"status":"AVAILABLE","source":"ndw","priceKwh":0.62}},{"type":"Feature","geometry":{"type":"Point","coordinates":[5.291776,52.710281]},"properties":{"type":"charge","layer":"passenger","locationId":"OST24P0014_0157_3","name":"OST24P0014_0157_3","address":"Kooizandweg 6-529","city":"Enkhuizen","operatorName":"e-VOLTT","maxPowerKw":19,"isMegawatt":false,"status":"AVAILABLE","source":"ndw","priceKwh":0.62}},{"type":"Feature","geometry":{"type":"Point","coordinates":[5.291776,52.710281]},"properties":{"type":"charge","layer":"passenger","locationId":"OST24P0014_0022_3","name":"OST24P0014_0022_3","address":"Kooizandweg 6-409","city":"Enkhuizen","operatorName":"e-VOLTT","maxPowerKw":19,"isMegawatt":false,"status":"AVAILABLE","source":"ndw","priceKwh":0.62}},{"type":"Feature","geometry":{"type":"Point","coordinates":[5.291776,52.710281]},"properties":{"type":"charge","layer":"passenger","locationId":"OST24P0014_0152_0","name":"OST24P0014_0152_0","address":"Kooizandweg 6-506","city":"Enkhuizen","operatorName":"e-VOLTT","maxPowerKw":19,"isMegawatt":false,"status":"AVAILABLE","source":"ndw","priceKwh":0.62}},{"type":"Feature","geometry":{"type":"Point","coordinates":[5.291776,52.710281]},"properties":{"type":"charge","layer":"passenger","locationId":"OST24P0014_0154_5","name":"OST24P0014_0154_5","address":"Kooizandweg 6-521","city":"Enkhuizen","operatorName":"e-VOLTT","maxPowerKw":19,"isMegawatt":false,"status":"AVAILABLE","source":"ndw","priceKwh":0.62}},{"type":"Feature","geometry":{"type":"Point","coordinates":[5.291776,52.710281]},"properties":{"type":"charge","layer":"passenger","locationId":"OST24P0014_0092_2","name":"OST24P0014_0092_2","address":"Kooizandweg 6-491","city":"Enkhuizen","operatorName":"e-VOLTT","maxPowerKw":19,"isMegawatt":false,"status":"AVAILABLE","source":"ndw","priceKwh":0.62}},{"type":"Feature","geometry":{"type":"Point","coordinates":[5.291776,52.710281]},"properties":{"type":"charge","layer":"passenger","locationId":"OST24P0014_0122_8","name":"OST24P0014_0122_8","address":"Kooizandweg 6-505","city":"Enkhuizen","operatorName":"e-VOLTT","maxPowerKw":19,"isMegawatt":false,"status":"AVAILABLE","source":"ndw","priceKwh":0.62}},{"type":"Feature","geometry":{"type":"Point","coordinates":[5.291776,52.710281]},"properties":{"type":"charge","layer":"passenger","locationId":"OST24P0014_0034_3","name":"OST24P0014_0034_3","address":"Kooizandweg 6-415","city":"Enkhuizen","operatorName":"e-VOLTT","maxPowerKw":19,"isMegawatt":false,"status":"UNAVAILABLE","source":"ndw","priceKwh":0.62}},{"type":"Feature","geometry":{"type":"Point","coordinates":[5.291776,52.710281]},"properties":{"type":"charge","layer":"passenger","locationId":"OST24P0014_0022_5","name":"OST24P0014_0022_5","address":"Kooizandweg 6-411","city":"Enkhuizen","operatorName":"e-VOLTT","maxPowerKw":19,"isMegawatt":false,"status":"AVAILABLE","source":"ndw","priceKwh":0.62}},{"type":"Feature","geometry":{"type":"Point","coordinates":[5.291776,52.710281]},"properties":{"type":"charge","layer":"passenger","locationId":"OST24P0014_0035_2","name":"OST24P0014_0035_2","address":"Kooizandweg 6-432","city":"Enkhuizen","operatorName":"e-VOLTT","maxPowerKw":19,"isMegawatt":false,"status":"UNAVAILABLE","source":"ndw","priceKwh":0.62}},{"type":"Feature","geometry":{"type":"Point","coordinates":[5.291776,52.710281]},"properties":{"type":"charge","layer":"passenger","locationId":"OST24P0014_0052_7","name":"OST24P0014_0052_7","address":"Kooizandweg 6-484","city":"Enkhuizen","operatorName":"e-VOLTT","maxPowerKw":38,"isMegawatt":false,"status":"AVAILABLE","source":"ndw","priceKwh":0.62}},{"type":"Feature","geometry":{"type":"Point","coordinates":[5.291776,52.710281]},"properties":{"type":"charge","layer":"passenger","locationId":"OST24P0014_0092_4","name":"OST24P0014_0092_4","address":"Kooizandweg 6-493","city":"Enkhuizen","operatorName":"e-VOLTT","maxPowerKw":19,"isMegawatt":false,"status":"AVAILABLE","source":"ndw","priceKwh":0.62}},{"type":"Feature","geometry":{"type":"Point","coordinates":[5.291776,52.710281]},"properties":{"type":"charge","layer":"passenger","locationId":"OST24P0014_0077_4","name":"OST24P0014_0077_4","address":"Kooizandweg 6-470","city":"Enkhuizen","operatorName":"e-VOLTT","maxPowerKw":19,"isMegawatt":false,"status":"AVAILABLE","source":"ndw","priceKwh":0.62}},{"type":"Feature","geometry":{"type":"Point","coordinates":[5.291776,52.710281]},"properties":{"type":"charge","layer":"passenger","locationId":"OST24P0014_0034_7","name":"OST24P0014_0034_7","address":"Kooizandweg 6-427","city":"Enkhuizen","operatorName":"e-VOLTT","maxPowerKw":19,"isMegawatt":false,"status":"AVAILABLE","source":"ndw","priceKwh":0.62}},{"type":"Feature","geometry":{"type":"Point","coordinates":[5.291776,52.710281]},"properties":{"type":"charge","layer":"passenger","locationId":"OST24P0014_0077_9","name":"OST24P0014_0077_9","address":"Kooizandweg 6-442","city":"Enkhuizen","operatorName":"e-VOLTT","maxPowerKw":19,"isMegawatt":false,"status":"AVAILABLE","source":"ndw","priceKwh":0.62}},{"type":"Feature","geometry":{"type":"Point","coordinates":[5.291776,52.710281]},"properties":{"type":"charge","layer":"passenger","locationId":"OST24P0014_0154_1","name":"OST24P0014_0154_1","address":"Kooizandweg 6-511","city":"Enkhuizen","operatorName":"e-VOLTT","maxPowerKw":19,"isMegawatt":false,"status":"AVAILABLE","source":"ndw","priceKwh":0.62}},{"type":"Feature","geometry":{"type":"Point","coordinates":[5.291776,52.710281]},"properties":{"type":"charge","layer":"passenger","locationId":"OST24P0014_0157_4","name":"OST24P0014_0157_4","address":"Kooizandweg 6-530","city":"Enkhuizen","operatorName":"e-VOLTT","maxPowerKw":19,"isMegawatt":false,"status":"AVAILABLE","source":"ndw","priceKwh":0.62}},{"type":"Feature","geometry":{"type":"MultiPolygon","coordinates":[[[[5.259432399539283,52.74486174923212],[5.269903773808318,52.745171583054145],[5.271965993261265,52.74632705793746],[5.278082941349551,52.743060666135285],[5.28265840784791,52.74232916049352],[5.282849203477175,52.74049319255869],[5.286804624083011,52.7359332026277],[5.287224840911799,52.73310358316316],[5.2843560072494755,52.732233685157496],[5.283711028676136,52.7308289292899],[5.287539209323248,52.728413315056294],[5.284867479784232,52.72723059695102],[5.284949376889785,52.72221609649469],[5.2836385529529935,52.72198247344362],[5.285156032199912,52.721719360943],[5.2860956425856696,52.71979403119582],[5.2885780630176065,52.71900459106058],[5.28799887437307,52.71480386853898],[5.2891812612521,52.71410931797939],[5.289593948432248,52.71422449065229],[5.290970133235253,52.713369606316704],[5.290727715085146,52.71320085901555],[5.29565174171259,52.71027906106919],[5.301727893614146,52.708309854325435],[5.3046398213115555,52.70823879466979],[5.30712013116918,52.70894781763535],[5.307382984785631,52.70996018468113],[5.307770950289838,52.70838265847071],[5.3074583805458655,52.70682481251687],[5.306933259966419,52.706207694955],[5.306061521770307,52.70585751368571],[5.305170480288894,52.706528504468096],[5.300062960134378,52.70793886061435],[5.297939524547818,52.706628746430205],[5.298013379109924,52.706301899208555],[5.298556833715779,52.70603852027125],[5.299310681411514,52.7059785441953],[5.2991642092413205,52.7058423381499],[5.2985412253724,52.7058866936044],[5.298434227476531,52.70529130264147],[5.298907161378197,52.70526172788747],[5.2990057977413,52.705678191743246],[5.299231082351316,52.70568098259415],[5.2990692898026674,52.70514772227106],[5.298271887392014,52.70485219309123],[5.297994980427641,52.7038239013601],[5.299342131704742,52.702741623440986],[5.293784612317632,52.69956562148955],[5.293673643735278,52.69962397095785],[5.294240008019791,52.70002338580408],[5.294205406664895,52.7000733431757],[5.2932650564134995,52.69999327442947],[5.291517413667499,52.70020190058434],[5.289696475228982,52.700616661443235],[5.289193692267224,52.70010970469039],[5.2922961725683315,52.69939191105254],[5.293131742734443,52.69946008690884],[5.293107563449647,52.69926882949852],[5.29178613707002,52.699229395196745],[5.289708501650775,52.69944116908492],[5.289826871116599,52.69869547748151],[5.291466494613303,52.698801765066094],[5.29148478982324,52.69862652484024],[5.290579345259455,52.69853853105311],[5.290835042252742,52.697983524207416],[5.286496946122767,52.69557987527609],[5.285695369147824,52.695782727633436],[5.289754072603918,52.6980090170611],[5.289235257050013,52.699442290301086],[5.285277460659761,52.69895285995069],[5.283690718069847,52.6987827016194],[5.28366481115825,52.69831732242446],[5.285793753502902,52.69798740118626],[5.288982030264033,52.69859014757945],[5.2841530881937615,52.6968299427063],[5.279644608634957,52.69595988689316],[5.279429643003407,52.69474255288819],[5.282431518063647,52.69328797178604],[5.2836961497350945,52.69353004992608],[5.28412715825161,52.69272676686986],[5.28681394649666,52.69080198575238],[5.287425287311935,52.69116483026457],[5.286883778976538,52.689895321980934],[5.276040775606629,52.68412848675338],[5.27569796858197,52.684359924381425],[5.2860704373765675,52.69035512723588],[5.282947074683955,52.691940517142626],[5.281724526586415,52.69123022943666],[5.280021687951831,52.69151848091975],[5.279470607640055,52.69195206354029],[5.274153557263131,52.68874311933891],[5.271090921043315,52.68763831480472],[5.269578601564021,52.687404321187046],[5.266415920864344,52.687885012647335],[5.2611302912893825,52.68662557092844],[5.259248539016487,52.68690538523413],[5.258979874171352,52.695956735304016],[5.258959209113196,52.696616078753664],[5.258956767374656,52.69675557772649],[5.258743084381224,52.7006880683817],[5.258459810462873,52.70470089619539],[5.258158440555373,52.70904785232171],[5.2575015871224995,52.716180698842685],[5.257340247723582,52.719848994639214],[5.2550666293682875,52.74215940480995],[5.254315774453183,52.746976806752194],[5.259432399539283,52.74486174923212]]],[[[5.234677847024103,52.79342755652001],[5.2322108142190515,52.79392383046068],[5.229670866204204,52.794677613741065],[5.220580786872713,52.798205841546],[5.221327373040146,52.79966164323589],[5.218133741286154,52.80188884355593],[5.221639075195253,52.80544939562568],[5.222507261616902,52.80510871210303],[5.237940844403166,52.79537083702349],[5.236492019513057,52.79451280529265],[5.2352140605923685,52.79342824091214],[5.234677847024103,52.79342755652001]]]]},"properties":{"type":"boundary","gemeente":"Enkhuizen","code":"GM0388"}}]}