{"type":"FeatureCollection","metadata":{"gemeente":"Gorinchem","slug":"gorinchem","code":"GM0512","generated_at":"2026-07-06T16:26:11.361Z","total_passenger":172,"total_freight":1,"bounds":[4.921822164431389,51.818856910771245,5.031414099927922,51.86362932062211],"operators":["Allego","ChargePoint","E-Flux by Road","EQUANS","Eneco","Heijmans","IONITY","Laadnet","Smappee","Tesla","Vattenfall InCharge"]},"features":[{"type":"Feature","geometry":{"type":"Point","coordinates":[4.966486,51.84529]},"properties":{"type":"charge","layer":"passenger","locationId":"89888543","name":"EQUANS SGZH 2.0 89888543","address":"Tiende Penninglaan 298","city":"Gorinchem","operatorName":"EQUANS","maxPowerKw":11,"isMegawatt":false,"status":"AVAILABLE","source":"ndw"}},{"type":"Feature","geometry":{"type":"Point","coordinates":[5.005933,51.83221]},"properties":{"type":"charge","layer":"passenger","locationId":"NLLOC015493","name":"NL, Ruigenhoek 32, 4208BJ, Gorinchem","address":"Ruigenhoek 32","city":"Gorinchem","operatorName":"Allego","maxPowerKw":11,"isMegawatt":false,"status":"AVAILABLE","source":"ndw","priceKwh":0.511}},{"type":"Feature","geometry":{"type":"Point","coordinates":[4.999109,51.833465]},"properties":{"type":"charge","layer":"passenger","locationId":"90823391","name":"EQUANS SGZH 2.0 Nienke van Hichtumpad 112","address":"Nienke van Hichtumpad 112","city":"Gorinchem","operatorName":"EQUANS","maxPowerKw":11,"isMegawatt":false,"status":"AVAILABLE","source":"ndw"}},{"type":"Feature","geometry":{"type":"Point","coordinates":[4.978232,51.831804]},"properties":{"type":"charge","layer":"passenger","locationId":"NLLOC021294","name":"NL, Poortstraat 4, 4201 XE Gorinchem","address":"Poortstraat 4","city":"Gorinchem","operatorName":"Allego","maxPowerKw":11,"isMegawatt":false,"status":"AVAILABLE","source":"ndw","priceKwh":0.511}},{"type":"Feature","geometry":{"type":"Point","coordinates":[5.013506,51.830503]},"properties":{"type":"charge","layer":"passenger","locationId":"90301955","name":"EQUANS SGZH 2.0 Blauwkapel 43","address":"Blauwkapel 43","city":"Gorinchem","operatorName":"EQUANS","maxPowerKw":11,"isMegawatt":false,"status":"AVAILABLE","source":"ndw"}},{"type":"Feature","geometry":{"type":"Point","coordinates":[5.001558,51.832893]},"properties":{"type":"charge","layer":"passenger","locationId":"NLLOC024680","name":"NL, Annie M.G. Schmidtlaan 48, 4207 VD Gorinchem","address":"Annie M.G. Schmidtlaan 48","city":"Gorinchem","operatorName":"Allego","maxPowerKw":11,"isMegawatt":false,"status":"AVAILABLE","source":"ndw","priceKwh":0.511}},{"type":"Feature","geometry":{"type":"Point","coordinates":[5.003,51.836695]},"properties":{"type":"charge","layer":"passenger","locationId":"NLLOC025773","name":"NL, Muzenlaan 36, 4207TC, Gorinchem","address":"Muzenlaan 36","city":"Gorinchem","operatorName":"Allego","maxPowerKw":11,"isMegawatt":false,"status":"CHARGING","source":"ndw","priceKwh":0.511}},{"type":"Feature","geometry":{"type":"Point","coordinates":[5.009038,51.841318]},"properties":{"type":"charge","layer":"passenger","locationId":"7e5c7726-97b4-4584-b993-fba4a27258c8","name":"Gorinchem, Netherlands","address":"7, Franklinweg","city":"Gorinchem","operatorName":"Tesla","maxPowerKw":250,"isMegawatt":false,"status":"AVAILABLE","source":"ndw","priceKwh":0.5}},{"type":"Feature","geometry":{"type":"Point","coordinates":[5.007436,51.836164]},"properties":{"type":"charge","layer":"passenger","locationId":"NLLOC006225","name":"NL, Moerschans 23, 4208 DG, Gorinchem","address":"Moerschans 23","city":"Gorinchem","operatorName":"Allego","maxPowerKw":11,"isMegawatt":false,"status":"CHARGING","source":"ndw","priceKwh":0.511}},{"type":"Feature","geometry":{"type":"Point","coordinates":[4.97693,51.8356]},"properties":{"type":"charge","layer":"passenger","locationId":"90887201","name":"EQUANS SGZH 2.0 Concordiaweg 31 h","address":"Concordiaweg 31 h","city":"Gorinchem","operatorName":"EQUANS","maxPowerKw":11,"isMegawatt":false,"status":"AVAILABLE","source":"ndw"}},{"type":"Feature","geometry":{"type":"Point","coordinates":[4.978558,51.829066]},"properties":{"type":"charge","layer":"passenger","locationId":"NLLOC007400","name":"NL, Kalkhaven 15, 4201 BA, Gorinchem","address":"Kalkhaven 15","city":"Gorinchem","operatorName":"Allego","maxPowerKw":11,"isMegawatt":false,"status":"AVAILABLE","source":"ndw","priceKwh":0.511}},{"type":"Feature","geometry":{"type":"Point","coordinates":[4.970083,51.829891]},"properties":{"type":"charge","layer":"passenger","locationId":"NLLOC001212","name":"NLD, Gorinchem, Pompstraat 27","address":"Pompstraat 27","city":"Gorinchem","operatorName":"Allego","maxPowerKw":22,"isMegawatt":false,"status":"AVAILABLE","source":"ndw","priceKwh":0.511}},{"type":"Feature","geometry":{"type":"Point","coordinates":[5.00606,51.8409]},"properties":{"type":"charge","layer":"passenger","locationId":"1023CF78-B278-4B2D-BB26-3CFA31BFFF7D","name":"Eneco eMobility Van der Valk Gorinchem","address":"Franklinweg 7","city":"Gorinchem","operatorName":"Eneco","maxPowerKw":22,"isMegawatt":false,"status":"AVAILABLE","source":"ndw","priceKwh":0.49}},{"type":"Feature","geometry":{"type":"Point","coordinates":[4.96891,51.840082]},"properties":{"type":"charge","layer":"passenger","locationId":"89927143","name":"EQUANS SGZH 2.0 89927143","address":"Koningin Wilhelminalaan 15","city":"Gorinchem","operatorName":"EQUANS","maxPowerKw":11,"isMegawatt":false,"status":"CHARGING","source":"ndw"}},{"type":"Feature","geometry":{"type":"Point","coordinates":[4.994025,51.840549]},"properties":{"type":"charge","layer":"passenger","locationId":"91209502","name":"EQUANS Hermans & Partners","address":"Edisonweg 6","city":"Gorinchem","operatorName":"EQUANS","maxPowerKw":11,"isMegawatt":false,"status":"AVAILABLE","source":"ndw"}},{"type":"Feature","geometry":{"type":"Point","coordinates":[4.940401,51.835738]},"properties":{"type":"charge","layer":"passenger","locationId":"6866a251362395175a976804","name":"Laadpaal 8","address":"Avelingen West 9","city":"Gorinchem","operatorName":"E-Flux by Road","maxPowerKw":22,"isMegawatt":false,"status":"AVAILABLE","source":"ndw","priceKwh":0.46}},{"type":"Feature","geometry":{"type":"Point","coordinates":[5.011028,51.828544]},"properties":{"type":"charge","layer":"passenger","locationId":"90832011","name":"EQUANS SGZH 2.0 Het Hooge Land 73","address":"Het Hooge Land 73","city":"Dalem","operatorName":"EQUANS","maxPowerKw":11,"isMegawatt":false,"status":"AVAILABLE","source":"ndw"}},{"type":"Feature","geometry":{"type":"Point","coordinates":[4.993302,51.83949]},"properties":{"type":"charge","layer":"passenger","locationId":"NLLOC004531","name":"NLD, Jacques Perkstraat 201 4207RB Gorinchem","address":"Jacques Perkstraat 201","city":"Gorinchem","operatorName":"Allego","maxPowerKw":11,"isMegawatt":false,"status":"AVAILABLE","source":"ndw","priceKwh":0.511}},{"type":"Feature","geometry":{"type":"Point","coordinates":[4.940401,51.835738]},"properties":{"type":"charge","layer":"passenger","locationId":"6866a207431413fd9bc8c815","name":"Laadpaal 7","address":"Avelingen West 9","city":"Gorinchem","operatorName":"E-Flux by Road","maxPowerKw":22,"isMegawatt":false,"status":"AVAILABLE","source":"ndw","priceKwh":0.46}},{"type":"Feature","geometry":{"type":"Point","coordinates":[5.002611,51.833011]},"properties":{"type":"charge","layer":"passenger","locationId":"90301950","name":"EQUANS SGZH 2.0 Dikkertje Dap 66","address":"Dikkertje Dap 66","city":"Gorinchem","operatorName":"EQUANS","maxPowerKw":11,"isMegawatt":false,"status":"CHARGING","source":"ndw"}},{"type":"Feature","geometry":{"type":"Point","coordinates":[5.000227,51.832115]},"properties":{"type":"charge","layer":"passenger","locationId":"NLLOC001056","name":"NLD, Gorinchem, Schaap Veronica 20","address":"Schaap Veronica 20","city":"Gorinchem","operatorName":"Allego","maxPowerKw":11,"isMegawatt":false,"status":"AVAILABLE","source":"ndw","priceKwh":0.511}},{"type":"Feature","geometry":{"type":"Point","coordinates":[5.005981,51.833644]},"properties":{"type":"charge","layer":"passenger","locationId":"NLENV589","name":"Gorinchem, Kruithoorn 144 (Dalemse Veste)","address":"Kruithoorn 144","city":"Gorinchem","operatorName":"","maxPowerKw":11,"isMegawatt":false,"status":"AVAILABLE","source":"ndw","priceKwh":0.5}},{"type":"Feature","geometry":{"type":"Point","coordinates":[4.940401,51.835738]},"properties":{"type":"charge","layer":"passenger","locationId":"6866a3a547b4e907a205e4f6","name":"Laadpaal 12","address":"Avelingen West 9","city":"Gorinchem","operatorName":"E-Flux by Road","maxPowerKw":22,"isMegawatt":false,"status":"AVAILABLE","source":"ndw","priceKwh":0.46}},{"type":"Feature","geometry":{"type":"Point","coordinates":[4.940401,51.835738]},"properties":{"type":"charge","layer":"passenger","locationId":"6866a2b30c7994678dcbcc15","name":"Laadpaal 9","address":"Avelingen West 9","city":"Gorinchem","operatorName":"E-Flux by Road","maxPowerKw":22,"isMegawatt":false,"status":"AVAILABLE","source":"ndw","priceKwh":0.46}},{"type":"Feature","geometry":{"type":"Point","coordinates":[4.940398,51.835747]},"properties":{"type":"charge","layer":"passenger","locationId":"6866a1b5f7ccfc3e96403ef9","name":"Laadpaal 6","address":"Avelingen West 9","city":"Gorinchem","operatorName":"E-Flux by Road","maxPowerKw":22,"isMegawatt":false,"status":"AVAILABLE","source":"ndw","priceKwh":0.46}},{"type":"Feature","geometry":{"type":"Point","coordinates":[4.96407,51.83875]},"properties":{"type":"charge","layer":"passenger","locationId":"90891489","name":"EQUANS SGZH 2.0 Dillenburgstraat 8","address":"Dillenburgstraat 8","city":"Gorinchem","operatorName":"EQUANS","maxPowerKw":11,"isMegawatt":false,"status":"AVAILABLE","source":"ndw"}},{"type":"Feature","geometry":{"type":"Point","coordinates":[4.980986,51.841179]},"properties":{"type":"charge","layer":"passenger","locationId":"NLLOC006869","name":"NL, Jacob van der Ulftstraat 7, 4206 ZP, Gorinchem","address":"Jacob van der Ulftstraat 7","city":"Gorinchem","operatorName":"Allego","maxPowerKw":11,"isMegawatt":false,"status":"AVAILABLE","source":"ndw","priceKwh":0.511}},{"type":"Feature","geometry":{"type":"Point","coordinates":[5.00359,51.83421]},"properties":{"type":"charge","layer":"passenger","locationId":"91313264","name":"EQUANS SGZH 2.0 Pippeloentje 2","address":"Pippeloentje 2","city":"Gorinchem","operatorName":"EQUANS","maxPowerKw":11,"isMegawatt":false,"status":"AVAILABLE","source":"ndw"}},{"type":"Feature","geometry":{"type":"Point","coordinates":[5.008097,51.841241]},"properties":{"type":"charge","layer":"passenger","locationId":"NLLOC027669","name":"Allego - Van der Valk Gorinchem A15","address":"Franklinweg 7","city":"Gorinchem","operatorName":"Allego","maxPowerKw":300,"isMegawatt":false,"status":"AVAILABLE","source":"ndw","priceKwh":0.511}},{"type":"Feature","geometry":{"type":"Point","coordinates":[4.997007,51.838115]},"properties":{"type":"charge","layer":"passenger","locationId":"NLLOC004776","name":"NLD Jan Slauerhoffstraat 26 4207 RT Gorinchem","address":"Jan Slauerhoffstraat 26","city":"Gorinchem","operatorName":"Allego","maxPowerKw":11,"isMegawatt":false,"status":"AVAILABLE","source":"ndw","priceKwh":0.511}},{"type":"Feature","geometry":{"type":"Point","coordinates":[4.972558,51.839276]},"properties":{"type":"charge","layer":"passenger","locationId":"90279137","name":"EQUANS SGZH 2.0 Van Zomerenlaan 2","address":"Van Zomerenlaan 2","city":"Gorinchem","operatorName":"EQUANS","maxPowerKw":11,"isMegawatt":false,"status":"AVAILABLE","source":"ndw"}},{"type":"Feature","geometry":{"type":"Point","coordinates":[5.010563,51.836133]},"properties":{"type":"charge","layer":"passenger","locationId":"89479546","name":"EQUANS SGZH 2.0 89479546","address":"Vaandrig 11","city":"Gorinchem","operatorName":"EQUANS","maxPowerKw":11,"isMegawatt":false,"status":"AVAILABLE","source":"ndw"}},{"type":"Feature","geometry":{"type":"Point","coordinates":[4.983517,51.841179]},"properties":{"type":"charge","layer":"passenger","locationId":"NLLOC019118","name":"NL, Arkelse Onderweg 61, 4206 AG Gorinchem","address":"Arkelse Onderweg 61","city":"Gorinchem","operatorName":"Allego","maxPowerKw":11,"isMegawatt":false,"status":"AVAILABLE","source":"ndw","priceKwh":0.511}},{"type":"Feature","geometry":{"type":"Point","coordinates":[4.940401,51.835738]},"properties":{"type":"charge","layer":"passenger","locationId":"6866a0551016c4a375501196","name":"Laadpaal 2","address":"Avelingen West 9","city":"Gorinchem","operatorName":"E-Flux by Road","maxPowerKw":22,"isMegawatt":false,"status":"AVAILABLE","source":"ndw","priceKwh":0.46}},{"type":"Feature","geometry":{"type":"Point","coordinates":[5.019138,51.839077]},"properties":{"type":"charge","layer":"passenger","locationId":"90986553","name":"EQUANS SGZH 2.0 Buys Ballotstraat 4 H","address":"Buys Ballotstraat 4 H","city":"Gorinchem","operatorName":"EQUANS","maxPowerKw":11,"isMegawatt":false,"status":"AVAILABLE","source":"ndw"}},{"type":"Feature","geometry":{"type":"Point","coordinates":[4.973066,51.849679]},"properties":{"type":"charge","layer":"passenger","locationId":"3809750","name":"Laadnet Willem van Oranje Onderwijsgroep","address":"Grote Haarsekade 123","city":"Gorinchem","operatorName":"Laadnet","maxPowerKw":22,"isMegawatt":false,"status":"AVAILABLE","source":"ndw"}},{"type":"Feature","geometry":{"type":"Point","coordinates":[4.99493,51.839352]},"properties":{"type":"charge","layer":"passenger","locationId":"89888548","name":"EQUANS SGZH 2.0 89888548","address":"Albert Verweystraat 1","city":"Gorinchem","operatorName":"EQUANS","maxPowerKw":11,"isMegawatt":false,"status":"AVAILABLE","source":"ndw"}},{"type":"Feature","geometry":{"type":"Point","coordinates":[4.98677,51.83213]},"properties":{"type":"charge","layer":"passenger","locationId":"91333288","name":"EQUANS SGZH 2.0 Hoofdwal 24","address":"Hoofdwal 24","city":"Gorinchem","operatorName":"EQUANS","maxPowerKw":11,"isMegawatt":false,"status":"AVAILABLE","source":"ndw"}},{"type":"Feature","geometry":{"type":"Point","coordinates":[4.997234,51.839668]},"properties":{"type":"charge","layer":"passenger","locationId":"89921238","name":"EQUANS SGZH 2.0 89921238","address":"Martinus Nijhoffstraat 26","city":"Gorinchem","operatorName":"EQUANS","maxPowerKw":11,"isMegawatt":false,"status":"AVAILABLE","source":"ndw"}},{"type":"Feature","geometry":{"type":"Point","coordinates":[4.991544,51.837428]},"properties":{"type":"charge","layer":"passenger","locationId":"90386339","name":"EQUANS SGZH 2.0 Godfried Bomanslaan 50","address":"Godfried Bomanslaan 50","city":"Gorinchem","operatorName":"EQUANS","maxPowerKw":11,"isMegawatt":false,"status":"CHARGING","source":"ndw"}},{"type":"Feature","geometry":{"type":"Point","coordinates":[5.001714,51.839059]},"properties":{"type":"charge","layer":"passenger","locationId":"NLLOC025273","name":"NL, Multatulistraat 63, 4207 SC Gorinchem","address":"Multatulistraat 63","city":"Gorinchem","operatorName":"Allego","maxPowerKw":22,"isMegawatt":false,"status":"AVAILABLE","source":"ndw","priceKwh":0.511}},{"type":"Feature","geometry":{"type":"Point","coordinates":[5.006179,51.838097]},"properties":{"type":"charge","layer":"passenger","locationId":"3966788","name":"Laadnet Teleorman Vastgoed","address":"Griendweg 2","city":"Gorinchem","operatorName":"Laadnet","maxPowerKw":22,"isMegawatt":false,"status":"AVAILABLE","source":"ndw"}},{"type":"Feature","geometry":{"type":"Point","coordinates":[5.014551,51.837198]},"properties":{"type":"charge","layer":"passenger","locationId":"90200686","name":"EQUANS SGZH 2.0 Wachtmeester 1","address":"Wachtmeester 1","city":"Gorinchem","operatorName":"EQUANS","maxPowerKw":11,"isMegawatt":false,"status":"CHARGING","source":"ndw"}},{"type":"Feature","geometry":{"type":"Point","coordinates":[5.01949,51.839543]},"properties":{"type":"charge","layer":"passenger","locationId":"NLCPIL7321445","name":"FOURCE BV GORINCHEM 1","address":"3 Buys Ballotstraat","city":"Gorinchem","operatorName":"ChargePoint","maxPowerKw":22,"isMegawatt":false,"status":"CHARGING","source":"ndw","priceKwh":0.5}},{"type":"Feature","geometry":{"type":"Point","coordinates":[4.986612,51.833426]},"properties":{"type":"charge","layer":"passenger","locationId":"NLLOC025286","name":"NL, Schans 6, 4207 EP Gorinchem","address":"Schans 6","city":"Gorinchem","operatorName":"Allego","maxPowerKw":11,"isMegawatt":false,"status":"AVAILABLE","source":"ndw","priceKwh":0.511}},{"type":"Feature","geometry":{"type":"Point","coordinates":[5.002257,51.835813]},"properties":{"type":"charge","layer":"passenger","locationId":"66db03024444fa001cc9d127","name":"FrissIT","address":"Muzenlaan 7","city":"Gorinchem","operatorName":"E-Flux by Road","maxPowerKw":22,"isMegawatt":false,"status":"AVAILABLE","source":"ndw","priceKwh":0.18}},{"type":"Feature","geometry":{"type":"Point","coordinates":[4.940401,51.835738]},"properties":{"type":"charge","layer":"passenger","locationId":"6866a31e362395175a97c82d","name":"Laadpaal 10","address":"Avelingen West 9","city":"Gorinchem","operatorName":"E-Flux by Road","maxPowerKw":22,"isMegawatt":false,"status":"AVAILABLE","source":"ndw","priceKwh":0.46}},{"type":"Feature","geometry":{"type":"Point","coordinates":[4.960327,51.8343]},"properties":{"type":"charge","layer":"passenger","locationId":"NLLOC007531","name":"NL, Voermanstraat 246, 4204 RN, Gorinchem","address":"Voermanstraat 246","city":"Gorinchem","operatorName":"Allego","maxPowerKw":11,"isMegawatt":false,"status":"AVAILABLE","source":"ndw","priceKwh":0.511}},{"type":"Feature","geometry":{"type":"Point","coordinates":[4.982306,51.845215]},"properties":{"type":"charge","layer":"passenger","locationId":"NLLOC019698","name":"NL, Buitenbaan 23, 4206VR, Gorinchem","address":"Buitenbaan 23","city":"Gorinchem","operatorName":"Allego","maxPowerKw":11,"isMegawatt":false,"status":"AVAILABLE","source":"ndw","priceKwh":0.511}},{"type":"Feature","geometry":{"type":"Point","coordinates":[5.01009,51.829538]},"properties":{"type":"charge","layer":"passenger","locationId":"6a47a24a8d57fbf4209f4732","name":"Openbaar Laden Van Ekeren Kuiper en Boveko","address":"Beatrixlaan 2A","city":"Dalem","operatorName":"E-Flux by Road","maxPowerKw":11,"isMegawatt":false,"status":"AVAILABLE","source":"ndw","priceKwh":0.52}},{"type":"Feature","geometry":{"type":"Point","coordinates":[4.940401,51.835738]},"properties":{"type":"charge","layer":"passenger","locationId":"6866a360c01159715298b103","name":"Laadpaal 11","address":"Avelingen West 9","city":"Gorinchem","operatorName":"E-Flux by Road","maxPowerKw":22,"isMegawatt":false,"status":"AVAILABLE","source":"ndw","priceKwh":0.46}},{"type":"Feature","geometry":{"type":"Point","coordinates":[4.971939,51.831955]},"properties":{"type":"charge","layer":"passenger","locationId":"NLLOC017248","name":"NL, Heerenlaantje 109, 4201HV, Gorinchem","address":"Heerenlaantje 109","city":"Gorinchem","operatorName":"Allego","maxPowerKw":11,"isMegawatt":false,"status":"CHARGING","source":"ndw","priceKwh":0.511}},{"type":"Feature","geometry":{"type":"Point","coordinates":[4.993921,51.841016]},"properties":{"type":"charge","layer":"passenger","locationId":"6870bcda04ffcae0315b99a7","name":"ITG 1-2","address":"Galvaniweg 9","city":"Gorinchem","operatorName":"E-Flux by Road","maxPowerKw":22,"isMegawatt":false,"status":"AVAILABLE","source":"ndw","priceKwh":0.53}},{"type":"Feature","geometry":{"type":"Point","coordinates":[4.986108,51.836169]},"properties":{"type":"charge","layer":"passenger","locationId":"90225826","name":"EQUANS SGZH 2.0 Kleine Wiel 9","address":"Kleine Wiel 9","city":"Gorinchem","operatorName":"EQUANS","maxPowerKw":11,"isMegawatt":false,"status":"AVAILABLE","source":"ndw"}},{"type":"Feature","geometry":{"type":"Point","coordinates":[4.983855,51.841756]},"properties":{"type":"charge","layer":"passenger","locationId":"90822379","name":"EQUANS SGZH 2.0 Arkelse Onderweg 61 c","address":"Arkelse Onderweg 61 c","city":"Gorinchem","operatorName":"EQUANS","maxPowerKw":11,"isMegawatt":false,"status":"AVAILABLE","source":"ndw"}},{"type":"Feature","geometry":{"type":"Point","coordinates":[4.965036,51.832353]},"properties":{"type":"charge","layer":"passenger","locationId":"NLLOC002266","name":"NLD, Gorinchem, Stadhuisplein 1","address":"Stadhuisplein 1","city":"Gorinchem","operatorName":"Allego","maxPowerKw":11,"isMegawatt":false,"status":"UNAVAILABLE","source":"ndw","priceKwh":0.511}},{"type":"Feature","geometry":{"type":"Point","coordinates":[5.00139,51.83473]},"properties":{"type":"charge","layer":"passenger","locationId":"91193626","name":"EQUANS SGZH 2.0 Jip en Janneke 13","address":"Jip en Janneke 13","city":"Gorinchem","operatorName":"EQUANS","maxPowerKw":11,"isMegawatt":false,"status":"AVAILABLE","source":"ndw"}},{"type":"Feature","geometry":{"type":"Point","coordinates":[4.971647,51.838052]},"properties":{"type":"charge","layer":"passenger","locationId":"NLLOC000091","name":"NLD, Gorinchem, Korte Slagenstraat 11","address":"Korte Slagenstraat 11","city":"Gorinchem","operatorName":"Allego","maxPowerKw":11,"isMegawatt":false,"status":"AVAILABLE","source":"ndw","priceKwh":0.511}},{"type":"Feature","geometry":{"type":"Point","coordinates":[5.019408,51.839326]},"properties":{"type":"charge","layer":"passenger","locationId":"NLCPIL7321465","name":"FOURCE BV GORINCHEM 3","address":"3 Buys Ballotstraat","city":"Gorinchem","operatorName":"ChargePoint","maxPowerKw":22,"isMegawatt":false,"status":"AVAILABLE","source":"ndw","priceKwh":0.5}},{"type":"Feature","geometry":{"type":"Point","coordinates":[4.974401,51.841939]},"properties":{"type":"charge","layer":"passenger","locationId":"89641454","name":"EQUANS SGZH 2.0 89641454","address":"Havikskorf 30","city":"Gorinchem","operatorName":"EQUANS","maxPowerKw":11,"isMegawatt":false,"status":"AVAILABLE","source":"ndw"}},{"type":"Feature","geometry":{"type":"Point","coordinates":[4.982488,51.839426]},"properties":{"type":"charge","layer":"passenger","locationId":"6a195216733b5cb58c3a385c","name":"Raoul Konijnenberg 's station","address":"Hendrik Hamelstraat 1","city":"Gorinchem","operatorName":"E-Flux by Road","maxPowerKw":22,"isMegawatt":false,"status":"AVAILABLE","source":"ndw","priceKwh":0.55}},{"type":"Feature","geometry":{"type":"Point","coordinates":[4.971754,51.835415]},"properties":{"type":"charge","layer":"passenger","locationId":"68f0f07f1a61628bc5d9788d","name":"Meet and C","address":"Stationsweg 29","city":"Gorinchem","operatorName":"E-Flux by Road","maxPowerKw":11,"isMegawatt":false,"status":"AVAILABLE","source":"ndw","priceKwh":0.63}},{"type":"Feature","geometry":{"type":"Point","coordinates":[5.010331,51.825583]},"properties":{"type":"charge","layer":"passenger","locationId":"NLLOC003563","name":"NLD, De Bongerd 1 4213 CW Dalem","address":"De Bongerd 1","city":"Dalem","operatorName":"Allego","maxPowerKw":11,"isMegawatt":false,"status":"AVAILABLE","source":"ndw","priceKwh":0.511}},{"type":"Feature","geometry":{"type":"Point","coordinates":[4.990748,51.832146]},"properties":{"type":"charge","layer":"passenger","locationId":"89921230","name":"EQUANS SGZH 2.0 89921230","address":"Haydnstraat 12","city":"Gorinchem","operatorName":"EQUANS","maxPowerKw":11,"isMegawatt":false,"status":"AVAILABLE","source":"ndw"}},{"type":"Feature","geometry":{"type":"Point","coordinates":[5.008494,51.831874]},"properties":{"type":"charge","layer":"passenger","locationId":"89921237","name":"EQUANS SGZH 2.0 89921237","address":"Steurgat 56","city":"Gorinchem","operatorName":"EQUANS","maxPowerKw":11,"isMegawatt":false,"status":"CHARGING","source":"ndw"}},{"type":"Feature","geometry":{"type":"Point","coordinates":[5.01228,51.83783]},"properties":{"type":"charge","layer":"passenger","locationId":"91333200","name":"EQUANS SGZH 2.0 Sergeant 5","address":"Sergeant 5","city":"Gorinchem","operatorName":"EQUANS","maxPowerKw":11,"isMegawatt":false,"status":"CHARGING","source":"ndw"}},{"type":"Feature","geometry":{"type":"Point","coordinates":[4.979802,51.838733]},"properties":{"type":"charge","layer":"passenger","locationId":"NLLOC003248","name":"NLD, Elsje van Houweningenstraat 35, 4206 ZH Gorinchem","address":"Elsje van Houweningenstraat 35","city":"Gorinchem","operatorName":"Allego","maxPowerKw":11,"isMegawatt":false,"status":"AVAILABLE","source":"ndw","priceKwh":0.511}},{"type":"Feature","geometry":{"type":"Point","coordinates":[5.00534,51.84134]},"properties":{"type":"charge","layer":"passenger","locationId":"d14d9f5a-4901-4b24-835b-2572552137d6","name":"Franklinweg","address":"Franklinweg 3","city":"Gorinchem","operatorName":"Vattenfall InCharge","maxPowerKw":50,"isMegawatt":false,"status":"AVAILABLE","source":"ndw"}},{"type":"Feature","geometry":{"type":"Point","coordinates":[4.980693,51.83077]},"properties":{"type":"charge","layer":"passenger","locationId":"89921225","name":"EQUANS SGZH 2.0 89921225","address":"Rond de Watertoren 7","city":"Gorinchem","operatorName":"EQUANS","maxPowerKw":11,"isMegawatt":false,"status":"AVAILABLE","source":"ndw"}},{"type":"Feature","geometry":{"type":"Point","coordinates":[4.955634,51.843325]},"properties":{"type":"charge","layer":"passenger","locationId":"NLLOC000589","name":"NLD, Gorinchem, Dokter Schöyerstraat 213","address":"Dokter Schöyerstraat 213","city":"Gorinchem","operatorName":"Allego","maxPowerKw":22,"isMegawatt":false,"status":"AVAILABLE","source":"ndw","priceKwh":0.511}},{"type":"Feature","geometry":{"type":"Point","coordinates":[4.949557,51.838011]},"properties":{"type":"charge","layer":"passenger","locationId":"NLLOC007054","name":"NL, Barbierstraat 130, 4204 TG, Gorinchem","address":"Barbierstraat 130","city":"Gorinchem","operatorName":"Allego","maxPowerKw":11,"isMegawatt":false,"status":"AVAILABLE","source":"ndw","priceKwh":0.511}},{"type":"Feature","geometry":{"type":"Point","coordinates":[4.96231,51.83628]},"properties":{"type":"charge","layer":"passenger","locationId":"91024710","name":"EQUANS SGZH 2.0 Drossaartstraat 15 A","address":"Drossaartstraat 15 A","city":"Gorinchem","operatorName":"EQUANS","maxPowerKw":11,"isMegawatt":false,"status":"AVAILABLE","source":"ndw"}},{"type":"Feature","geometry":{"type":"Point","coordinates":[4.993616,51.83432]},"properties":{"type":"charge","layer":"passenger","locationId":"89470334","name":"EQUANS SGZH 2.0 89470334","address":"Ida Heyermansstraat 4","city":"Gorinchem","operatorName":"EQUANS","maxPowerKw":11,"isMegawatt":false,"status":"AVAILABLE","source":"ndw"}},{"type":"Feature","geometry":{"type":"Point","coordinates":[4.968099,51.841926]},"properties":{"type":"charge","layer":"passenger","locationId":"91245853","name":"EQUANS SGZH 2.0 Gravin van Megenstraat 42","address":"Gravin van Megenstraat 42","city":"Gorinchem","operatorName":"EQUANS","maxPowerKw":11,"isMegawatt":false,"status":"CHARGING","source":"ndw"}},{"type":"Feature","geometry":{"type":"Point","coordinates":[4.981042,51.840361]},"properties":{"type":"charge","layer":"passenger","locationId":"89882988","name":"EQUANS SGZH 2.0 89882988","address":"Abraham Bloemaart Corneliszstraat 23","city":"Gorinchem","operatorName":"EQUANS","maxPowerKw":11,"isMegawatt":false,"status":"AVAILABLE","source":"ndw"}},{"type":"Feature","geometry":{"type":"Point","coordinates":[5.00134,51.83604]},"properties":{"type":"charge","layer":"passenger","locationId":"90891481","name":"EQUANS SGZH 2.0 Danshof 20","address":"Danshof 20","city":"Gorinchem","operatorName":"EQUANS","maxPowerKw":11,"isMegawatt":false,"status":"AVAILABLE","source":"ndw"}},{"type":"Feature","geometry":{"type":"Point","coordinates":[5.010023,51.830922]},"properties":{"type":"charge","layer":"passenger","locationId":"NLLOC008430","name":"NLD, Steurgat 73 4208BM Gorinchem","address":"Steurgat 73","city":"Gorinchem","operatorName":"Allego","maxPowerKw":11,"isMegawatt":false,"status":"AVAILABLE","source":"ndw","priceKwh":0.511}},{"type":"Feature","geometry":{"type":"Point","coordinates":[4.957839,51.843594]},"properties":{"type":"charge","layer":"passenger","locationId":"89888549","name":"EQUANS SGZH 2.0 89888549","address":"Dokter Schöyerstraat 87","city":"Gorinchem","operatorName":"EQUANS","maxPowerKw":11,"isMegawatt":false,"status":"AVAILABLE","source":"ndw"}},{"type":"Feature","geometry":{"type":"Point","coordinates":[4.956161,51.838332]},"properties":{"type":"charge","layer":"passenger","locationId":"923591","name":"BEATRIX_LAADPLEIN","address":"Banneweg 57","city":"Gorinchem","operatorName":"Smappee","maxPowerKw":22,"isMegawatt":false,"status":"AVAILABLE","source":"ndw","priceKwh":0.462}},{"type":"Feature","geometry":{"type":"Point","coordinates":[5.011124,51.827199]},"properties":{"type":"charge","layer":"passenger","locationId":"NLLOC013915","name":"NL, Jupiterstraat 2, 2957 HB Nieuw-Lekkerland","address":"Jupiterstraat 2","city":"Nieuw-Lekkerland","operatorName":"Allego","maxPowerKw":11,"isMegawatt":false,"status":"AVAILABLE","source":"ndw","priceKwh":0.511}},{"type":"Feature","geometry":{"type":"Point","coordinates":[5.01326,51.83688]},"properties":{"type":"charge","layer":"passenger","locationId":"91313267","name":"EQUANS SGZH 2.0 Korporaal 23","address":"Korporaal 23","city":"Gorinchem","operatorName":"EQUANS","maxPowerKw":11,"isMegawatt":false,"status":"AVAILABLE","source":"ndw"}},{"type":"Feature","geometry":{"type":"Point","coordinates":[4.993429,51.83664]},"properties":{"type":"charge","layer":"passenger","locationId":"NLLOC001038","name":"NLD, Gorinchem, Doctor Herman Bernard Wiardi Beckmanplein 115","address":"Doctor Herman Bernard Wiardi Beckmanplein 115","city":"Gorinchem","operatorName":"Allego","maxPowerKw":11,"isMegawatt":false,"status":"AVAILABLE","source":"ndw","priceKwh":0.511}},{"type":"Feature","geometry":{"type":"Point","coordinates":[4.95202,51.8362]},"properties":{"type":"charge","layer":"passenger","locationId":"NLLOC004793","name":"NLD, Gruttershof 18 4204SG Gorinchem","address":"Gruttershof 18","city":"Gorinchem","operatorName":"Allego","maxPowerKw":11,"isMegawatt":false,"status":"AVAILABLE","source":"ndw","priceKwh":0.511}},{"type":"Feature","geometry":{"type":"Point","coordinates":[4.978048,51.8282]},"properties":{"type":"charge","layer":"passenger","locationId":"NLLOC000696","name":"NLD, Gorinchem, Kalkhaven 68","address":"Kalkhaven 68","city":"Gorinchem","operatorName":"Allego","maxPowerKw":22,"isMegawatt":false,"status":"AVAILABLE","source":"ndw","priceKwh":0.511}},{"type":"Feature","geometry":{"type":"Point","coordinates":[4.993889,51.832571]},"properties":{"type":"charge","layer":"passenger","locationId":"90386337","name":"EQUANS SGZH 2.0 Emmy Frensel Wegenerstraat 20","address":"Emmy Frensel Wegenerstraat 20","city":"Gorinchem","operatorName":"EQUANS","maxPowerKw":11,"isMegawatt":false,"status":"AVAILABLE","source":"ndw"}},{"type":"Feature","geometry":{"type":"Point","coordinates":[4.95119,51.84152]},"properties":{"type":"charge","layer":"passenger","locationId":"91007023","name":"EQUANS SGZH 2.0 Van Hogendorpweg 237","address":"Van Hogendorpweg 237","city":"Gorinchem","operatorName":"EQUANS","maxPowerKw":11,"isMegawatt":false,"status":"AVAILABLE","source":"ndw"}},{"type":"Feature","geometry":{"type":"Point","coordinates":[4.98728,51.830266]},"properties":{"type":"charge","layer":"passenger","locationId":"NLLOC001792","name":"NLD, Gorinchem, Wijdschildplein 4","address":"Wijdschildplein 4","city":"Gorinchem","operatorName":"Allego","maxPowerKw":11,"isMegawatt":false,"status":"AVAILABLE","source":"ndw","priceKwh":0.511}},{"type":"Feature","geometry":{"type":"Point","coordinates":[4.958848,51.84488]},"properties":{"type":"charge","layer":"passenger","locationId":"90909771","name":"EQUANS SGZH 2.0 Klaproos 1","address":"Klaproos 1","city":"Gorinchem","operatorName":"EQUANS","maxPowerKw":11,"isMegawatt":false,"status":"CHARGING","source":"ndw"}},{"type":"Feature","geometry":{"type":"Point","coordinates":[4.973521,51.828409]},"properties":{"type":"charge","layer":"passenger","locationId":"NLLOC012036","name":"NL, Retvetsteeg 36, 4201 EP, Gorinchem","address":"Retvetsteeg 36","city":"Gorinchem","operatorName":"Allego","maxPowerKw":11,"isMegawatt":false,"status":"CHARGING","source":"ndw","priceKwh":0.511}},{"type":"Feature","geometry":{"type":"Point","coordinates":[4.981873,51.84003]},"properties":{"type":"charge","layer":"passenger","locationId":"90466094","name":"EQUANS SGZH 2.0 Van Hoornestraat 1","address":"Van Hoornestraat 1","city":"Gorinchem","operatorName":"EQUANS","maxPowerKw":11,"isMegawatt":false,"status":"AVAILABLE","source":"ndw"}},{"type":"Feature","geometry":{"type":"Point","coordinates":[4.981835,51.844655]},"properties":{"type":"charge","layer":"passenger","locationId":"89641453","name":"EQUANS SGZH 2.0 89641453","address":"Mattheus Wijtmansstraat 2","city":"Gorinchem","operatorName":"EQUANS","maxPowerKw":11,"isMegawatt":false,"status":"CHARGING","source":"ndw"}},{"type":"Feature","geometry":{"type":"Point","coordinates":[4.965002,51.832324]},"properties":{"type":"charge","layer":"passenger","locationId":"NLLOC003428","name":"NLD, Stadhuisplein 1, 4205 AZ Gorinchem","address":"Stadhuisplein 1","city":"Gorinchem","operatorName":"Allego","maxPowerKw":11,"isMegawatt":false,"status":"UNAVAILABLE","source":"ndw","priceKwh":0.511}},{"type":"Feature","geometry":{"type":"Point","coordinates":[4.975402,51.841473]},"properties":{"type":"charge","layer":"passenger","locationId":"90836167","name":"EQUANS SGZH 2.0 Havikskorf 1 (Fazantenspoor 15)","address":"Havikskorf 1","city":"Gorinchem","operatorName":"EQUANS","maxPowerKw":11,"isMegawatt":false,"status":"AVAILABLE","source":"ndw"}},{"type":"Feature","geometry":{"type":"Point","coordinates":[4.97244,51.84088]},"properties":{"type":"charge","layer":"passenger","locationId":"91017123","name":"EQUANS SGZH 2.0 Van Zomerenlaan 73","address":"Van Zomerenlaan 73","city":"Gorinchem","operatorName":"EQUANS","maxPowerKw":11,"isMegawatt":false,"status":"AVAILABLE","source":"ndw"}},{"type":"Feature","geometry":{"type":"Point","coordinates":[5.007647,51.836757]},"properties":{"type":"charge","layer":"passenger","locationId":"90291008","name":"EQUANS SGZH 2.0 De Linie 62","address":"De Linie 62","city":"Gorinchem","operatorName":"EQUANS","maxPowerKw":11,"isMegawatt":false,"status":"AVAILABLE","source":"ndw"}},{"type":"Feature","geometry":{"type":"Point","coordinates":[4.981244,51.848623]},"properties":{"type":"charge","layer":"passenger","locationId":"4122614","name":"Laadnet Reinigingsdienst Waardlanden","address":"Boezem 3","city":"Gorinchem","operatorName":"Laadnet","maxPowerKw":22,"isMegawatt":false,"status":"CHARGING","source":"ndw"}},{"type":"Feature","geometry":{"type":"Point","coordinates":[4.996481,51.838793]},"properties":{"type":"charge","layer":"passenger","locationId":"620fb36f96c284553446a5fe","name":"de Wit's station","address":"Hendrik Tollensplantsoen 24","city":"Gorinchem","operatorName":"E-Flux by Road","maxPowerKw":11,"isMegawatt":false,"status":"CHARGING","source":"ndw","priceKwh":0.38}},{"type":"Feature","geometry":{"type":"Point","coordinates":[4.960106,51.83701]},"properties":{"type":"charge","layer":"passenger","locationId":"NLLOC000093","name":"NLD, Gorinchem, Schepenenstraat 44","address":"Schepenenstraat 44","city":"Gorinchem","operatorName":"Allego","maxPowerKw":11,"isMegawatt":false,"status":"CHARGING","source":"ndw","priceKwh":0.511}},{"type":"Feature","geometry":{"type":"Point","coordinates":[4.965997,51.843185]},"properties":{"type":"charge","layer":"passenger","locationId":"90175535","name":"EQUANS SGZH 2.0 Kabeljauwenlaan 20","address":"Kabeljauwenlaan 20","city":"Gorinchem","operatorName":"EQUANS","maxPowerKw":11,"isMegawatt":false,"status":"AVAILABLE","source":"ndw"}},{"type":"Feature","geometry":{"type":"Point","coordinates":[4.979694,51.832274]},"properties":{"type":"charge","layer":"passenger","locationId":"NLLOC000310","name":"NLD, Gorinchem, Vissersdijk 81","address":"Vissersdijk 81-C","city":"Gorinchem","operatorName":"Allego","maxPowerKw":11,"isMegawatt":false,"status":"AVAILABLE","source":"ndw","priceKwh":0.511}},{"type":"Feature","geometry":{"type":"Point","coordinates":[5.014724,51.830623]},"properties":{"type":"charge","layer":"passenger","locationId":"NLLOC011184","name":"NL, Hinderdam 40, 4208 BN, Gorinchem","address":"Hinderdam 40","city":"Gorinchem","operatorName":"Allego","maxPowerKw":11,"isMegawatt":false,"status":"AVAILABLE","source":"ndw","priceKwh":0.511}},{"type":"Feature","geometry":{"type":"Point","coordinates":[4.967264,51.842013]},"properties":{"type":"charge","layer":"passenger","locationId":"89641464","name":"EQUANS SGZH 2.0 89641464","address":"Elect van Luikstraat 40","city":"Gorinchem","operatorName":"EQUANS","maxPowerKw":11,"isMegawatt":false,"status":"AVAILABLE","source":"ndw"}},{"type":"Feature","geometry":{"type":"Point","coordinates":[4.950627,51.83903]},"properties":{"type":"charge","layer":"passenger","locationId":"90301953","name":"EQUANS SGZH 2.0 Gerard van Lomstraat 287","address":"Gerard van Lomstraat 287","city":"Gorinchem","operatorName":"EQUANS","maxPowerKw":11,"isMegawatt":false,"status":"AVAILABLE","source":"ndw"}},{"type":"Feature","geometry":{"type":"Point","coordinates":[4.991633,51.83478]},"properties":{"type":"charge","layer":"passenger","locationId":"NLLOC010942","name":"NL, Mozartstraat, 1, 4207DS, Gorinchem","address":"Mozartstraat 1","city":"Gorinchem","operatorName":"Allego","maxPowerKw":11,"isMegawatt":false,"status":"AVAILABLE","source":"ndw","priceKwh":0.511}},{"type":"Feature","geometry":{"type":"Point","coordinates":[4.960024,51.842287]},"properties":{"type":"charge","layer":"passenger","locationId":"90172010","name":"EQUANS SGZH 2.0 Dokter Hiemstralaan 57","address":"Dokter Hiemstralaan 57","city":"Gorinchem","operatorName":"EQUANS","maxPowerKw":11,"isMegawatt":false,"status":"AVAILABLE","source":"ndw"}},{"type":"Feature","geometry":{"type":"Point","coordinates":[4.984642,51.837641]},"properties":{"type":"charge","layer":"passenger","locationId":"6a3a15205176029f2d12f8c4","name":"Spijksedijk 28A, Gorinchem","address":"Spijksedijk 28A","city":"Gorinchem","operatorName":"Heijmans","maxPowerKw":11,"isMegawatt":false,"status":"AVAILABLE","source":"ndw","priceKwh":0.43}},{"type":"Feature","geometry":{"type":"Point","coordinates":[4.95366,51.84378]},"properties":{"type":"charge","layer":"passenger","locationId":"90302660","name":"EQUANS SGZH 2.0 Dokter van Stratenweg 4","address":"Dokter van Stratenweg 4","city":"Gorinchem","operatorName":"EQUANS","maxPowerKw":11,"isMegawatt":false,"status":"AVAILABLE","source":"ndw"}},{"type":"Feature","geometry":{"type":"Point","coordinates":[4.98763,51.848483]},"properties":{"type":"charge","layer":"passenger","locationId":"67a36aedf99ac2cc7ec0af0d","name":"NOG Laadpaal 01","address":"Papland  4","city":"Gorinchem","operatorName":"E-Flux by Road","maxPowerKw":22,"isMegawatt":false,"status":"AVAILABLE","source":"ndw","priceKwh":0.48}},{"type":"Feature","geometry":{"type":"Point","coordinates":[4.967905,51.837969]},"properties":{"type":"charge","layer":"passenger","locationId":"NLLOC008467","name":"NL, Koningin Emmastraat 13, 4205 BK Gorinchem","address":"Koningin Emmastraat 13","city":"Gorinchem","operatorName":"Allego","maxPowerKw":11,"isMegawatt":false,"status":"UNAVAILABLE","source":"ndw","priceKwh":0.511}},{"type":"Feature","geometry":{"type":"Point","coordinates":[5.006779,51.836333]},"properties":{"type":"charge","layer":"passenger","locationId":"NLLOC024868","name":"NL, De Linie 31, 4208DE, Gorinchem","address":"De Linie 31","city":"Gorinchem","operatorName":"Allego","maxPowerKw":11,"isMegawatt":false,"status":"AVAILABLE","source":"ndw","priceKwh":0.511}},{"type":"Feature","geometry":{"type":"Point","coordinates":[4.974257,51.842305]},"properties":{"type":"charge","layer":"passenger","locationId":"NLLOC011780","name":"NL, Jagerslaan 28, 4205 XC, Gorinchem","address":"Jagerslaan 28","city":"Gorinchem","operatorName":"Allego","maxPowerKw":11,"isMegawatt":false,"status":"CHARGING","source":"ndw","priceKwh":0.511}},{"type":"Feature","geometry":{"type":"Point","coordinates":[5.015503,51.837795]},"properties":{"type":"charge","layer":"passenger","locationId":"NLLOC020520","name":"NL, Adjudant 27, 4207 HZ Gorinchem","address":"Adjudant 27","city":"Gorinchem","operatorName":"Allego","maxPowerKw":11,"isMegawatt":false,"status":"CHARGING","source":"ndw","priceKwh":0.511}},{"type":"Feature","geometry":{"type":"Point","coordinates":[4.97252,51.84371]},"properties":{"type":"charge","layer":"passenger","locationId":"90892544","name":"EQUANS SGZH 2.0 Hazenleger 22","address":"Hazenleger 22","city":"Gorinchem","operatorName":"EQUANS","maxPowerKw":11,"isMegawatt":false,"status":"AVAILABLE","source":"ndw"}},{"type":"Feature","geometry":{"type":"Point","coordinates":[4.994451,51.836492]},"properties":{"type":"charge","layer":"passenger","locationId":"90386341","name":"EQUANS SGZH 2.0 Dr. H.B. Wiardi Beckmanplein 50","address":"Dr. H.B. Wiardi Beckmanplein 50","city":"Gorinchem","operatorName":"EQUANS","maxPowerKw":11,"isMegawatt":false,"status":"AVAILABLE","source":"ndw"}},{"type":"Feature","geometry":{"type":"Point","coordinates":[4.96105,51.8389]},"properties":{"type":"charge","layer":"passenger","locationId":"91002935","name":"EQUANS SGZH 2.0 Boogschutterstraat 20 a","address":"Boogschutterstraat 20 a","city":"Gorinchem","operatorName":"EQUANS","maxPowerKw":11,"isMegawatt":false,"status":"CHARGING","source":"ndw"}},{"type":"Feature","geometry":{"type":"Point","coordinates":[4.98763,51.848483]},"properties":{"type":"charge","layer":"passenger","locationId":"67a36bbf43f18867727e2ea2","name":"NOG Laadpaal 02","address":"Papland 4","city":"Gorinchem","operatorName":"E-Flux by Road","maxPowerKw":11,"isMegawatt":false,"status":"UNAVAILABLE","source":"ndw","priceKwh":0.48}},{"type":"Feature","geometry":{"type":"Point","coordinates":[4.966168,51.838098]},"properties":{"type":"charge","layer":"passenger","locationId":"89927714","name":"EQUANS SGZH 2.0 89927714","address":"Koningin Emmastraat 41","city":"Gorinchem","operatorName":"EQUANS","maxPowerKw":11,"isMegawatt":false,"status":"AVAILABLE","source":"ndw"}},{"type":"Feature","geometry":{"type":"Point","coordinates":[4.962559,51.840137]},"properties":{"type":"charge","layer":"passenger","locationId":"NLLOC010952","name":"NL, Busschieterstraat 1, 4205 PM Gorinchem","address":"Busschieterstraat 1","city":"Gorinchem","operatorName":"Allego","maxPowerKw":11,"isMegawatt":false,"status":"AVAILABLE","source":"ndw","priceKwh":0.511}},{"type":"Feature","geometry":{"type":"Point","coordinates":[4.940401,51.835738]},"properties":{"type":"charge","layer":"passenger","locationId":"6866a0bcd038c99868b004d6","name":"Laadpaal 3","address":"Avelingen West 9","city":"Gorinchem","operatorName":"E-Flux by Road","maxPowerKw":22,"isMegawatt":false,"status":"AVAILABLE","source":"ndw","priceKwh":0.46}},{"type":"Feature","geometry":{"type":"Point","coordinates":[4.952909,51.837088]},"properties":{"type":"charge","layer":"passenger","locationId":"90175534","name":"EQUANS SGZH 2.0 Schrijnwerkerstraat 3","address":"Schrijnwerkerstraat 3","city":"Gorinchem","operatorName":"EQUANS","maxPowerKw":11,"isMegawatt":false,"status":"AVAILABLE","source":"ndw"}},{"type":"Feature","geometry":{"type":"Point","coordinates":[4.967548,51.844431]},"properties":{"type":"charge","layer":"passenger","locationId":"NLLOC017041","name":"NL, Keizer Maximilliaanstraat 14, 4205 SZ Gorinchem","address":"Keizer Maximilliaanstraat 14","city":"Gorinchem","operatorName":"Allego","maxPowerKw":11,"isMegawatt":false,"status":"AVAILABLE","source":"ndw","priceKwh":0.511}},{"type":"Feature","geometry":{"type":"Point","coordinates":[4.975904,51.834471]},"properties":{"type":"charge","layer":"passenger","locationId":"NLLOC006878","name":"NL, Paardenwater 19, 4201 KM, Gorinchem","address":"Paardenwater 19","city":"Gorinchem","operatorName":"Allego","maxPowerKw":11,"isMegawatt":false,"status":"AVAILABLE","source":"ndw","priceKwh":0.511}},{"type":"Feature","geometry":{"type":"Point","coordinates":[4.991053,51.838827]},"properties":{"type":"charge","layer":"passenger","locationId":"NLLOC000233","name":"NLD, Gorinchem, Herman de Manstraat 28","address":"Herman de Manstraat 28","city":"Gorinchem","operatorName":"Allego","maxPowerKw":22,"isMegawatt":false,"status":"AVAILABLE","source":"ndw","priceKwh":0.511}},{"type":"Feature","geometry":{"type":"Point","coordinates":[4.983085,51.835144]},"properties":{"type":"charge","layer":"passenger","locationId":"NLLOC001202","name":"NLD, Gorinchem, Halve Maan 6","address":"Halve Maan 6","city":"Gorinchem","operatorName":"Allego","maxPowerKw":11,"isMegawatt":false,"status":"AVAILABLE","source":"ndw","priceKwh":0.511}},{"type":"Feature","geometry":{"type":"Point","coordinates":[5.007627,51.833483]},"properties":{"type":"charge","layer":"passenger","locationId":"90301954","name":"EQUANS SGZH 2.0 Kruithoorn 6","address":"Kruithoorn 6","city":"Gorinchem","operatorName":"EQUANS","maxPowerKw":11,"isMegawatt":false,"status":"AVAILABLE","source":"ndw"}},{"type":"Feature","geometry":{"type":"Point","coordinates":[4.99278,51.83719]},"properties":{"type":"charge","layer":"passenger","locationId":"91227873","name":"EQUANS SGZH 2.0 Dr. H.B. Wiardi Beckmanplein 401","address":"Dr. H.B. Wiardi Beckmanplein 401","city":"Gorinchem","operatorName":"EQUANS","maxPowerKw":11,"isMegawatt":false,"status":"CHARGING","source":"ndw"}},{"type":"Feature","geometry":{"type":"Point","coordinates":[4.974815,51.845206]},"properties":{"type":"charge","layer":"passenger","locationId":"90682191","name":"EQUANS SGZH 2.0 Drijverslaan 19","address":"Drijverslaan 19","city":"Gorinchem","operatorName":"EQUANS","maxPowerKw":11,"isMegawatt":false,"status":"AVAILABLE","source":"ndw"}},{"type":"Feature","geometry":{"type":"Point","coordinates":[4.982165,51.845861]},"properties":{"type":"charge","layer":"passenger","locationId":"89888547","name":"EQUANS SGZH 2.0 89888547","address":"Buitenbaan 36","city":"Gorinchem","operatorName":"EQUANS","maxPowerKw":11,"isMegawatt":false,"status":"AVAILABLE","source":"ndw"}},{"type":"Feature","geometry":{"type":"Point","coordinates":[4.97432,51.827849]},"properties":{"type":"charge","layer":"passenger","locationId":"NLLOC024883","name":"NL, Molenstraat 38, 4201 CZ Gorinchem","address":"Molenstraat 38","city":"Gorinchem","operatorName":"Allego","maxPowerKw":11,"isMegawatt":false,"status":"AVAILABLE","source":"ndw","priceKwh":0.511}},{"type":"Feature","geometry":{"type":"Point","coordinates":[4.959468,51.840796]},"properties":{"type":"charge","layer":"passenger","locationId":"NLLOC022431","name":"NL, Dokter Bauerstraat 40, 4205 KB Gorinchem","address":"Dokter Bauerstraat 40","city":"Gorinchem","operatorName":"Allego","maxPowerKw":11,"isMegawatt":false,"status":"AVAILABLE","source":"ndw","priceKwh":0.511}},{"type":"Feature","geometry":{"type":"Point","coordinates":[4.940401,51.835738]},"properties":{"type":"charge","layer":"passenger","locationId":"6866a15a66541e057defb422","name":"Laadpaal 5","address":"Avelingen West 9","city":"Gorinchem","operatorName":"E-Flux by Road","maxPowerKw":22,"isMegawatt":false,"status":"AVAILABLE","source":"ndw","priceKwh":0.46}},{"type":"Feature","geometry":{"type":"Point","coordinates":[5.000768,51.843256]},"properties":{"type":"charge","layer":"passenger","locationId":"68ed0709c7200cd0429844f7","name":"Groeneveld-BEKA","address":"Stephensonweg 12","city":"Gorinchem","operatorName":"E-Flux by Road","maxPowerKw":22,"isMegawatt":false,"status":"AVAILABLE","source":"ndw","priceKwh":0.1673}},{"type":"Feature","geometry":{"type":"Point","coordinates":[4.991642,51.833991]},"properties":{"type":"charge","layer":"passenger","locationId":"91442662","name":"EQUANS SGZH 2.0 Hellendaelsingel 15","address":"Hellendaelsingel 15","city":"Gorinchem","operatorName":"EQUANS","maxPowerKw":11,"isMegawatt":false,"status":"AVAILABLE","source":"ndw"}},{"type":"Feature","geometry":{"type":"Point","coordinates":[5.01273,51.837559]},"properties":{"type":"charge","layer":"passenger","locationId":"89482969","name":"EQUANS SGZH 2.0 89482969","address":"Sergeant 15","city":"Gorinchem","operatorName":"EQUANS","maxPowerKw":11,"isMegawatt":false,"status":"AVAILABLE","source":"ndw"}},{"type":"Feature","geometry":{"type":"Point","coordinates":[4.963885,51.844393]},"properties":{"type":"charge","layer":"passenger","locationId":"NLLOC007856","name":"NL, Wilgenroosje 18, 4205md, Gorinchem","address":"Wilgenroosje 18","city":"Gorinchem","operatorName":"Allego","maxPowerKw":11,"isMegawatt":false,"status":"AVAILABLE","source":"ndw","priceKwh":0.511}},{"type":"Feature","geometry":{"type":"Point","coordinates":[4.991356,51.833246]},"properties":{"type":"charge","layer":"passenger","locationId":"NLLOC001200","name":"NLD, Gorinchem, Verdistraat 18","address":"Verdistraat 18","city":"Gorinchem","operatorName":"Allego","maxPowerKw":11,"isMegawatt":false,"status":"AVAILABLE","source":"ndw","priceKwh":0.511}},{"type":"Feature","geometry":{"type":"Point","coordinates":[5.001557,51.837002]},"properties":{"type":"charge","layer":"passenger","locationId":"89482971","name":"EQUANS SGZH 2.0 89482971","address":"Balletstraat 2","city":"Gorinchem","operatorName":"EQUANS","maxPowerKw":11,"isMegawatt":false,"status":"CHARGING","source":"ndw"}},{"type":"Feature","geometry":{"type":"Point","coordinates":[4.954868,51.841646]},"properties":{"type":"charge","layer":"passenger","locationId":"90172012","name":"EQUANS SGZH 2.0 Dokter Bauerstraat 9","address":"Dokter Bauerstraat 9","city":"Gorinchem","operatorName":"EQUANS","maxPowerKw":11,"isMegawatt":false,"status":"CHARGING","source":"ndw"}},{"type":"Feature","geometry":{"type":"Point","coordinates":[4.973549,51.832982]},"properties":{"type":"charge","layer":"passenger","locationId":"NLLOC000068","name":"NLD, Gorinchem, Kweeklust 1","address":"Kweeklust 1","city":"Gorinchem","operatorName":"Allego","maxPowerKw":22,"isMegawatt":false,"status":"CHARGING","source":"ndw","priceKwh":0.511}},{"type":"Feature","geometry":{"type":"Point","coordinates":[4.979994,51.837281]},"properties":{"type":"charge","layer":"passenger","locationId":"89888544","name":"EQUANS SGZH 2.0 89888544","address":"Theodorus Boomstraat 44","city":"Gorinchem","operatorName":"EQUANS","maxPowerKw":11,"isMegawatt":false,"status":"AVAILABLE","source":"ndw"}},{"type":"Feature","geometry":{"type":"Point","coordinates":[4.979171,51.842469]},"properties":{"type":"charge","layer":"passenger","locationId":"89888546","name":"EQUANS SGZH 2.0 Suzanna van Oostdijkstraat 40","address":"Suzanna van Oostdijkstraat 40","city":"Gorinchem","operatorName":"EQUANS","maxPowerKw":11,"isMegawatt":false,"status":"AVAILABLE","source":"ndw"}},{"type":"Feature","geometry":{"type":"Point","coordinates":[4.969743,51.827988]},"properties":{"type":"charge","layer":"passenger","locationId":"91417384","name":"EQUANS SGZH 2.0 Wilhelminaplein 1","address":"Wilhelminaplein 1","city":"Gorinchem","operatorName":"EQUANS","maxPowerKw":11,"isMegawatt":false,"status":"AVAILABLE","source":"ndw"}},{"type":"Feature","geometry":{"type":"Point","coordinates":[5.006886,51.835535]},"properties":{"type":"charge","layer":"passenger","locationId":"89927182","name":"EQUANS SGZH 2.0 89927182","address":"De Linie 1","city":"Gorinchem","operatorName":"EQUANS","maxPowerKw":11,"isMegawatt":false,"status":"AVAILABLE","source":"ndw"}},{"type":"Feature","geometry":{"type":"Point","coordinates":[5.0119,51.831148]},"properties":{"type":"charge","layer":"passenger","locationId":"NLLOC004086","name":"NLD, Blauwkapel 1 4208BS Gorinchem","address":"Blauwkapel 1","city":"Gorinchem","operatorName":"Allego","maxPowerKw":11,"isMegawatt":false,"status":"AVAILABLE","source":"ndw","priceKwh":0.511}},{"type":"Feature","geometry":{"type":"Point","coordinates":[4.994095,51.832807]},"properties":{"type":"charge","layer":"passenger","locationId":"NLLOC016753","name":"NL, Cornelie van Oosterzeestraat 3, 4207JH, Gorinchem","address":"Cornelie van Oosterzeestraat 3","city":"Gorinchem","operatorName":"Allego","maxPowerKw":11,"isMegawatt":false,"status":"AVAILABLE","source":"ndw","priceKwh":0.511}},{"type":"Feature","geometry":{"type":"Point","coordinates":[4.960871,51.843999]},"properties":{"type":"charge","layer":"passenger","locationId":"NLLOC013077","name":"NL, Klaproos 93, 4205MA Gorinchem","address":"Klaproos 93","city":"Gorinchem","operatorName":"Allego","maxPowerKw":11,"isMegawatt":false,"status":"CHARGING","source":"ndw","priceKwh":0.511}},{"type":"Feature","geometry":{"type":"Point","coordinates":[4.953427,51.843942]},"properties":{"type":"charge","layer":"passenger","locationId":"NLLOC013422","name":"NL, Dokter van Stratenweg 137, 4205 LH Gorinchem","address":"Dokter van Stratenweg 137","city":"Gorinchem","operatorName":"Allego","maxPowerKw":11,"isMegawatt":false,"status":"AVAILABLE","source":"ndw","priceKwh":0.511}},{"type":"Feature","geometry":{"type":"Point","coordinates":[5.01783,51.83466]},"properties":{"type":"charge","layer":"passenger","locationId":"91007021","name":"EQUANS SGZH 2.0 Walbus 91","address":"Walbus 91","city":"Gorinchem","operatorName":"EQUANS","maxPowerKw":11,"isMegawatt":false,"status":"AVAILABLE","source":"ndw"}},{"type":"Feature","geometry":{"type":"Point","coordinates":[4.940401,51.835738]},"properties":{"type":"charge","layer":"passenger","locationId":"68669fde1f7ecbf9f8052d4a","name":"Laadpaal 1","address":"Avelingen West 9","city":"Gorinchem","operatorName":"E-Flux by Road","maxPowerKw":22,"isMegawatt":false,"status":"AVAILABLE","source":"ndw","priceKwh":0.46}},{"type":"Feature","geometry":{"type":"Point","coordinates":[4.951768,51.84214]},"properties":{"type":"charge","layer":"passenger","locationId":"NLLOC002290","name":"NLD, Gorinchem, van Hogendorpweg 6","address":"Van Hogendorpweg 6","city":"Gorinchem","operatorName":"Allego","maxPowerKw":11,"isMegawatt":false,"status":"AVAILABLE","source":"ndw","priceKwh":0.511}},{"type":"Feature","geometry":{"type":"Point","coordinates":[4.954353,51.835881]},"properties":{"type":"charge","layer":"passenger","locationId":"90885196","name":"EQUANS SGZH 2.0 Wieldraaierstraat 7","address":"Wieldraaierstraat 7","city":"Gorinchem","operatorName":"EQUANS","maxPowerKw":11,"isMegawatt":false,"status":"AVAILABLE","source":"ndw"}},{"type":"Feature","geometry":{"type":"Point","coordinates":[4.982687,51.843347]},"properties":{"type":"charge","layer":"passenger","locationId":"NLLOC002649","name":"NLD, Gemeente Gorinchem Binnenbaan 52 4206 WJ Gorinchem","address":"Binnenbaan 52","city":"Gorinchem","operatorName":"Allego","maxPowerKw":11,"isMegawatt":false,"status":"AVAILABLE","source":"ndw","priceKwh":0.511}},{"type":"Feature","geometry":{"type":"Point","coordinates":[4.956444,51.842422]},"properties":{"type":"charge","layer":"passenger","locationId":"NLLOC011718","name":"NL, Dokter Hiemstralaan 99, 4205 KL, Gorinchem","address":"Dokter Hiemstralaan 99","city":"Gorinchem","operatorName":"Allego","maxPowerKw":11,"isMegawatt":false,"status":"AVAILABLE","source":"ndw","priceKwh":0.511}},{"type":"Feature","geometry":{"type":"Point","coordinates":[4.949799,51.836798]},"properties":{"type":"charge","layer":"passenger","locationId":"90256689","name":"EQUANS SGZH 2.0 Smedenweg 55","address":"Smedenweg 55","city":"Gorinchem","operatorName":"EQUANS","maxPowerKw":11,"isMegawatt":false,"status":"AVAILABLE","source":"ndw"}},{"type":"Feature","geometry":{"type":"Point","coordinates":[5.018422,51.836812]},"properties":{"type":"charge","layer":"passenger","locationId":"89482967","name":"EQUANS SGZH 2.0 89482967","address":"Luitenant 12","city":"Gorinchem","operatorName":"EQUANS","maxPowerKw":11,"isMegawatt":false,"status":"AVAILABLE","source":"ndw"}},{"type":"Feature","geometry":{"type":"Point","coordinates":[4.983373,51.842864]},"properties":{"type":"charge","layer":"passenger","locationId":"90386338","name":"EQUANS SGZH 2.0 Binnenbaan 26","address":"Binnenbaan 26","city":"Gorinchem","operatorName":"EQUANS","maxPowerKw":11,"isMegawatt":false,"status":"AVAILABLE","source":"ndw"}},{"type":"Feature","geometry":{"type":"Point","coordinates":[4.971205,51.847803]},"properties":{"type":"charge","layer":"passenger","locationId":"NLLOC001201","name":"NLD, Gorinchem, Hoefslag 6","address":"Hoefslag 6","city":"Gorinchem","operatorName":"Allego","maxPowerKw":11,"isMegawatt":false,"status":"AVAILABLE","source":"ndw","priceKwh":0.511}},{"type":"Feature","geometry":{"type":"Point","coordinates":[5.007097,51.827126]},"properties":{"type":"charge","layer":"passenger","locationId":"NLLOC007086","name":"NL, Irenelaan 39, 4213 CP, Dalem","address":"Irenelaan 39","city":"Dalem","operatorName":"Allego","maxPowerKw":11,"isMegawatt":false,"status":"AVAILABLE","source":"ndw","priceKwh":0.511}},{"type":"Feature","geometry":{"type":"Point","coordinates":[4.967169,51.843112]},"properties":{"type":"charge","layer":"passenger","locationId":"NLLOC007085","name":"NL, Karel de Stoutestraat 1, 4205 HL Gorinchem","address":"Karel de Stoutestraat 1","city":"Gorinchem","operatorName":"Allego","maxPowerKw":11,"isMegawatt":false,"status":"AVAILABLE","source":"ndw","priceKwh":0.511}},{"type":"Feature","geometry":{"type":"Point","coordinates":[5.009607,51.833564]},"properties":{"type":"charge","layer":"passenger","locationId":"90098211","name":"EQUANS SGZH 2.0 Sabel 28","address":"Sabel 28","city":"Gorinchem","operatorName":"EQUANS","maxPowerKw":11,"isMegawatt":false,"status":"AVAILABLE","source":"ndw"}},{"type":"Feature","geometry":{"type":"Point","coordinates":[4.940401,51.835738]},"properties":{"type":"charge","layer":"passenger","locationId":"6866a11150125c3cb2f3a907","name":"Laadpaal 4","address":"Avelingen West 9","city":"Gorinchem","operatorName":"E-Flux by Road","maxPowerKw":22,"isMegawatt":false,"status":"AVAILABLE","source":"ndw","priceKwh":0.46}},{"type":"Feature","geometry":{"type":"Point","coordinates":[4.987658,51.835751]},"properties":{"type":"charge","layer":"passenger","locationId":"6a451f01fb3979863d81357c","name":"Jansen Lingsesdijk","address":"Lingsesdijk 30","city":"Gorinchem","operatorName":"E-Flux by Road","maxPowerKw":22,"isMegawatt":false,"status":"AVAILABLE","source":"ndw","priceKwh":0.53}},{"type":"Feature","geometry":{"type":"Point","coordinates":[4.972858,51.832501]},"properties":{"type":"charge","layer":"passenger","locationId":"91227868","name":"EQUANS SGZH 2.0 Bagijnenwalstraat 25","address":"Bagijnenwalstraat 25","city":"Gorinchem","operatorName":"EQUANS","maxPowerKw":11,"isMegawatt":false,"status":"AVAILABLE","source":"ndw"}},{"type":"Feature","geometry":{"type":"Point","coordinates":[4.985959,51.847454]},"properties":{"type":"charge","layer":"passenger","locationId":"8A48630A-0498-4BA4-A4DD-21F210924B5C","name":"Eneco eMobility Asset Management Builders","address":"Papland 9 B","city":"Gorinchem","operatorName":"Eneco","maxPowerKw":11,"isMegawatt":false,"status":"AVAILABLE","source":"ndw","priceKwh":0.45}},{"type":"Feature","geometry":{"type":"Point","coordinates":[4.96739,51.8365]},"properties":{"type":"charge","layer":"passenger","locationId":"90892552","name":"EQUANS SGZH 2.0 Lijsterbeslaan 2","address":"Lijsterbeslaan 2","city":"Gorinchem","operatorName":"EQUANS","maxPowerKw":11,"isMegawatt":false,"status":"AVAILABLE","source":"ndw"}},{"type":"Feature","geometry":{"type":"Point","coordinates":[5.016437,51.831633]},"properties":{"type":"charge","layer":"passenger","locationId":"89888551","name":"EQUANS SGZH 2.0 89888551","address":"Hinderdam 87","city":"Gorinchem","operatorName":"EQUANS","maxPowerKw":11,"isMegawatt":false,"status":"AVAILABLE","source":"ndw"}},{"type":"Feature","geometry":{"type":"Point","coordinates":[4.9789,51.8418]},"properties":{"type":"charge","layer":"passenger","locationId":"90967485","name":"EQUANS SGZH 2.0 Suzanna van Oostdijkstraat 29 (t.h.v. Jacob van de","address":"Suzanna van Oostdijkstraat 29 (t.h.v. Jacob v","city":"Gorinchem","operatorName":"EQUANS","maxPowerKw":11,"isMegawatt":false,"status":"CHARGING","source":"ndw"}},{"type":"Feature","geometry":{"type":"Point","coordinates":[4.99676,51.831386]},"properties":{"type":"charge","layer":"passenger","locationId":"90823778","name":"EQUANS SGZH 2.0 Ina Boudier-Bakkerstraat 9","address":"Ina Boudier-Bakkerstraat 9","city":"Gorinchem","operatorName":"EQUANS","maxPowerKw":11,"isMegawatt":false,"status":"AVAILABLE","source":"ndw"}},{"type":"Feature","geometry":{"type":"Point","coordinates":[4.995311,51.833735]},"properties":{"type":"charge","layer":"passenger","locationId":"89968068","name":"EQUANS SGZH 2.0 Nienke van Hichtumpad 46","address":"Nienke van Hichtumpad 46","city":"Gorinchem","operatorName":"EQUANS","maxPowerKw":11,"isMegawatt":false,"status":"AVAILABLE","source":"ndw"}},{"type":"Feature","geometry":{"type":"Point","coordinates":[4.980386,51.844066]},"properties":{"type":"charge","layer":"passenger","locationId":"90281440","name":"EQUANS SGZH 2.0 Binnenbaan 51","address":"Binnenbaan 51","city":"Gorinchem","operatorName":"EQUANS","maxPowerKw":11,"isMegawatt":false,"status":"AVAILABLE","source":"ndw"}},{"type":"Feature","geometry":{"type":"Point","coordinates":[4.996134,51.836963]},"properties":{"type":"charge","layer":"passenger","locationId":"fb2764eb-b459-4b1c-90b1-29a65b4ce629","name":"Doctor J.M. Den Uylstraat","address":"Doctor J.M. Den Uylstraat 16","city":"Gorinchem","operatorName":"Vattenfall InCharge","maxPowerKw":7,"isMegawatt":false,"status":"CHARGING","source":"ndw"}},{"type":"Feature","geometry":{"type":"Point","coordinates":[4.992497,51.835412]},"properties":{"type":"charge","layer":"passenger","locationId":"90185729","name":"EQUANS SGZH 2.0 Marie Boddaertstraat 38","address":"Marie Boddaertstraat 38","city":"Gorinchem","operatorName":"EQUANS","maxPowerKw":11,"isMegawatt":false,"status":"UNAVAILABLE","source":"ndw"}},{"type":"Feature","geometry":{"type":"Point","coordinates":[4.950333,51.831966]},"properties":{"type":"charge","layer":"freight","locationId":"895","name":"IONITY GmbH IONITY Gorinchem","address":"Avelingen-Oost 2A","city":"Gorinchem","operatorName":"IONITY","maxPowerKw":350,"isMegawatt":false,"status":"AVAILABLE","source":"ndw","priceKwh":0.6283,"freightKind":"hpc","freightReason":"power"}},{"type":"Feature","geometry":{"type":"MultiPolygon","coordinates":[[[[4.938894688138285,51.863518343136796],[4.956971990855163,51.859573126232],[4.959308982029021,51.86288493712157],[4.964975977625061,51.86159159412773],[4.983317935509908,51.85710831546366],[4.981259858397086,51.851870340571644],[4.996341140787267,51.84922873334371],[4.998683835000022,51.8522773106811],[5.000001059826934,51.8475759676169],[4.998894262831168,51.845246427097244],[4.999519578421056,51.84513752308938],[4.999295508017455,51.844600004197886],[4.999933275109034,51.84439156373037],[5.0028942779064405,51.843661957918876],[5.003447044271338,51.844769058882356],[5.009322160241337,51.84271628176213],[5.021269470879895,51.84192587494444],[5.031414099927922,51.84108497151599],[5.0282865711700095,51.826160520446585],[5.027700144919693,51.82355001342692],[5.026350739777103,51.818856910771245],[5.012995075833074,51.82072591750574],[5.000362936658818,51.8209335382102],[4.999281662628338,51.8208679311388],[4.9877559846751005,51.82105951126231],[4.976098834290462,51.82263318276571],[4.969632254550107,51.82365450280675],[4.960514960906387,51.82504222741106],[4.942436784284997,51.82724328707538],[4.936063346754613,51.828314603407435],[4.926985826481712,51.82830606193055],[4.925194184101021,51.83707979177148],[4.92511959623807,51.83753079823061],[4.925071996310836,51.8378777628433],[4.9250149558654535,51.83830340012064],[4.9248631682809,51.83971846171963],[4.921822164431389,51.84078893092881],[4.925440641272152,51.84023949980415],[4.930885322060181,51.84026595095053],[4.936617112151509,51.842933832791445],[4.936939260285814,51.84437846522302],[4.9427137784922515,51.84478416710371],[4.940345706122689,51.85842844779831],[4.93839814075617,51.86362932062211],[4.938894688138285,51.863518343136796]]]]},"properties":{"type":"boundary","gemeente":"Gorinchem","code":"GM0512"}}]}