{"type":"FeatureCollection","metadata":{"gemeente":"Halderberge","slug":"halderberge","code":"GM1655","generated_at":"2026-07-06T16:26:11.361Z","total_passenger":78,"total_freight":0,"bounds":[4.426674699272765,51.54925569385705,4.613891673597842,51.63039972984553],"operators":["Allego","E-Flux by Road","EQUANS","Eneco","Fastned","Laadnet","StellaPower®","Tesla"]},"features":[{"type":"Feature","geometry":{"type":"Point","coordinates":[4.520938,51.593863]},"properties":{"type":"charge","layer":"passenger","locationId":"NL000052","name":"Zoutlaan 108 Oudenbosch","address":"Zoutlaan 108","city":"Halderberge","operatorName":"StellaPower®","maxPowerKw":17,"isMegawatt":false,"status":"AVAILABLE","source":"ndw","priceKwh":0.471}},{"type":"Feature","geometry":{"type":"Point","coordinates":[4.531808,51.58624]},"properties":{"type":"charge","layer":"passenger","locationId":"NLLOC002176","name":"Molmerlaan 1, 4731WT, Halderberge, Oudenbosch, Nederland","address":"Molmerlaan 1","city":"Halderberge, Oudenbosch","operatorName":"Allego","maxPowerKw":11,"isMegawatt":false,"status":"AVAILABLE","source":"ndw","priceKwh":0.511}},{"type":"Feature","geometry":{"type":"Point","coordinates":[4.526614,51.610847]},"properties":{"type":"charge","layer":"passenger","locationId":"623db8ce5ee33508ea1891ec","name":"Pascal Meerburg 's station","address":"Oudlandsedijk 12","city":"Oudenbosch","operatorName":"E-Flux by Road","maxPowerKw":22,"isMegawatt":false,"status":"AVAILABLE","source":"ndw"}},{"type":"Feature","geometry":{"type":"Point","coordinates":[4.521956,51.587665]},"properties":{"type":"charge","layer":"passenger","locationId":"6a3d17794c094dc4e06420ed","name":"Oudenbosch/ Jaap Edenlaan 76","address":"Jaap Edenlaan 76","city":"Oudenbosch","operatorName":"E-Flux by Road","maxPowerKw":14,"isMegawatt":false,"status":"AVAILABLE","source":"ndw","priceKwh":0.5217}},{"type":"Feature","geometry":{"type":"Point","coordinates":[4.46343,51.58714]},"properties":{"type":"charge","layer":"passenger","locationId":"NL000122","name":"De Running 19 Oud Gastel","address":"De Running 19","city":"Halderberge","operatorName":"StellaPower®","maxPowerKw":17,"isMegawatt":false,"status":"AVAILABLE","source":"ndw","priceKwh":0.471}},{"type":"Feature","geometry":{"type":"Point","coordinates":[4.525695,51.594822]},"properties":{"type":"charge","layer":"passenger","locationId":"NLLOC018990","name":"NL, Schuitevaarstraat 13, 4731 LH Oudenbosch","address":"Schuitevaarstraat 13","city":"Oudenbosch","operatorName":"Allego","maxPowerKw":11,"isMegawatt":false,"status":"AVAILABLE","source":"ndw","priceKwh":0.511}},{"type":"Feature","geometry":{"type":"Point","coordinates":[4.4581,51.592763]},"properties":{"type":"charge","layer":"passenger","locationId":"NLLOC006434","name":"NL, Oranje Nassaustraat 2, 4751bl, Oud gastel","address":"Oranje Nassaustraat 2","city":"Oud gastel","operatorName":"Allego","maxPowerKw":11,"isMegawatt":false,"status":"AVAILABLE","source":"ndw","priceKwh":0.511}},{"type":"Feature","geometry":{"type":"Point","coordinates":[4.538717,51.584375]},"properties":{"type":"charge","layer":"passenger","locationId":"4174663","name":"Laadnet J. van der Laan","address":"Kwekerssingel 11","city":"Oudenbosch","operatorName":"Laadnet","maxPowerKw":11,"isMegawatt":false,"status":"AVAILABLE","source":"ndw"}},{"type":"Feature","geometry":{"type":"Point","coordinates":[4.581719,51.572725]},"properties":{"type":"charge","layer":"passenger","locationId":"NL000059","name":"Wilgenroos 15 Hoeven","address":"Wilgenroos 15","city":"Halderberge","operatorName":"StellaPower®","maxPowerKw":17,"isMegawatt":false,"status":"AVAILABLE","source":"ndw","priceKwh":0.471}},{"type":"Feature","geometry":{"type":"Point","coordinates":[4.529899,51.587941]},"properties":{"type":"charge","layer":"passenger","locationId":"NL000055","name":"Lollestraat 4 Oudenbosch","address":"Lollestraat 2","city":"Halderberge","operatorName":"StellaPower®","maxPowerKw":17,"isMegawatt":false,"status":"AVAILABLE","source":"ndw","priceKwh":0.471}},{"type":"Feature","geometry":{"type":"Point","coordinates":[4.468712,51.568762]},"properties":{"type":"charge","layer":"passenger","locationId":"D36366FD-FDB2-4A8D-81F5-7EDD876C9FDB","name":"Eneco eMobility Informa Nederland BV","address":"Argon 7","city":"Oud Gastel","operatorName":"Eneco","maxPowerKw":22,"isMegawatt":false,"status":"AVAILABLE","source":"ndw","priceKwh":0.28}},{"type":"Feature","geometry":{"type":"Point","coordinates":[4.47829,51.5999]},"properties":{"type":"charge","layer":"passenger","locationId":"082BBDB8-A168-4770-9093-3177783E0431","name":"Eneco eMobility Stoofstraat 46 Oud Gastel","address":"Stoofstraat 46","city":"Oud Gastel","operatorName":"Eneco","maxPowerKw":22,"isMegawatt":false,"status":"AVAILABLE","source":"ndw","priceKwh":0.32}},{"type":"Feature","geometry":{"type":"Point","coordinates":[4.543493,51.588983]},"properties":{"type":"charge","layer":"passenger","locationId":"6a3d32ac04bbd5c1ef9d0354","name":"Oudenbosch/ Lindestraat 42","address":"Lindestraat 42","city":"Oudenbosch","operatorName":"E-Flux by Road","maxPowerKw":14,"isMegawatt":false,"status":"AVAILABLE","source":"ndw","priceKwh":0.5217}},{"type":"Feature","geometry":{"type":"Point","coordinates":[4.544105,51.561251]},"properties":{"type":"charge","layer":"passenger","locationId":"NL00005","name":"Sint Gerardushof 88 Bosschenhoofd","address":"Sint Gerardushof 88","city":"Halderberge","operatorName":"StellaPower®","maxPowerKw":17,"isMegawatt":false,"status":"AVAILABLE","source":"ndw","priceKwh":0.471}},{"type":"Feature","geometry":{"type":"Point","coordinates":[4.454551,51.61252]},"properties":{"type":"charge","layer":"passenger","locationId":"60e6f876f3f3423e3d99f367","name":"NOVO Packaging & Warehousing","address":"Dennis Leestraat 107 A","city":"Stampersgat","operatorName":"E-Flux by Road","maxPowerKw":22,"isMegawatt":false,"status":"AVAILABLE","source":"ndw","priceKwh":0.38}},{"type":"Feature","geometry":{"type":"Point","coordinates":[4.54264,51.56815]},"properties":{"type":"charge","layer":"passenger","locationId":"NL000123","name":"Breugelhof 28 Bosschenhoofd","address":"Breugelhof 28","city":"Halderberge","operatorName":"StellaPower®","maxPowerKw":17,"isMegawatt":false,"status":"AVAILABLE","source":"ndw","priceKwh":0.471}},{"type":"Feature","geometry":{"type":"Point","coordinates":[4.5415,51.58702]},"properties":{"type":"charge","layer":"passenger","locationId":"NL000100","name":"Jasmijnlaan 24 Oudenbosch","address":"Jasmijnlaan 24","city":"Halderberge","operatorName":"StellaPower®","maxPowerKw":17,"isMegawatt":false,"status":"AVAILABLE","source":"ndw","priceKwh":0.471}},{"type":"Feature","geometry":{"type":"Point","coordinates":[4.524705,51.590138]},"properties":{"type":"charge","layer":"passenger","locationId":"NLLOC004040","name":"NL, St Elisabethstraat, 1, 4731JD, Oudenbosch","address":"St Elisabethstraat 1","city":"Oudenbosch","operatorName":"Allego","maxPowerKw":11,"isMegawatt":false,"status":"AVAILABLE","source":"ndw","priceKwh":0.511}},{"type":"Feature","geometry":{"type":"Point","coordinates":[4.537418,51.558083]},"properties":{"type":"charge","layer":"passenger","locationId":"NL000060","name":"Amalialaantje 7 Bosschenhoofd","address":"Amalialaantje 7","city":"Halderberge","operatorName":"StellaPower®","maxPowerKw":17,"isMegawatt":false,"status":"AVAILABLE","source":"ndw","priceKwh":0.471}},{"type":"Feature","geometry":{"type":"Point","coordinates":[4.52742,51.588841]},"properties":{"type":"charge","layer":"passenger","locationId":"NLLOC008584","name":"Markt 45 4731HN Oudenbosch","address":"Markt 45","city":"Oudenbosch","operatorName":"Allego","maxPowerKw":11,"isMegawatt":false,"status":"AVAILABLE","source":"ndw","priceKwh":0.511}},{"type":"Feature","geometry":{"type":"Point","coordinates":[4.534688,51.588762]},"properties":{"type":"charge","layer":"passenger","locationId":"NLLOC021360","name":"NL, Bosschendijk 1, 4731DA, Oudenbosch","address":"Bosschendijk 1","city":"Oudenbosch","operatorName":"Allego","maxPowerKw":11,"isMegawatt":false,"status":"AVAILABLE","source":"ndw","priceKwh":0.511}},{"type":"Feature","geometry":{"type":"Point","coordinates":[4.582002,51.579431]},"properties":{"type":"charge","layer":"passenger","locationId":"NLLOC023640","name":"NL, Rentmeesterstraat 38, 4741 BR Hoeven","address":"Rentmeesterstraat 38","city":"Hoeven","operatorName":"Allego","maxPowerKw":11,"isMegawatt":false,"status":"AVAILABLE","source":"ndw","priceKwh":0.511}},{"type":"Feature","geometry":{"type":"Point","coordinates":[4.52295,51.5913]},"properties":{"type":"charge","layer":"passenger","locationId":"F5140285-8988-47FC-BF4A-011C0ACA9F43","name":"Eneco eMobility Centraal Bureau Stichting Groenhuysen","address":"Chirurgijnslaan 1","city":"Oudenbosch","operatorName":"Eneco","maxPowerKw":22,"isMegawatt":false,"status":"AVAILABLE","source":"ndw","priceKwh":0.32}},{"type":"Feature","geometry":{"type":"Point","coordinates":[4.495474,51.596652]},"properties":{"type":"charge","layer":"passenger","locationId":"50646","name":"Fastned 't Hol","address":"'t Hol A17","city":"Oud Gastel","operatorName":"Fastned","maxPowerKw":300,"isMegawatt":false,"status":"AVAILABLE","source":"ndw","priceKwh":0.6364}},{"type":"Feature","geometry":{"type":"Point","coordinates":[4.469821,51.566533]},"properties":{"type":"charge","layer":"passenger","locationId":"b8cedaaa-09bc-4240-a4cf-ce59fb3b320d","name":"Roosendaal, Netherlands","address":"2, Emmerblok","city":"Oud Gastel","operatorName":"Tesla","maxPowerKw":250,"isMegawatt":false,"status":"AVAILABLE","source":"ndw","priceKwh":0.53}},{"type":"Feature","geometry":{"type":"Point","coordinates":[4.455807,51.584991]},"properties":{"type":"charge","layer":"passenger","locationId":"6a16aad46fabb6d0cb0ec843","name":"Oud Gastel/ Koeneberg 2","address":"Koeneberg 2","city":"Oud Gastel","operatorName":"E-Flux by Road","maxPowerKw":14,"isMegawatt":false,"status":"AVAILABLE","source":"ndw","priceKwh":0.5217}},{"type":"Feature","geometry":{"type":"Point","coordinates":[4.541389,51.558419]},"properties":{"type":"charge","layer":"passenger","locationId":"NL000051","name":"Oranjestraat 2 Bosschenhoofd","address":"Oranjestraat 2","city":"Halderberge","operatorName":"StellaPower®","maxPowerKw":17,"isMegawatt":false,"status":"AVAILABLE","source":"ndw","priceKwh":0.471}},{"type":"Feature","geometry":{"type":"Point","coordinates":[4.561732,51.569905]},"properties":{"type":"charge","layer":"passenger","locationId":"667bccc8c4fe2c001c2f7397","name":"Bosbad Hoeven 2 (5)","address":"Oude Antwerpsepostbaan 81B","city":"Hoeven","operatorName":"E-Flux by Road","maxPowerKw":14,"isMegawatt":false,"status":"UNAVAILABLE","source":"ndw"}},{"type":"Feature","geometry":{"type":"Point","coordinates":[4.561787,51.569903]},"properties":{"type":"charge","layer":"passenger","locationId":"667bcd0487a1ac001ce63cf8","name":"Bosbad Hoeven 1 (6)","address":"Oude Antwerpsepostbaan 81B","city":"Hoeven","operatorName":"E-Flux by Road","maxPowerKw":14,"isMegawatt":false,"status":"AVAILABLE","source":"ndw","priceKwh":0.53}},{"type":"Feature","geometry":{"type":"Point","coordinates":[4.449197,51.613492]},"properties":{"type":"charge","layer":"passenger","locationId":"NLLOC013051","name":"NL, Stellekreek 6, 4754 BL Stampersgat","address":"Stellekreek 6","city":"Stampersgat","operatorName":"Allego","maxPowerKw":11,"isMegawatt":false,"status":"AVAILABLE","source":"ndw","priceKwh":0.511}},{"type":"Feature","geometry":{"type":"Point","coordinates":[4.458454,51.591184]},"properties":{"type":"charge","layer":"passenger","locationId":"6a43ad27b2181806dea658d8","name":"Oud Gastel/Vorstinnenhof 2","address":"Vorstinnenhof 2","city":"Oud Gastel","operatorName":"E-Flux by Road","maxPowerKw":14,"isMegawatt":false,"status":"AVAILABLE","source":"ndw","priceKwh":0.5217}},{"type":"Feature","geometry":{"type":"Point","coordinates":[4.55994,51.57514]},"properties":{"type":"charge","layer":"passenger","locationId":"1FA24DED-73D9-451C-8B6C-0260BFBE2F7E","name":"Eneco eMobility Oude Antwerpsepostbaan 88, Hoeven","address":"Oude Antwerpsepostbaan 88","city":"Hoeven","operatorName":"Eneco","maxPowerKw":22,"isMegawatt":false,"status":"CHARGING","source":"ndw","priceKwh":0.45}},{"type":"Feature","geometry":{"type":"Point","coordinates":[4.465455,51.574092]},"properties":{"type":"charge","layer":"passenger","locationId":"644f62c8e8ab670012e72d35","name":"De Baan","address":"Roosendaalsebaan  86a","city":"Oud Gastel","operatorName":"E-Flux by Road","maxPowerKw":22,"isMegawatt":false,"status":"AVAILABLE","source":"ndw","priceKwh":0.5566}},{"type":"Feature","geometry":{"type":"Point","coordinates":[4.531349,51.581933]},"properties":{"type":"charge","layer":"passenger","locationId":"6a43a7bbfb245da7b5a38d09","name":"Oudenbosch/Darinkveld 1","address":"Darinkveld 1","city":"Oudenbosch","operatorName":"E-Flux by Road","maxPowerKw":14,"isMegawatt":false,"status":"UNAVAILABLE","source":"ndw","priceKwh":0.5217}},{"type":"Feature","geometry":{"type":"Point","coordinates":[4.577689,51.582493]},"properties":{"type":"charge","layer":"passenger","locationId":"6a43ba5192d846dda7abf6df","name":"Hoeven/Drossaardenblok 3","address":"Drossaardenblok 3","city":"Hoeven","operatorName":"E-Flux by Road","maxPowerKw":14,"isMegawatt":false,"status":"AVAILABLE","source":"ndw","priceKwh":0.5217}},{"type":"Feature","geometry":{"type":"Point","coordinates":[4.521741,51.594804]},"properties":{"type":"charge","layer":"passenger","locationId":"NLLOC009001","name":"NL, Touwbaan 1, 4731 ME Oudenbosch","address":"Touwbaan 1","city":"Oudenbosch","operatorName":"Allego","maxPowerKw":11,"isMegawatt":false,"status":"AVAILABLE","source":"ndw","priceKwh":0.511}},{"type":"Feature","geometry":{"type":"Point","coordinates":[4.561617,51.569906]},"properties":{"type":"charge","layer":"passenger","locationId":"667bcc4bc4fe2c001c2f7097","name":"Bosbad Hoeven 4 (3)","address":"Oude Antwerpsepostbaan 81B","city":"Hoeven","operatorName":"E-Flux by Road","maxPowerKw":14,"isMegawatt":false,"status":"UNAVAILABLE","source":"ndw","priceKwh":0.53}},{"type":"Feature","geometry":{"type":"Point","coordinates":[4.460743,51.591942]},"properties":{"type":"charge","layer":"passenger","locationId":"6a17ea26822f3840ed92044c","name":"Oud Gastel/ Meirstraat 6","address":"Meirstraat 6","city":"Oud Gastel","operatorName":"E-Flux by Road","maxPowerKw":14,"isMegawatt":false,"status":"AVAILABLE","source":"ndw","priceKwh":0.5217}},{"type":"Feature","geometry":{"type":"Point","coordinates":[4.453322,51.612627]},"properties":{"type":"charge","layer":"passenger","locationId":"6669663a553422001c6c88ab","name":"NOVO Packaging & Warehousing BV","address":"Dennis Leestraat 107 A","city":"Stampersgat","operatorName":"E-Flux by Road","maxPowerKw":22,"isMegawatt":false,"status":"AVAILABLE","source":"ndw","priceKwh":0.38}},{"type":"Feature","geometry":{"type":"Point","coordinates":[4.584063,51.580288]},"properties":{"type":"charge","layer":"passenger","locationId":"NLLOC006975","name":"NL, Akkerlingen 22, 4741 BD, Hoeven","address":"Akkerlingen 22","city":"Hoeven","operatorName":"Allego","maxPowerKw":11,"isMegawatt":false,"status":"AVAILABLE","source":"ndw","priceKwh":0.511}},{"type":"Feature","geometry":{"type":"Point","coordinates":[4.52544,51.58784]},"properties":{"type":"charge","layer":"passenger","locationId":"NLLOC002161","name":"NLD, Oudenbosch, Ringstraat 1","address":"Ringstraat 1","city":"Oudenbosch","operatorName":"Allego","maxPowerKw":11,"isMegawatt":false,"status":"AVAILABLE","source":"ndw","priceKwh":0.511}},{"type":"Feature","geometry":{"type":"Point","coordinates":[4.533206,51.583086]},"properties":{"type":"charge","layer":"passenger","locationId":"NLLOC002101","name":"NLD, Oudenbosch, Moerasbos 24","address":"Moerasbos 24","city":"Oudenbosch","operatorName":"Allego","maxPowerKw":11,"isMegawatt":false,"status":"AVAILABLE","source":"ndw","priceKwh":0.511}},{"type":"Feature","geometry":{"type":"Point","coordinates":[4.56149,51.569906]},"properties":{"type":"charge","layer":"passenger","locationId":"667bcc8b8e10ff001c8fc922","name":"Bosbad Hoeven 6 (4)","address":"Oude Antwerpsepostbaan 81B","city":"Hoeven","operatorName":"E-Flux by Road","maxPowerKw":14,"isMegawatt":false,"status":"UNAVAILABLE","source":"ndw"}},{"type":"Feature","geometry":{"type":"Point","coordinates":[4.545472,51.593502]},"properties":{"type":"charge","layer":"passenger","locationId":"NLLOC006909","name":"NL, Kerketiend 16, 4731 GG, Oudenbosch","address":"Kerketiend 16","city":"Oudenbosch","operatorName":"Allego","maxPowerKw":11,"isMegawatt":false,"status":"AVAILABLE","source":"ndw","priceKwh":0.511}},{"type":"Feature","geometry":{"type":"Point","coordinates":[4.533736,51.589636]},"properties":{"type":"charge","layer":"passenger","locationId":"6a3e69c50de92dd4d83cae72","name":"Oudenbosch/ Franciscuslaan 11","address":"Franciscuslaan 11","city":"Oudenbosch","operatorName":"E-Flux by Road","maxPowerKw":14,"isMegawatt":false,"status":"AVAILABLE","source":"ndw","priceKwh":0.5217}},{"type":"Feature","geometry":{"type":"Point","coordinates":[4.5801,51.571837]},"properties":{"type":"charge","layer":"passenger","locationId":"NLLOC002719","name":"NLD, Klaproos 2, 4741 JH Hoeven","address":"Klaproos 2","city":"Hoeven","operatorName":"Allego","maxPowerKw":11,"isMegawatt":false,"status":"AVAILABLE","source":"ndw","priceKwh":0.511}},{"type":"Feature","geometry":{"type":"Point","coordinates":[4.48103,51.56958]},"properties":{"type":"charge","layer":"passenger","locationId":"746C5561-E0B3-48FA-9795-FA2189519C9E","name":"Eneco eMobility Frame 21 NL B.V. EHC","address":"Rietschotten 1","city":"Oud Gastel","operatorName":"Eneco","maxPowerKw":35,"isMegawatt":false,"status":"UNAVAILABLE","source":"ndw","priceKwh":0.29}},{"type":"Feature","geometry":{"type":"Point","coordinates":[4.527535,51.587739]},"properties":{"type":"charge","layer":"passenger","locationId":"6a43aa5cfb245da7b5ac3629","name":"Oudenbosch/Achter 't Postkantoor 14","address":"Achter 't Postkantoor 14","city":"Oudenbosch","operatorName":"E-Flux by Road","maxPowerKw":14,"isMegawatt":false,"status":"AVAILABLE","source":"ndw","priceKwh":0.5217}},{"type":"Feature","geometry":{"type":"Point","coordinates":[4.526614,51.610847]},"properties":{"type":"charge","layer":"passenger","locationId":"623db9741cc37feeb6b51ab9","name":"Pascal Meerburg 's station","address":"Oudlandsedijk 12","city":"Oudenbosch","operatorName":"E-Flux by Road","maxPowerKw":22,"isMegawatt":false,"status":"AVAILABLE","source":"ndw"}},{"type":"Feature","geometry":{"type":"Point","coordinates":[4.461792,51.588928]},"properties":{"type":"charge","layer":"passenger","locationId":"NLLOC020593","name":"NL, Beukenlaan 11, 4751JC Oud Gastel","address":"Beukenlaan 11","city":"Oud Gastel","operatorName":"Allego","maxPowerKw":11,"isMegawatt":false,"status":"AVAILABLE","source":"ndw","priceKwh":0.511}},{"type":"Feature","geometry":{"type":"Point","coordinates":[4.523856,51.586475]},"properties":{"type":"charge","layer":"passenger","locationId":"6a3cf52213c6a34f1d48b6c1","name":"Oudenbosch/ Spuilaan 348","address":"Spuilaan 348","city":"Oudenbosch","operatorName":"E-Flux by Road","maxPowerKw":14,"isMegawatt":false,"status":"AVAILABLE","source":"ndw","priceKwh":0.5217}},{"type":"Feature","geometry":{"type":"Point","coordinates":[4.518821,51.588337]},"properties":{"type":"charge","layer":"passenger","locationId":"NLLOC006955","name":"NL, Spuilaan 58, 4731 NJ, Oudenbosch","address":"Spuilaan 58","city":"Oudenbosch","operatorName":"Allego","maxPowerKw":11,"isMegawatt":false,"status":"UNAVAILABLE","source":"ndw","priceKwh":0.511}},{"type":"Feature","geometry":{"type":"Point","coordinates":[4.533435,51.591294]},"properties":{"type":"charge","layer":"passenger","locationId":"NLLOC018602","name":"NL, Groene Woud 22, 4731GV, Oudenbosch","address":"Groene Woud 22","city":"Oudenbosch","operatorName":"Allego","maxPowerKw":11,"isMegawatt":false,"status":"AVAILABLE","source":"ndw","priceKwh":0.511}},{"type":"Feature","geometry":{"type":"Point","coordinates":[4.5784,51.581981]},"properties":{"type":"charge","layer":"passenger","locationId":"NLLOC009199","name":"President Van Rijenlaan 38 4741DD Hoeven","address":"President Van Rijenlaan 38","city":"Hoeven","operatorName":"Allego","maxPowerKw":11,"isMegawatt":false,"status":"AVAILABLE","source":"ndw","priceKwh":0.511}},{"type":"Feature","geometry":{"type":"Point","coordinates":[4.561683,51.569906]},"properties":{"type":"charge","layer":"passenger","locationId":"667bcb2714c40f001cd3e712","name":"Bosbad Hoeven 3 (1)","address":"Oude Antwerpsepostbaan  81b","city":"Hoeven","operatorName":"E-Flux by Road","maxPowerKw":14,"isMegawatt":false,"status":"AVAILABLE","source":"ndw","priceKwh":0.53}},{"type":"Feature","geometry":{"type":"Point","coordinates":[4.576743,51.577421]},"properties":{"type":"charge","layer":"passenger","locationId":"NL000056","name":"Houtwal 4 Hoeven","address":"Houtwal 4","city":"Halderberge","operatorName":"StellaPower®","maxPowerKw":17,"isMegawatt":false,"status":"CHARGING","source":"ndw","priceKwh":0.471}},{"type":"Feature","geometry":{"type":"Point","coordinates":[4.52206,51.585771]},"properties":{"type":"charge","layer":"passenger","locationId":"NLLOC013639","name":"NL, Spuilaan 284, 4731NN, Oudenbosch","address":"Spuilaan 284","city":"Oudenbosch","operatorName":"Allego","maxPowerKw":11,"isMegawatt":false,"status":"AVAILABLE","source":"ndw","priceKwh":0.511}},{"type":"Feature","geometry":{"type":"Point","coordinates":[4.45565,51.580158]},"properties":{"type":"charge","layer":"passenger","locationId":"NLLOC001939","name":"NLD, Oud Gastel, Watermolen 25","address":"Watermolen 25","city":"Oud Gastel","operatorName":"Allego","maxPowerKw":11,"isMegawatt":false,"status":"AVAILABLE","source":"ndw","priceKwh":0.511}},{"type":"Feature","geometry":{"type":"Point","coordinates":[4.46355,51.58655]},"properties":{"type":"charge","layer":"passenger","locationId":"NL000121","name":"De Running 41 Oud Gastel","address":"De Running 41","city":"Halderberge","operatorName":"StellaPower®","maxPowerKw":17,"isMegawatt":false,"status":"AVAILABLE","source":"ndw","priceKwh":0.471}},{"type":"Feature","geometry":{"type":"Point","coordinates":[4.544028,51.560056]},"properties":{"type":"charge","layer":"passenger","locationId":"NLLOC009197","name":"St. Gerardushof 3 4744BC Bosschenhoofd","address":"St. Gerardushof 3","city":"Bosschenhoofd","operatorName":"Allego","maxPowerKw":11,"isMegawatt":false,"status":"AVAILABLE","source":"ndw","priceKwh":0.511}},{"type":"Feature","geometry":{"type":"Point","coordinates":[4.524079,51.591627]},"properties":{"type":"charge","layer":"passenger","locationId":"NL000044","name":"West-Vaardeke 60 Oudenbosch","address":"West-Vaardeke 60","city":"Halderberge","operatorName":"StellaPower®","maxPowerKw":17,"isMegawatt":false,"status":"AVAILABLE","source":"ndw","priceKwh":0.471}},{"type":"Feature","geometry":{"type":"Point","coordinates":[4.527212,51.592006]},"properties":{"type":"charge","layer":"passenger","locationId":"NLLOC016879","name":"NL, Rooseveltstraat 29, 4731 KG Oudenbosch","address":"Rooseveltstraat 29","city":"Oudenbosch","operatorName":"Allego","maxPowerKw":11,"isMegawatt":false,"status":"AVAILABLE","source":"ndw","priceKwh":0.511}},{"type":"Feature","geometry":{"type":"Point","coordinates":[4.523444,51.593138]},"properties":{"type":"charge","layer":"passenger","locationId":"NLLOC001553","name":"NLD, Oudenbosch, Kaaistraat 21","address":"Kaaistraat 21","city":"Oudenbosch","operatorName":"Allego","maxPowerKw":11,"isMegawatt":false,"status":"AVAILABLE","source":"ndw","priceKwh":0.511}},{"type":"Feature","geometry":{"type":"Point","coordinates":[4.458733,51.584219]},"properties":{"type":"charge","layer":"passenger","locationId":"NLLOC007896","name":"NL, Het Laag 12, 4751 GJ Oud Gastel","address":"Het Laag 12","city":"Oud Gastel","operatorName":"Allego","maxPowerKw":11,"isMegawatt":false,"status":"AVAILABLE","source":"ndw","priceKwh":0.511}},{"type":"Feature","geometry":{"type":"Point","coordinates":[4.460922,51.587517]},"properties":{"type":"charge","layer":"passenger","locationId":"NLLOC001107","name":"NLD, Oud Gastel, Korte Dreef 2","address":"Korte Dreef 2","city":"Oud Gastel","operatorName":"Allego","maxPowerKw":22,"isMegawatt":false,"status":"AVAILABLE","source":"ndw","priceKwh":0.511}},{"type":"Feature","geometry":{"type":"Point","coordinates":[4.561558,51.569906]},"properties":{"type":"charge","layer":"passenger","locationId":"667bcbed983027001c5dc5ca","name":"Bosbad Hoeven 5 (2)","address":"Oude Antwerpsepostbaan 81b","city":"Hoeven","operatorName":"E-Flux by Road","maxPowerKw":14,"isMegawatt":false,"status":"UNAVAILABLE","source":"ndw"}},{"type":"Feature","geometry":{"type":"Point","coordinates":[4.530429,51.586339]},"properties":{"type":"charge","layer":"passenger","locationId":"NLLOC001940","name":"NLD, Oudenbosch, Parklaan 15","address":"Parklaan 15","city":"Oudenbosch","operatorName":"Allego","maxPowerKw":11,"isMegawatt":false,"status":"AVAILABLE","source":"ndw","priceKwh":0.511}},{"type":"Feature","geometry":{"type":"Point","coordinates":[4.520849,51.592679]},"properties":{"type":"charge","layer":"passenger","locationId":"NLLOC006905","name":"NL, Duiventoren 129, 4731 MP, Oudenbosch","address":"Duiventoren 129","city":"Oudenbosch","operatorName":"Allego","maxPowerKw":11,"isMegawatt":false,"status":"AVAILABLE","source":"ndw","priceKwh":0.511}},{"type":"Feature","geometry":{"type":"Point","coordinates":[4.586838,51.578857]},"properties":{"type":"charge","layer":"passenger","locationId":"NLLOC001938","name":"NLD, Hoeven, Kloosterstraat 8","address":"Kloosterstraat 8","city":"Hoeven","operatorName":"Allego","maxPowerKw":11,"isMegawatt":false,"status":"AVAILABLE","source":"ndw","priceKwh":0.511}},{"type":"Feature","geometry":{"type":"Point","coordinates":[4.46852,51.569446]},"properties":{"type":"charge","layer":"passenger","locationId":"3280801","name":"Laadnet Tel-it Telecom & ICT","address":"Argon 1","city":"Oud Gastel","operatorName":"Laadnet","maxPowerKw":22,"isMegawatt":false,"status":"AVAILABLE","source":"ndw"}},{"type":"Feature","geometry":{"type":"Point","coordinates":[4.529455,51.581906]},"properties":{"type":"charge","layer":"passenger","locationId":"NLLOC013254","name":"NL, Jaagpad 22, 4731VX, Oudenbosch","address":"Jaagpad 22","city":"Oudenbosch","operatorName":"Allego","maxPowerKw":11,"isMegawatt":false,"status":"UNAVAILABLE","source":"ndw","priceKwh":0.511}},{"type":"Feature","geometry":{"type":"Point","coordinates":[4.53714,51.58813]},"properties":{"type":"charge","layer":"passenger","locationId":"NL000054","name":"Beukenlaan 1 Oudenbosch","address":"Beukenlaan 1","city":"Halderberge","operatorName":"StellaPower®","maxPowerKw":17,"isMegawatt":false,"status":"AVAILABLE","source":"ndw","priceKwh":0.471}},{"type":"Feature","geometry":{"type":"Point","coordinates":[4.5758,51.57545]},"properties":{"type":"charge","layer":"passenger","locationId":"NL000057","name":"Houtwal 52 Hoeven","address":"Houtwal 52","city":"Halderberge","operatorName":"StellaPower®","maxPowerKw":17,"isMegawatt":false,"status":"AVAILABLE","source":"ndw","priceKwh":0.471}},{"type":"Feature","geometry":{"type":"Point","coordinates":[4.551876,51.593565]},"properties":{"type":"charge","layer":"passenger","locationId":"NLLOC019185","name":"NL, Frascatilaan 12, 4731DP, Oudenbosch","address":"Frascatilaan 12","city":"Oudenbosch","operatorName":"Allego","maxPowerKw":11,"isMegawatt":false,"status":"AVAILABLE","source":"ndw","priceKwh":0.511}},{"type":"Feature","geometry":{"type":"Point","coordinates":[4.525888,51.587157]},"properties":{"type":"charge","layer":"passenger","locationId":"NL000058","name":"Leliestraat 13 Oudenbosch","address":"Leliestraat 13","city":"Halderberge","operatorName":"StellaPower®","maxPowerKw":17,"isMegawatt":false,"status":"AVAILABLE","source":"ndw","priceKwh":0.471}},{"type":"Feature","geometry":{"type":"Point","coordinates":[4.544216,51.563804]},"properties":{"type":"charge","layer":"passenger","locationId":"89200904","name":"EQUANS Fletcher Fletcher Hotel de Reiskoffer Bosschenhoofd","address":"Pastoor van Breugelstraat 45","city":"Bosschenhoofd","operatorName":"EQUANS","maxPowerKw":22,"isMegawatt":false,"status":"AVAILABLE","source":"ndw"}},{"type":"Feature","geometry":{"type":"Point","coordinates":[4.476229,51.59745]},"properties":{"type":"charge","layer":"passenger","locationId":"6184f50beb15057bfce19bff","name":"Stoofstraat 63","address":"Stoofstraat 63","city":"Oud Gastel","operatorName":"E-Flux by Road","maxPowerKw":11,"isMegawatt":false,"status":"AVAILABLE","source":"ndw","priceKwh":0.61}},{"type":"Feature","geometry":{"type":"Point","coordinates":[4.578374,51.579985]},"properties":{"type":"charge","layer":"passenger","locationId":"68fbc4786c64be840cf32a8b","name":"MR oplader","address":"De Reuzelaar 26","city":"Hoeven","operatorName":"E-Flux by Road","maxPowerKw":11,"isMegawatt":false,"status":"AVAILABLE","source":"ndw","priceKwh":0.8976}},{"type":"Feature","geometry":{"type":"MultiPolygon","coordinates":[[[[4.592907062956332,51.62443681744443],[4.596130416334667,51.62410947085685],[4.601233215965487,51.62523903097247],[4.60435156381743,51.6208602812299],[4.603565018497847,51.61720382857845],[4.606706687472186,51.616616397094674],[4.608913734548798,51.61495466858514],[4.609294594794107,51.61316391423134],[4.610932524736575,51.61220286818276],[4.610729717871031,51.609541360654376],[4.613891673597842,51.60803812668218],[4.610606035075111,51.60314239687546],[4.608672308305242,51.6021650849396],[4.596804424915662,51.59034853462731],[4.598251600461942,51.58562041126032],[4.598557724664469,51.584378314138576],[4.5959788959446755,51.57568394358621],[4.595963021151285,51.57336329076486],[4.594670505637997,51.56674049445805],[4.590645420612411,51.56597876635747],[4.59042022679932,51.56494026204905],[4.5922221354907204,51.5612894003416],[4.59176096824677,51.561031721788346],[4.584895928859999,51.55963497908589],[4.582878652076228,51.56041919596512],[4.581750349202779,51.560266811586644],[4.582011191423799,51.55904791180542],[4.568020226208572,51.55619941431115],[4.566841392276185,51.555963152604946],[4.550492797894604,51.55271180888157],[4.547310175058462,51.552361476073656],[4.546444378704811,51.55365068131693],[4.54537044634325,51.553908865492104],[4.544639711678473,51.55294831565399],[4.54508329918083,51.55164560994432],[4.542421831243043,51.55108712393013],[4.533481998651988,51.54926951080243],[4.530357936130193,51.54925569385705],[4.528068338093092,51.55199885485888],[4.528689070517362,51.5554866359112],[4.5309047718807705,51.55988769190085],[4.536615837041161,51.56577643337833],[4.509449555593975,51.5685587939394],[4.508712979841335,51.56554873478942],[4.504955084929605,51.56602643224829],[4.504153327183804,51.562985151188286],[4.5016342340058895,51.56327084399634],[4.500203575768866,51.558536424510805],[4.4868513038100994,51.56043990734064],[4.480992975318956,51.56097447315168],[4.474013700409392,51.56074798094618],[4.473007931340797,51.562213213256875],[4.469914344468133,51.56304375490265],[4.4663926848923,51.56204083655061],[4.465795836467667,51.56104325602575],[4.4575350479475375,51.561459261474916],[4.456949757837386,51.56261297041843],[4.453246683678864,51.56354380797352],[4.453010675694486,51.56667620403776],[4.448577430984436,51.56573265149763],[4.444674211442738,51.56923498048114],[4.443998796864329,51.56909559444586],[4.432925674831156,51.58279735644868],[4.429922395167573,51.59024791441701],[4.429337814598169,51.59387877766129],[4.4280181103574385,51.60540534792465],[4.426674699272765,51.61174041433529],[4.431546440452404,51.610845208731554],[4.432463477876362,51.612891311654224],[4.431934902835557,51.613911417913165],[4.43376539148636,51.61593965060915],[4.4357044502943275,51.61517485451579],[4.437827797793388,51.61711936011813],[4.443536452696124,51.61508875974904],[4.454843678519401,51.614207389578624],[4.461370447627871,51.61437994123686],[4.4714421750401545,51.61596621571214],[4.476027684880199,51.61836007912679],[4.4804384862163715,51.619718849727455],[4.484278623815181,51.62008298324112],[4.487744377124112,51.61964210167653],[4.49244033039041,51.617532742640655],[4.49616171621975,51.6131747459533],[4.502169612128935,51.60874604574562],[4.50798818288083,51.607095365483126],[4.51375589246478,51.60674772967533],[4.516554446683831,51.60713206781101],[4.519132314708096,51.607834283618594],[4.525486517780624,51.6127024324511],[4.530866808876506,51.61594803283862],[4.5368944506402835,51.61715041547305],[4.543204232308426,51.6176679474034],[4.549134188207971,51.619891644128096],[4.5532535861280685,51.622465875599694],[4.5545678511907655,51.624876819055274],[4.556695358804921,51.62688677035875],[4.560437415147191,51.628817663297326],[4.571077166170873,51.63039972984553],[4.57768215315705,51.62963288914125],[4.589187073208225,51.625202510163156],[4.592907062956332,51.62443681744443]]]]},"properties":{"type":"boundary","gemeente":"Halderberge","code":"GM1655"}}]}