{"type":"FeatureCollection","metadata":{"gemeente":"Harlingen","slug":"harlingen","code":"GM0072","generated_at":"2026-07-06T16:26:11.361Z","total_passenger":66,"total_freight":1,"bounds":[5.402802579921706,53.14333352238826,5.496371709805254,53.209838928527155],"operators":["Alva Charging Services","E-Flux by Road","Eneco","IPCharging","Laadnet","TotalEnergies","Vattenfall InCharge"]},"features":[{"type":"Feature","geometry":{"type":"Point","coordinates":[5.417994,53.175491]},"properties":{"type":"charge","layer":"passenger","locationId":"NLCCH00696","name":"Harlingen - Noorderhaven 82","address":"Noorderhaven 82","city":"Harlingen","operatorName":"","maxPowerKw":11,"isMegawatt":false,"status":"CHARGING","source":"ndw","priceKwh":0.5549}},{"type":"Feature","geometry":{"type":"Point","coordinates":[5.424582,53.181261]},"properties":{"type":"charge","layer":"passenger","locationId":"OST23P0063_0004_0","name":"OST23P0063_0004_0","address":"Skieppedykje 1","city":"Midlum","operatorName":"IPCharging","maxPowerKw":19,"isMegawatt":false,"status":"AVAILABLE","source":"ndw","priceKwh":0.5}},{"type":"Feature","geometry":{"type":"Point","coordinates":[5.46207,53.18223]},"properties":{"type":"charge","layer":"passenger","locationId":"b97ed84b-3334-44b0-8861-1658a2dd2e56","name":"Fahrenheitstraat 3","address":"Fahrenheitstraat 3","city":"Harlingen","operatorName":"Vattenfall InCharge","maxPowerKw":50,"isMegawatt":false,"status":"AVAILABLE","source":"ndw"}},{"type":"Feature","geometry":{"type":"Point","coordinates":[5.424582,53.181261]},"properties":{"type":"charge","layer":"passenger","locationId":"OST23P0063_0004_3","name":"OST23P0063_0004_3","address":"Skieppedykje 1","city":"Midlum","operatorName":"IPCharging","maxPowerKw":19,"isMegawatt":false,"status":"AVAILABLE","source":"ndw","priceKwh":0.5}},{"type":"Feature","geometry":{"type":"Point","coordinates":[5.426872,53.165598]},"properties":{"type":"charge","layer":"passenger","locationId":"60d081ee724d55ad637d29c4","name":"Plus Lunenborg","address":"Kimswerderweg 48","city":"Harlingen","operatorName":"E-Flux by Road","maxPowerKw":22,"isMegawatt":false,"status":"AVAILABLE","source":"ndw","priceKwh":0.73}},{"type":"Feature","geometry":{"type":"Point","coordinates":[5.424582,53.181261]},"properties":{"type":"charge","layer":"passenger","locationId":"OST23P0063_0004_5","name":"OST23P0063_0004_5","address":"Skieppedykje 1","city":"Midlum","operatorName":"IPCharging","maxPowerKw":19,"isMegawatt":false,"status":"AVAILABLE","source":"ndw","priceKwh":0.5}},{"type":"Feature","geometry":{"type":"Point","coordinates":[5.415754,53.176905]},"properties":{"type":"charge","layer":"passenger","locationId":"3828885","name":"Laadnet Waddenpromenade","address":"Waddenpromenade 1","city":"Harlingen","operatorName":"Laadnet","maxPowerKw":22,"isMegawatt":false,"status":"UNAVAILABLE","source":"ndw"}},{"type":"Feature","geometry":{"type":"Point","coordinates":[5.429338,53.190966]},"properties":{"type":"charge","layer":"passenger","locationId":"68aec0159ffedc2b44bcc7a2","name":"AC - laadplein Reststoffen Energie Centrale B.V.","address":"Lange Lijnbaan 14","city":"Harlingen","operatorName":"Alva Charging Services","maxPowerKw":22,"isMegawatt":false,"status":"AVAILABLE","source":"ndw","priceKwh":0.3706}},{"type":"Feature","geometry":{"type":"Point","coordinates":[5.433455,53.179455]},"properties":{"type":"charge","layer":"passenger","locationId":"2689671","name":"Laadnet Veltman Vis Service BV","address":"Industrieweg 18","city":"Harlingen","operatorName":"Laadnet","maxPowerKw":22,"isMegawatt":false,"status":"AVAILABLE","source":"ndw"}},{"type":"Feature","geometry":{"type":"Point","coordinates":[5.449622,53.178801]},"properties":{"type":"charge","layer":"passenger","locationId":"3289615","name":"Laadnet Langedijk Harlingen","address":"Edisonstraat 29","city":"Harlingen","operatorName":"Laadnet","maxPowerKw":22,"isMegawatt":false,"status":"UNAVAILABLE","source":"ndw"}},{"type":"Feature","geometry":{"type":"Point","coordinates":[5.43385,53.178566]},"properties":{"type":"charge","layer":"passenger","locationId":"8f4ca278-699a-4ff2-bb79-010d8b1f6eb0","name":"TNLP012149 - Horscamp 74, Harlingen","address":"74 Horscamp","city":"Harlingen","operatorName":"TotalEnergies","maxPowerKw":17,"isMegawatt":false,"status":"AVAILABLE","source":"ndw"}},{"type":"Feature","geometry":{"type":"Point","coordinates":[5.425588,53.173977]},"properties":{"type":"charge","layer":"passenger","locationId":"9c29f48b-9979-4c31-bae3-c098a4ae1c63","name":"TNLP012037 - Franekertrekvaart 6, Harlingen","address":"6 Franekertrekvaart","city":"Harlingen","operatorName":"TotalEnergies","maxPowerKw":17,"isMegawatt":false,"status":"UNAVAILABLE","source":"ndw"}},{"type":"Feature","geometry":{"type":"Point","coordinates":[5.461807,53.181747]},"properties":{"type":"charge","layer":"passenger","locationId":"56C96792-2CE1-436C-A810-A09A5C6490E1","name":"Eneco eMobility Norder Vastgoed B.V. - Fahrenheitstraat 5","address":"Fahrenheitstraat 5","city":"Harlingen","operatorName":"Eneco","maxPowerKw":50,"isMegawatt":false,"status":"AVAILABLE","source":"ndw","priceKwh":0.62}},{"type":"Feature","geometry":{"type":"Point","coordinates":[5.424582,53.181261]},"properties":{"type":"charge","layer":"passenger","locationId":"OST23P0063_0004_1","name":"OST23P0063_0004_1","address":"Skieppedykje 1","city":"Midlum","operatorName":"IPCharging","maxPowerKw":19,"isMegawatt":false,"status":"AVAILABLE","source":"ndw","priceKwh":0.5}},{"type":"Feature","geometry":{"type":"Point","coordinates":[5.442892,53.165386]},"properties":{"type":"charge","layer":"passenger","locationId":"8419c635-5339-48a9-b54e-c7255bc70c13","name":"TNLP012164 - Kotterstraat 10, Harlingen","address":"10 Kotterstraat","city":"Harlingen","operatorName":"TotalEnergies","maxPowerKw":17,"isMegawatt":false,"status":"UNAVAILABLE","source":"ndw"}},{"type":"Feature","geometry":{"type":"Point","coordinates":[5.439765,53.161198]},"properties":{"type":"charge","layer":"passenger","locationId":"eab89f20-8c84-4a0f-ba89-ed7bd2bc6588","name":"TNLP012207 - Hanerak 2, Harlingen","address":"2 Hanerak","city":"Harlingen","operatorName":"TotalEnergies","maxPowerKw":17,"isMegawatt":false,"status":"UNAVAILABLE","source":"ndw"}},{"type":"Feature","geometry":{"type":"Point","coordinates":[5.424582,53.181261]},"properties":{"type":"charge","layer":"passenger","locationId":"OST23P0063_0004_2","name":"OST23P0063_0004_2","address":"Skieppedykje 1","city":"Midlum","operatorName":"IPCharging","maxPowerKw":19,"isMegawatt":false,"status":"AVAILABLE","source":"ndw","priceKwh":0.5}},{"type":"Feature","geometry":{"type":"Point","coordinates":[5.436771,53.1898]},"properties":{"type":"charge","layer":"passenger","locationId":"6735f3d119babab950c8f5fa","name":"JR Ship Management BV","address":"Korte Lijnbaan 25","city":"Harlingen","operatorName":"E-Flux by Road","maxPowerKw":22,"isMegawatt":false,"status":"AVAILABLE","source":"ndw","priceKwh":0.3}},{"type":"Feature","geometry":{"type":"Point","coordinates":[5.431999,53.174393]},"properties":{"type":"charge","layer":"passenger","locationId":"10a537b7-299a-4f10-b007-a37af929bad0","name":"TNLP012187 - Kanaalweg 16, Harlingen","address":"16 Kanaalweg","city":"Harlingen","operatorName":"TotalEnergies","maxPowerKw":17,"isMegawatt":false,"status":"UNAVAILABLE","source":"ndw"}},{"type":"Feature","geometry":{"type":"Point","coordinates":[5.424582,53.181261]},"properties":{"type":"charge","layer":"passenger","locationId":"OST23P0063_0004_4","name":"OST23P0063_0004_4","address":"Skieppedykje 1","city":"Midlum","operatorName":"IPCharging","maxPowerKw":19,"isMegawatt":false,"status":"AVAILABLE","source":"ndw","priceKwh":0.5}},{"type":"Feature","geometry":{"type":"Point","coordinates":[5.424038,53.16548]},"properties":{"type":"charge","layer":"passenger","locationId":"0600cb7a-99ea-409d-b66e-c34608dede97","name":"TNLP013259 - Amaliastraat 42a, Harlingen","address":"42a Amaliastraat","city":"Harlingen","operatorName":"TotalEnergies","maxPowerKw":17,"isMegawatt":false,"status":"UNAVAILABLE","source":"ndw"}},{"type":"Feature","geometry":{"type":"Point","coordinates":[5.447585,53.18221]},"properties":{"type":"charge","layer":"passenger","locationId":"f8902c04-3552-45bf-b794-c5c6dddeafa4","name":"TNLP013071 - Kerkstraat 1, Midlum","address":"1 Kerkstraat","city":"Midlum","operatorName":"TotalEnergies","maxPowerKw":17,"isMegawatt":false,"status":"UNAVAILABLE","source":"ndw"}},{"type":"Feature","geometry":{"type":"Point","coordinates":[5.443384,53.169132]},"properties":{"type":"charge","layer":"passenger","locationId":"b01eaa86-a36e-4c15-ab3c-395cb83953fd","name":"TNLP013258 - Joost van den Vondelstraat 57, Harlingen","address":"57 Joost van den Vondelstraat","city":"Harlingen","operatorName":"TotalEnergies","maxPowerKw":17,"isMegawatt":false,"status":"AVAILABLE","source":"ndw"}},{"type":"Feature","geometry":{"type":"Point","coordinates":[5.455538,53.181608]},"properties":{"type":"charge","layer":"passenger","locationId":"2202815","name":"Laadnet Piet Brouwer Harlingen","address":"Edisonstraat 1","city":"Harlingen","operatorName":"Laadnet","maxPowerKw":22,"isMegawatt":false,"status":"AVAILABLE","source":"ndw"}},{"type":"Feature","geometry":{"type":"Point","coordinates":[5.41184,53.174841]},"properties":{"type":"charge","layer":"passenger","locationId":"NLCCH00699","name":"Harlingen - Willemskade t.h.v. Havenplein 2","address":"Havenplein 2","city":"Harlingen","operatorName":"","maxPowerKw":11,"isMegawatt":false,"status":"AVAILABLE","source":"ndw","priceKwh":0.5549}},{"type":"Feature","geometry":{"type":"Point","coordinates":[5.434354,53.163537]},"properties":{"type":"charge","layer":"passenger","locationId":"89c7d55c-b78a-40a1-8d60-1494b2ef5507","name":"TNLP013036","address":"Achlumerdijk 255","city":"Harlingen","operatorName":"TotalEnergies","maxPowerKw":17,"isMegawatt":false,"status":"UNAVAILABLE","source":"ndw"}},{"type":"Feature","geometry":{"type":"Point","coordinates":[5.42539,53.18795]},"properties":{"type":"charge","layer":"passenger","locationId":"25D09D26-B8AF-46B6-ABD6-5F8470F19A1D","name":"Eneco eMobility Lange Lijnbaan 15 Harlingen","address":"Lange Lijnbaan 15","city":"Harlingen","operatorName":"Eneco","maxPowerKw":22,"isMegawatt":false,"status":"AVAILABLE","source":"ndw","priceKwh":0.32}},{"type":"Feature","geometry":{"type":"Point","coordinates":[5.459905,53.1954]},"properties":{"type":"charge","layer":"passenger","locationId":"2c0581ed-fc47-4a01-b300-30c417eb58ba","name":"TNLP013251 - S. van der Ploegstrjitte 64, Wijnaldum","address":"64 S. van der Ploegstrjitte","city":"Wijnaldum","operatorName":"TotalEnergies","maxPowerKw":17,"isMegawatt":false,"status":"UNAVAILABLE","source":"ndw"}},{"type":"Feature","geometry":{"type":"Point","coordinates":[5.411885,53.17226]},"properties":{"type":"charge","layer":"passenger","locationId":"1f3a7cb8-c105-451b-88d3-bb4e59f1a465","name":"TNLP013404 - Nieuwe Willemskade 5, Harlingen","address":"5 Nieuwe Willemskade","city":"Harlingen","operatorName":"TotalEnergies","maxPowerKw":17,"isMegawatt":false,"status":"UNAVAILABLE","source":"ndw"}},{"type":"Feature","geometry":{"type":"Point","coordinates":[5.425468,53.169304]},"properties":{"type":"charge","layer":"passenger","locationId":"69b20dec-ea0d-4e31-a0ae-12c881ceabce","name":"TNLP012086 - Koningin Julianastraat 8, Harlingen","address":"8 Koningin Julianastraat","city":"Harlingen","operatorName":"TotalEnergies","maxPowerKw":17,"isMegawatt":false,"status":"UNAVAILABLE","source":"ndw"}},{"type":"Feature","geometry":{"type":"Point","coordinates":[5.420031,53.172783]},"properties":{"type":"charge","layer":"passenger","locationId":"b5cf7764-43bf-4e0e-926e-392a8af7ef2f","name":"TNLP013411 - Tiepelplein 6, Harlingen","address":"6 Tiepelplein","city":"Harlingen","operatorName":"TotalEnergies","maxPowerKw":17,"isMegawatt":false,"status":"UNAVAILABLE","source":"ndw"}},{"type":"Feature","geometry":{"type":"Point","coordinates":[5.435091,53.171932]},"properties":{"type":"charge","layer":"passenger","locationId":"6911ab659c2fbfb1b07f78be","name":"AutoFirst Wiltjer & Offenga","address":"Oude Trekweg 26","city":"Harlingen","operatorName":"E-Flux by Road","maxPowerKw":22,"isMegawatt":false,"status":"AVAILABLE","source":"ndw","priceKwh":0.46}},{"type":"Feature","geometry":{"type":"Point","coordinates":[5.423898,53.170608]},"properties":{"type":"charge","layer":"passenger","locationId":"NLCCH00708","name":"Harlingen - Stationsweg 6","address":"Stationsweg 6","city":"Harlingen","operatorName":"","maxPowerKw":11,"isMegawatt":false,"status":"AVAILABLE","source":"ndw","priceKwh":0.5549}},{"type":"Feature","geometry":{"type":"Point","coordinates":[5.44136,53.173251]},"properties":{"type":"charge","layer":"passenger","locationId":"649e8a2e46fc1f001c96dca1","name":"Ali El Yousfi 's station","address":"De Vormer  10","city":"Harlingen","operatorName":"E-Flux by Road","maxPowerKw":22,"isMegawatt":false,"status":"AVAILABLE","source":"ndw","priceKwh":0.28}},{"type":"Feature","geometry":{"type":"Point","coordinates":[5.443771,53.16738]},"properties":{"type":"charge","layer":"passenger","locationId":"NLCCH00705","name":"Harlingen - Koggestraat 12","address":"Koggestraat 12","city":"Harlingen","operatorName":"","maxPowerKw":11,"isMegawatt":false,"status":"AVAILABLE","source":"ndw","priceKwh":0.5549}},{"type":"Feature","geometry":{"type":"Point","coordinates":[5.455069,53.172494]},"properties":{"type":"charge","layer":"passenger","locationId":"6966388991557f56016b63d3","name":"Wetterskip Fryslân - RWZI Harlingen","address":"Oude Trekweg 110","city":"Harlingen","operatorName":"Alva Charging Services","maxPowerKw":11,"isMegawatt":false,"status":"AVAILABLE","source":"ndw","priceKwh":0.34}},{"type":"Feature","geometry":{"type":"Point","coordinates":[5.41572,53.172398]},"properties":{"type":"charge","layer":"passenger","locationId":"f13031c7-f030-42b4-9149-1d0b27ca0d53","name":"TNLP012003 - Zuiderhaven 108, Harlingen","address":"108 Zuiderhaven","city":"Harlingen","operatorName":"TotalEnergies","maxPowerKw":17,"isMegawatt":false,"status":"UNAVAILABLE","source":"ndw"}},{"type":"Feature","geometry":{"type":"Point","coordinates":[5.427599,53.16363]},"properties":{"type":"charge","layer":"passenger","locationId":"bd1ee7c5-25e8-4626-aa0d-431ae18221b7","name":"TNLP013301 - Kimswerderweg 72, Harlingen","address":"72 Kimswerderweg","city":"Harlingen","operatorName":"TotalEnergies","maxPowerKw":17,"isMegawatt":false,"status":"UNAVAILABLE","source":"ndw"}},{"type":"Feature","geometry":{"type":"Point","coordinates":[5.413722,53.171568]},"properties":{"type":"charge","layer":"passenger","locationId":"NLCCH00698","name":"Harlingen - Havenweg 51","address":"Havenweg 51","city":"Harlingen","operatorName":"","maxPowerKw":11,"isMegawatt":false,"status":"AVAILABLE","source":"ndw","priceKwh":0.5549}},{"type":"Feature","geometry":{"type":"Point","coordinates":[5.42275,53.173615]},"properties":{"type":"charge","layer":"passenger","locationId":"105aaa70-7b28-41d8-a78d-980ea3c5fdda","name":"TNLP013409 - Vetsmelterstraat 6, Harlingen","address":"6 Vetsmelterstraat","city":"Harlingen","operatorName":"TotalEnergies","maxPowerKw":17,"isMegawatt":false,"status":"UNAVAILABLE","source":"ndw"}},{"type":"Feature","geometry":{"type":"Point","coordinates":[5.420316,53.170788]},"properties":{"type":"charge","layer":"passenger","locationId":"e986bf9c-0ff5-416e-8ddf-a6b6a65eec80","name":"TNLP013044 - Spoorstraat 1, Harlingen","address":"1 Spoorstraat","city":"Harlingen","operatorName":"TotalEnergies","maxPowerKw":17,"isMegawatt":false,"status":"AVAILABLE","source":"ndw"}},{"type":"Feature","geometry":{"type":"Point","coordinates":[5.429802,53.17819]},"properties":{"type":"charge","layer":"passenger","locationId":"NLCCH00692","name":"Harlingen - Gerben Oswaldstraat 4","address":"Gerben Oswaldstraat 4","city":"Harlingen","operatorName":"","maxPowerKw":11,"isMegawatt":false,"status":"AVAILABLE","source":"ndw","priceKwh":0.5549}},{"type":"Feature","geometry":{"type":"Point","coordinates":[5.440409,53.160526]},"properties":{"type":"charge","layer":"passenger","locationId":"NLCCH00702","name":"Harlingen - Pannegat 16","address":"Pannegat 16","city":"Harlingen","operatorName":"","maxPowerKw":11,"isMegawatt":false,"status":"AVAILABLE","source":"ndw","priceKwh":0.5549}},{"type":"Feature","geometry":{"type":"Point","coordinates":[5.446294,53.166708]},"properties":{"type":"charge","layer":"passenger","locationId":"NLCCH00704","name":"Harlingen - Hoekerhof 32","address":"Hoekerhof 32","city":"Harlingen","operatorName":"","maxPowerKw":11,"isMegawatt":false,"status":"AVAILABLE","source":"ndw","priceKwh":0.5549}},{"type":"Feature","geometry":{"type":"Point","coordinates":[5.42311,53.17225]},"properties":{"type":"charge","layer":"passenger","locationId":"ac3d1708-d2c7-40e0-b147-3dcc5693edd7","name":"TNLP013416 - Molenpad 1, Harlingen","address":"1 Molenpad","city":"Harlingen","operatorName":"TotalEnergies","maxPowerKw":17,"isMegawatt":false,"status":"AVAILABLE","source":"ndw"}},{"type":"Feature","geometry":{"type":"Point","coordinates":[5.415597,53.173683]},"properties":{"type":"charge","layer":"passenger","locationId":"6f2f802c-373b-48b3-aaef-abba81479562","name":"TNLP012194 - Grote Ossenmarkt 25, Harlingen","address":"25 Grote Ossenmarkt","city":"Harlingen","operatorName":"TotalEnergies","maxPowerKw":17,"isMegawatt":false,"status":"UNAVAILABLE","source":"ndw"}},{"type":"Feature","geometry":{"type":"Point","coordinates":[5.418363,53.175949]},"properties":{"type":"charge","layer":"passenger","locationId":"NLCCH00694","name":"Harlingen - Noorderhaven 79","address":"Noorderhaven 79","city":"Harlingen","operatorName":"","maxPowerKw":11,"isMegawatt":false,"status":"AVAILABLE","source":"ndw","priceKwh":0.5549}},{"type":"Feature","geometry":{"type":"Point","coordinates":[5.421475,53.17433]},"properties":{"type":"charge","layer":"passenger","locationId":"25af30c3-c8e9-4d59-ae81-a372f2d58c50","name":"TNLP012002 - Heiligeweg 33, Harlingen","address":"33 Heiligeweg","city":"Harlingen","operatorName":"TotalEnergies","maxPowerKw":17,"isMegawatt":false,"status":"UNAVAILABLE","source":"ndw"}},{"type":"Feature","geometry":{"type":"Point","coordinates":[5.438398,53.15835]},"properties":{"type":"charge","layer":"passenger","locationId":"a3cf5fde-c344-4471-bf2c-4ec65d3cad48","name":"TNLP013252 - Vliestroom 17, Harlingen","address":"17 Vliestroom","city":"Harlingen","operatorName":"TotalEnergies","maxPowerKw":17,"isMegawatt":false,"status":"UNAVAILABLE","source":"ndw"}},{"type":"Feature","geometry":{"type":"Point","coordinates":[5.42441,53.177715]},"properties":{"type":"charge","layer":"passenger","locationId":"04a4fa75-c3b0-4c37-ba43-ea53d6a51c03","name":"TNLP012040 - Midlummerlaan 13, Harlingen","address":"13 Midlummerlaan","city":"Harlingen","operatorName":"TotalEnergies","maxPowerKw":17,"isMegawatt":false,"status":"UNAVAILABLE","source":"ndw"}},{"type":"Feature","geometry":{"type":"Point","coordinates":[5.442551,53.164135]},"properties":{"type":"charge","layer":"passenger","locationId":"e23eb231-6aa1-4882-a873-02987111c600","name":"TNLP013256 - Botterweg 6, Harlingen","address":"6 Botterweg","city":"Harlingen","operatorName":"TotalEnergies","maxPowerKw":17,"isMegawatt":false,"status":"UNAVAILABLE","source":"ndw"}},{"type":"Feature","geometry":{"type":"Point","coordinates":[5.423441,53.175594]},"properties":{"type":"charge","layer":"passenger","locationId":"56162d52-529b-46d1-84eb-498867f026c5","name":"TNLP013406 - Scheffersplein 12, Harlingen","address":"12 Scheffersplein","city":"Harlingen","operatorName":"TotalEnergies","maxPowerKw":17,"isMegawatt":false,"status":"UNAVAILABLE","source":"ndw"}},{"type":"Feature","geometry":{"type":"Point","coordinates":[5.417798,53.177547]},"properties":{"type":"charge","layer":"passenger","locationId":"d9c0a6a7-df45-4502-bf2b-ff62bbc5444d","name":"TNLP013422 - Roptaweg 18, Harlingen","address":"18 Roptaweg","city":"Harlingen","operatorName":"TotalEnergies","maxPowerKw":17,"isMegawatt":false,"status":"UNAVAILABLE","source":"ndw"}},{"type":"Feature","geometry":{"type":"Point","coordinates":[5.432062,53.16828]},"properties":{"type":"charge","layer":"passenger","locationId":"b34d1298-9f68-4870-98c0-00438727d216","name":"TNLP012112 - Hugo de Grootstraat 37, Harlingen","address":"37 Hugo de Grootstraat","city":"Harlingen","operatorName":"TotalEnergies","maxPowerKw":17,"isMegawatt":false,"status":"UNAVAILABLE","source":"ndw"}},{"type":"Feature","geometry":{"type":"Point","coordinates":[5.424595,53.177883]},"properties":{"type":"charge","layer":"passenger","locationId":"2c26ab1e-ffc6-4799-8375-1d3da74e71f7","name":"TNLP013405 - Midlumerlaan 15, Harlingen","address":"15 Midlumerlaan","city":"Harlingen","operatorName":"TotalEnergies","maxPowerKw":17,"isMegawatt":false,"status":"UNAVAILABLE","source":"ndw"}},{"type":"Feature","geometry":{"type":"Point","coordinates":[5.415903,53.176446]},"properties":{"type":"charge","layer":"passenger","locationId":"NLCCH00695","name":"Harlingen - Droogstraat 3","address":"Droogstraat 3","city":"Harlingen","operatorName":"","maxPowerKw":11,"isMegawatt":false,"status":"AVAILABLE","source":"ndw","priceKwh":0.5549}},{"type":"Feature","geometry":{"type":"Point","coordinates":[5.446002,53.164321]},"properties":{"type":"charge","layer":"passenger","locationId":"NLCCH00703","name":"Harlingen - Hoogaarshof 15","address":"Hoogaarshof 15","city":"Harlingen","operatorName":"","maxPowerKw":11,"isMegawatt":false,"status":"AVAILABLE","source":"ndw","priceKwh":0.5549}},{"type":"Feature","geometry":{"type":"Point","coordinates":[5.430681,53.168738]},"properties":{"type":"charge","layer":"passenger","locationId":"NLCCH00706","name":"Harlingen - Johan van Oldenbarneveltstraat 5","address":"Johan van Oldenbarneveltstraat 5","city":"Harlingen","operatorName":"","maxPowerKw":11,"isMegawatt":false,"status":"AVAILABLE","source":"ndw","priceKwh":0.5549}},{"type":"Feature","geometry":{"type":"Point","coordinates":[5.424524,53.173191]},"properties":{"type":"charge","layer":"passenger","locationId":"NLCCH00710","name":"Harlingen - Zuidoostersingel 5","address":"Zuidoostersingel 5","city":"Harlingen","operatorName":"","maxPowerKw":11,"isMegawatt":false,"status":"AVAILABLE","source":"ndw","priceKwh":0.5549}},{"type":"Feature","geometry":{"type":"Point","coordinates":[5.418189,53.173304]},"properties":{"type":"charge","layer":"passenger","locationId":"NLCCH00700","name":"Harlingen - Schritsen 52","address":"Schritsen 52","city":"Harlingen","operatorName":"","maxPowerKw":11,"isMegawatt":false,"status":"CHARGING","source":"ndw","priceKwh":0.5549}},{"type":"Feature","geometry":{"type":"Point","coordinates":[5.417272,53.168265]},"properties":{"type":"charge","layer":"passenger","locationId":"NLCCH00709","name":"Harlingen - Westerzeedijk 13","address":"Westerzeedijk 13","city":"Harlingen","operatorName":"","maxPowerKw":11,"isMegawatt":false,"status":"AVAILABLE","source":"ndw","priceKwh":0.5549}},{"type":"Feature","geometry":{"type":"Point","coordinates":[5.446248,53.169768]},"properties":{"type":"charge","layer":"passenger","locationId":"NLCCH00707","name":"Harlingen - Galeihof 27","address":"Galeihof 27","city":"Harlingen","operatorName":"","maxPowerKw":11,"isMegawatt":false,"status":"AVAILABLE","source":"ndw","priceKwh":0.5549}},{"type":"Feature","geometry":{"type":"Point","coordinates":[5.426578,53.174584]},"properties":{"type":"charge","layer":"passenger","locationId":"NLCCH00693","name":"Harlingen - Noorderkade 4-101","address":"Noorderkade 4","city":"Harlingen","operatorName":"","maxPowerKw":11,"isMegawatt":false,"status":"AVAILABLE","source":"ndw","priceKwh":0.5549}},{"type":"Feature","geometry":{"type":"Point","coordinates":[5.41811,53.171635]},"properties":{"type":"charge","layer":"passenger","locationId":"NLCCH00711","name":"Harlingen - Zuiderhaven 300","address":"Zuiderhaven 300","city":"Harlingen","operatorName":"","maxPowerKw":11,"isMegawatt":false,"status":"AVAILABLE","source":"ndw","priceKwh":0.5549}},{"type":"Feature","geometry":{"type":"Point","coordinates":[5.41398,53.174693]},"properties":{"type":"charge","layer":"passenger","locationId":"NLCCH00697","name":"Harlingen - Zuiderhaven 11","address":"Zuiderhaven 11","city":"Harlingen","operatorName":"","maxPowerKw":11,"isMegawatt":false,"status":"AVAILABLE","source":"ndw","priceKwh":0.5549}},{"type":"Feature","geometry":{"type":"Point","coordinates":[5.424283,53.159945]},"properties":{"type":"charge","layer":"passenger","locationId":"NLCCH00701","name":"Harlingen - De Bazuin 19","address":"De Bazuin 19","city":"Harlingen","operatorName":"","maxPowerKw":11,"isMegawatt":false,"status":"AVAILABLE","source":"ndw","priceKwh":0.5549}},{"type":"Feature","geometry":{"type":"Point","coordinates":[5.429704,53.190887]},"properties":{"type":"charge","layer":"freight","locationId":"685e5f0471cd2c5dc539cf11","name":"DC - laadplein Reststoffen Energie Centrale B.V.","address":"Lange Lijnbaan 14","city":"Harlingen","operatorName":"Alva Charging Services","maxPowerKw":500,"isMegawatt":false,"status":"AVAILABLE","source":"ndw","priceKwh":0.6185,"freightKind":"hpc","freightReason":"power"}},{"type":"Feature","geometry":{"type":"MultiPolygon","coordinates":[[[[5.456211963436037,53.20303180029447],[5.458006449393995,53.20007175963449],[5.461698295951418,53.20111483747481],[5.462457317790303,53.199942479153854],[5.466841715091175,53.1993525846843],[5.479342330080979,53.19967011210429],[5.485111545169041,53.1998834022549],[5.489555108290418,53.20073958002087],[5.490167662688962,53.19406917569259],[5.487603746410953,53.193644884827236],[5.482156839671129,53.18520532077162],[5.481698743591162,53.18378115569991],[5.48363823305624,53.183793761077666],[5.480931429930753,53.18005635245933],[5.4816064299625475,53.18003805716095],[5.479408493448709,53.17668539649289],[5.480134575674356,53.17632023480078],[5.480236426421611,53.17596151691191],[5.48185961732297,53.17615788332503],[5.496371709805254,53.178383494135915],[5.496366369583143,53.17780607084103],[5.493995394848771,53.174298055746476],[5.493433962908359,53.173027107367844],[5.491663023673019,53.17222885076635],[5.489404311790523,53.17211731252957],[5.488265185186615,53.16988793318824],[5.486009809883986,53.169680244320375],[5.485401144569444,53.167875510382586],[5.486044679800951,53.16774967465823],[5.484743046563169,53.16583544120448],[5.4866834892414715,53.16501677240398],[5.482794634623761,53.15913546886982],[5.480250457225355,53.157338892855336],[5.476785025715675,53.150763357784044],[5.476721998630165,53.15034511022587],[5.476440956974919,53.150421506187854],[5.474809111851587,53.15080722782002],[5.472833873132699,53.14885623573661],[5.472191215961697,53.14661523167785],[5.4696431682146,53.1451278598915],[5.4683369869357685,53.14333352238826],[5.466696414583673,53.143728473249766],[5.461435889358405,53.14454792003588],[5.463027440051116,53.14726882647034],[5.455109397708698,53.14758338038852],[5.452849224666289,53.14809330858184],[5.451117963075478,53.14992416213448],[5.444628265871593,53.15109971691065],[5.443907229711066,53.149937377808286],[5.4427397818943675,53.150271352571714],[5.442649352446444,53.151090391808474],[5.4351754895901845,53.15278368097307],[5.435509204859575,53.15352629875076],[5.426418224858562,53.15313232340575],[5.4214353144358025,53.153814845198376],[5.41708925879964,53.15082295299123],[5.414195301016528,53.15163713292466],[5.41489400293504,53.152195957926416],[5.413478117483996,53.152718451357515],[5.413031321367738,53.15288593383095],[5.412690942595902,53.15196815806324],[5.411597784449616,53.1519398152038],[5.412374283325915,53.15631314638742],[5.415802464067362,53.16458539821459],[5.414985368721689,53.168911554252645],[5.411207342422957,53.16979388485083],[5.407683173220733,53.17264245056597],[5.4044374398039805,53.17334260931672],[5.403738613048372,53.17394403053786],[5.402802579921706,53.175709028994895],[5.402961867906654,53.176033814424436],[5.404575047475735,53.17358626367918],[5.407440610974254,53.17315557624753],[5.411190232002796,53.17008679472297],[5.415133775282007,53.16942445221738],[5.413970270349615,53.17073247218537],[5.413424077576044,53.17015747146411],[5.410686691243647,53.17262117943541],[5.409395612769795,53.17463020297937],[5.4097895187202125,53.174818837516625],[5.411179574636806,53.17355176436034],[5.411031174157316,53.175297342874465],[5.4138803798309505,53.175584420376154],[5.413890936148402,53.17613094573128],[5.411786001306592,53.17548915782004],[5.410859699503197,53.175983429840564],[5.419226798431648,53.17908951198044],[5.415019630557127,53.178688999713266],[5.414620158479273,53.17954855040452],[5.4182684119116455,53.18029900092873],[5.419688125387637,53.18229563648003],[5.426008624286661,53.18385948474696],[5.434956725127949,53.189066781761056],[5.4379978804856925,53.19309092584432],[5.438980379574219,53.193833974296574],[5.43553929794961,53.19526165825744],[5.434661745157074,53.19452665961805],[5.432333420259675,53.19251602434181],[5.434807440591006,53.191494952113246],[5.434344817323828,53.1907284383824],[5.432951377805477,53.18972609665105],[5.4313912119760746,53.18991284324275],[5.427536671649856,53.18547604074146],[5.413827870765084,53.18228026307699],[5.411869183399215,53.177976102493204],[5.408853937643574,53.17557917311269],[5.405879382057374,53.17520075287389],[5.406002066250691,53.175508293886345],[5.408442912872847,53.17588165993412],[5.411101783972882,53.17806934995229],[5.411923779916157,53.18147323369817],[5.413244728466826,53.18277608533534],[5.4220001647238565,53.18503694078694],[5.425611112216112,53.191211136357424],[5.428727328981152,53.19670601622686],[5.4379881700584916,53.209838928527155],[5.456211963436037,53.20303180029447]]]]},"properties":{"type":"boundary","gemeente":"Harlingen","code":"GM0072"}}]}