{"type":"FeatureCollection","metadata":{"gemeente":"Heemskerk","slug":"heemskerk","code":"GM0396","generated_at":"2026-07-06T16:26:11.361Z","total_passenger":148,"total_freight":0,"bounds":[4.586562586159282,52.4863326080833,4.720366589426021,52.53175156288496],"operators":["Allego","DAEN Mobility","E-Flux by Road","Eneco","Fastned","Laadnet","NXT50Five","TotalEnergies","Ubitricity","Vattenfall InCharge"]},"features":[{"type":"Feature","geometry":{"type":"Point","coordinates":[4.673067,52.502649]},"properties":{"type":"charge","layer":"passenger","locationId":"92332161-e288-44bc-beb2-e2f657167a39","name":"Merel","address":"Merel 95","city":"Heemskerk","operatorName":"Vattenfall InCharge","maxPowerKw":11,"isMegawatt":false,"status":"AVAILABLE","source":"ndw"}},{"type":"Feature","geometry":{"type":"Point","coordinates":[4.700035,52.50465]},"properties":{"type":"charge","layer":"passenger","locationId":"2B3CC5C6-30F4-4E9B-A6E9-3672B7EA63B2","name":"Eneco eMobility De Trompet 2100 Heemskerk","address":"De Trompet 2100","city":"Heemskerk","operatorName":"Eneco","maxPowerKw":22,"isMegawatt":false,"status":"AVAILABLE","source":"ndw","priceKwh":0.32}},{"type":"Feature","geometry":{"type":"Point","coordinates":[4.682918,52.495466]},"properties":{"type":"charge","layer":"passenger","locationId":"40fa4cae9993d66667e51e9777343bf5","name":"Lessestraat 166","address":"Lessestraat 166","city":"Heemskerk","operatorName":"Vattenfall InCharge","maxPowerKw":11,"isMegawatt":false,"status":"AVAILABLE","source":"ndw"}},{"type":"Feature","geometry":{"type":"Point","coordinates":[4.678204,52.495583]},"properties":{"type":"charge","layer":"passenger","locationId":"d8b53117-9403-43bc-a15a-037a8f7e9bcd","name":"TNLP015400","address":"Beneluxlaan 235","city":"Heemskerk","operatorName":"TotalEnergies","maxPowerKw":17,"isMegawatt":false,"status":"AVAILABLE","source":"ndw"}},{"type":"Feature","geometry":{"type":"Point","coordinates":[4.675466,52.502243]},"properties":{"type":"charge","layer":"passenger","locationId":"03049bba-3a89-4274-86a6-4051e706cc88","name":"TNLP009406 - Zuilenburg 27, Heemskerk","address":"27 Zuilenburg","city":"Heemskerk","operatorName":"TotalEnergies","maxPowerKw":13,"isMegawatt":false,"status":"AVAILABLE","source":"ndw"}},{"type":"Feature","geometry":{"type":"Point","coordinates":[4.676139,52.501167]},"properties":{"type":"charge","layer":"passenger","locationId":"8e46ec41-29fe-4e3d-a0a7-fb65c8f9b4ab","name":"TNLP007099 - Sandenburg 35, Heemskerk","address":"35 Sandenburg","city":"Heemskerk","operatorName":"TotalEnergies","maxPowerKw":13,"isMegawatt":false,"status":"AVAILABLE","source":"ndw"}},{"type":"Feature","geometry":{"type":"Point","coordinates":[4.673796,52.51292]},"properties":{"type":"charge","layer":"passenger","locationId":"e37ba471-2b08-4378-a098-249c46f9d88c","name":"TNLP005807 - Anthonie Verherentstraat 70, Heemskerk","address":"70 Anthonie Verherentstraat","city":"Heemskerk","operatorName":"TotalEnergies","maxPowerKw":13,"isMegawatt":false,"status":"AVAILABLE","source":"ndw"}},{"type":"Feature","geometry":{"type":"Point","coordinates":[4.682117,52.518726]},"properties":{"type":"charge","layer":"passenger","locationId":"82e88cd6-48be-4daa-8a45-c2de1debffc7","name":"TNLP007588 - Prof ten Doesschatestraat 199, Heemskerk","address":"199 Prof ten Doesschatestraat","city":"Heemskerk","operatorName":"TotalEnergies","maxPowerKw":13,"isMegawatt":false,"status":"CHARGING","source":"ndw"}},{"type":"Feature","geometry":{"type":"Point","coordinates":[4.66122,52.50081]},"properties":{"type":"charge","layer":"passenger","locationId":"53","name":"Shell Recharge NL Weg acker 91","address":"Weg acker 91","city":"Heemskerk","operatorName":"Ubitricity","maxPowerKw":11,"isMegawatt":false,"status":"AVAILABLE","source":"ndw","priceKwh":0.388}},{"type":"Feature","geometry":{"type":"Point","coordinates":[4.680141,52.498912]},"properties":{"type":"charge","layer":"passenger","locationId":"58276fbf-6e2e-41c0-9ad9-5f02308b4e3f","name":"TNLP034261","address":"Denemarkenstraat 18","city":"Heemskerk","operatorName":"TotalEnergies","maxPowerKw":14,"isMegawatt":false,"status":"AVAILABLE","source":"ndw"}},{"type":"Feature","geometry":{"type":"Point","coordinates":[4.655953,52.505245]},"properties":{"type":"charge","layer":"passenger","locationId":"B36D2175-8D6D-4110-84B5-9DF36457F8F1","name":"Eneco eMobility Albert Heijn - Rijksstraatweg 38","address":"Rijksstraatweg 38","city":"Heemskerk","operatorName":"Eneco","maxPowerKw":50,"isMegawatt":false,"status":"AVAILABLE","source":"ndw","priceKwh":0.62}},{"type":"Feature","geometry":{"type":"Point","coordinates":[4.698793,52.498623]},"properties":{"type":"charge","layer":"passenger","locationId":"31264","name":"Fastned Akermaat","address":"Akermaat A9","city":"Heemskerk","operatorName":"Fastned","maxPowerKw":150,"isMegawatt":false,"status":"AVAILABLE","source":"ndw","priceKwh":0.6364}},{"type":"Feature","geometry":{"type":"Point","coordinates":[4.66918,52.51109]},"properties":{"type":"charge","layer":"passenger","locationId":"648914aa-5aa5-4484-a7f2-116c554bb3e3","name":"PP002582 - Van Coevenhovenstraat 33, Heemskerk","address":"33 Van Coevenhovenstraat","city":"Heemskerk","operatorName":"TotalEnergies","maxPowerKw":13,"isMegawatt":false,"status":"CHARGING","source":"ndw"}},{"type":"Feature","geometry":{"type":"Point","coordinates":[4.6652539,52.5041565]},"properties":{"type":"charge","layer":"passenger","locationId":"905","name":"Shell Recharge NL Maerten van Heemskerckstraat 92","address":"Maerten van Heemskerckstraat 92","city":"Heemskerk","operatorName":"Ubitricity","maxPowerKw":22,"isMegawatt":false,"status":"AVAILABLE","source":"ndw","priceKwh":0.266}},{"type":"Feature","geometry":{"type":"Point","coordinates":[4.679896,52.517593]},"properties":{"type":"charge","layer":"passenger","locationId":"e67ea49b-b1b5-469b-8a6f-583f7a6a5d63","name":"TNLP006265 - Jean Monnetstraat 242, Heemskerk","address":"242 Jean Monnetstraat","city":"Heemskerk","operatorName":"TotalEnergies","maxPowerKw":15,"isMegawatt":false,"status":"AVAILABLE","source":"ndw"}},{"type":"Feature","geometry":{"type":"Point","coordinates":[4.669544,52.51305]},"properties":{"type":"charge","layer":"passenger","locationId":"96a48ad0-ae69-4783-bc52-1f709a872751","name":"TNLP008302 - Raadhuisstraat 172, Heemskerk","address":"172 Raadhuisstraat","city":"Heemskerk","operatorName":"TotalEnergies","maxPowerKw":14,"isMegawatt":false,"status":"AVAILABLE","source":"ndw"}},{"type":"Feature","geometry":{"type":"Point","coordinates":[4.66397,52.50702]},"properties":{"type":"charge","layer":"passenger","locationId":"621","name":"Shell Recharge NL Jan Ligthartstraat 285","address":"Jan Ligthartstraat 285","city":"Heemskerk","operatorName":"Ubitricity","maxPowerKw":11,"isMegawatt":false,"status":"AVAILABLE","source":"ndw","priceKwh":0.388}},{"type":"Feature","geometry":{"type":"Point","coordinates":[4.680441,52.499977]},"properties":{"type":"charge","layer":"passenger","locationId":"e3922537-4e14-42ff-994f-64699d65ad90","name":"TNLP007945 - Luxemburglaan 921, Heemskerk","address":"921 Luxemburglaan","city":"Heemskerk","operatorName":"TotalEnergies","maxPowerKw":13,"isMegawatt":false,"status":"CHARGING","source":"ndw"}},{"type":"Feature","geometry":{"type":"Point","coordinates":[4.67026,52.50516]},"properties":{"type":"charge","layer":"passenger","locationId":"95f52c77-24f7-4a33-92ed-bd4df2e40f17","name":"PP001058 - Titus Brandsmastraat 2, Heemskerk","address":"2 Titus Brandsmastraat","city":"Heemskerk","operatorName":"TotalEnergies","maxPowerKw":11,"isMegawatt":false,"status":"CHARGING","source":"ndw"}},{"type":"Feature","geometry":{"type":"Point","coordinates":[4.676578,52.51581]},"properties":{"type":"charge","layer":"passenger","locationId":"08ad182d91b98e403f6998f1e41f430d","name":"Mendelssohnstraat 31","address":"Mendelssohnstraat 31","city":"Heemskerk","operatorName":"Vattenfall InCharge","maxPowerKw":11,"isMegawatt":false,"status":"AVAILABLE","source":"ndw"}},{"type":"Feature","geometry":{"type":"Point","coordinates":[4.673101,52.500256]},"properties":{"type":"charge","layer":"passenger","locationId":"7b50095d-41a7-435b-965f-57d476302565","name":"TNLP006105 - Duitslandlaan 51, Heemskerk","address":"51 Duitslandlaan","city":"Heemskerk","operatorName":"TotalEnergies","maxPowerKw":13,"isMegawatt":false,"status":"AVAILABLE","source":"ndw"}},{"type":"Feature","geometry":{"type":"Point","coordinates":[4.674089,52.506271]},"properties":{"type":"charge","layer":"passenger","locationId":"88d3a347-c3d6-406b-a80c-bd3e98f2c98e","name":"TNLP034034","address":"de Rooystraat 19","city":"Heemskerk","operatorName":"TotalEnergies","maxPowerKw":14,"isMegawatt":false,"status":"AVAILABLE","source":"ndw"}},{"type":"Feature","geometry":{"type":"Point","coordinates":[4.68643,52.49296]},"properties":{"type":"charge","layer":"passenger","locationId":"594","name":"Shell Recharge NL Spinsteen 76","address":"Spinsteen 76","city":"Heemskerk","operatorName":"Ubitricity","maxPowerKw":11,"isMegawatt":false,"status":"AVAILABLE","source":"ndw","priceKwh":0.388}},{"type":"Feature","geometry":{"type":"Point","coordinates":[4.673,52.503704]},"properties":{"type":"charge","layer":"passenger","locationId":"698a14c9bd1ea355a9ae84f9","name":"Merel 66","address":"Merel  66","city":"Heemskerk","operatorName":"E-Flux by Road","maxPowerKw":11,"isMegawatt":false,"status":"AVAILABLE","source":"ndw","priceKwh":0.43}},{"type":"Feature","geometry":{"type":"Point","coordinates":[4.68058,52.51308]},"properties":{"type":"charge","layer":"passenger","locationId":"341","name":"Shell Recharge NL Luceberthof 2","address":"Luceberthof 2","city":"Heemskerk","operatorName":"Ubitricity","maxPowerKw":11,"isMegawatt":false,"status":"AVAILABLE","source":"ndw","priceKwh":0.388}},{"type":"Feature","geometry":{"type":"Point","coordinates":[4.672188,52.504765]},"properties":{"type":"charge","layer":"passenger","locationId":"782d755a-9e33-4645-a373-b21641da7418","name":"TNLP009354 - Westerweelstraat 11, Heemskerk","address":"11 Westerweelstraat","city":"Heemskerk","operatorName":"TotalEnergies","maxPowerKw":13,"isMegawatt":false,"status":"AVAILABLE","source":"ndw"}},{"type":"Feature","geometry":{"type":"Point","coordinates":[4.670225,52.503902]},"properties":{"type":"charge","layer":"passenger","locationId":"46c7eb5a-172d-41b4-b2b3-c03484abf008","name":"TNLP007688 - Johan Brouwerstraat 8, Heemskerk","address":"8 Johan Brouwerstraat","city":"Heemskerk","operatorName":"TotalEnergies","maxPowerKw":15,"isMegawatt":false,"status":"AVAILABLE","source":"ndw"}},{"type":"Feature","geometry":{"type":"Point","coordinates":[4.692598,52.494042]},"properties":{"type":"charge","layer":"passenger","locationId":"97da5005adbc0af73293973dc679cea6","name":"Schutterskwartier 1","address":"Schutterskwartier 1","city":"Heemskerk","operatorName":"Vattenfall InCharge","maxPowerKw":11,"isMegawatt":false,"status":"AVAILABLE","source":"ndw"}},{"type":"Feature","geometry":{"type":"Point","coordinates":[4.679387,52.5091]},"properties":{"type":"charge","layer":"passenger","locationId":"8dc36691-89d1-42bd-ab83-a97db5b95ac8","name":"TNLP008011 - Vrijburglaan 8, Heemskerk","address":"8 Vrijburglaan","city":"Heemskerk","operatorName":"TotalEnergies","maxPowerKw":15,"isMegawatt":false,"status":"AVAILABLE","source":"ndw"}},{"type":"Feature","geometry":{"type":"Point","coordinates":[4.683147,52.5158206]},"properties":{"type":"charge","layer":"passenger","locationId":"1111","name":"Shell Recharge NL Jean Monnetstraat 40","address":"Jean Monnetstraat 40","city":"Heemskerk","operatorName":"Ubitricity","maxPowerKw":22,"isMegawatt":false,"status":"AVAILABLE","source":"ndw","priceKwh":0.266}},{"type":"Feature","geometry":{"type":"Point","coordinates":[4.703043,52.500685]},"properties":{"type":"charge","layer":"passenger","locationId":"50470","name":"Fastned Twaalfmaat","address":"Twaalfmaat A9","city":"Heemskerk","operatorName":"Fastned","maxPowerKw":150,"isMegawatt":false,"status":"AVAILABLE","source":"ndw","priceKwh":0.6364}},{"type":"Feature","geometry":{"type":"Point","coordinates":[4.668933,52.515153]},"properties":{"type":"charge","layer":"passenger","locationId":"810326e8-c841-4147-8a87-4499879107b1","name":"TNLP034227","address":"Diepenbrockstraat 128","city":"Heemskerk","operatorName":"TotalEnergies","maxPowerKw":14,"isMegawatt":false,"status":"AVAILABLE","source":"ndw"}},{"type":"Feature","geometry":{"type":"Point","coordinates":[4.677493,52.512687]},"properties":{"type":"charge","layer":"passenger","locationId":"69c13f552817d81dfa5228d2","name":"NXT 50five - Heemskerk - Haydnplein 8 - DC","address":"Haydnplein 8","city":"Heemskerk","operatorName":"NXT50Five","maxPowerKw":300,"isMegawatt":false,"status":"AVAILABLE","source":"ndw","priceKwh":0.6}},{"type":"Feature","geometry":{"type":"Point","coordinates":[4.677366,52.512863]},"properties":{"type":"charge","layer":"passenger","locationId":"e96b6afe-dbe5-4dd2-8649-24fc582a238f","name":"TNLP007755 - Haydnplein 10, Heemskerk","address":"10 Haydnplein","city":"Heemskerk","operatorName":"TotalEnergies","maxPowerKw":13,"isMegawatt":false,"status":"AVAILABLE","source":"ndw"}},{"type":"Feature","geometry":{"type":"Point","coordinates":[4.689355,52.519796]},"properties":{"type":"charge","layer":"passenger","locationId":"9a255216-9a07-4c2f-bd97-03dc3f9a323b","name":"TNLP034612","address":"Rosa Manussingel 80","city":"Heemskerk","operatorName":"TotalEnergies","maxPowerKw":14,"isMegawatt":false,"status":"AVAILABLE","source":"ndw"}},{"type":"Feature","geometry":{"type":"Point","coordinates":[4.701852,52.503971]},"properties":{"type":"charge","layer":"passenger","locationId":"3966767","name":"Laadnet Cocensus","address":"De Trompet 2700","city":"Heemskerk","operatorName":"Laadnet","maxPowerKw":22,"isMegawatt":false,"status":"AVAILABLE","source":"ndw"}},{"type":"Feature","geometry":{"type":"Point","coordinates":[4.67181,52.51174]},"properties":{"type":"charge","layer":"passenger","locationId":"0EBDD986-42C0-4BC2-9A2E-197A996AF673","name":"Eneco eMobility Kerklaan 11 Heemskerk","address":"Kerklaan 11","city":"Heemskerk","operatorName":"Eneco","maxPowerKw":22,"isMegawatt":false,"status":"AVAILABLE","source":"ndw","priceKwh":0.32}},{"type":"Feature","geometry":{"type":"Point","coordinates":[4.66493,52.50565]},"properties":{"type":"charge","layer":"passenger","locationId":"27","name":"Shell Recharge NL Jan Ligthartstraat 101","address":"Jan Ligthartstraat 101","city":"Heemskerk","operatorName":"Ubitricity","maxPowerKw":11,"isMegawatt":false,"status":"AVAILABLE","source":"ndw","priceKwh":0.388}},{"type":"Feature","geometry":{"type":"Point","coordinates":[4.688395,52.518513]},"properties":{"type":"charge","layer":"passenger","locationId":"72f5d6f7-e0ed-470e-b3e5-4d998bfb7402","name":"TNLP006371 - Breedweerlaan 61, Heemskerk","address":"61 Breedweerlaan","city":"Heemskerk","operatorName":"TotalEnergies","maxPowerKw":13,"isMegawatt":false,"status":"CHARGING","source":"ndw"}},{"type":"Feature","geometry":{"type":"Point","coordinates":[4.665506,52.50781]},"properties":{"type":"charge","layer":"passenger","locationId":"662bbf9d7c8cee001c7d1650","name":"Jan Steenstraat 14 station","address":"Jan Steenstraat 14","city":"HEEMSKERK","operatorName":"E-Flux by Road","maxPowerKw":11,"isMegawatt":false,"status":"AVAILABLE","source":"ndw","priceKwh":0.33}},{"type":"Feature","geometry":{"type":"Point","coordinates":[4.67896,52.50631]},"properties":{"type":"charge","layer":"passenger","locationId":"129","name":"Shell Recharge NL Jan van Polanenstraat 2","address":"Jan van Polanenstraat 2","city":"Heemskerk","operatorName":"Ubitricity","maxPowerKw":11,"isMegawatt":false,"status":"AVAILABLE","source":"ndw","priceKwh":0.388}},{"type":"Feature","geometry":{"type":"Point","coordinates":[4.659661,52.500451]},"properties":{"type":"charge","layer":"passenger","locationId":"5a9fb985980a4d1fb4a3ce449d974282","name":"Botter acker 1","address":"Botter acker 1","city":"Heemskerk","operatorName":"Vattenfall InCharge","maxPowerKw":11,"isMegawatt":false,"status":"AVAILABLE","source":"ndw"}},{"type":"Feature","geometry":{"type":"Point","coordinates":[4.671718,52.512356]},"properties":{"type":"charge","layer":"passenger","locationId":"631c9a48-4a2f-44a8-9eb4-77817ce689a8","name":"TNLP007465 - Zamenhof 65, Heemskerk","address":"65 Zamenhof","city":"Heemskerk","operatorName":"TotalEnergies","maxPowerKw":15,"isMegawatt":false,"status":"CHARGING","source":"ndw"}},{"type":"Feature","geometry":{"type":"Point","coordinates":[4.681109,52.518386]},"properties":{"type":"charge","layer":"passenger","locationId":"923124","name":"DAE_NL_2000528","address":"Jean Monnetstraat 296","city":"Heemskerk","operatorName":"DAEN Mobility","maxPowerKw":11,"isMegawatt":false,"status":"CHARGING","source":"ndw","priceKwh":0.28}},{"type":"Feature","geometry":{"type":"Point","coordinates":[4.6707,52.50869]},"properties":{"type":"charge","layer":"passenger","locationId":"ba8448e1-2891-4324-b8c3-d9dd7883e489","name":"TNLP009133 - Maerten van Heemskerckstraat 25, Heemskerk","address":"25 Maerten van Heemskerckstraat","city":"Heemskerk","operatorName":"TotalEnergies","maxPowerKw":17,"isMegawatt":false,"status":"AVAILABLE","source":"ndw"}},{"type":"Feature","geometry":{"type":"Point","coordinates":[4.66064,52.51062]},"properties":{"type":"charge","layer":"passenger","locationId":"74","name":"Shell Recharge NL Jan Ligthartstraat 721","address":"Jan Ligthartstraat 721","city":"Heemskerk","operatorName":"Ubitricity","maxPowerKw":11,"isMegawatt":false,"status":"AVAILABLE","source":"ndw","priceKwh":0.388}},{"type":"Feature","geometry":{"type":"Point","coordinates":[4.68394,52.50882]},"properties":{"type":"charge","layer":"passenger","locationId":"595","name":"Shell Recharge NL Jan van Kuikweg 106","address":"Jan van Kuikweg 106","city":"Heemskerk","operatorName":"Ubitricity","maxPowerKw":11,"isMegawatt":false,"status":"AVAILABLE","source":"ndw","priceKwh":0.388}},{"type":"Feature","geometry":{"type":"Point","coordinates":[4.670309,52.512097]},"properties":{"type":"charge","layer":"passenger","locationId":"df7df555-1716-4e67-8964-ab3f5e26e8af","name":"TNLP034052","address":"Raadhuisstraat 15","city":"Heemskerk","operatorName":"TotalEnergies","maxPowerKw":14,"isMegawatt":false,"status":"AVAILABLE","source":"ndw"}},{"type":"Feature","geometry":{"type":"Point","coordinates":[4.677384,52.514904]},"properties":{"type":"charge","layer":"passenger","locationId":"b82494b6-831a-4a1b-a27d-abbb0867cc81","name":"TNLP007944 - Mascagnistraat 17, Heemskerk","address":"17 Mascagnistraat","city":"Heemskerk","operatorName":"TotalEnergies","maxPowerKw":13,"isMegawatt":false,"status":"CHARGING","source":"ndw"}},{"type":"Feature","geometry":{"type":"Point","coordinates":[4.68431,52.49394]},"properties":{"type":"charge","layer":"passenger","locationId":"c368dade-e9de-4b84-9f6b-5c0046b34380","name":"PP002585 - Euratomplein 7, Heemskerk","address":"7 Euratomplein","city":"Heemskerk","operatorName":"TotalEnergies","maxPowerKw":13,"isMegawatt":false,"status":"AVAILABLE","source":"ndw"}},{"type":"Feature","geometry":{"type":"Point","coordinates":[4.6861842,52.4954522]},"properties":{"type":"charge","layer":"passenger","locationId":"1725","name":"Shell Recharge NL Euratomplein 39","address":"Euratomplein 39","city":"Heemskerk","operatorName":"Ubitricity","maxPowerKw":22,"isMegawatt":false,"status":"AVAILABLE","source":"ndw","priceKwh":0.266}},{"type":"Feature","geometry":{"type":"Point","coordinates":[4.69316,52.49517]},"properties":{"type":"charge","layer":"passenger","locationId":"80dfcfc1-08f6-4b5a-80c2-e101504ca505","name":"PP005090 - Singelweide 44, Heemskerk","address":"44 Singelweide","city":"Heemskerk","operatorName":"TotalEnergies","maxPowerKw":13,"isMegawatt":false,"status":"AVAILABLE","source":"ndw"}},{"type":"Feature","geometry":{"type":"Point","coordinates":[4.6735878,52.5113448]},"properties":{"type":"charge","layer":"passenger","locationId":"1156","name":"Shell Recharge NL Sint Agnesplantsoen 1","address":"Sint Agnesplantsoen 1","city":"Heemskerk","operatorName":"Ubitricity","maxPowerKw":22,"isMegawatt":false,"status":"AVAILABLE","source":"ndw","priceKwh":0.266}},{"type":"Feature","geometry":{"type":"Point","coordinates":[4.65539,52.51135]},"properties":{"type":"charge","layer":"passenger","locationId":"b449bed2-552a-4f8f-a8a6-6683914bce9d","name":"PP002024 - Commandeurslaan 81, Heemskerk","address":"81 Commandeurslaan","city":"Heemskerk","operatorName":"TotalEnergies","maxPowerKw":11,"isMegawatt":false,"status":"AVAILABLE","source":"ndw"}},{"type":"Feature","geometry":{"type":"Point","coordinates":[4.675249,52.495617]},"properties":{"type":"charge","layer":"passenger","locationId":"885e839d-a61a-44e7-985c-1ebc120e77ca","name":"TNLP006189 - Elbestraat 1, Heemskerk","address":"1 Elbestraat","city":"Heemskerk","operatorName":"TotalEnergies","maxPowerKw":13,"isMegawatt":false,"status":"AVAILABLE","source":"ndw"}},{"type":"Feature","geometry":{"type":"Point","coordinates":[4.651416,52.500865]},"properties":{"type":"charge","layer":"passenger","locationId":"ECF905E1-4CE1-4027-B22B-A6B1873CAD6A","name":"Eneco eMobility Ambachtsring 20 Heemskerk","address":"Ambachtsring 20","city":"Heemskerk","operatorName":"Eneco","maxPowerKw":11,"isMegawatt":false,"status":"AVAILABLE","source":"ndw","priceKwh":0.32}},{"type":"Feature","geometry":{"type":"Point","coordinates":[4.6749186,52.5134475]},"properties":{"type":"charge","layer":"passenger","locationId":"2045","name":"Shell Recharge NL Schumannstraat 21","address":"Schumannstraat 21","city":"Heemskerk","operatorName":"Ubitricity","maxPowerKw":22,"isMegawatt":false,"status":"AVAILABLE","source":"ndw","priceKwh":0.266}},{"type":"Feature","geometry":{"type":"Point","coordinates":[4.695269,52.499618]},"properties":{"type":"charge","layer":"passenger","locationId":"66cc96e20dd14f001b73f824","name":"Griend","address":"Griend 3","city":"Heemskerk","operatorName":"E-Flux by Road","maxPowerKw":11,"isMegawatt":false,"status":"CHARGING","source":"ndw","priceKwh":0.43}},{"type":"Feature","geometry":{"type":"Point","coordinates":[4.681203,52.511032]},"properties":{"type":"charge","layer":"passenger","locationId":"ffb9a0b5-cc74-41d0-b173-a1712a8b4bf7","name":"TNLP005712 - Ruusbroecstraat 22, Heemskerk","address":"22 Ruusbroecstraat","city":"Heemskerk","operatorName":"TotalEnergies","maxPowerKw":15,"isMegawatt":false,"status":"AVAILABLE","source":"ndw"}},{"type":"Feature","geometry":{"type":"Point","coordinates":[4.671443,52.514336]},"properties":{"type":"charge","layer":"passenger","locationId":"89a97da3-7072-45e5-b3e6-d7fd7439f092","name":"TNLP007192 - Bachplein 1, Heemskerk","address":"1 Bachplein","city":"Heemskerk","operatorName":"TotalEnergies","maxPowerKw":15,"isMegawatt":false,"status":"AVAILABLE","source":"ndw"}},{"type":"Feature","geometry":{"type":"Point","coordinates":[4.68308,52.49947]},"properties":{"type":"charge","layer":"passenger","locationId":"d88a22f6-bcc5-46d3-b1df-be02cd8cde19","name":"TNLP005873 - Twentestraat 1, Heemskerk","address":"1 Twentestraat","city":"Heemskerk","operatorName":"TotalEnergies","maxPowerKw":13,"isMegawatt":false,"status":"AVAILABLE","source":"ndw"}},{"type":"Feature","geometry":{"type":"Point","coordinates":[4.687505,52.512768]},"properties":{"type":"charge","layer":"passenger","locationId":"196bc837-4311-4e8b-805e-d9723a7c86dc","name":"TNLP007044 - Abbenven 60, Heemskerk","address":"60 Abbenven","city":"Heemskerk","operatorName":"TotalEnergies","maxPowerKw":15,"isMegawatt":false,"status":"AVAILABLE","source":"ndw"}},{"type":"Feature","geometry":{"type":"Point","coordinates":[4.676421,52.516353]},"properties":{"type":"charge","layer":"passenger","locationId":"d946d6c656180a052321e9bd3688dd81","name":"Puccinistraat 77","address":"Puccinistraat 77","city":"Heemskerk","operatorName":"Vattenfall InCharge","maxPowerKw":11,"isMegawatt":false,"status":"CHARGING","source":"ndw"}},{"type":"Feature","geometry":{"type":"Point","coordinates":[4.68065,52.50034]},"properties":{"type":"charge","layer":"passenger","locationId":"1564","name":"Shell Recharge NL Luxemburglaan 196","address":"Luxemburglaan 196","city":"Heemskerk","operatorName":"Ubitricity","maxPowerKw":11,"isMegawatt":false,"status":"AVAILABLE","source":"ndw","priceKwh":0.388}},{"type":"Feature","geometry":{"type":"Point","coordinates":[4.6824436,52.5114388]},"properties":{"type":"charge","layer":"passenger","locationId":"2417","name":"Shell Recharge NL Anna Blamanhof 51","address":"Anna Blamanhof 51","city":"Heemskerk","operatorName":"Ubitricity","maxPowerKw":22,"isMegawatt":false,"status":"AVAILABLE","source":"ndw","priceKwh":0.266}},{"type":"Feature","geometry":{"type":"Point","coordinates":[4.678918,52.49674]},"properties":{"type":"charge","layer":"passenger","locationId":"df85de4a-488a-4067-8484-609983905ad8","name":"TNLP007050 - Slowakijestraat 4, Heemskerk","address":"4 Slowakijestraat","city":"Heemskerk","operatorName":"TotalEnergies","maxPowerKw":13,"isMegawatt":false,"status":"AVAILABLE","source":"ndw"}},{"type":"Feature","geometry":{"type":"Point","coordinates":[4.678279,52.496458]},"properties":{"type":"charge","layer":"passenger","locationId":"ae73ab20e1786a2962a5f8bf4d9c02c8","name":"Beneluxlaan 256","address":"Beneluxlaan 256","city":"Heemskerk","operatorName":"Vattenfall InCharge","maxPowerKw":11,"isMegawatt":false,"status":"AVAILABLE","source":"ndw"}},{"type":"Feature","geometry":{"type":"Point","coordinates":[4.667984,52.50691]},"properties":{"type":"charge","layer":"passenger","locationId":"8e3a8245-3a2f-45c1-9de7-e3de45db2c20","name":"TNLP007994 - Pieter Breughelstraat 5D, Heemskerk","address":"5D Pieter Breughelstraat","city":"Heemskerk","operatorName":"TotalEnergies","maxPowerKw":13,"isMegawatt":false,"status":"AVAILABLE","source":"ndw"}},{"type":"Feature","geometry":{"type":"Point","coordinates":[4.682099,52.522415]},"properties":{"type":"charge","layer":"passenger","locationId":"c1bbf1d3-e185-41ec-8171-8c53e75ffd06","name":"TNLP009112 - Mary Zeldenruststraat 19, Heemskerk","address":"19 Mary Zeldenruststraat","city":"Heemskerk","operatorName":"TotalEnergies","maxPowerKw":15,"isMegawatt":false,"status":"AVAILABLE","source":"ndw"}},{"type":"Feature","geometry":{"type":"Point","coordinates":[4.659867,52.509034]},"properties":{"type":"charge","layer":"passenger","locationId":"7e77157dc82e64eb06d050b6824d6ee0","name":"Zandzegge 34","address":"Zandzegge 34","city":"Heemskerk","operatorName":"Vattenfall InCharge","maxPowerKw":11,"isMegawatt":false,"status":"AVAILABLE","source":"ndw"}},{"type":"Feature","geometry":{"type":"Point","coordinates":[4.677328,52.50832]},"properties":{"type":"charge","layer":"passenger","locationId":"f9dd594e-7e65-4067-9a2e-f99e107a2e17","name":"TNLP005865 - Vrijburglaan 2a, Heemskerk","address":"2a Vrijburglaan","city":"Heemskerk","operatorName":"TotalEnergies","maxPowerKw":13,"isMegawatt":false,"status":"AVAILABLE","source":"ndw"}},{"type":"Feature","geometry":{"type":"Point","coordinates":[4.6550529,52.5093495]},"properties":{"type":"charge","layer":"passenger","locationId":"1804","name":"Shell Recharge NL Vogelkers 39","address":"Vogelkers 39","city":"Heemskerk","operatorName":"Ubitricity","maxPowerKw":22,"isMegawatt":false,"status":"AVAILABLE","source":"ndw","priceKwh":0.266}},{"type":"Feature","geometry":{"type":"Point","coordinates":[4.68421,52.5216]},"properties":{"type":"charge","layer":"passenger","locationId":"190","name":"Shell Recharge NL Breedweerlaan 213","address":"Breedweerlaan 213","city":"Heemskerk","operatorName":"Ubitricity","maxPowerKw":11,"isMegawatt":false,"status":"AVAILABLE","source":"ndw","priceKwh":0.388}},{"type":"Feature","geometry":{"type":"Point","coordinates":[4.699864,52.504684]},"properties":{"type":"charge","layer":"passenger","locationId":"69f31ac81920a85f5005c29c","name":"EPG","address":"De Trompet 2108","city":"Heemskerk","operatorName":"E-Flux by Road","maxPowerKw":11,"isMegawatt":false,"status":"AVAILABLE","source":"ndw","priceKwh":0.41}},{"type":"Feature","geometry":{"type":"Point","coordinates":[4.679984,52.514584]},"properties":{"type":"charge","layer":"passenger","locationId":"6ca7df79-acc2-49dc-b708-af685cc6f186","name":"TNLP007197 - Rossinistraat 402, Heemskerk","address":"402 Rossinistraat","city":"Heemskerk","operatorName":"TotalEnergies","maxPowerKw":13,"isMegawatt":false,"status":"AVAILABLE","source":"ndw"}},{"type":"Feature","geometry":{"type":"Point","coordinates":[4.693333,52.496555]},"properties":{"type":"charge","layer":"passenger","locationId":"878be1b6-2b8d-40b2-bab8-372937923350","name":"PP005245 - Razende Bol 1, Heemskerk","address":"1 Razende Bol","city":"Heemskerk","operatorName":"TotalEnergies","maxPowerKw":13,"isMegawatt":false,"status":"UNAVAILABLE","source":"ndw"}},{"type":"Feature","geometry":{"type":"Point","coordinates":[4.67226,52.51493]},"properties":{"type":"charge","layer":"passenger","locationId":"323","name":"Shell Recharge NL Offenbachstraat 1","address":"Offenbachstraat 1","city":"Heemskerk","operatorName":"Ubitricity","maxPowerKw":11,"isMegawatt":false,"status":"AVAILABLE","source":"ndw","priceKwh":0.388}},{"type":"Feature","geometry":{"type":"Point","coordinates":[4.659525,52.514867]},"properties":{"type":"charge","layer":"passenger","locationId":"69f1b5d0e09e8f0b92732704","name":"NXT 50five - Heemskerk - Kerkweg 221 - DC","address":"Kerkweg 221","city":"Heemskerk","operatorName":"NXT50Five","maxPowerKw":50,"isMegawatt":false,"status":"AVAILABLE","source":"ndw","priceKwh":0.6}},{"type":"Feature","geometry":{"type":"Point","coordinates":[4.686901,52.496532]},"properties":{"type":"charge","layer":"passenger","locationId":"1f4abed39fc5dd8acffeb646e3fdffe0","name":"Ardennenlaan 30","address":"Ardennenlaan 30","city":"Heemskerk","operatorName":"Vattenfall InCharge","maxPowerKw":11,"isMegawatt":false,"status":"AVAILABLE","source":"ndw"}},{"type":"Feature","geometry":{"type":"Point","coordinates":[4.667711,52.515853]},"properties":{"type":"charge","layer":"passenger","locationId":"156D4640-AAF7-4F05-8516-AC59437DEE20","name":"Eneco eMobility Hotel Heemskerk","address":"Marquettelaan 34","city":"Heemskerk","operatorName":"Eneco","maxPowerKw":32,"isMegawatt":false,"status":"AVAILABLE","source":"ndw","priceKwh":0.51}},{"type":"Feature","geometry":{"type":"Point","coordinates":[4.68812,52.4978]},"properties":{"type":"charge","layer":"passenger","locationId":"ec9e76a5-4155-4ed9-b29f-386e54a765b7","name":"PP005087 - Ardennenlaan 82, Heemskerk","address":"82 Ardennenlaan","city":"Heemskerk","operatorName":"TotalEnergies","maxPowerKw":13,"isMegawatt":false,"status":"AVAILABLE","source":"ndw"}},{"type":"Feature","geometry":{"type":"Point","coordinates":[4.673685,52.504173]},"properties":{"type":"charge","layer":"passenger","locationId":"f165913c-5f9f-45bf-bb78-5ba3e940b08c","name":"TNLP006013 - Merel 15, Heemskerk","address":"15 Merel","city":"Heemskerk","operatorName":"TotalEnergies","maxPowerKw":13,"isMegawatt":false,"status":"CHARGING","source":"ndw"}},{"type":"Feature","geometry":{"type":"Point","coordinates":[4.674988,52.50984]},"properties":{"type":"charge","layer":"passenger","locationId":"f43e9e83-6688-4b45-9eb3-df4b05682ec5","name":"TNLP009134 - Cornelis Groenlandstraat 18, Heemskerk","address":"18 Cornelis Groenlandstraat","city":"Heemskerk","operatorName":"TotalEnergies","maxPowerKw":13,"isMegawatt":false,"status":"AVAILABLE","source":"ndw"}},{"type":"Feature","geometry":{"type":"Point","coordinates":[4.697556,52.5011]},"properties":{"type":"charge","layer":"passenger","locationId":"f6762803-56c8-42da-b4f3-19e4367d9e7c","name":"TNLP009698 - Terschelling 18, Heemskerk","address":"18 Terschelling","city":"Heemskerk","operatorName":"TotalEnergies","maxPowerKw":13,"isMegawatt":false,"status":"AVAILABLE","source":"ndw"}},{"type":"Feature","geometry":{"type":"Point","coordinates":[4.68444,52.51818]},"properties":{"type":"charge","layer":"passenger","locationId":"625","name":"Shell Recharge NL prof. ten Doesschatestraat 147","address":"prof. ten Doesschatestraat 147","city":"Heemskerk","operatorName":"Ubitricity","maxPowerKw":11,"isMegawatt":false,"status":"AVAILABLE","source":"ndw","priceKwh":0.388}},{"type":"Feature","geometry":{"type":"Point","coordinates":[4.67877,52.51684]},"properties":{"type":"charge","layer":"passenger","locationId":"717","name":"Shell Recharge NL Rossinistraat 482","address":"Rossinistraat 482","city":"Heemskerk","operatorName":"Ubitricity","maxPowerKw":11,"isMegawatt":false,"status":"AVAILABLE","source":"ndw","priceKwh":0.388}},{"type":"Feature","geometry":{"type":"Point","coordinates":[4.655153,52.514276]},"properties":{"type":"charge","layer":"passenger","locationId":"8876e0ac-3d50-4672-a0c9-d80aff6142b1","name":"TNLP034084","address":"Kruipwilg 51","city":"Heemskerk","operatorName":"TotalEnergies","maxPowerKw":14,"isMegawatt":false,"status":"AVAILABLE","source":"ndw"}},{"type":"Feature","geometry":{"type":"Point","coordinates":[4.654803,52.50442]},"properties":{"type":"charge","layer":"passenger","locationId":"dd74295a-abd1-4ee0-8f33-c406b11c078d","name":"PP002583 - De Smidse 3, Heemskerk","address":"3 De Smidse","city":"Heemskerk","operatorName":"TotalEnergies","maxPowerKw":13,"isMegawatt":false,"status":"AVAILABLE","source":"ndw"}},{"type":"Feature","geometry":{"type":"Point","coordinates":[4.6638,52.50896]},"properties":{"type":"charge","layer":"passenger","locationId":"1664","name":"Shell Recharge NL Zeelaan 20","address":"Zeelaan 20","city":"Heemskerk","operatorName":"Ubitricity","maxPowerKw":11,"isMegawatt":false,"status":"AVAILABLE","source":"ndw","priceKwh":0.388}},{"type":"Feature","geometry":{"type":"Point","coordinates":[4.65821,52.51465]},"properties":{"type":"charge","layer":"passenger","locationId":"63231a85b981e3c3a3b69bf3","name":"Paal 2","address":"Kerkweg 221","city":"Heemskerk","operatorName":"E-Flux by Road","maxPowerKw":22,"isMegawatt":false,"status":"AVAILABLE","source":"ndw","priceKwh":0.43}},{"type":"Feature","geometry":{"type":"Point","coordinates":[4.672668,52.515794]},"properties":{"type":"charge","layer":"passenger","locationId":"379cdef9a7ae475b8e7358a104c20f06","name":"Chopinstraat 29","address":"Chopinstraat 29","city":"Heemskerk","operatorName":"Vattenfall InCharge","maxPowerKw":11,"isMegawatt":false,"status":"AVAILABLE","source":"ndw"}},{"type":"Feature","geometry":{"type":"Point","coordinates":[4.670101,52.5127]},"properties":{"type":"charge","layer":"passenger","locationId":"4518355f-be8e-4891-b4c7-1b9b2e0e3485","name":"TNLP005965 - Raadhuisstraat 106, Heemskerk","address":"106 Raadhuisstraat","city":"Heemskerk","operatorName":"TotalEnergies","maxPowerKw":13,"isMegawatt":false,"status":"AVAILABLE","source":"ndw"}},{"type":"Feature","geometry":{"type":"Point","coordinates":[4.657883,52.511414]},"properties":{"type":"charge","layer":"passenger","locationId":"f186da9b-a8eb-463d-968a-108bdbf21d49","name":"TNLP009861 - Commandeurslaan 12, Heemskerk","address":"12 Commandeurslaan","city":"Heemskerk","operatorName":"TotalEnergies","maxPowerKw":13,"isMegawatt":false,"status":"AVAILABLE","source":"ndw"}},{"type":"Feature","geometry":{"type":"Point","coordinates":[4.683842,52.51388]},"properties":{"type":"charge","layer":"passenger","locationId":"ed2fe90c-95bd-4c1a-9f20-fc3678436d98","name":"TNLP008089 - De Velst 2, Heemskerk","address":"2 De Velst","city":"Heemskerk","operatorName":"TotalEnergies","maxPowerKw":15,"isMegawatt":false,"status":"AVAILABLE","source":"ndw"}},{"type":"Feature","geometry":{"type":"Point","coordinates":[4.661428,52.502834]},"properties":{"type":"charge","layer":"passenger","locationId":"87354c64a47daa94463bd64d28f686bb","name":"Hillen acker 36","address":"Hillen acker 36","city":"Heemskerk","operatorName":"Vattenfall InCharge","maxPowerKw":11,"isMegawatt":false,"status":"CHARGING","source":"ndw"}},{"type":"Feature","geometry":{"type":"Point","coordinates":[4.693072,52.49407]},"properties":{"type":"charge","layer":"passenger","locationId":"743a7586-a673-43c4-b296-49e8b8754d48","name":"TNLP007160 - Weverskwartier 2, Heemskerk","address":"2 Weverskwartier","city":"Heemskerk","operatorName":"TotalEnergies","maxPowerKw":13,"isMegawatt":false,"status":"AVAILABLE","source":"ndw"}},{"type":"Feature","geometry":{"type":"Point","coordinates":[4.679005,52.505933]},"properties":{"type":"charge","layer":"passenger","locationId":"789f42ec-e2a6-4221-a670-37b4c33b106f","name":"TNLP034686","address":"Jan van Polanenstraat 72","city":"Heemskerk","operatorName":"TotalEnergies","maxPowerKw":14,"isMegawatt":false,"status":"AVAILABLE","source":"ndw"}},{"type":"Feature","geometry":{"type":"Point","coordinates":[4.690993,52.4944604]},"properties":{"type":"charge","layer":"passenger","locationId":"2551","name":"Shell Recharge NL Singelweide 87","address":"Singelweide 87","city":"Heemskerk","operatorName":"Ubitricity","maxPowerKw":22,"isMegawatt":false,"status":"AVAILABLE","source":"ndw","priceKwh":0.266}},{"type":"Feature","geometry":{"type":"Point","coordinates":[4.67203,52.49834]},"properties":{"type":"charge","layer":"passenger","locationId":"597","name":"Shell Recharge NL Eenigenburg 23","address":"Eenigenburg 23","city":"Heemskerk","operatorName":"Ubitricity","maxPowerKw":11,"isMegawatt":false,"status":"AVAILABLE","source":"ndw","priceKwh":0.388}},{"type":"Feature","geometry":{"type":"Point","coordinates":[4.691783,52.491467]},"properties":{"type":"charge","layer":"passenger","locationId":"2c47acdc-e2d4-4034-ae05-75b7f28b5823","name":"TNLP007590 - Laan van Broekpolder 316, Heemskerk","address":"316 Laan van Broekpolder","city":"Heemskerk","operatorName":"TotalEnergies","maxPowerKw":13,"isMegawatt":false,"status":"CHARGING","source":"ndw"}},{"type":"Feature","geometry":{"type":"Point","coordinates":[4.6875787,52.5176691]},"properties":{"type":"charge","layer":"passenger","locationId":"866","name":"Shell Recharge NL Aletta Jacobsstraat 35","address":"Aletta Jacobsstraat 35","city":"Heemskerk","operatorName":"Ubitricity","maxPowerKw":22,"isMegawatt":false,"status":"AVAILABLE","source":"ndw","priceKwh":0.266}},{"type":"Feature","geometry":{"type":"Point","coordinates":[4.673637,52.49915]},"properties":{"type":"charge","layer":"passenger","locationId":"9c96698e-20c1-42db-bb05-d93e05461eec","name":"TNLP007161 - Duitslandlaan 68, Heemskerk","address":"68 Duitslandlaan","city":"Heemskerk","operatorName":"TotalEnergies","maxPowerKw":13,"isMegawatt":false,"status":"AVAILABLE","source":"ndw"}},{"type":"Feature","geometry":{"type":"Point","coordinates":[4.6540744,52.4984699]},"properties":{"type":"charge","layer":"passenger","locationId":"2044","name":"Shell Recharge NL Krayenhofflaan 35","address":"Krayenhofflaan 35","city":"Heemskerk","operatorName":"Ubitricity","maxPowerKw":22,"isMegawatt":false,"status":"AVAILABLE","source":"ndw","priceKwh":0.266}},{"type":"Feature","geometry":{"type":"Point","coordinates":[4.6695,52.507034]},"properties":{"type":"charge","layer":"passenger","locationId":"3113b47d-6859-4bf0-afc9-341b39989e3b","name":"TNLP007393 - Maerten van Heemskerckstraat 56, Heemskerk","address":"56 Maerten van Heemskerckstraat","city":"Heemskerk","operatorName":"TotalEnergies","maxPowerKw":15,"isMegawatt":false,"status":"AVAILABLE","source":"ndw"}},{"type":"Feature","geometry":{"type":"Point","coordinates":[4.667178,52.510334]},"properties":{"type":"charge","layer":"passenger","locationId":"77276a6c-5fc7-4fee-8c46-3a7d1e377fda","name":"TNLP007038 - Carel van Manderstraat 100, Heemskerk","address":"100 Carel van Manderstraat","city":"Heemskerk","operatorName":"TotalEnergies","maxPowerKw":13,"isMegawatt":false,"status":"CHARGING","source":"ndw"}},{"type":"Feature","geometry":{"type":"Point","coordinates":[4.674147,52.516903]},"properties":{"type":"charge","layer":"passenger","locationId":"7f29be10-d7b9-4475-a83a-e4a30ea5699a","name":"PP005108 - Bizetstraat 34, Heemskerk","address":"34 Bizetstraat","city":"Heemskerk","operatorName":"TotalEnergies","maxPowerKw":13,"isMegawatt":false,"status":"AVAILABLE","source":"ndw"}},{"type":"Feature","geometry":{"type":"Point","coordinates":[4.693007,52.492836]},"properties":{"type":"charge","layer":"passenger","locationId":"f6735b74-b0af-494f-9c7c-c547222dc034","name":"TNLP008622 - Weergang 3, Heemskerk","address":"3 Weergang","city":"Heemskerk","operatorName":"TotalEnergies","maxPowerKw":13,"isMegawatt":false,"status":"UNAVAILABLE","source":"ndw"}},{"type":"Feature","geometry":{"type":"Point","coordinates":[4.691014,52.49688]},"properties":{"type":"charge","layer":"passenger","locationId":"92830ca5-5104-44ec-84ce-9a0803c0a7b9","name":"TNLP006011 - Grote Weide 19, Heemskerk","address":"19 Grote Weide","city":"Heemskerk","operatorName":"TotalEnergies","maxPowerKw":13,"isMegawatt":false,"status":"AVAILABLE","source":"ndw"}},{"type":"Feature","geometry":{"type":"Point","coordinates":[4.661939,52.50635]},"properties":{"type":"charge","layer":"passenger","locationId":"c6916955-7895-42b0-83c7-9227f6a81a89","name":"TNLP008454 - Suykers acker 81, Heemskerk","address":"81 Suykers acker","city":"Heemskerk","operatorName":"TotalEnergies","maxPowerKw":13,"isMegawatt":false,"status":"AVAILABLE","source":"ndw"}},{"type":"Feature","geometry":{"type":"Point","coordinates":[4.678061,52.513572]},"properties":{"type":"charge","layer":"passenger","locationId":"d0f3b08a-9c2b-4ac2-b561-96b78c997750","name":"TNLP034271","address":"Rossinigalerij 36","city":"Heemskerk","operatorName":"TotalEnergies","maxPowerKw":14,"isMegawatt":false,"status":"AVAILABLE","source":"ndw"}},{"type":"Feature","geometry":{"type":"Point","coordinates":[4.68752,52.493124]},"properties":{"type":"charge","layer":"passenger","locationId":"744a309142d680aba0f2bc7d877af161","name":"Laan van Archeologie 191","address":"Laan van Archeologie 191","city":"Heemskerk","operatorName":"Vattenfall InCharge","maxPowerKw":11,"isMegawatt":false,"status":"AVAILABLE","source":"ndw"}},{"type":"Feature","geometry":{"type":"Point","coordinates":[4.681856,52.505985]},"properties":{"type":"charge","layer":"passenger","locationId":"f9c90b59-ff17-4b5f-9657-63a359ea727e","name":"TNLP007929 - Reeuwijkpark 2, Heemskerk","address":"2 Reeuwijkpark","city":"Heemskerk","operatorName":"TotalEnergies","maxPowerKw":13,"isMegawatt":false,"status":"AVAILABLE","source":"ndw"}},{"type":"Feature","geometry":{"type":"Point","coordinates":[4.672918,52.5097976]},"properties":{"type":"charge","layer":"passenger","locationId":"1904","name":"Shell Recharge NL Gerrit van Assendelftstraat 22A","address":"Gerrit van Assendelftstraat 22A","city":"Heemskerk","operatorName":"Ubitricity","maxPowerKw":22,"isMegawatt":false,"status":"AVAILABLE","source":"ndw","priceKwh":0.266}},{"type":"Feature","geometry":{"type":"Point","coordinates":[4.656748,52.511822]},"properties":{"type":"charge","layer":"passenger","locationId":"7a763b20-7ecf-4db9-a375-5f198c2c3bd2","name":"TNLP034206","address":"Commandeurslaan 49","city":"Heemskerk","operatorName":"TotalEnergies","maxPowerKw":14,"isMegawatt":false,"status":"AVAILABLE","source":"ndw"}},{"type":"Feature","geometry":{"type":"Point","coordinates":[4.682073,52.519535]},"properties":{"type":"charge","layer":"passenger","locationId":"738c0303-683e-4d85-bef1-f74e5d7f383e","name":"TNLP008526 - Prof ten Doesschatestraat 311, Heemskerk","address":"311 Prof ten Doesschatestraat","city":"Heemskerk","operatorName":"TotalEnergies","maxPowerKw":14,"isMegawatt":false,"status":"AVAILABLE","source":"ndw"}},{"type":"Feature","geometry":{"type":"Point","coordinates":[4.66097,52.513857]},"properties":{"type":"charge","layer":"passenger","locationId":"c92ec468f3c569bba97a512605bf4ee5","name":"Kerkweg 191A","address":"Kerkweg 191A","city":"Heemskerk","operatorName":"Vattenfall InCharge","maxPowerKw":11,"isMegawatt":false,"status":"AVAILABLE","source":"ndw"}},{"type":"Feature","geometry":{"type":"Point","coordinates":[4.658981,52.507572]},"properties":{"type":"charge","layer":"passenger","locationId":"557b7c85-3bc7-4a57-97b2-1235a529ed21","name":"TNLP009937 - Duinrooshof 7, Heemskerk","address":"7 Duinrooshof","city":"Heemskerk","operatorName":"TotalEnergies","maxPowerKw":13,"isMegawatt":false,"status":"AVAILABLE","source":"ndw"}},{"type":"Feature","geometry":{"type":"Point","coordinates":[4.65554,52.49936]},"properties":{"type":"charge","layer":"passenger","locationId":"58","name":"Shell Recharge NL Krayenhofflaan 11","address":"Krayenhofflaan 11","city":"Heemskerk","operatorName":"Ubitricity","maxPowerKw":11,"isMegawatt":false,"status":"UNAVAILABLE","source":"ndw","priceKwh":0.388}},{"type":"Feature","geometry":{"type":"Point","coordinates":[4.679108,52.519436]},"properties":{"type":"charge","layer":"passenger","locationId":"65349eb5-436b-4c69-9f11-40d2b9de803f","name":"TNLP015113 - Mozartstraat 108, Heemskerk","address":"108 Mozartstraat","city":"Heemskerk","operatorName":"TotalEnergies","maxPowerKw":13,"isMegawatt":false,"status":"AVAILABLE","source":"ndw"}},{"type":"Feature","geometry":{"type":"Point","coordinates":[4.659212,52.499461]},"properties":{"type":"charge","layer":"passenger","locationId":"c97ce37194adda865519582baee3521d","name":"Maerten van Heemskerckstraat 150","address":"Maerten van Heemskerckstraat 150","city":"Heemskerk","operatorName":"Vattenfall InCharge","maxPowerKw":11,"isMegawatt":false,"status":"AVAILABLE","source":"ndw"}},{"type":"Feature","geometry":{"type":"Point","coordinates":[4.65608,52.50403]},"properties":{"type":"charge","layer":"passenger","locationId":"FD6E570F-0724-4099-BA77-4A398A8B4ED0","name":"Eneco eMobility Broekhuis Seat Skoda Volkswagen Heemskerk","address":"Rijksstraatweg 36","city":"Heemskerk","operatorName":"Eneco","maxPowerKw":22,"isMegawatt":false,"status":"AVAILABLE","source":"ndw","priceKwh":0.45}},{"type":"Feature","geometry":{"type":"Point","coordinates":[4.661876,52.509488]},"properties":{"type":"charge","layer":"passenger","locationId":"bda6a69f64e43ffa5086a411bbca4369","name":"Jan Ligthartstraat 551","address":"Jan Ligthartstraat 551","city":"Heemskerk","operatorName":"Vattenfall InCharge","maxPowerKw":11,"isMegawatt":false,"status":"AVAILABLE","source":"ndw"}},{"type":"Feature","geometry":{"type":"Point","coordinates":[4.67849,52.49867]},"properties":{"type":"charge","layer":"passenger","locationId":"49","name":"Shell Recharge NL Luxemburglaan 509","address":"Luxemburglaan 509","city":"Heemskerk","operatorName":"Ubitricity","maxPowerKw":11,"isMegawatt":false,"status":"AVAILABLE","source":"ndw","priceKwh":0.388}},{"type":"Feature","geometry":{"type":"Point","coordinates":[4.689871,52.49513]},"properties":{"type":"charge","layer":"passenger","locationId":"0f4db2d3-b8ca-4f00-9e6f-92c04ad3d22f","name":"TNLP006003 - Avenweide 62, Heemskerk","address":"62 Avenweide","city":"Heemskerk","operatorName":"TotalEnergies","maxPowerKw":13,"isMegawatt":false,"status":"AVAILABLE","source":"ndw"}},{"type":"Feature","geometry":{"type":"Point","coordinates":[4.657378,52.515717]},"properties":{"type":"charge","layer":"passenger","locationId":"f1f0615a-2ab2-46c1-914b-d59a6db95a8e","name":"PP005140 - Kruipwilg 8, Heemskerk","address":"8 Kruipwilg","city":"Heemskerk","operatorName":"TotalEnergies","maxPowerKw":15,"isMegawatt":false,"status":"AVAILABLE","source":"ndw"}},{"type":"Feature","geometry":{"type":"Point","coordinates":[4.68999,52.51098]},"properties":{"type":"charge","layer":"passenger","locationId":"b3c96a6a-ffc8-4758-84f2-d122261a492d","name":"PP002581 - Deukelven 71, Heemskerk","address":"71 Deukelven","city":"Heemskerk","operatorName":"TotalEnergies","maxPowerKw":13,"isMegawatt":false,"status":"AVAILABLE","source":"ndw"}},{"type":"Feature","geometry":{"type":"Point","coordinates":[4.67699,52.4949]},"properties":{"type":"charge","layer":"passenger","locationId":"343","name":"Shell Recharge NL Europaplein 2","address":"Europaplein 2","city":"Heemskerk","operatorName":"Ubitricity","maxPowerKw":11,"isMegawatt":false,"status":"AVAILABLE","source":"ndw","priceKwh":0.388}},{"type":"Feature","geometry":{"type":"Point","coordinates":[4.6795762,52.499288]},"properties":{"type":"charge","layer":"passenger","locationId":"1776","name":"Shell Recharge NL Luxemburglaan 645","address":"Luxemburglaan 645","city":"Heemskerk","operatorName":"Ubitricity","maxPowerKw":22,"isMegawatt":false,"status":"AVAILABLE","source":"ndw","priceKwh":0.266}},{"type":"Feature","geometry":{"type":"Point","coordinates":[4.6867505,52.5200976]},"properties":{"type":"charge","layer":"passenger","locationId":"1894","name":"Shell Recharge NL Breedweerlaan 119","address":"Breedweerlaan 119","city":"Heemskerk","operatorName":"Ubitricity","maxPowerKw":22,"isMegawatt":false,"status":"AVAILABLE","source":"ndw","priceKwh":0.266}},{"type":"Feature","geometry":{"type":"Point","coordinates":[4.6667866,52.5112418]},"properties":{"type":"charge","layer":"passenger","locationId":"1959","name":"Shell Recharge NL Kerkweg 125","address":"Kerkweg 125","city":"Heemskerk","operatorName":"Ubitricity","maxPowerKw":22,"isMegawatt":false,"status":"AVAILABLE","source":"ndw","priceKwh":0.266}},{"type":"Feature","geometry":{"type":"Point","coordinates":[4.656983,52.507786]},"properties":{"type":"charge","layer":"passenger","locationId":"93f4d11d-65bd-4af6-bf9b-ca8de0c5ca03","name":"TNLP007469 - Egelantier 17, Heemskerk","address":"17 Egelantier","city":"Heemskerk","operatorName":"TotalEnergies","maxPowerKw":15,"isMegawatt":false,"status":"CHARGING","source":"ndw"}},{"type":"Feature","geometry":{"type":"Point","coordinates":[4.667004,52.510583]},"properties":{"type":"charge","layer":"passenger","locationId":"dd95cdf1-4760-4d0f-9f8c-7b690f9b5754","name":"TNLP034000","address":"Carel van Manderstraat 100","city":"Heemskerk","operatorName":"TotalEnergies","maxPowerKw":14,"isMegawatt":false,"status":"AVAILABLE","source":"ndw"}},{"type":"Feature","geometry":{"type":"Point","coordinates":[4.689318,52.495496]},"properties":{"type":"charge","layer":"passenger","locationId":"b24ff1e2-a07f-4f9d-8587-96035d1b3f0d","name":"TNLP034647","address":"Avenweide 72","city":"Heemskerk","operatorName":"TotalEnergies","maxPowerKw":14,"isMegawatt":false,"status":"AVAILABLE","source":"ndw"}},{"type":"Feature","geometry":{"type":"Point","coordinates":[4.619472,52.50125]},"properties":{"type":"charge","layer":"passenger","locationId":"NLLOC007180","name":"NL, Waterweg 1, 3241 EJ, Middelharnis","address":"Waterweg 1","city":"Middelharnis","operatorName":"Allego","maxPowerKw":11,"isMegawatt":false,"status":"CHARGING","source":"ndw","priceKwh":0.511}},{"type":"Feature","geometry":{"type":"Point","coordinates":[4.680385,52.50193]},"properties":{"type":"charge","layer":"passenger","locationId":"1248EF9A-94CB-42EB-9832-66B89D442DFD","name":"Eneco eMobility Stichting De Hartekamp Groep - Heemskerk","address":"De Cirkel 1","city":"Heemskerk","operatorName":"Eneco","maxPowerKw":22,"isMegawatt":false,"status":"AVAILABLE","source":"ndw","priceKwh":0.2}},{"type":"Feature","geometry":{"type":"Point","coordinates":[4.70066,52.50382]},"properties":{"type":"charge","layer":"passenger","locationId":"86076355-e6ca-411e-950e-4f8f57b6d2d9","name":"PP005080 - De Trompet 2650, Heemskerk","address":"2650 De Trompet","city":"Heemskerk","operatorName":"TotalEnergies","maxPowerKw":15,"isMegawatt":false,"status":"AVAILABLE","source":"ndw"}},{"type":"Feature","geometry":{"type":"Point","coordinates":[4.68769,52.51575]},"properties":{"type":"charge","layer":"passenger","locationId":"331","name":"Shell Recharge NL Maerelaan 260","address":"Maerelaan 260","city":"Heemskerk","operatorName":"Ubitricity","maxPowerKw":11,"isMegawatt":false,"status":"AVAILABLE","source":"ndw","priceKwh":0.388}},{"type":"Feature","geometry":{"type":"Point","coordinates":[4.698505,52.506523]},"properties":{"type":"charge","layer":"passenger","locationId":"74d1f02a-224f-4ceb-b0b6-a4cebe5eb780","name":"TNLP015396","address":"De Trompet 1300","city":"Heemskerk","operatorName":"TotalEnergies","maxPowerKw":17,"isMegawatt":false,"status":"AVAILABLE","source":"ndw"}},{"type":"Feature","geometry":{"type":"Point","coordinates":[4.685532,52.51912]},"properties":{"type":"charge","layer":"passenger","locationId":"f86dacd1-4996-417b-a2a1-5704d05a53e4","name":"PP005272 - Aletta Jacobsstraat 89, Heemskerk","address":"89 Aletta Jacobsstraat","city":"Heemskerk","operatorName":"TotalEnergies","maxPowerKw":13,"isMegawatt":false,"status":"AVAILABLE","source":"ndw"}},{"type":"Feature","geometry":{"type":"Point","coordinates":[4.65825,52.514659]},"properties":{"type":"charge","layer":"passenger","locationId":"607ee4f2b80a35bb11b868bb","name":"Paal 1","address":"Kerkweg 221","city":"Heemskerk","operatorName":"E-Flux by Road","maxPowerKw":22,"isMegawatt":false,"status":"AVAILABLE","source":"ndw","priceKwh":0.43}},{"type":"Feature","geometry":{"type":"Point","coordinates":[4.685264,52.5052]},"properties":{"type":"charge","layer":"passenger","locationId":"5107de76-6092-4e76-8651-dd74a27a5c36","name":"PP005393 - Tolweg 9, Heemskerk","address":"9 Tolweg","city":"Heemskerk","operatorName":"TotalEnergies","maxPowerKw":13,"isMegawatt":false,"status":"AVAILABLE","source":"ndw"}},{"type":"Feature","geometry":{"type":"Point","coordinates":[4.676526,52.510254]},"properties":{"type":"charge","layer":"passenger","locationId":"6943733c-0ca9-4019-a1fb-5ff67e971935","name":"TNLP007391 - van Lennepstraat 102, Heemskerk","address":"102 van Lennepstraat","city":"Heemskerk","operatorName":"TotalEnergies","maxPowerKw":13,"isMegawatt":false,"status":"AVAILABLE","source":"ndw"}},{"type":"Feature","geometry":{"type":"Point","coordinates":[4.685226,52.493534]},"properties":{"type":"charge","layer":"passenger","locationId":"03187e35-c41e-47cb-a9e3-31556ae2cc64","name":"TNLP007594 - Vuursteen 54, Heemskerk","address":"54 Vuursteen","city":"Heemskerk","operatorName":"TotalEnergies","maxPowerKw":15,"isMegawatt":false,"status":"AVAILABLE","source":"ndw"}},{"type":"Feature","geometry":{"type":"Point","coordinates":[4.658157,52.508604]},"properties":{"type":"charge","layer":"passenger","locationId":"2209b964-d4a1-49d7-901e-acba2df00850","name":"Ratelaar","address":"Ratelaar 75","city":"Heemskerk","operatorName":"Vattenfall InCharge","maxPowerKw":11,"isMegawatt":false,"status":"AVAILABLE","source":"ndw"}},{"type":"Feature","geometry":{"type":"Point","coordinates":[4.68733,52.51186]},"properties":{"type":"charge","layer":"passenger","locationId":"392c17c18ef02bfbd834aea87c00f7fc","name":"Abbenven 25","address":"Abbenven 25","city":"Heemskerk","operatorName":"Vattenfall InCharge","maxPowerKw":11,"isMegawatt":false,"status":"CHARGING","source":"ndw"}},{"type":"Feature","geometry":{"type":"Point","coordinates":[4.666111,52.506632]},"properties":{"type":"charge","layer":"passenger","locationId":"3d9c30b6dcd2487af44c71adb24eabea","name":"Hobbemastraat 13","address":"Hobbemastraat 13","city":"Heemskerk","operatorName":"Vattenfall InCharge","maxPowerKw":11,"isMegawatt":false,"status":"AVAILABLE","source":"ndw"}},{"type":"Feature","geometry":{"type":"Point","coordinates":[4.681579,52.495899]},"properties":{"type":"charge","layer":"passenger","locationId":"2eae40fb-2c28-4e47-a3f3-1ef1da16c86a","name":"Lessestraat","address":"Lessestraat 128","city":"Heemskerk","operatorName":"Vattenfall InCharge","maxPowerKw":11,"isMegawatt":false,"status":"AVAILABLE","source":"ndw"}},{"type":"Feature","geometry":{"type":"Point","coordinates":[4.67485,52.500237]},"properties":{"type":"charge","layer":"passenger","locationId":"898b2a18379d0cd2673cef52c8ff55d1","name":"Sandenburg 94","address":"Sandenburg 94","city":"Heemskerk","operatorName":"Vattenfall InCharge","maxPowerKw":11,"isMegawatt":false,"status":"AVAILABLE","source":"ndw"}},{"type":"Feature","geometry":{"type":"MultiPolygon","coordinates":[[[[4.659968334646283,52.53175156288496],[4.669570657711139,52.530542455934224],[4.6957353801591895,52.526728321729486],[4.692829601988745,52.522281950484356],[4.690585093317987,52.51908273876096],[4.691394531352855,52.51688759403772],[4.69067376758487,52.51561857263044],[4.692599171052514,52.511002682797624],[4.695114113359934,52.50999860351697],[4.694611199912751,52.50762419616478],[4.697084699072143,52.507548100404165],[4.701235137468799,52.50886298076558],[4.703854363861091,52.50832909982565],[4.706526129794016,52.51039739832048],[4.709151135128404,52.5098566507343],[4.707936984694092,52.50614137990729],[4.705857612698191,52.50625132345872],[4.703442168666996,52.50310461633562],[4.705423226501022,52.50010772143018],[4.711703352887157,52.496817083002135],[4.720366589426021,52.49495413793688],[4.714644929958434,52.49319524436125],[4.708444560427533,52.48862585455195],[4.707968416577645,52.4863326080833],[4.703093485768627,52.487559551234895],[4.703720891458864,52.48853281123367],[4.699665524245394,52.489799387713674],[4.697601575369733,52.48751238399282],[4.695508383610184,52.48738560699353],[4.694550247291426,52.48829989978143],[4.694600903708954,52.48958680700533],[4.69492969891398,52.49068037893773],[4.694741085018794,52.49133928102794],[4.690991273618182,52.49131732193451],[4.690382467770161,52.49083051545306],[4.68708611020032,52.49239180932171],[4.685971972650712,52.49173724080129],[4.683838673840042,52.492720482896566],[4.683720747498192,52.49274638045425],[4.682034594406481,52.492822949690535],[4.680509740053919,52.49353921986449],[4.679923198819459,52.4931689273951],[4.678609138030714,52.49371942200432],[4.677992909914741,52.493364724962994],[4.676988380755352,52.494430077051774],[4.674407167032898,52.49515518958724],[4.675069030390876,52.49558770761692],[4.6735008347253135,52.496533474628876],[4.672854628971763,52.49696647606138],[4.6698864591502645,52.49839908467197],[4.668328558448835,52.49991676179055],[4.666301298315177,52.50074423364274],[4.666913570299449,52.50105333748962],[4.666053515207957,52.5017441313725],[4.65747557687084,52.498675411138485],[4.657397631391029,52.49866402855385],[4.65537873186347,52.49792531006059],[4.652560630009113,52.498187528939276],[4.6512424308106715,52.49884539473026],[4.65002058558664,52.49842381493259],[4.649451495207622,52.499048667674806],[4.649430080587952,52.49912159432593],[4.646311696815906,52.49908345091479],[4.645105128641938,52.499569168279784],[4.635019622273163,52.4990614413448],[4.634999034934456,52.49952913758984],[4.63389299437479,52.498902587571465],[4.631365558893689,52.4986921564526],[4.630955356820357,52.498658003711235],[4.621400440012889,52.49786211921499],[4.613036767631955,52.496331052314844],[4.6115093373799185,52.49664184180558],[4.607470171718825,52.49457451807093],[4.606295171357328,52.49480882006776],[4.606296877926412,52.494785838034275],[4.604313175691751,52.49438882270292],[4.598635130063457,52.495944512946195],[4.599929989793624,52.497260935418254],[4.597983339941927,52.4968453184897],[4.595545150107487,52.49819874851636],[4.591694485111929,52.49827896029941],[4.591665335857331,52.49784023581694],[4.586562586159282,52.49916128049285],[4.593023521037748,52.51348774219468],[4.598301651897403,52.53114074291653],[4.652793170379659,52.53072634169169],[4.653027708272815,52.530724705986444],[4.656198859578183,52.53152937410867],[4.659968334646283,52.53175156288496]]]]},"properties":{"type":"boundary","gemeente":"Heemskerk","code":"GM0396"}}]}