{"type":"FeatureCollection","metadata":{"gemeente":"Heerenveen","slug":"heerenveen","code":"GM0074","generated_at":"2026-07-06T16:26:11.361Z","total_passenger":101,"total_freight":2,"bounds":[5.795525254664181,52.911740766723405,6.205423687844217,53.085135608560584],"operators":["Allego","Alva Charging Services","Blink Charging","ChargePoint","DAEN Mobility","E-Flux by Road","EQUANS","Eneco","Fastned","Greenchoice B.V.","Laadnet","Lanova Laadpalen","Lidl","NXT Charging Solutions","Pluq","Spirii","TotalEnergies","Vattenfall InCharge"]},"features":[{"type":"Feature","geometry":{"type":"Point","coordinates":[5.957602,52.929656]},"properties":{"type":"charge","layer":"passenger","locationId":"923457","name":"DAE_NL_2000828","address":"De Kuinder 6","city":"Heerenveen","operatorName":"DAEN Mobility","maxPowerKw":11,"isMegawatt":false,"status":"UNAVAILABLE","source":"ndw","priceKwh":0.36}},{"type":"Feature","geometry":{"type":"Point","coordinates":[6.023413,52.950808]},"properties":{"type":"charge","layer":"passenger","locationId":"6168421904ae652f92ce92db","name":"Minnesma","address":"W.a.nijenhuisweg  37","city":"Katlijk","operatorName":"E-Flux by Road","maxPowerKw":11,"isMegawatt":false,"status":"AVAILABLE","source":"ndw","priceKwh":0.59}},{"type":"Feature","geometry":{"type":"Point","coordinates":[6.122892,53.005537]},"properties":{"type":"charge","layer":"passenger","locationId":"1046558","name":"PBLR-0044898","address":"Sluiswegje 8","city":"Jubbega","operatorName":"DAEN Mobility","maxPowerKw":11,"isMegawatt":false,"status":"AVAILABLE","source":"ndw","priceKwh":0.28}},{"type":"Feature","geometry":{"type":"Point","coordinates":[5.932057,52.96001]},"properties":{"type":"charge","layer":"passenger","locationId":"e301aa55-79a6-4712-94d8-46b4714337e9","name":"TNLP012193 - Veldschans 103, Heerenveen","address":"103 Veldschans","city":"Heerenveen","operatorName":"TotalEnergies","maxPowerKw":17,"isMegawatt":false,"status":"AVAILABLE","source":"ndw"}},{"type":"Feature","geometry":{"type":"Point","coordinates":[5.936154,52.963516]},"properties":{"type":"charge","layer":"passenger","locationId":"85b5da7d-26d9-46ac-b452-81f06359bdbe","name":"TNLP013274 - het Meer 32, Heerenveen","address":"32 het Meer","city":"Heerenveen","operatorName":"TotalEnergies","maxPowerKw":17,"isMegawatt":false,"status":"AVAILABLE","source":"ndw"}},{"type":"Feature","geometry":{"type":"Point","coordinates":[5.926692,52.948425]},"properties":{"type":"charge","layer":"passenger","locationId":"05fe99ee-c1d5-430d-8c34-c7deb28487bc","name":"TNLP013402 - Dominee Kingweg 8, Heerenveen","address":"8 Dominee Kingweg","city":"Heerenveen","operatorName":"TotalEnergies","maxPowerKw":17,"isMegawatt":false,"status":"AVAILABLE","source":"ndw"}},{"type":"Feature","geometry":{"type":"Point","coordinates":[5.927833,52.952805]},"properties":{"type":"charge","layer":"passenger","locationId":"NLLOC015053","name":"NL, Taconishof 41, 8442DR, Heerenveen","address":"Taconishof 41","city":"Heerenveen","operatorName":"Allego","maxPowerKw":11,"isMegawatt":false,"status":"AVAILABLE","source":"ndw","priceKwh":0.511}},{"type":"Feature","geometry":{"type":"Point","coordinates":[5.964311,52.95869]},"properties":{"type":"charge","layer":"passenger","locationId":"590967b8-5c48-4bb1-b921-073c1a41f0cf","name":"TNLP012141 - Oranje Nassaulaan 12, Heerenveen","address":"12 Oranje Nassaulaan","city":"Heerenveen","operatorName":"TotalEnergies","maxPowerKw":17,"isMegawatt":false,"status":"AVAILABLE","source":"ndw"}},{"type":"Feature","geometry":{"type":"Point","coordinates":[5.908351,52.970933]},"properties":{"type":"charge","layer":"passenger","locationId":"62fe3c570dc43d70b645d32f","name":"EFE Drive in Opslag","address":"Uhlweg  1","city":"Heerenveen","operatorName":"E-Flux by Road","maxPowerKw":120,"isMegawatt":false,"status":"AVAILABLE","source":"ndw","priceKwh":0.57}},{"type":"Feature","geometry":{"type":"Point","coordinates":[5.931638,52.965188]},"properties":{"type":"charge","layer":"passenger","locationId":"7ef0b8ce-73ae-4f39-92df-5f341dad6e65","name":"Stadionweg 11","address":"Stadionweg 11","city":"Heerenveen","operatorName":"Vattenfall InCharge","maxPowerKw":50,"isMegawatt":false,"status":"AVAILABLE","source":"ndw"}},{"type":"Feature","geometry":{"type":"Point","coordinates":[5.930401,52.965121]},"properties":{"type":"charge","layer":"passenger","locationId":"NLLOC027752","name":"Allego - Heerenveen K.R. Poststraat A32","address":"K.R. Poststraat 131","city":"Heerenveen","operatorName":"Allego","maxPowerKw":300,"isMegawatt":false,"status":"AVAILABLE","source":"ndw","priceKwh":0.511}},{"type":"Feature","geometry":{"type":"Point","coordinates":[5.916535,52.95069]},"properties":{"type":"charge","layer":"passenger","locationId":"226c3377-29e3-4465-99a3-2ee8d6ae7810","name":"TNLP013254 - Sperwer 76, Heerenveen","address":"76 Sperwer","city":"Heerenveen","operatorName":"TotalEnergies","maxPowerKw":17,"isMegawatt":false,"status":"AVAILABLE","source":"ndw"}},{"type":"Feature","geometry":{"type":"Point","coordinates":[5.91446,52.964504]},"properties":{"type":"charge","layer":"passenger","locationId":"223944c2-8d1f-4716-85ef-84ae176b6020","name":"TNLP012204 - Herenwal 124, Heerenveen","address":"124 Herenwal","city":"Heerenveen","operatorName":"TotalEnergies","maxPowerKw":17,"isMegawatt":false,"status":"AVAILABLE","source":"ndw"}},{"type":"Feature","geometry":{"type":"Point","coordinates":[5.924413,52.95666]},"properties":{"type":"charge","layer":"passenger","locationId":"7dfeec67-56d1-4a54-982f-d6307deaa315","name":"TNLP013401 - van Dekemalaan 63, Heerenveen","address":"63 van Dekemalaan","city":"Heerenveen","operatorName":"TotalEnergies","maxPowerKw":17,"isMegawatt":false,"status":"AVAILABLE","source":"ndw"}},{"type":"Feature","geometry":{"type":"Point","coordinates":[5.912638,52.94659]},"properties":{"type":"charge","layer":"passenger","locationId":"372025ea-b323-43c1-8400-4c8cdeef9a0f","name":"TNLP012246 - Zwette 24, Heerenveen","address":"24 Zwette","city":"Heerenveen","operatorName":"TotalEnergies","maxPowerKw":17,"isMegawatt":false,"status":"AVAILABLE","source":"ndw"}},{"type":"Feature","geometry":{"type":"Point","coordinates":[5.937461,52.976682]},"properties":{"type":"charge","layer":"passenger","locationId":"632194572cd76746e10ae50f","name":"Pluto 3, Heerenveen","address":"Pluto 3","city":"Heerenveen","operatorName":"Alva Charging Services","maxPowerKw":80,"isMegawatt":false,"status":"AVAILABLE","source":"ndw","priceKwh":0.59}},{"type":"Feature","geometry":{"type":"Point","coordinates":[5.869049,52.976434]},"properties":{"type":"charge","layer":"passenger","locationId":"4224475","name":"Laadnet Morssinkhof plastics","address":"Frankrijkdreef 5","city":"Heerenveen","operatorName":"Laadnet","maxPowerKw":22,"isMegawatt":false,"status":"AVAILABLE","source":"ndw"}},{"type":"Feature","geometry":{"type":"Point","coordinates":[5.934177,52.957948]},"properties":{"type":"charge","layer":"passenger","locationId":"D4538EFD-F587-461B-9D1F-CBBE82B9E1F1","name":"Eneco eMobility Dommerholt Advocaten N.V. Heerenveen","address":"Abe Lenstra Boulevard 44","city":"Heerenveen","operatorName":"Eneco","maxPowerKw":11,"isMegawatt":false,"status":"AVAILABLE","source":"ndw","priceKwh":0.32}},{"type":"Feature","geometry":{"type":"Point","coordinates":[5.924821,52.955703]},"properties":{"type":"charge","layer":"passenger","locationId":"6177a1e1894f11aa2dbe0d23","name":"De Broedstoof 2 (73)","address":"Koornbeursweg 73","city":"Heerenveen","operatorName":"E-Flux by Road","maxPowerKw":22,"isMegawatt":false,"status":"AVAILABLE","source":"ndw","priceKwh":0.63}},{"type":"Feature","geometry":{"type":"Point","coordinates":[5.929705,52.971164]},"properties":{"type":"charge","layer":"passenger","locationId":"3966650","name":"Laadnet Concordia Heerenveen","address":"Saturnus 3","city":"Heerenveen","operatorName":"Laadnet","maxPowerKw":22,"isMegawatt":false,"status":"AVAILABLE","source":"ndw"}},{"type":"Feature","geometry":{"type":"Point","coordinates":[5.942032,52.94413]},"properties":{"type":"charge","layer":"passenger","locationId":"670d2233f02680001c8b8917","name":"Tolhuisweg station","address":"Tolhuisweg 6","city":"Heerenveen","operatorName":"E-Flux by Road","maxPowerKw":22,"isMegawatt":false,"status":"AVAILABLE","source":"ndw","priceKwh":0.307}},{"type":"Feature","geometry":{"type":"Point","coordinates":[5.945052,52.971092]},"properties":{"type":"charge","layer":"passenger","locationId":"2138473","name":"Laadnet Sharp Heerenveen","address":"Neptunus 12","city":"Heerenveen","operatorName":"Laadnet","maxPowerKw":22,"isMegawatt":false,"status":"AVAILABLE","source":"ndw"}},{"type":"Feature","geometry":{"type":"Point","coordinates":[5.950699,52.95472]},"properties":{"type":"charge","layer":"passenger","locationId":"83a1c371-53ec-41a6-ab03-08c3dfab380b","name":"TNLP012118 - Frederik Hendriklaan 71, Heerenveen","address":"71 Frederik Hendriklaan","city":"Heerenveen","operatorName":"TotalEnergies","maxPowerKw":17,"isMegawatt":false,"status":"CHARGING","source":"ndw"}},{"type":"Feature","geometry":{"type":"Point","coordinates":[5.899174,52.963493]},"properties":{"type":"charge","layer":"passenger","locationId":"3966651","name":"Laadnet Concordia Heerenveen Keuken en Bad","address":"Jousterweg 44","city":"Heerenveen","operatorName":"Laadnet","maxPowerKw":22,"isMegawatt":false,"status":"AVAILABLE","source":"ndw"}},{"type":"Feature","geometry":{"type":"Point","coordinates":[5.924821,52.955703]},"properties":{"type":"charge","layer":"passenger","locationId":"6177a2897656398d0531d359","name":"De Broedstoof 3 (71)","address":"Koornbeursweg 73","city":"Heerenveen","operatorName":"E-Flux by Road","maxPowerKw":11,"isMegawatt":false,"status":"AVAILABLE","source":"ndw","priceKwh":0.63}},{"type":"Feature","geometry":{"type":"Point","coordinates":[5.940391,52.936653]},"properties":{"type":"charge","layer":"passenger","locationId":"NLLOC006971","name":"NL, Golflaan 10-22, 8445 SX Heerenveen","address":"Golflaan 10-22","city":"Heerenveen","operatorName":"Allego","maxPowerKw":11,"isMegawatt":false,"status":"AVAILABLE","source":"ndw","priceKwh":0.511}},{"type":"Feature","geometry":{"type":"Point","coordinates":[5.949768,52.960434]},"properties":{"type":"charge","layer":"passenger","locationId":"362f2996-d8b1-4f26-b95d-76e4a8507e36","name":"TNLP013323 - Wilgenpoel 3, Heerenveen","address":"3 Wilgenpoel","city":"Heerenveen","operatorName":"TotalEnergies","maxPowerKw":17,"isMegawatt":false,"status":"AVAILABLE","source":"ndw"}},{"type":"Feature","geometry":{"type":"Point","coordinates":[5.891488,53.048456]},"properties":{"type":"charge","layer":"passenger","locationId":"NLLOC002589","name":"NLD, Prikwei 6, 8495 HD, Aldeboarn","address":"Prikwei","city":"Aldeboarn","operatorName":"Allego","maxPowerKw":11,"isMegawatt":false,"status":"AVAILABLE","source":"ndw","priceKwh":0.511}},{"type":"Feature","geometry":{"type":"Point","coordinates":[5.93813,52.97682]},"properties":{"type":"charge","layer":"passenger","locationId":"68f5e02f-62e5-40f5-8b27-ce90907b0549","name":"DWB - Profile - Heerenveen","address":"Pluto 4","city":"Heerenveen","operatorName":"Blink Charging","maxPowerKw":25,"isMegawatt":false,"status":"UNAVAILABLE","source":"ndw","priceKwh":0.537}},{"type":"Feature","geometry":{"type":"Point","coordinates":[6.028344,52.940072]},"properties":{"type":"charge","layer":"passenger","locationId":"654cb244b39887001b504fdd","name":"Zorggroep Thorp Laadpaal 3","address":"Schotelandseweg 22","city":"Katlijk","operatorName":"Lanova Laadpalen","maxPowerKw":11,"isMegawatt":false,"status":"AVAILABLE","source":"ndw","priceKwh":0.38}},{"type":"Feature","geometry":{"type":"Point","coordinates":[5.957602,52.929656]},"properties":{"type":"charge","layer":"passenger","locationId":"923435","name":"DAE-NL-2000140","address":"De kuinder 6","city":"Heerenveen","operatorName":"DAEN Mobility","maxPowerKw":11,"isMegawatt":false,"status":"UNAVAILABLE","source":"ndw","priceKwh":0.29}},{"type":"Feature","geometry":{"type":"Point","coordinates":[5.941246,52.935718]},"properties":{"type":"charge","layer":"passenger","locationId":"64087744","name":"EQUANS Fletcher Fletcher Hotel-Restaurant Heidehof","address":"Golflaan 1","city":"Heerenveen","operatorName":"EQUANS","maxPowerKw":11,"isMegawatt":false,"status":"AVAILABLE","source":"ndw"}},{"type":"Feature","geometry":{"type":"Point","coordinates":[5.933408,52.974232]},"properties":{"type":"charge","layer":"passenger","locationId":"3843547","name":"Laadnet FIB Beer Systems","address":"Icarus 1","city":"Heerenveen","operatorName":"Laadnet","maxPowerKw":22,"isMegawatt":false,"status":"AVAILABLE","source":"ndw"}},{"type":"Feature","geometry":{"type":"Point","coordinates":[5.936173,52.977671]},"properties":{"type":"charge","layer":"passenger","locationId":"2265679","name":"Laadnet Rexel Heerenveen","address":"Apollo 1","city":"Heerenveen","operatorName":"Laadnet","maxPowerKw":22,"isMegawatt":false,"status":"AVAILABLE","source":"ndw"}},{"type":"Feature","geometry":{"type":"Point","coordinates":[6.126112,53.00341]},"properties":{"type":"charge","layer":"passenger","locationId":"b5f4a7af-5438-469d-aa2c-91072bd98b1d","name":"TNLP012225 - Ericalaan 26, Jubbega","address":"26 Ericalaan","city":"Jubbega","operatorName":"TotalEnergies","maxPowerKw":17,"isMegawatt":false,"status":"UNAVAILABLE","source":"ndw"}},{"type":"Feature","geometry":{"type":"Point","coordinates":[5.995633,52.949287]},"properties":{"type":"charge","layer":"passenger","locationId":"64a33c1f6da8db001c74b4d0","name":"Doelgroep BV","address":"Weversbuurt  5","city":"Mildam","operatorName":"E-Flux by Road","maxPowerKw":7,"isMegawatt":false,"status":"AVAILABLE","source":"ndw","priceKwh":0.43}},{"type":"Feature","geometry":{"type":"Point","coordinates":[5.934954,52.95832]},"properties":{"type":"charge","layer":"passenger","locationId":"NLLOC002743","name":"NLD, Abe Lenstra Boulevard 19, 8448JA 27, Heerenveen","address":"Abe Lenstra Boulevard 19","city":"Heerenveen","operatorName":"Allego","maxPowerKw":11,"isMegawatt":false,"status":"AVAILABLE","source":"ndw","priceKwh":0.511}},{"type":"Feature","geometry":{"type":"Point","coordinates":[5.908624,52.96473]},"properties":{"type":"charge","layer":"passenger","locationId":"6061476c-817c-42b6-b913-cc3af07fda27","name":"TNLP013273 - Spitter 16, Heerenveen","address":"16 Spitter","city":"Heerenveen","operatorName":"TotalEnergies","maxPowerKw":17,"isMegawatt":false,"status":"AVAILABLE","source":"ndw"}},{"type":"Feature","geometry":{"type":"Point","coordinates":[5.944288,52.942151]},"properties":{"type":"charge","layer":"passenger","locationId":"6809dd6cc72fe42449d004dc","name":"Tandartsenpraktijk M Heij BV","address":"Tolhuisweg 14","city":"Heerenveen","operatorName":"E-Flux by Road","maxPowerKw":11,"isMegawatt":false,"status":"AVAILABLE","source":"ndw","priceKwh":0.58}},{"type":"Feature","geometry":{"type":"Point","coordinates":[5.957602,52.929656]},"properties":{"type":"charge","layer":"passenger","locationId":"923456","name":"DAE_NL_2000827","address":"De Kuinder 6","city":"Heerenveen","operatorName":"DAEN Mobility","maxPowerKw":11,"isMegawatt":false,"status":"UNAVAILABLE","source":"ndw","priceKwh":0.36}},{"type":"Feature","geometry":{"type":"Point","coordinates":[5.953236,52.955931]},"properties":{"type":"charge","layer":"passenger","locationId":"NLLOC006413","name":"NL, Gouverneur 1, 8448 PB, Heerenveen","address":"Gouverneur 1","city":"Heerenveen","operatorName":"Allego","maxPowerKw":11,"isMegawatt":false,"status":"CHARGING","source":"ndw","priceKwh":0.511}},{"type":"Feature","geometry":{"type":"Point","coordinates":[5.926951,52.971187]},"properties":{"type":"charge","layer":"passenger","locationId":"2689678","name":"Laadnet Hoekstra Installatietechniek","address":"Mercurius 17","city":"Heerenveen","operatorName":"Laadnet","maxPowerKw":22,"isMegawatt":false,"status":"AVAILABLE","source":"ndw"}},{"type":"Feature","geometry":{"type":"Point","coordinates":[5.957503,52.95762]},"properties":{"type":"charge","layer":"passenger","locationId":"NLLOC013309","name":"NL, Tamboer 2, 8448TB, Heerenveen","address":"Tamboer 2","city":"Heerenveen","operatorName":"Allego","maxPowerKw":11,"isMegawatt":false,"status":"AVAILABLE","source":"ndw","priceKwh":0.511}},{"type":"Feature","geometry":{"type":"Point","coordinates":[5.931105,52.972576]},"properties":{"type":"charge","layer":"passenger","locationId":"692fedc3a16b71d6985bcd42","name":"Firda Saturnus","address":"Saturnus 7","city":"Heerenveen","operatorName":"E-Flux by Road","maxPowerKw":22,"isMegawatt":false,"status":"AVAILABLE","source":"ndw","priceKwh":0.3}},{"type":"Feature","geometry":{"type":"Point","coordinates":[5.938181,52.943383]},"properties":{"type":"charge","layer":"passenger","locationId":"NLLOC011296","name":"NL, Amelandlaan 105, 8443 BX, Heerenveen","address":"Amelandlaan 105","city":"Heerenveen","operatorName":"Allego","maxPowerKw":11,"isMegawatt":false,"status":"AVAILABLE","source":"ndw","priceKwh":0.511}},{"type":"Feature","geometry":{"type":"Point","coordinates":[5.862767,53.080431]},"properties":{"type":"charge","layer":"passenger","locationId":"608003165bba23411f3f9044","name":"Pean 1, Nes-Akkrum","address":"Pean 1","city":"Nes-Akkrum","operatorName":"E-Flux by Road","maxPowerKw":22,"isMegawatt":false,"status":"AVAILABLE","source":"ndw","priceKwh":0.58}},{"type":"Feature","geometry":{"type":"Point","coordinates":[5.934768,52.958104]},"properties":{"type":"charge","layer":"passenger","locationId":"NLLOC027965","name":"Abe Lenstra Stadion 21","address":"Abe Lenstra Boulevard 21","city":"Heerenveen","operatorName":"Allego","maxPowerKw":22,"isMegawatt":false,"status":"AVAILABLE","source":"ndw","priceKwh":0.511}},{"type":"Feature","geometry":{"type":"Point","coordinates":[5.936994,52.972448]},"properties":{"type":"charge","layer":"passenger","locationId":"4110403","name":"Laadnet Henri Willig Beheer B.V.","address":"Venus 18","city":"Heerenveen","operatorName":"Laadnet","maxPowerKw":22,"isMegawatt":false,"status":"AVAILABLE","source":"ndw"}},{"type":"Feature","geometry":{"type":"Point","coordinates":[5.929499,52.951336]},"properties":{"type":"charge","layer":"passenger","locationId":"cb521ebb-7b95-429d-b024-5ab8a683e9aa","name":"TNLP013410 - Eeltje Halbertsmastraat 32, Heerenveen","address":"32 Eeltje Halbertsmastraat","city":"Heerenveen","operatorName":"TotalEnergies","maxPowerKw":17,"isMegawatt":false,"status":"AVAILABLE","source":"ndw"}},{"type":"Feature","geometry":{"type":"Point","coordinates":[5.910886,52.954433]},"properties":{"type":"charge","layer":"passenger","locationId":"1d8d81e9-6965-4d1a-9bfb-0bdc7b61dfce","name":"TNLP012075 - Ratelaar 2, Heerenveen","address":"2 Ratelaar","city":"Heerenveen","operatorName":"TotalEnergies","maxPowerKw":17,"isMegawatt":false,"status":"AVAILABLE","source":"ndw"}},{"type":"Feature","geometry":{"type":"Point","coordinates":[5.894509,52.963712]},"properties":{"type":"charge","layer":"passenger","locationId":"635bc7eedebf1a399219829a","name":"KMC Chain Europe NV 1","address":"Businesspark Friesland West 57","city":"Heerenveen","operatorName":"E-Flux by Road","maxPowerKw":11,"isMegawatt":false,"status":"AVAILABLE","source":"ndw","priceKwh":0.53}},{"type":"Feature","geometry":{"type":"Point","coordinates":[5.922167,52.950864]},"properties":{"type":"charge","layer":"passenger","locationId":"NLLOC006972","name":"NL, Gruttostraat 43, 8446HC, Heerenveen","address":"Gruttostraat 43","city":"Heerenveen","operatorName":"Allego","maxPowerKw":11,"isMegawatt":false,"status":"AVAILABLE","source":"ndw","priceKwh":0.511}},{"type":"Feature","geometry":{"type":"Point","coordinates":[5.954315,52.960934]},"properties":{"type":"charge","layer":"passenger","locationId":"62977755-45fb-4b5d-8abb-0ba6ce2c0870","name":"TNLP012241 - Petgat 73, Heerenveen","address":"73 Petgat","city":"Heerenveen","operatorName":"TotalEnergies","maxPowerKw":17,"isMegawatt":false,"status":"AVAILABLE","source":"ndw"}},{"type":"Feature","geometry":{"type":"Point","coordinates":[5.927883,52.95036]},"properties":{"type":"charge","layer":"passenger","locationId":"108af904-5613-480a-bf42-b2822c49f4ac","name":"TNLP012138 - Bonairestraat 17, Heerenveen","address":"17 Bonairestraat","city":"Heerenveen","operatorName":"TotalEnergies","maxPowerKw":17,"isMegawatt":false,"status":"AVAILABLE","source":"ndw"}},{"type":"Feature","geometry":{"type":"Point","coordinates":[5.957602,52.929656]},"properties":{"type":"charge","layer":"passenger","locationId":"923436","name":"DAE_NL_2000829","address":"De Kuinder 6","city":"Heerenveen","operatorName":"DAEN Mobility","maxPowerKw":11,"isMegawatt":false,"status":"UNAVAILABLE","source":"ndw","priceKwh":0.29}},{"type":"Feature","geometry":{"type":"Point","coordinates":[5.924821,52.955703]},"properties":{"type":"charge","layer":"passenger","locationId":"6177a146f32843047dbe4f53","name":"De Broedstoof 1 (69)","address":"Koornbeursweg 73","city":"Heerenveen","operatorName":"E-Flux by Road","maxPowerKw":22,"isMegawatt":false,"status":"AVAILABLE","source":"ndw","priceKwh":0.63}},{"type":"Feature","geometry":{"type":"Point","coordinates":[6.028344,52.940072]},"properties":{"type":"charge","layer":"passenger","locationId":"654cb1a22a240a001ca825ed","name":"Zorgroep Thorp Laadpaal 2","address":"Schotellandseweg 22","city":"Katlijk","operatorName":"Lanova Laadpalen","maxPowerKw":11,"isMegawatt":false,"status":"AVAILABLE","source":"ndw","priceKwh":0.38}},{"type":"Feature","geometry":{"type":"Point","coordinates":[6.028344,52.940072]},"properties":{"type":"charge","layer":"passenger","locationId":"654cb32b48eede001c82f400","name":"Zorggroep Thorp Laadpaal 4","address":"Schotelandseweg 22","city":"Katlijk","operatorName":"Lanova Laadpalen","maxPowerKw":11,"isMegawatt":false,"status":"AVAILABLE","source":"ndw","priceKwh":0.38}},{"type":"Feature","geometry":{"type":"Point","coordinates":[6.054438,52.949749]},"properties":{"type":"charge","layer":"passenger","locationId":"69454d051d1503eed2b58934","name":"Heida Accountancy","address":"Schoterlandseweg 32","city":"Nieuwehorne","operatorName":"Greenchoice B.V.","maxPowerKw":44,"isMegawatt":false,"status":"AVAILABLE","source":"ndw","priceKwh":0.58}},{"type":"Feature","geometry":{"type":"Point","coordinates":[5.9346,52.953102]},"properties":{"type":"charge","layer":"passenger","locationId":"1fff8eb9-8a78-40dd-b9e3-ec4b25d89273","name":"TNLP012245 - Vermeerstraat 50, Heerenveen","address":"50 Vermeerstraat","city":"Heerenveen","operatorName":"TotalEnergies","maxPowerKw":17,"isMegawatt":false,"status":"AVAILABLE","source":"ndw"}},{"type":"Feature","geometry":{"type":"Point","coordinates":[5.950747,52.981963]},"properties":{"type":"charge","layer":"passenger","locationId":"3215009","name":"Laadnet Fonterra Europe Manufacturing B.V.","address":"Mars 37","city":"Heerenveen","operatorName":"Laadnet","maxPowerKw":22,"isMegawatt":false,"status":"AVAILABLE","source":"ndw"}},{"type":"Feature","geometry":{"type":"Point","coordinates":[5.911144,52.949721]},"properties":{"type":"charge","layer":"passenger","locationId":"NLLOC006209","name":"NL, Leijen 17, 8446 LR, Heerenveen","address":"Leijen 17","city":"Heerenveen","operatorName":"Allego","maxPowerKw":11,"isMegawatt":false,"status":"AVAILABLE","source":"ndw","priceKwh":0.511}},{"type":"Feature","geometry":{"type":"Point","coordinates":[5.939713,52.937826]},"properties":{"type":"charge","layer":"passenger","locationId":"66d1618d557ec8001c29386f","name":"De Geer Golf B.V.","address":"Heidemeer 2","city":"Heerenveen","operatorName":"Pluq","maxPowerKw":22,"isMegawatt":false,"status":"AVAILABLE","source":"ndw","priceKwh":0.33}},{"type":"Feature","geometry":{"type":"Point","coordinates":[5.828708,53.049576]},"properties":{"type":"charge","layer":"passenger","locationId":"40ab96a4-2c39-40dc-9e62-70dabb4939fe","name":"TNLP012184 - Ulbe Twijnstrawei 108, Akkrum","address":"108 Ulbe Twijnstrawei","city":"Akkrum","operatorName":"TotalEnergies","maxPowerKw":17,"isMegawatt":false,"status":"UNAVAILABLE","source":"ndw"}},{"type":"Feature","geometry":{"type":"Point","coordinates":[5.944489,52.961819]},"properties":{"type":"charge","layer":"passenger","locationId":"NLLOC014664","name":"NL, Domela Nieuwenhuisweg, 19, 8448GK, Heerenveen","address":"Domela Nieuwenhuisweg 19","city":"Heerenveen","operatorName":"Allego","maxPowerKw":11,"isMegawatt":false,"status":"AVAILABLE","source":"ndw","priceKwh":0.511}},{"type":"Feature","geometry":{"type":"Point","coordinates":[5.920082,52.955585]},"properties":{"type":"charge","layer":"passenger","locationId":"NLLOC010821","name":"NL, Munt 1, 8446 AE, Heerenveen","address":"Munt 1","city":"Heerenveen","operatorName":"Allego","maxPowerKw":11,"isMegawatt":false,"status":"AVAILABLE","source":"ndw","priceKwh":0.511}},{"type":"Feature","geometry":{"type":"Point","coordinates":[5.897898,53.04749]},"properties":{"type":"charge","layer":"passenger","locationId":"1f638c94-a46c-4424-a3fb-2a20f504b630","name":"TNLP012069 - Tsjerkebuorren 115, Aldeboarn","address":"115 Tsjerkebuorren","city":"Aldeboarn","operatorName":"TotalEnergies","maxPowerKw":17,"isMegawatt":false,"status":"UNAVAILABLE","source":"ndw"}},{"type":"Feature","geometry":{"type":"Point","coordinates":[5.913141,52.967407]},"properties":{"type":"charge","layer":"passenger","locationId":"923381","name":"PBLR-0009949","address":"J.H. Kruisstraat 12","city":"Heerenveen","operatorName":"DAEN Mobility","maxPowerKw":11,"isMegawatt":false,"status":"CHARGING","source":"ndw","priceKwh":0.36}},{"type":"Feature","geometry":{"type":"Point","coordinates":[6.071146,52.957884]},"properties":{"type":"charge","layer":"passenger","locationId":"6634b5fe4d4c0a001c33c552","name":"Kuperus Oudehorne 's station","address":"Schoterlandseweg 40","city":"oudehorne","operatorName":"E-Flux by Road","maxPowerKw":22,"isMegawatt":false,"status":"AVAILABLE","source":"ndw","priceKwh":0.48}},{"type":"Feature","geometry":{"type":"Point","coordinates":[5.936442,52.945014]},"properties":{"type":"charge","layer":"passenger","locationId":"daf0e630-df7e-4e9f-8d78-8d6b69499b6e","name":"Lidl Heerenveen","address":"Sallandlaan","city":"Heerenveen","operatorName":"Lidl","maxPowerKw":11,"isMegawatt":false,"status":"UNAVAILABLE","source":"ndw"}},{"type":"Feature","geometry":{"type":"Point","coordinates":[5.914906,52.953207]},"properties":{"type":"charge","layer":"passenger","locationId":"NLLOC002358","name":"NLD, Jister 43, 8446 CG, Heerenveen","address":"Jister 43","city":"Heerenveen","operatorName":"Allego","maxPowerKw":11,"isMegawatt":false,"status":"AVAILABLE","source":"ndw","priceKwh":0.511}},{"type":"Feature","geometry":{"type":"Point","coordinates":[5.897178,52.970377]},"properties":{"type":"charge","layer":"passenger","locationId":"671f7ab48e6573001cf41c28","name":"Wetterskip Fryslân - RWZI en SOI Heerenveen","address":"Wetterwille 4","city":"Heerenveen","operatorName":"Alva Charging Services","maxPowerKw":22,"isMegawatt":false,"status":"AVAILABLE","source":"ndw","priceKwh":0.34}},{"type":"Feature","geometry":{"type":"Point","coordinates":[5.922238,52.948833]},"properties":{"type":"charge","layer":"passenger","locationId":"cb16764f-af1f-414e-b416-a99edfddf04d","name":"TNLP012034 - Lepelaarstraat 39, Heerenveen","address":"39 Lepelaarstraat","city":"Heerenveen","operatorName":"TotalEnergies","maxPowerKw":17,"isMegawatt":false,"status":"AVAILABLE","source":"ndw"}},{"type":"Feature","geometry":{"type":"Point","coordinates":[6.028344,52.940072]},"properties":{"type":"charge","layer":"passenger","locationId":"654caf94b39887001b4fb46b","name":"Zorggroep Thorp laadpaal 1","address":"Schoterlandseweg 22","city":"Katlijk","operatorName":"Lanova Laadpalen","maxPowerKw":11,"isMegawatt":false,"status":"AVAILABLE","source":"ndw","priceKwh":0.38}},{"type":"Feature","geometry":{"type":"Point","coordinates":[5.946901,52.959427]},"properties":{"type":"charge","layer":"passenger","locationId":"ac361f3c-ecf8-4b75-b112-5e3517709943","name":"TNLP012064 - Jelmersmeer 1, Heerenveen","address":"1 Jelmersmeer","city":"Heerenveen","operatorName":"TotalEnergies","maxPowerKw":17,"isMegawatt":false,"status":"AVAILABLE","source":"ndw"}},{"type":"Feature","geometry":{"type":"Point","coordinates":[5.965897,52.968403]},"properties":{"type":"charge","layer":"passenger","locationId":"NLLOC007880","name":"NL, Meyerweg 58, 8456 GH De Knipe","address":"Meyerweg 58","city":"De Knipe","operatorName":"Allego","maxPowerKw":11,"isMegawatt":false,"status":"AVAILABLE","source":"ndw","priceKwh":0.511}},{"type":"Feature","geometry":{"type":"Point","coordinates":[5.927508,52.970836]},"properties":{"type":"charge","layer":"passenger","locationId":"69c27b48062b44002d60c407","name":"Laadpaal Heerenveen Mercurius","address":"Mercurius 16b","city":"Heerenveen","operatorName":"NXT Charging Solutions","maxPowerKw":22,"isMegawatt":false,"status":"AVAILABLE","source":"ndw","priceKwh":0.49}},{"type":"Feature","geometry":{"type":"Point","coordinates":[5.909644,52.958469]},"properties":{"type":"charge","layer":"passenger","locationId":"NLLOC012713","name":"NL, Turfsteker 4, 8447 DB Heerenveen","address":"Turfsteker 4","city":"Heerenveen","operatorName":"Allego","maxPowerKw":11,"isMegawatt":false,"status":"AVAILABLE","source":"ndw","priceKwh":0.511}},{"type":"Feature","geometry":{"type":"Point","coordinates":[5.928673,52.96303]},"properties":{"type":"charge","layer":"passenger","locationId":"0c7b7acd-4df0-42f3-a25f-650fa9476545","name":"TNLP013291 - Narcislaan 2, Heerenveen","address":"2 Narcislaan","city":"Heerenveen","operatorName":"TotalEnergies","maxPowerKw":17,"isMegawatt":false,"status":"AVAILABLE","source":"ndw"}},{"type":"Feature","geometry":{"type":"Point","coordinates":[5.909125,52.960457]},"properties":{"type":"charge","layer":"passenger","locationId":"b0cbbd6d-b060-47c3-bd96-229dbe72f5a7","name":"TNLP012150 - Barten 13, Heerenveen","address":"13 Barten","city":"Heerenveen","operatorName":"TotalEnergies","maxPowerKw":17,"isMegawatt":false,"status":"CHARGING","source":"ndw"}},{"type":"Feature","geometry":{"type":"Point","coordinates":[5.949796,52.962503]},"properties":{"type":"charge","layer":"passenger","locationId":"923490","name":"DAE-NL-POST","address":"Nienke van Hichtumweg 36","city":"Heerenveen","operatorName":"DAEN Mobility","maxPowerKw":11,"isMegawatt":false,"status":"AVAILABLE","source":"ndw","priceKwh":0.65}},{"type":"Feature","geometry":{"type":"Point","coordinates":[5.999137,52.934679]},"properties":{"type":"charge","layer":"passenger","locationId":"2786828","name":"Laadnet B en B de Middelste Dam","address":"Schoterlandseweg 42","city":"Mildam","operatorName":"Laadnet","maxPowerKw":11,"isMegawatt":false,"status":"AVAILABLE","source":"ndw"}},{"type":"Feature","geometry":{"type":"Point","coordinates":[5.910394,52.969036]},"properties":{"type":"charge","layer":"passenger","locationId":"NLLOC007792","name":"NL, Ekke de Haanstraat 7, 8441 AP, Heerenveen","address":"Ekke de Haanstraat 7","city":"Heerenveen","operatorName":"Allego","maxPowerKw":11,"isMegawatt":false,"status":"AVAILABLE","source":"ndw","priceKwh":0.511}},{"type":"Feature","geometry":{"type":"Point","coordinates":[5.91763,52.95302]},"properties":{"type":"charge","layer":"passenger","locationId":"4d4b3ce8-9b42-4783-9739-c74575824b88","name":"TNLP013214 - Wulpstraat 33, Heerenveen","address":"33 Wulpstraat","city":"Heerenveen","operatorName":"TotalEnergies","maxPowerKw":17,"isMegawatt":false,"status":"AVAILABLE","source":"ndw"}},{"type":"Feature","geometry":{"type":"Point","coordinates":[5.92608,52.9544]},"properties":{"type":"charge","layer":"passenger","locationId":"4c8d56cb-a16f-4809-98a2-3d93b6c71e12","name":"TNLP013218 - Bouwe van Ensstraat 1, Heerenveen","address":"1 Bouwe van Ensstraat","city":"Heerenveen","operatorName":"TotalEnergies","maxPowerKw":17,"isMegawatt":false,"status":"AVAILABLE","source":"ndw"}},{"type":"Feature","geometry":{"type":"Point","coordinates":[5.929584,52.946087]},"properties":{"type":"charge","layer":"passenger","locationId":"f2379cd0-b3cb-456f-bf58-58a1f2745159","name":"TNLP012114 - it Hege Stik 4, Heerenveen","address":"4 it Hege Stik","city":"Heerenveen","operatorName":"TotalEnergies","maxPowerKw":17,"isMegawatt":false,"status":"AVAILABLE","source":"ndw"}},{"type":"Feature","geometry":{"type":"Point","coordinates":[5.899956,52.964063]},"properties":{"type":"charge","layer":"passenger","locationId":"NLCPIL7363655","name":"FOURCE BV HEERENVEEN 1","address":"10 Pompmakker","city":"Heerenveen","operatorName":"ChargePoint","maxPowerKw":22,"isMegawatt":false,"status":"AVAILABLE","source":"ndw","priceKwh":0.5}},{"type":"Feature","geometry":{"type":"Point","coordinates":[5.893206,53.047383]},"properties":{"type":"charge","layer":"passenger","locationId":"687607634fb627e106a96d23","name":"Petra Janssen 's station","address":"Doelhof  3a","city":"Aldeboarn","operatorName":"E-Flux by Road","maxPowerKw":14,"isMegawatt":false,"status":"AVAILABLE","source":"ndw","priceKwh":0.1836}},{"type":"Feature","geometry":{"type":"Point","coordinates":[5.832732,53.0511]},"properties":{"type":"charge","layer":"passenger","locationId":"a1995ee4-5990-4df1-8262-391c496e26d2","name":"TNLP013309 - Heechein 70, Akkrum","address":"70 Heechein","city":"Akkrum","operatorName":"TotalEnergies","maxPowerKw":17,"isMegawatt":false,"status":"UNAVAILABLE","source":"ndw"}},{"type":"Feature","geometry":{"type":"Point","coordinates":[5.89072,52.965283]},"properties":{"type":"charge","layer":"passenger","locationId":"6790b9cc6ef9edad94d2b8d9","name":"Select Heerenveen","address":"Businesspark Friesland-West 27e","city":"Heerenveen","operatorName":"E-Flux by Road","maxPowerKw":22,"isMegawatt":false,"status":"AVAILABLE","source":"ndw","priceKwh":0.43}},{"type":"Feature","geometry":{"type":"Point","coordinates":[5.837149,53.051219]},"properties":{"type":"charge","layer":"passenger","locationId":"NLLOC016126","name":"NL, G.S. Ruiterstrjitte 46, 8491GW, Akkrum","address":"Ruiterstrjitte 46","city":"Akkrum","operatorName":"Allego","maxPowerKw":11,"isMegawatt":false,"status":"AVAILABLE","source":"ndw","priceKwh":0.511}},{"type":"Feature","geometry":{"type":"Point","coordinates":[5.83845,53.05065]},"properties":{"type":"charge","layer":"passenger","locationId":"f97ba3a3-c628-4616-a701-5fec3bc0341e","name":"TNLP013340 - Himdyk 54, Akkrum","address":"54 Himdyk","city":"Akkrum","operatorName":"TotalEnergies","maxPowerKw":17,"isMegawatt":false,"status":"UNAVAILABLE","source":"ndw"}},{"type":"Feature","geometry":{"type":"Point","coordinates":[5.893252,52.977626]},"properties":{"type":"charge","layer":"passenger","locationId":"696e19d49ebb6baefde8d306","name":"Heerenveen","address":"Wetterwille 27","city":"Heerenveen","operatorName":"E-Flux by Road","maxPowerKw":22,"isMegawatt":false,"status":"AVAILABLE","source":"ndw","priceKwh":0.48}},{"type":"Feature","geometry":{"type":"Point","coordinates":[5.911158,52.960601]},"properties":{"type":"charge","layer":"passenger","locationId":"NLLOC006983","name":"NL, Trekker 31, 8447BT, Heerenveen","address":"Trekker 31","city":"Heerenveen","operatorName":"Allego","maxPowerKw":11,"isMegawatt":false,"status":"CHARGING","source":"ndw","priceKwh":0.511}},{"type":"Feature","geometry":{"type":"Point","coordinates":[5.935644,52.95117]},"properties":{"type":"charge","layer":"passenger","locationId":"bdd140e7-f40b-4e4e-842d-53d1f81e242f","name":"TNLP013407 - Rembrandtlaan 13, Heerenveen","address":"13 Rembrandtlaan","city":"Heerenveen","operatorName":"TotalEnergies","maxPowerKw":17,"isMegawatt":false,"status":"AVAILABLE","source":"ndw"}},{"type":"Feature","geometry":{"type":"Point","coordinates":[5.910089,52.96598]},"properties":{"type":"charge","layer":"passenger","locationId":"d8ab9053-01df-47a2-a205-847e5bb67914","name":"TNLP013249 - Parallelweg 47, Heerenveen","address":"47 Parallelweg","city":"Heerenveen","operatorName":"TotalEnergies","maxPowerKw":17,"isMegawatt":false,"status":"AVAILABLE","source":"ndw"}},{"type":"Feature","geometry":{"type":"Point","coordinates":[5.910229,52.96709]},"properties":{"type":"charge","layer":"passenger","locationId":"003adf29-ebb1-4162-a627-05f909df9cef","name":"TNLP012023 - Dubbele regel 28, Heerenveen","address":"28 Dubbele regel","city":"Heerenveen","operatorName":"TotalEnergies","maxPowerKw":17,"isMegawatt":false,"status":"AVAILABLE","source":"ndw"}},{"type":"Feature","geometry":{"type":"Point","coordinates":[5.945251,52.99976]},"properties":{"type":"charge","layer":"passenger","locationId":"61f26df8-d9ec-44d7-be59-324e4396684b","name":"TNLP012169 - It Hiem 3, Tjalleberd","address":"3 It Hiem","city":"Tjalleberd","operatorName":"TotalEnergies","maxPowerKw":17,"isMegawatt":false,"status":"UNAVAILABLE","source":"ndw"}},{"type":"Feature","geometry":{"type":"Point","coordinates":[6.053528,52.95003]},"properties":{"type":"charge","layer":"passenger","locationId":"68cd1cd9310da55caa3626bc","name":"Albert Heijn Brouwer Nieuwehorne","address":"Schoterlandseweg 43","city":"Nieuwehorne","operatorName":"E-Flux by Road","maxPowerKw":11,"isMegawatt":false,"status":"AVAILABLE","source":"ndw","priceKwh":0.63}},{"type":"Feature","geometry":{"type":"Point","coordinates":[5.851644,53.053229]},"properties":{"type":"charge","layer":"passenger","locationId":"6332b7c2e06e95df1f5d5f50","name":"Publiek Laad Station Kleasterwei","address":"Kleasterwei 17","city":"nes-akkrum","operatorName":"E-Flux by Road","maxPowerKw":8,"isMegawatt":false,"status":"CHARGING","source":"ndw","priceKwh":0.53}},{"type":"Feature","geometry":{"type":"Point","coordinates":[6.064946,52.950552]},"properties":{"type":"charge","layer":"passenger","locationId":"60def4cea94e0d3ec8a1ea97","name":"L-591-RX","address":"Bouwkamp 28","city":"Nieuwehorne","operatorName":"E-Flux by Road","maxPowerKw":11,"isMegawatt":false,"status":"CHARGING","source":"ndw","priceKwh":0.544}},{"type":"Feature","geometry":{"type":"Point","coordinates":[5.84841,53.03878]},"properties":{"type":"charge","layer":"freight","locationId":"50947","name":"Fastned Smarpot","address":"Akkrum","city":"Boarnsterhim","operatorName":"Fastned","maxPowerKw":400,"isMegawatt":false,"status":"AVAILABLE","source":"ndw","priceKwh":0.6364,"freightKind":"hpc","freightReason":"power"}},{"type":"Feature","geometry":{"type":"Point","coordinates":[5.938928,52.951618]},"properties":{"type":"charge","layer":"freight","locationId":"32423","name":"Circle K Heerenveen inz Ten Woude","address":"Oranje Nassaulaan 10","city":"Heerenveen","operatorName":"Spirii","maxPowerKw":400,"isMegawatt":false,"status":"AVAILABLE","source":"ndw","priceKwh":0.65,"freightKind":"hpc","freightReason":"power"}},{"type":"Feature","geometry":{"type":"MultiPolygon","coordinates":[[[[5.872056057216905,53.08399068970871],[5.871781360774212,53.08182394201829],[5.870312986197257,53.081432731815134],[5.871502368284903,53.07421058944639],[5.87301930900566,53.07434945534848],[5.89497437481968,53.07622902149275],[5.895418165822653,53.078837876133285],[5.897039629410504,53.079006007792415],[5.903770237419701,53.07924809155209],[5.906412657796378,53.07844661896074],[5.926706990877152,53.0784868335524],[5.927580928104836,53.078395267865645],[5.933390638297558,53.07811179570973],[5.933650032755739,53.076853639325925],[5.932917045063137,53.076044754268544],[5.934318009645964,53.07577582723661],[5.935952144516764,53.07381582427752],[5.932296012635088,53.07321402038228],[5.932277792802961,53.07141056654306],[5.930412091594798,53.0710053112526],[5.9354566156326545,53.06657074867143],[5.939992944646837,53.06402170973299],[5.9410906680731275,53.06390054200781],[5.944268633895945,53.065254995699306],[5.947328521880649,53.06248064810795],[5.942635186845896,53.053486642803456],[5.957619088145141,53.05354666986483],[5.956396507498532,53.05221025617165],[5.953760139518728,53.05207647109824],[5.952904056367979,53.0500847847149],[5.9488210751327175,53.04995621074738],[5.948595490134706,53.04918626191241],[5.944531431277431,53.0490789568487],[5.944170427132295,53.04758574598241],[5.9433552863753905,53.0474308854953],[5.943949459883193,53.04439463730783],[5.93799610034261,53.04427039317299],[5.9406363636531525,53.04282124168378],[5.940137587688828,53.04221443422768],[5.942862193547954,53.04128395627984],[5.953087602793107,53.03834963815392],[5.952178630832391,53.037208223754085],[5.965926249651249,53.033167813249996],[5.966088266204813,53.032757696503545],[5.977036771507672,53.03012890845245],[5.979117983925946,53.02923920909286],[5.978721280830845,53.02817959448851],[5.9839142004774555,53.02655943509477],[5.984483873423735,53.025285761591675],[5.978902172023609,53.01500804345667],[5.976771700775142,53.01120085763305],[5.977122700599733,53.01016590468122],[5.971963495191006,53.009658880659615],[5.973911590454338,53.006219522894476],[5.973008888827786,53.00557904058129],[5.97396321399861,53.00342528532086],[5.979609948340853,52.99781166972692],[5.977592656611052,52.99638161121678],[5.976491981667311,52.99559137292365],[5.974648659274747,52.99428574157907],[5.976749936606969,52.9926592450877],[5.974154863871204,52.990549451709654],[5.972823482888482,52.98935378235343],[5.9626531552188355,52.98100771921865],[5.964891843138585,52.979337465403695],[5.962826066737134,52.977316927373316],[5.958104815078081,52.9729358393281],[5.962872379752625,52.97242509663777],[6.016341103788071,52.96637600601259],[6.018803829547893,52.96608985487395],[6.026805494259163,52.964998150336356],[6.026940727479524,52.96437303432041],[6.044347088030952,52.96623731219846],[6.058883714267476,52.97029182322518],[6.065497315277308,52.972998701802545],[6.066835307983477,52.9737163328718],[6.067493764030117,52.9731662599989],[6.069843994919747,52.974234534134716],[6.079725629248843,52.980454901466636],[6.084297489314572,52.98317422914481],[6.08496792182773,52.98294790100769],[6.086206197712748,52.983753892389785],[6.087863325577298,52.983285778916844],[6.092485528040198,52.984249521893474],[6.09750819839807,52.9869549110714],[6.096452884940996,52.98806413685449],[6.098468397875739,52.98975608535646],[6.0989832271834,52.98923884894223],[6.099722400936325,52.98950078754931],[6.096478249901063,52.99285414108098],[6.099286067980695,52.99407939611894],[6.1007722582376624,52.995606992199],[6.105555894810231,52.997769600020284],[6.107407889922464,52.99940729839471],[6.113904695371276,53.00173429499947],[6.1204886580339055,53.00536307618366],[6.129804713326002,53.00875782508815],[6.128779197518729,53.010385494951706],[6.129640894544567,53.01083000981122],[6.131553763709198,53.01200640548418],[6.138774003978719,53.01348438780523],[6.151337727024644,53.01661820660699],[6.158529958689497,53.01702357323467],[6.171300603129027,53.01990285902657],[6.176470349868927,53.02093235288245],[6.185699530469242,53.02502096461944],[6.194819511516488,53.03099724211605],[6.196624572120219,53.03327160369966],[6.198782694719828,53.033766569089615],[6.20039866279745,53.03679281220355],[6.205423687844217,53.037931611744106],[6.2022059401255785,52.99031106833302],[6.200942894603101,52.98969502667969],[6.2008699053481715,52.98849451696253],[6.195703496619478,52.986209855889484],[6.175457025830034,52.9805566971889],[6.158627928699671,52.97584549261959],[6.1525158300271485,52.97285970887424],[6.14569326275158,52.969322666881425],[6.143866553082717,52.96826906752198],[6.127871235350709,52.95339861439739],[6.125039567443867,52.95237819413167],[6.115859186314513,52.95130343904659],[6.0925307927269685,52.94209375752513],[6.086355385311239,52.93693125898738],[6.0863489144364245,52.93688950895975],[6.085730535701104,52.9364000661813],[6.084847805142265,52.93627512657589],[6.078675012180785,52.931653465188475],[6.062101833330478,52.92526111498382],[6.049981221543164,52.920647440326356],[6.042631280372413,52.91793956940152],[6.038202559898023,52.91797092809345],[6.008803417227172,52.93137099078885],[6.002241451250034,52.9340047802959],[5.998023645771864,52.933241386841246],[5.988169162233579,52.92903348057836],[5.978803619602894,52.927032841772316],[5.970221387075546,52.92829584113158],[5.966380786822051,52.92831315700381],[5.959159424543623,52.92746060923918],[5.954638967685945,52.926001512932096],[5.952413816500434,52.92471027070251],[5.947904883420521,52.91991576254415],[5.9378470188146295,52.911740766723405],[5.933359790153074,52.91502461895552],[5.9235696668696765,52.92730344678495],[5.919088317308221,52.932949649379935],[5.912983577988462,52.94060294361876],[5.914181096336911,52.942922504758485],[5.90488561798527,52.95416417895619],[5.905711019761575,52.955515440995576],[5.905447564819415,52.95563029129398],[5.902305003162726,52.95736926628713],[5.898113164870091,52.962393640774074],[5.897415472296168,52.96307725180332],[5.89563336969882,52.96214777167273],[5.89476778292029,52.963179471269264],[5.891630163143089,52.962278373049216],[5.891682947438182,52.961915278618044],[5.8910268019811785,52.961697241992695],[5.888519863837067,52.965056635065096],[5.886154011264731,52.965711206600254],[5.885988754217555,52.966111719703655],[5.888076615074399,52.966457409684985],[5.887570757161092,52.96701048551889],[5.870970674814733,52.96444190014307],[5.869238805810013,52.96874084742298],[5.867215118594111,52.978621994452745],[5.887267146336507,52.98151542236891],[5.8860765117039495,52.98402505033778],[5.882840855404701,52.98672331155263],[5.877480590647702,52.99085504836224],[5.866126685649646,52.999796820883816],[5.857602910042002,53.017008701389486],[5.849335330725115,53.02390530826818],[5.836009010539388,53.030974219467986],[5.823185979154312,53.0384320311097],[5.809041483947887,53.043685201660466],[5.800272793724477,53.04790905884136],[5.797947190627348,53.04980937669965],[5.795818069496858,53.05301666618486],[5.796458432172926,53.053737932896546],[5.795525254664181,53.05487706103026],[5.798748818349479,53.056196004705185],[5.79638627830574,53.058840022981954],[5.806701551471254,53.065570339068096],[5.80824300326895,53.06658948942721],[5.814179102375745,53.07239394471142],[5.81927465570451,53.075862861070085],[5.830162760485869,53.07959584123856],[5.831024517820214,53.07837570654417],[5.8433622718147085,53.080383412761535],[5.844769552765599,53.07957540879862],[5.854442225803246,53.08241445497854],[5.859116543716974,53.081978845003356],[5.872871147667076,53.085135608560584],[5.874643714278594,53.085070770901794],[5.872056057216905,53.08399068970871]]]]},"properties":{"type":"boundary","gemeente":"Heerenveen","code":"GM0074"}}]}