{"type":"FeatureCollection","metadata":{"gemeente":"Heiloo","slug":"heiloo","code":"GM0399","generated_at":"2026-07-06T16:26:11.361Z","total_passenger":108,"total_freight":0,"bounds":[4.670614096347089,52.578737676537976,4.752137370577582,52.62498589013946],"operators":["E-Flux by Road","EQUANS","NXT Charging Solutions","TotalEnergies","Ubitricity","Vattenfall InCharge"]},"features":[{"type":"Feature","geometry":{"type":"Point","coordinates":[4.705343,52.60893]},"properties":{"type":"charge","layer":"passenger","locationId":"98177a66-1b5f-48b5-95ff-5d0f9027b2de","name":"TNLP008548 - Wethouder Tomsonbos 99, Heiloo","address":"99 Wethouder Tomsonbos","city":"Heiloo","operatorName":"TotalEnergies","maxPowerKw":14,"isMegawatt":false,"status":"AVAILABLE","source":"ndw"}},{"type":"Feature","geometry":{"type":"Point","coordinates":[4.700565,52.600082]},"properties":{"type":"charge","layer":"passenger","locationId":"ab19dff3-e648-4fd0-bddc-82ee1ca612e7","name":"TNLP009094 - Stationsweg 92, Heiloo","address":"92 Stationsweg","city":"Heiloo","operatorName":"TotalEnergies","maxPowerKw":15,"isMegawatt":false,"status":"AVAILABLE","source":"ndw"}},{"type":"Feature","geometry":{"type":"Point","coordinates":[4.698757,52.599075]},"properties":{"type":"charge","layer":"passenger","locationId":"246499b9-76ed-4104-9a2e-bb863da98809","name":"TNLP006614 - Hoog en Laag 83, Heiloo","address":"83 Hoog en Laag","city":"Heiloo","operatorName":"TotalEnergies","maxPowerKw":13,"isMegawatt":false,"status":"AVAILABLE","source":"ndw"}},{"type":"Feature","geometry":{"type":"Point","coordinates":[4.69692,52.59395]},"properties":{"type":"charge","layer":"passenger","locationId":"590","name":"Shell Recharge NL Hazelaar 1","address":"Hazelaar 1","city":"Heiloo","operatorName":"Ubitricity","maxPowerKw":11,"isMegawatt":false,"status":"AVAILABLE","source":"ndw","priceKwh":0.388}},{"type":"Feature","geometry":{"type":"Point","coordinates":[4.71323,52.589054]},"properties":{"type":"charge","layer":"passenger","locationId":"f840a259-fdcd-4afc-b43b-50824fc7ad14","name":"PP005634 - Laan Eindeloos 9, Heiloo","address":"9 Laan Eindeloos","city":"Heiloo","operatorName":"TotalEnergies","maxPowerKw":13,"isMegawatt":false,"status":"AVAILABLE","source":"ndw"}},{"type":"Feature","geometry":{"type":"Point","coordinates":[4.71264,52.59278]},"properties":{"type":"charge","layer":"passenger","locationId":"1cafd025-5e90-4a26-a17e-66019dea98cb","name":"PP002617 - De Kuilenaar 2, Heiloo","address":"2 De Kuilenaar","city":"Heiloo","operatorName":"TotalEnergies","maxPowerKw":13,"isMegawatt":false,"status":"AVAILABLE","source":"ndw"}},{"type":"Feature","geometry":{"type":"Point","coordinates":[4.701247,52.5907]},"properties":{"type":"charge","layer":"passenger","locationId":"31817149-0752-4353-98bf-1fc92d4b856d","name":"TNLP006024 - Zomereik 1, Heiloo","address":"1 Zomereik","city":"Heiloo","operatorName":"TotalEnergies","maxPowerKw":13,"isMegawatt":false,"status":"AVAILABLE","source":"ndw"}},{"type":"Feature","geometry":{"type":"Point","coordinates":[4.70473,52.61041]},"properties":{"type":"charge","layer":"passenger","locationId":"ccfe36db-db32-43b7-adab-e5fa25f4d59a","name":"PP001652 - Jan Boltenhof 37, Heiloo","address":"37 Jan Boltenhof","city":"Heiloo","operatorName":"TotalEnergies","maxPowerKw":11,"isMegawatt":false,"status":"AVAILABLE","source":"ndw"}},{"type":"Feature","geometry":{"type":"Point","coordinates":[4.710665,52.60864]},"properties":{"type":"charge","layer":"passenger","locationId":"ca835efe-31ea-4c05-81de-0da35f69ac53","name":"TNLP034019","address":"Kerkelaan 57","city":"Heiloo","operatorName":"TotalEnergies","maxPowerKw":14,"isMegawatt":false,"status":"AVAILABLE","source":"ndw"}},{"type":"Feature","geometry":{"type":"Point","coordinates":[4.70813,52.58819]},"properties":{"type":"charge","layer":"passenger","locationId":"ab83c51e-396d-4d25-ae1d-19a31e7afeef","name":"PP004073 - De Boog 49, Heiloo","address":"49 De Boog","city":"Heiloo","operatorName":"TotalEnergies","maxPowerKw":13,"isMegawatt":false,"status":"AVAILABLE","source":"ndw"}},{"type":"Feature","geometry":{"type":"Point","coordinates":[4.703456,52.59281]},"properties":{"type":"charge","layer":"passenger","locationId":"e57e84e4-2346-444b-b054-08b165d5d9ec","name":"TNLP005660 - Lijsterbes 18, Heiloo","address":"18 Lijsterbes","city":"Heiloo","operatorName":"TotalEnergies","maxPowerKw":13,"isMegawatt":false,"status":"AVAILABLE","source":"ndw"}},{"type":"Feature","geometry":{"type":"Point","coordinates":[4.710056,52.593943]},"properties":{"type":"charge","layer":"passenger","locationId":"f849ccdb-b957-47ef-8180-0fcd3ff2429c","name":"TNLP034017","address":"De Stuifbergen 1","city":"Heiloo","operatorName":"TotalEnergies","maxPowerKw":14,"isMegawatt":false,"status":"AVAILABLE","source":"ndw"}},{"type":"Feature","geometry":{"type":"Point","coordinates":[4.71234,52.60576]},"properties":{"type":"charge","layer":"passenger","locationId":"db7ac03a-a991-48cb-9329-cc146dc7e430","name":"PP002618 - t Loo 69, Heiloo","address":"69 t Loo","city":"Heiloo","operatorName":"TotalEnergies","maxPowerKw":13,"isMegawatt":false,"status":"CHARGING","source":"ndw"}},{"type":"Feature","geometry":{"type":"Point","coordinates":[4.691019,52.59778]},"properties":{"type":"charge","layer":"passenger","locationId":"f3701900-f4e3-4e21-96bc-a97201bbdcee","name":"TNLP008359 - Vrieswijk 1, Heiloo","address":"1 Vrieswijk","city":"Heiloo","operatorName":"TotalEnergies","maxPowerKw":14,"isMegawatt":false,"status":"CHARGING","source":"ndw"}},{"type":"Feature","geometry":{"type":"Point","coordinates":[4.68644,52.60502]},"properties":{"type":"charge","layer":"passenger","locationId":"68","name":"Shell Recharge NL Harrelaers 65","address":"Harrelaers 65","city":"Heiloo","operatorName":"Ubitricity","maxPowerKw":11,"isMegawatt":false,"status":"AVAILABLE","source":"ndw","priceKwh":0.388}},{"type":"Feature","geometry":{"type":"Point","coordinates":[4.700774,52.59283]},"properties":{"type":"charge","layer":"passenger","locationId":"5872d8b9-0b62-419f-9255-ac8fe295ea3d","name":"TNLP006552 - Haagbeuk 3, Heiloo","address":"3 Haagbeuk","city":"Heiloo","operatorName":"TotalEnergies","maxPowerKw":13,"isMegawatt":false,"status":"CHARGING","source":"ndw"}},{"type":"Feature","geometry":{"type":"Point","coordinates":[4.715686,52.59192]},"properties":{"type":"charge","layer":"passenger","locationId":"3273f4ba-37c8-48ac-9046-fa4e89a534d9","name":"PP005639 - Rosendaal 20, Heiloo","address":"20 Rosendaal","city":"Heiloo","operatorName":"TotalEnergies","maxPowerKw":13,"isMegawatt":false,"status":"AVAILABLE","source":"ndw"}},{"type":"Feature","geometry":{"type":"Point","coordinates":[4.70305,52.60085]},"properties":{"type":"charge","layer":"passenger","locationId":"bf4bbcd4-9a90-491b-84d1-98c2959bc382","name":"TNLP005766 - Holleweg 116, Heiloo","address":"116 Holleweg","city":"Heiloo","operatorName":"TotalEnergies","maxPowerKw":17,"isMegawatt":false,"status":"AVAILABLE","source":"ndw"}},{"type":"Feature","geometry":{"type":"Point","coordinates":[4.715032,52.604797]},"properties":{"type":"charge","layer":"passenger","locationId":"5142d87f-f2a8-4a2b-8c8b-1109d1ad1a6b","name":"TNLP006622 - Nic Beetsweg 61, Heiloo","address":"61 Nic Beetsweg","city":"Heiloo","operatorName":"TotalEnergies","maxPowerKw":13,"isMegawatt":false,"status":"AVAILABLE","source":"ndw"}},{"type":"Feature","geometry":{"type":"Point","coordinates":[4.722938,52.603443]},"properties":{"type":"charge","layer":"passenger","locationId":"397d3425-0b18-45d0-9bcf-707531c7381e","name":"PP005594 - De Laghe Weijdt 46, Heiloo","address":"46 De Laghe Weijdt","city":"Heiloo","operatorName":"TotalEnergies","maxPowerKw":13,"isMegawatt":false,"status":"CHARGING","source":"ndw"}},{"type":"Feature","geometry":{"type":"Point","coordinates":[4.68774,52.6044]},"properties":{"type":"charge","layer":"passenger","locationId":"1516","name":"Shell Recharge NL Het Hoekstuk 25","address":"Het Hoekstuk 25","city":"Heiloo","operatorName":"Ubitricity","maxPowerKw":11,"isMegawatt":false,"status":"CHARGING","source":"ndw","priceKwh":0.388}},{"type":"Feature","geometry":{"type":"Point","coordinates":[4.70498,52.60753]},"properties":{"type":"charge","layer":"passenger","locationId":"fd3b0895-aa78-479b-a9da-34b657a2ccb2","name":"PP004260 - De Opkamer 7, Heiloo","address":"7 De Opkamer","city":"Heiloo","operatorName":"TotalEnergies","maxPowerKw":13,"isMegawatt":false,"status":"AVAILABLE","source":"ndw"}},{"type":"Feature","geometry":{"type":"Point","coordinates":[4.696087,52.604293]},"properties":{"type":"charge","layer":"passenger","locationId":"be3e4d9ac4387f3dd3b60f7055a1e3a7","name":"De Rookamer 37","address":"De Rookamer 37","city":"Heiloo","operatorName":"Vattenfall InCharge","maxPowerKw":11,"isMegawatt":false,"status":"AVAILABLE","source":"ndw"}},{"type":"Feature","geometry":{"type":"Point","coordinates":[4.691824,52.617409]},"properties":{"type":"charge","layer":"passenger","locationId":"69246fa8d40787f86b7e3151","name":"Electronic Solution BV (Buiten)","address":"Het Maalwater 16","city":"Heiloo","operatorName":"E-Flux by Road","maxPowerKw":11,"isMegawatt":false,"status":"AVAILABLE","source":"ndw","priceKwh":0.38}},{"type":"Feature","geometry":{"type":"Point","coordinates":[4.683445,52.60257]},"properties":{"type":"charge","layer":"passenger","locationId":"c00e7802-04ee-48f5-82f2-2a40e837510f","name":"TNLP009342 - Boswinde 15, Heiloo","address":"15 Boswinde","city":"Heiloo","operatorName":"TotalEnergies","maxPowerKw":15,"isMegawatt":false,"status":"AVAILABLE","source":"ndw"}},{"type":"Feature","geometry":{"type":"Point","coordinates":[4.7034721,52.5964836]},"properties":{"type":"charge","layer":"passenger","locationId":"2248","name":"Shell Recharge NL Brasemcroftlaan t.h.v. Breedelaan 95","address":"Brasemcroftlaan t.h.v. Breedelaan 95","city":"Heiloo","operatorName":"Ubitricity","maxPowerKw":22,"isMegawatt":false,"status":"AVAILABLE","source":"ndw","priceKwh":0.266}},{"type":"Feature","geometry":{"type":"Point","coordinates":[4.690821,52.607513]},"properties":{"type":"charge","layer":"passenger","locationId":"0bda31c9-18e6-4ffe-8567-a722d0d08642","name":"PP005451 - Gaanderij 13, Heiloo","address":"13 Gaanderij","city":"Heiloo","operatorName":"TotalEnergies","maxPowerKw":13,"isMegawatt":false,"status":"AVAILABLE","source":"ndw"}},{"type":"Feature","geometry":{"type":"Point","coordinates":[4.70188,52.59425]},"properties":{"type":"charge","layer":"passenger","locationId":"7a367319-ff94-41dd-9764-d8bd8b602ab9","name":"PP004037 - Zevenhuizerlaan 37, Heiloo","address":"37 Zevenhuizerlaan","city":"Heiloo","operatorName":"TotalEnergies","maxPowerKw":13,"isMegawatt":false,"status":"AVAILABLE","source":"ndw"}},{"type":"Feature","geometry":{"type":"Point","coordinates":[4.6961924,52.5916281]},"properties":{"type":"charge","layer":"passenger","locationId":"1419","name":"Shell Recharge NL Zomerlinde 15","address":"Zomerlinde 15","city":"Heiloo","operatorName":"Ubitricity","maxPowerKw":22,"isMegawatt":false,"status":"AVAILABLE","source":"ndw","priceKwh":0.266}},{"type":"Feature","geometry":{"type":"Point","coordinates":[4.704854,52.611186]},"properties":{"type":"charge","layer":"passenger","locationId":"623c763e0cb7e9202c906712","name":"MKEP's station","address":"Belieslaan 32","city":"Heiloo","operatorName":"E-Flux by Road","maxPowerKw":14,"isMegawatt":false,"status":"AVAILABLE","source":"ndw","priceKwh":0.58}},{"type":"Feature","geometry":{"type":"Point","coordinates":[4.711093,52.59352]},"properties":{"type":"charge","layer":"passenger","locationId":"aec0f2f4-c461-48ce-a7e3-4a461029c8be","name":"TNLP007606 - Ypesteinerlaan 20, Heiloo","address":"20 Ypesteinerlaan","city":"Heiloo","operatorName":"TotalEnergies","maxPowerKw":15,"isMegawatt":false,"status":"AVAILABLE","source":"ndw"}},{"type":"Feature","geometry":{"type":"Point","coordinates":[4.714452,52.590748]},"properties":{"type":"charge","layer":"passenger","locationId":"cc77814d-248e-4010-9ac1-c56f80bad31d","name":"TNLP006620 - Het Zandstuk 104, Heiloo","address":"104 Het Zandstuk","city":"Heiloo","operatorName":"TotalEnergies","maxPowerKw":15,"isMegawatt":false,"status":"AVAILABLE","source":"ndw"}},{"type":"Feature","geometry":{"type":"Point","coordinates":[4.703978,52.588062]},"properties":{"type":"charge","layer":"passenger","locationId":"e0f3f180-3ad3-4ab3-af0f-4284ddcadd25","name":"TNLP007931 - Maria's Hof 1, Heiloo","address":"1 Maria's Hof","city":"Heiloo","operatorName":"TotalEnergies","maxPowerKw":13,"isMegawatt":false,"status":"AVAILABLE","source":"ndw"}},{"type":"Feature","geometry":{"type":"Point","coordinates":[4.728139,52.616714]},"properties":{"type":"charge","layer":"passenger","locationId":"200eb410-e16f-47c0-b4e6-69e3f1a9d39e","name":"TNLP005659 - Kennemerstraatweg 196, Heiloo","address":"196 Kennemerstraatweg","city":"Heiloo","operatorName":"TotalEnergies","maxPowerKw":13,"isMegawatt":false,"status":"AVAILABLE","source":"ndw"}},{"type":"Feature","geometry":{"type":"Point","coordinates":[4.7214635,52.6033916]},"properties":{"type":"charge","layer":"passenger","locationId":"1875","name":"Shell Recharge NL Sluijsweijdt 4","address":"Sluijsweijdt 4","city":"Heiloo","operatorName":"Ubitricity","maxPowerKw":22,"isMegawatt":false,"status":"AVAILABLE","source":"ndw","priceKwh":0.266}},{"type":"Feature","geometry":{"type":"Point","coordinates":[4.721393,52.60097]},"properties":{"type":"charge","layer":"passenger","locationId":"c0511ab6-9e8f-4f98-8375-ab87a467786b","name":"TNLP007985 - Pijlemeeth 16, Heiloo","address":"16 Pijlemeeth","city":"Heiloo","operatorName":"TotalEnergies","maxPowerKw":15,"isMegawatt":false,"status":"AVAILABLE","source":"ndw"}},{"type":"Feature","geometry":{"type":"Point","coordinates":[4.710992,52.588097]},"properties":{"type":"charge","layer":"passenger","locationId":"69","name":"Shell Recharge NL Vijverlaan 74","address":"Vijverlaan 74","city":"Heiloo","operatorName":"Ubitricity","maxPowerKw":11,"isMegawatt":false,"status":"AVAILABLE","source":"ndw","priceKwh":0.388}},{"type":"Feature","geometry":{"type":"Point","coordinates":[4.71101,52.599296]},"properties":{"type":"charge","layer":"passenger","locationId":"ed823c1a22af7062fc5cd5d3dfe7ac81","name":"Melkrijdersweg 2","address":"Melkrijdersweg 2","city":"Heiloo","operatorName":"Vattenfall InCharge","maxPowerKw":11,"isMegawatt":false,"status":"AVAILABLE","source":"ndw"}},{"type":"Feature","geometry":{"type":"Point","coordinates":[4.70634,52.59103]},"properties":{"type":"charge","layer":"passenger","locationId":"672a78f3-0a9f-4319-a5df-4d13f6306481","name":"PP005060 - Ambachtsweg 61, Heiloo","address":"61 Ambachtsweg","city":"Heiloo","operatorName":"TotalEnergies","maxPowerKw":13,"isMegawatt":false,"status":"AVAILABLE","source":"ndw"}},{"type":"Feature","geometry":{"type":"Point","coordinates":[4.707531,52.59083]},"properties":{"type":"charge","layer":"passenger","locationId":"075cc84b-26d0-4bee-9a83-f5821258060e","name":"PP005028 - Ambachtsweg 91, Heiloo","address":"91 Ambachtsweg","city":"Heiloo","operatorName":"TotalEnergies","maxPowerKw":13,"isMegawatt":false,"status":"AVAILABLE","source":"ndw"}},{"type":"Feature","geometry":{"type":"Point","coordinates":[4.724995,52.600977]},"properties":{"type":"charge","layer":"passenger","locationId":"ea658e3c9caa75bed9825c60d472e8bb","name":"De Karremel 12","address":"De Karremel 12","city":"Heiloo","operatorName":"Vattenfall InCharge","maxPowerKw":11,"isMegawatt":false,"status":"AVAILABLE","source":"ndw"}},{"type":"Feature","geometry":{"type":"Point","coordinates":[4.710323,52.589932]},"properties":{"type":"charge","layer":"passenger","locationId":"74370a52bc876a9bdd2aa14b935b47d8","name":"Ypesteinerlaan 63","address":"Ypesteinerlaan 63","city":"Heiloo","operatorName":"Vattenfall InCharge","maxPowerKw":11,"isMegawatt":false,"status":"CHARGING","source":"ndw"}},{"type":"Feature","geometry":{"type":"Point","coordinates":[4.685514,52.59739]},"properties":{"type":"charge","layer":"passenger","locationId":"977a8be9-fe72-4fbc-b6bb-1185311946ba","name":"TNLP006075 - Vredenoord 30, Heiloo","address":"30 Vredenoord","city":"Heiloo","operatorName":"TotalEnergies","maxPowerKw":13,"isMegawatt":false,"status":"AVAILABLE","source":"ndw"}},{"type":"Feature","geometry":{"type":"Point","coordinates":[4.7012982,52.59093]},"properties":{"type":"charge","layer":"passenger","locationId":"1958","name":"Shell Recharge NL Zomereik 1","address":"Zomereik 1","city":"Heiloo","operatorName":"Ubitricity","maxPowerKw":22,"isMegawatt":false,"status":"AVAILABLE","source":"ndw","priceKwh":0.266}},{"type":"Feature","geometry":{"type":"Point","coordinates":[4.71288,52.601837]},"properties":{"type":"charge","layer":"passenger","locationId":"31417092-4dec-4fa2-bce5-24fbb88e5568","name":"TNLP009434 - Maas Geesteranusweg 2, Heiloo","address":"2 Maas Geesteranusweg","city":"Heiloo","operatorName":"TotalEnergies","maxPowerKw":13,"isMegawatt":false,"status":"AVAILABLE","source":"ndw"}},{"type":"Feature","geometry":{"type":"Point","coordinates":[4.694524,52.596523]},"properties":{"type":"charge","layer":"passenger","locationId":"79b50c21-c9ab-4c11-b12a-a0447f316ffb","name":"TNLP009233 - De Hofstee 7, Heiloo","address":"7 De Hofstee","city":"Heiloo","operatorName":"TotalEnergies","maxPowerKw":15,"isMegawatt":false,"status":"AVAILABLE","source":"ndw"}},{"type":"Feature","geometry":{"type":"Point","coordinates":[4.710981,52.599266]},"properties":{"type":"charge","layer":"passenger","locationId":"e6fe81b8-6d8a-4de1-ac97-8de756e2c307","name":"TNLP008480 - Melkrijdersweg 2, Heiloo","address":"2 Melkrijdersweg","city":"Heiloo","operatorName":"TotalEnergies","maxPowerKw":14,"isMegawatt":false,"status":"AVAILABLE","source":"ndw"}},{"type":"Feature","geometry":{"type":"Point","coordinates":[4.70458,52.60732]},"properties":{"type":"charge","layer":"passenger","locationId":"c0ad625df5d0f6ea1691ad296221b441","name":"De Driestal 10","address":"De Driestal 10","city":"Heiloo","operatorName":"Vattenfall InCharge","maxPowerKw":11,"isMegawatt":false,"status":"UNAVAILABLE","source":"ndw"}},{"type":"Feature","geometry":{"type":"Point","coordinates":[4.711844,52.587913]},"properties":{"type":"charge","layer":"passenger","locationId":"c9960368e6eac38d84797e9ce8e5d8a9","name":"Vijverlaan 40","address":"Vijverlaan 40","city":"Heiloo","operatorName":"Vattenfall InCharge","maxPowerKw":11,"isMegawatt":false,"status":"AVAILABLE","source":"ndw"}},{"type":"Feature","geometry":{"type":"Point","coordinates":[4.697419,52.581774]},"properties":{"type":"charge","layer":"passenger","locationId":"89182783","name":"EQUANS Fletcher Fletcher Hotel-Restaurant Heiloo","address":"Kennemerstraatweg 425","city":"Heiloo","operatorName":"EQUANS","maxPowerKw":11,"isMegawatt":false,"status":"AVAILABLE","source":"ndw"}},{"type":"Feature","geometry":{"type":"Point","coordinates":[4.702326,52.60479]},"properties":{"type":"charge","layer":"passenger","locationId":"20910787-4936-4d98-ac2f-857946a45cfc","name":"TNLP006099 - Van Vladerackenlaan 1a, Heiloo","address":"1a Van Vladerackenlaan","city":"Heiloo","operatorName":"TotalEnergies","maxPowerKw":13,"isMegawatt":false,"status":"AVAILABLE","source":"ndw"}},{"type":"Feature","geometry":{"type":"Point","coordinates":[4.70863,52.59126]},"properties":{"type":"charge","layer":"passenger","locationId":"a2744405-15f9-46d3-a41b-181f4c7ed9a8","name":"PP001475 - De Krommert 27, Heiloo","address":"27 De Krommert","city":"Heiloo","operatorName":"TotalEnergies","maxPowerKw":11,"isMegawatt":false,"status":"UNAVAILABLE","source":"ndw"}},{"type":"Feature","geometry":{"type":"Point","coordinates":[4.68394,52.59814]},"properties":{"type":"charge","layer":"passenger","locationId":"7db70b6d-9ce7-4cf6-81ed-81cbd209b4d4","name":"PP004023 - Vredenoord 103, Heiloo","address":"103 Vredenoord","city":"Heiloo","operatorName":"TotalEnergies","maxPowerKw":13,"isMegawatt":false,"status":"AVAILABLE","source":"ndw"}},{"type":"Feature","geometry":{"type":"Point","coordinates":[4.690578,52.599951]},"properties":{"type":"charge","layer":"passenger","locationId":"1646","name":"Shell Recharge NL Termijen 15","address":"Termijen 15","city":"Heiloo","operatorName":"Ubitricity","maxPowerKw":22,"isMegawatt":false,"status":"AVAILABLE","source":"ndw","priceKwh":0.388}},{"type":"Feature","geometry":{"type":"Point","coordinates":[4.698191,52.589275]},"properties":{"type":"charge","layer":"passenger","locationId":"62268c2c-2286-4e9e-a9d4-5cf5ff326fcf","name":"TNLP009620 - Jeneverbes 11, Heiloo","address":"11 Jeneverbes","city":"Heiloo","operatorName":"TotalEnergies","maxPowerKw":13,"isMegawatt":false,"status":"AVAILABLE","source":"ndw"}},{"type":"Feature","geometry":{"type":"Point","coordinates":[4.711091,52.606953]},"properties":{"type":"charge","layer":"passenger","locationId":"d39b7c12-c1e9-4187-bc84-c4542f45dbc3","name":"PP005435 - Vinkenbaan 2, Heiloo","address":"2 Vinkenbaan","city":"Heiloo","operatorName":"TotalEnergies","maxPowerKw":13,"isMegawatt":false,"status":"AVAILABLE","source":"ndw"}},{"type":"Feature","geometry":{"type":"Point","coordinates":[4.697456,52.590801]},"properties":{"type":"charge","layer":"passenger","locationId":"699860e24a091f7c9f02ba66","name":"De Goeij Charging Lounge","address":"liguster 48","city":"heiloo","operatorName":"E-Flux by Road","maxPowerKw":11,"isMegawatt":false,"status":"CHARGING","source":"ndw","priceKwh":0.38}},{"type":"Feature","geometry":{"type":"Point","coordinates":[4.702429,52.606926]},"properties":{"type":"charge","layer":"passenger","locationId":"7b9b6f90-34ce-4726-bf0f-ddcfab1b27e9","name":"TNLP009482 - Bayershoffweg 42, Heiloo","address":"42 Bayershoffweg","city":"Heiloo","operatorName":"TotalEnergies","maxPowerKw":13,"isMegawatt":false,"status":"AVAILABLE","source":"ndw"}},{"type":"Feature","geometry":{"type":"Point","coordinates":[4.7123034,52.6038116]},"properties":{"type":"charge","layer":"passenger","locationId":"2774","name":"Shell Recharge NL Van Aostastraat 4","address":"Van Aostastraat 4","city":"Heiloo","operatorName":"Ubitricity","maxPowerKw":22,"isMegawatt":false,"status":"CHARGING","source":"ndw","priceKwh":0.266}},{"type":"Feature","geometry":{"type":"Point","coordinates":[4.693404,52.59198]},"properties":{"type":"charge","layer":"passenger","locationId":"265aa445-5bc6-423d-aa3a-830867299e6f","name":"TNLP008475 - Ringelwikke 12, Heiloo","address":"12 Ringelwikke","city":"Heiloo","operatorName":"TotalEnergies","maxPowerKw":14,"isMegawatt":false,"status":"AVAILABLE","source":"ndw"}},{"type":"Feature","geometry":{"type":"Point","coordinates":[4.710722,52.59241]},"properties":{"type":"charge","layer":"passenger","locationId":"2d7fc9aa-1c9a-4066-bb8b-4b3e527f59bb","name":"TNLP009343 - De Sonneveld 7, Heiloo","address":"7 De Sonneveld","city":"Heiloo","operatorName":"TotalEnergies","maxPowerKw":15,"isMegawatt":false,"status":"AVAILABLE","source":"ndw"}},{"type":"Feature","geometry":{"type":"Point","coordinates":[4.692815,52.596176]},"properties":{"type":"charge","layer":"passenger","locationId":"67450eda-b392-4ab3-9c1a-a7314c564817","name":"TNLP007604 - Het Zevenhuizen 41, Heiloo","address":"41 Het Zevenhuizen","city":"Heiloo","operatorName":"TotalEnergies","maxPowerKw":15,"isMegawatt":false,"status":"AVAILABLE","source":"ndw"}},{"type":"Feature","geometry":{"type":"Point","coordinates":[4.703134,52.58909]},"properties":{"type":"charge","layer":"passenger","locationId":"b4a3301d-7b07-47e0-a13d-dae7a075af37","name":"TNLP005720 - Kennemerstraatweg 630, Heiloo","address":"630 Kennemerstraatweg","city":"Heiloo","operatorName":"TotalEnergies","maxPowerKw":15,"isMegawatt":false,"status":"AVAILABLE","source":"ndw"}},{"type":"Feature","geometry":{"type":"Point","coordinates":[4.70548,52.6045]},"properties":{"type":"charge","layer":"passenger","locationId":"b9340276-f995-4149-b6f7-5cef4d872e47","name":"PP004063 - Bergeonstraat 36, Heiloo","address":"36 Bergeonstraat","city":"Heiloo","operatorName":"TotalEnergies","maxPowerKw":13,"isMegawatt":false,"status":"AVAILABLE","source":"ndw"}},{"type":"Feature","geometry":{"type":"Point","coordinates":[4.715203,52.593266]},"properties":{"type":"charge","layer":"passenger","locationId":"7d549184-d1fb-419c-bc92-b48ec7491850","name":"TNLP007451 - De Waard 86, Heiloo","address":"86 De Waard","city":"Heiloo","operatorName":"TotalEnergies","maxPowerKw":15,"isMegawatt":false,"status":"AVAILABLE","source":"ndw"}},{"type":"Feature","geometry":{"type":"Point","coordinates":[4.696619,52.592407]},"properties":{"type":"charge","layer":"passenger","locationId":"de175109-b7b9-4799-9652-d225c069c771","name":"TNLP007928 - Elzenwal 32, Heiloo","address":"32 Elzenwal","city":"Heiloo","operatorName":"TotalEnergies","maxPowerKw":15,"isMegawatt":false,"status":"AVAILABLE","source":"ndw"}},{"type":"Feature","geometry":{"type":"Point","coordinates":[4.7015968,52.6063434]},"properties":{"type":"charge","layer":"passenger","locationId":"2246","name":"Shell Recharge NL Arklaan 7","address":"Arklaan 7","city":"Heiloo","operatorName":"Ubitricity","maxPowerKw":22,"isMegawatt":false,"status":"CHARGING","source":"ndw","priceKwh":0.266}},{"type":"Feature","geometry":{"type":"Point","coordinates":[4.705249,52.602196]},"properties":{"type":"charge","layer":"passenger","locationId":"e2c80f6e-0389-4efc-ac3f-c100772d6626","name":"TNLP006600 - Holleweg 80, Heiloo","address":"80 Holleweg","city":"Heiloo","operatorName":"TotalEnergies","maxPowerKw":13,"isMegawatt":false,"status":"AVAILABLE","source":"ndw"}},{"type":"Feature","geometry":{"type":"Point","coordinates":[4.713,52.60442]},"properties":{"type":"charge","layer":"passenger","locationId":"2814b90a-5a43-4f74-8fe1-ae99297cfa19","name":"PP001743 - Raadhuisplein 1, Heiloo","address":"1 Raadhuisplein","city":"Heiloo","operatorName":"TotalEnergies","maxPowerKw":11,"isMegawatt":false,"status":"AVAILABLE","source":"ndw"}},{"type":"Feature","geometry":{"type":"Point","coordinates":[4.68811,52.59962]},"properties":{"type":"charge","layer":"passenger","locationId":"336e3e06-d022-436d-ac13-ef1b3e4d1e4e","name":"PP004064 - Termijen 84, Heiloo","address":"84 Termijen","city":"Heiloo","operatorName":"TotalEnergies","maxPowerKw":15,"isMegawatt":false,"status":"AVAILABLE","source":"ndw"}},{"type":"Feature","geometry":{"type":"Point","coordinates":[4.69305,52.59901]},"properties":{"type":"charge","layer":"passenger","locationId":"682","name":"Shell Recharge NL Goodeslaan 51","address":"Goodeslaan 51","city":"Heiloo","operatorName":"Ubitricity","maxPowerKw":11,"isMegawatt":false,"status":"AVAILABLE","source":"ndw","priceKwh":0.388}},{"type":"Feature","geometry":{"type":"Point","coordinates":[4.6904735,52.6064663]},"properties":{"type":"charge","layer":"passenger","locationId":"920","name":"Shell Recharge NL Gaanderij 29","address":"Gaanderij 29","city":"Heiloo","operatorName":"Ubitricity","maxPowerKw":22,"isMegawatt":false,"status":"CHARGING","source":"ndw","priceKwh":0.266}},{"type":"Feature","geometry":{"type":"Point","coordinates":[4.714628,52.6064785]},"properties":{"type":"charge","layer":"passenger","locationId":"814","name":"Shell Recharge NL Kerkelaan 8","address":"Kerkelaan 8","city":"Heiloo","operatorName":"Ubitricity","maxPowerKw":22,"isMegawatt":false,"status":"AVAILABLE","source":"ndw","priceKwh":0.266}},{"type":"Feature","geometry":{"type":"Point","coordinates":[4.720419,52.593132]},"properties":{"type":"charge","layer":"passenger","locationId":"fdbbccd3-96a9-4c28-b6ab-60f34b9f0c8a","name":"TNLP003565 - De Oude Werf 10, Heiloo","address":"10 De Oude Werf","city":"Heiloo","operatorName":"TotalEnergies","maxPowerKw":17,"isMegawatt":false,"status":"AVAILABLE","source":"ndw"}},{"type":"Feature","geometry":{"type":"Point","coordinates":[4.69925,52.609511]},"properties":{"type":"charge","layer":"passenger","locationId":"cdfc46f107ce3ab220f71c70e48ec230","name":"De Houtwal 34","address":"De Houtwal 34","city":"Heiloo","operatorName":"Vattenfall InCharge","maxPowerKw":11,"isMegawatt":false,"status":"AVAILABLE","source":"ndw"}},{"type":"Feature","geometry":{"type":"Point","coordinates":[4.712248,52.60408]},"properties":{"type":"charge","layer":"passenger","locationId":"2c0de978-a2a2-4934-8568-cc5d74350e96","name":"TNLP005764 - Van Aostastraat 16, Heiloo","address":"16 Van Aostastraat","city":"Heiloo","operatorName":"TotalEnergies","maxPowerKw":13,"isMegawatt":false,"status":"AVAILABLE","source":"ndw"}},{"type":"Feature","geometry":{"type":"Point","coordinates":[4.711755,52.589462]},"properties":{"type":"charge","layer":"passenger","locationId":"aee21afc-d4f1-45c9-a9d3-e6ed04fabe42","name":"TNLP009297 - Vijverlaan 33, Heiloo","address":"33 Vijverlaan","city":"Heiloo","operatorName":"TotalEnergies","maxPowerKw":13,"isMegawatt":false,"status":"AVAILABLE","source":"ndw"}},{"type":"Feature","geometry":{"type":"Point","coordinates":[4.717385,52.603183]},"properties":{"type":"charge","layer":"passenger","locationId":"20525ed6612e0d00b9c40c36bd50c20e","name":"De Loet 3","address":"De Loet 3","city":"Heiloo","operatorName":"Vattenfall InCharge","maxPowerKw":11,"isMegawatt":false,"status":"AVAILABLE","source":"ndw"}},{"type":"Feature","geometry":{"type":"Point","coordinates":[4.719027,52.603899]},"properties":{"type":"charge","layer":"passenger","locationId":"1610","name":"Shell Recharge NL Poortweijdt 1","address":"Poortweijdt 1","city":"Heiloo","operatorName":"Ubitricity","maxPowerKw":11,"isMegawatt":false,"status":"CHARGING","source":"ndw","priceKwh":0.388}},{"type":"Feature","geometry":{"type":"Point","coordinates":[4.71066,52.605335]},"properties":{"type":"charge","layer":"passenger","locationId":"1c8c0c97-af1c-4ef9-bfc4-052a6c8b89c8","name":"TNLP007466 - 't Loo 51, Heiloo","address":"51 't Loo","city":"Heiloo","operatorName":"TotalEnergies","maxPowerKw":13,"isMegawatt":false,"status":"AVAILABLE","source":"ndw"}},{"type":"Feature","geometry":{"type":"Point","coordinates":[4.69117,52.60202]},"properties":{"type":"charge","layer":"passenger","locationId":"7219c656-b020-4ff5-a977-86c2e835f80d","name":"TNLP008472 - Mariënstein 145, Heiloo","address":"145 Mariënstein","city":"Heiloo","operatorName":"TotalEnergies","maxPowerKw":13,"isMegawatt":false,"status":"AVAILABLE","source":"ndw"}},{"type":"Feature","geometry":{"type":"Point","coordinates":[4.69373,52.59063]},"properties":{"type":"charge","layer":"passenger","locationId":"eea7892216efb238c4682aa8cf144321","name":"Zilverschoon 6","address":"Zilverschoon 6","city":"Heiloo","operatorName":"Vattenfall InCharge","maxPowerKw":11,"isMegawatt":false,"status":"AVAILABLE","source":"ndw"}},{"type":"Feature","geometry":{"type":"Point","coordinates":[4.7093,52.60115]},"properties":{"type":"charge","layer":"passenger","locationId":"561","name":"Shell Recharge NL Wilgenlaan 2","address":"Wilgenlaan 2","city":"Heiloo","operatorName":"Ubitricity","maxPowerKw":11,"isMegawatt":false,"status":"AVAILABLE","source":"ndw","priceKwh":0.388}},{"type":"Feature","geometry":{"type":"Point","coordinates":[4.72625,52.602497]},"properties":{"type":"charge","layer":"passenger","locationId":"5090f239-80af-43ce-8e47-974e26c6d3cd","name":"PP005654 - De Oostkanter 9321, Heiloo","address":"9321 De Oostkanter","city":"Heiloo","operatorName":"TotalEnergies","maxPowerKw":13,"isMegawatt":false,"status":"AVAILABLE","source":"ndw"}},{"type":"Feature","geometry":{"type":"Point","coordinates":[4.700514,52.600024]},"properties":{"type":"charge","layer":"passenger","locationId":"fd56f54cca406c153d804d62279ea994","name":"Stationsweg 92","address":"Stationsweg 92","city":"Heiloo","operatorName":"Vattenfall InCharge","maxPowerKw":11,"isMegawatt":false,"status":"AVAILABLE","source":"ndw"}},{"type":"Feature","geometry":{"type":"Point","coordinates":[4.70165,52.596687]},"properties":{"type":"charge","layer":"passenger","locationId":"bdb83341-0055-4143-9c7e-b861bc71e3ef","name":"PP005627 - Sandecamplaan 23, Heiloo","address":"23 Sandecamplaan","city":"Heiloo","operatorName":"TotalEnergies","maxPowerKw":13,"isMegawatt":false,"status":"AVAILABLE","source":"ndw"}},{"type":"Feature","geometry":{"type":"Point","coordinates":[4.703883,52.593841]},"properties":{"type":"charge","layer":"passenger","locationId":"1665","name":"Shell Recharge NL Zevenhuizerlaan 7","address":"Zevenhuizerlaan 7","city":"Heiloo","operatorName":"Ubitricity","maxPowerKw":22,"isMegawatt":false,"status":"AVAILABLE","source":"ndw","priceKwh":0.388}},{"type":"Feature","geometry":{"type":"Point","coordinates":[4.6983,52.612225]},"properties":{"type":"charge","layer":"passenger","locationId":"42c50b95-11e3-4e6d-b595-a52a58c1566d","name":"TNLP007450 - De Watergang 29, Heiloo","address":"29 De Watergang","city":"Heiloo","operatorName":"TotalEnergies","maxPowerKw":15,"isMegawatt":false,"status":"AVAILABLE","source":"ndw"}},{"type":"Feature","geometry":{"type":"Point","coordinates":[4.70533,52.591019]},"properties":{"type":"charge","layer":"passenger","locationId":"4a8cf735-03a9-4a11-957e-d0d9be37fd0e","name":"TNLP034139","address":"Ambachtsweg 26","city":"Heiloo","operatorName":"TotalEnergies","maxPowerKw":14,"isMegawatt":false,"status":"AVAILABLE","source":"ndw"}},{"type":"Feature","geometry":{"type":"Point","coordinates":[4.703467,52.610294]},"properties":{"type":"charge","layer":"passenger","locationId":"a5ff03fb-6716-4974-877c-d46bab47b993","name":"TNLP006619 - De Dors 2, Heiloo","address":"2 De Dors","city":"Heiloo","operatorName":"TotalEnergies","maxPowerKw":13,"isMegawatt":false,"status":"AVAILABLE","source":"ndw"}},{"type":"Feature","geometry":{"type":"Point","coordinates":[4.704861,52.59597]},"properties":{"type":"charge","layer":"passenger","locationId":"f0ae5529-6391-4130-9da2-ed40cf689456","name":"TNLP007376 - Brasemcroftlaan 23, Heiloo","address":"23 Brasemcroftlaan","city":"Heiloo","operatorName":"TotalEnergies","maxPowerKw":13,"isMegawatt":false,"status":"AVAILABLE","source":"ndw"}},{"type":"Feature","geometry":{"type":"Point","coordinates":[4.6991433,52.5984769]},"properties":{"type":"charge","layer":"passenger","locationId":"2251","name":"Shell Recharge NL Hoog en Laag 161","address":"Hoog en Laag 161","city":"Heiloo","operatorName":"Ubitricity","maxPowerKw":22,"isMegawatt":false,"status":"AVAILABLE","source":"ndw","priceKwh":0.266}},{"type":"Feature","geometry":{"type":"Point","coordinates":[4.701324,52.587969]},"properties":{"type":"charge","layer":"passenger","locationId":"64affb346d4df9001c3977fa","name":"NXT Charge - Heiloo - Vennewatersweg 2a - DC","address":"Vennewatersweg 2a","city":"Heiloo","operatorName":"NXT Charging Solutions","maxPowerKw":320,"isMegawatt":false,"status":"AVAILABLE","source":"ndw","priceKwh":0.63}},{"type":"Feature","geometry":{"type":"Point","coordinates":[4.68656,52.60164]},"properties":{"type":"charge","layer":"passenger","locationId":"270","name":"Shell Recharge NL Baetenburg 70","address":"Baetenburg 70","city":"Heiloo","operatorName":"Ubitricity","maxPowerKw":11,"isMegawatt":false,"status":"AVAILABLE","source":"ndw","priceKwh":0.388}},{"type":"Feature","geometry":{"type":"Point","coordinates":[4.692024,52.603947]},"properties":{"type":"charge","layer":"passenger","locationId":"dfed9c8e-2a52-46d3-92e3-399039b2f2c9","name":"TNLP008543 - De Vlei 12, Heiloo","address":"12 De Vlei","city":"Heiloo","operatorName":"TotalEnergies","maxPowerKw":13,"isMegawatt":false,"status":"AVAILABLE","source":"ndw"}},{"type":"Feature","geometry":{"type":"Point","coordinates":[4.709042,52.590103]},"properties":{"type":"charge","layer":"passenger","locationId":"398c444a-9119-4aa5-a685-45bce4582713","name":"TNLP005673 - De Krommert 22, Heiloo","address":"22 De Krommert","city":"Heiloo","operatorName":"TotalEnergies","maxPowerKw":13,"isMegawatt":false,"status":"AVAILABLE","source":"ndw"}},{"type":"Feature","geometry":{"type":"Point","coordinates":[4.700443,52.588818]},"properties":{"type":"charge","layer":"passenger","locationId":"8a4b3d23-43b0-44d4-b5bf-cc24dfe91f16","name":"TNLP008500 - Wegedoorn 1, Heiloo","address":"1 Wegedoorn","city":"Heiloo","operatorName":"TotalEnergies","maxPowerKw":14,"isMegawatt":false,"status":"AVAILABLE","source":"ndw"}},{"type":"Feature","geometry":{"type":"Point","coordinates":[4.712862,52.591824]},"properties":{"type":"charge","layer":"passenger","locationId":"97a7a7c8-efaa-4aa3-8840-f125c24a84aa","name":"TNLP009453 - Rosendaal 87, Heiloo","address":"87 Rosendaal","city":"Heiloo","operatorName":"TotalEnergies","maxPowerKw":13,"isMegawatt":false,"status":"AVAILABLE","source":"ndw"}},{"type":"Feature","geometry":{"type":"Point","coordinates":[4.691874,52.6033]},"properties":{"type":"charge","layer":"passenger","locationId":"7bb9cb9d-75c6-42ac-8d5d-4f9633bf8fa7","name":"TNLP007228 - De Kandelaar 31, Heiloo","address":"31 De Kandelaar","city":"Heiloo","operatorName":"TotalEnergies","maxPowerKw":13,"isMegawatt":false,"status":"AVAILABLE","source":"ndw"}},{"type":"Feature","geometry":{"type":"Point","coordinates":[4.710282,52.603672]},"properties":{"type":"charge","layer":"passenger","locationId":"7df9888b-df59-4ae7-b52e-67825a7a20d5","name":"TNLP009092 - Laarmanstraat 18, Heiloo","address":"18 Laarmanstraat","city":"Heiloo","operatorName":"TotalEnergies","maxPowerKw":13,"isMegawatt":false,"status":"AVAILABLE","source":"ndw"}},{"type":"Feature","geometry":{"type":"Point","coordinates":[4.687246,52.603478]},"properties":{"type":"charge","layer":"passenger","locationId":"190e7fdbd4f6eaf6f50eeb16b85a92d4","name":"Het Hoekstuk 16","address":"Het Hoekstuk 16","city":"Heiloo","operatorName":"Vattenfall InCharge","maxPowerKw":11,"isMegawatt":false,"status":"AVAILABLE","source":"ndw"}},{"type":"Feature","geometry":{"type":"Point","coordinates":[4.695811,52.591038]},"properties":{"type":"charge","layer":"passenger","locationId":"9c0fdcebb08c4687ead6867ee438a3c2","name":"Duindoorn 9","address":"Duindoorn 9","city":"Heiloo","operatorName":"Vattenfall InCharge","maxPowerKw":11,"isMegawatt":false,"status":"AVAILABLE","source":"ndw"}},{"type":"Feature","geometry":{"type":"Point","coordinates":[4.692343,52.580573]},"properties":{"type":"charge","layer":"passenger","locationId":"15a5a5fb-7273-4d77-abbc-664ac419bef6","name":"TNLP034247","address":"Tuinderstraat 25","city":"Heiloo","operatorName":"TotalEnergies","maxPowerKw":14,"isMegawatt":false,"status":"AVAILABLE","source":"ndw"}},{"type":"Feature","geometry":{"type":"Point","coordinates":[4.70039,52.589912]},"properties":{"type":"charge","layer":"passenger","locationId":"0d211457-3bf2-4517-bbbd-3a3da9d328d5","name":"TNLP008614 - Haagbeuk 48, Heiloo","address":"48 Haagbeuk","city":"Heiloo","operatorName":"TotalEnergies","maxPowerKw":13,"isMegawatt":false,"status":"AVAILABLE","source":"ndw"}},{"type":"Feature","geometry":{"type":"Point","coordinates":[4.68889,52.60185]},"properties":{"type":"charge","layer":"passenger","locationId":"b47f6569857cdabecbc94a27906e6b99","name":"Mariënstein 25","address":"Mariënstein 25","city":"Heiloo","operatorName":"Vattenfall InCharge","maxPowerKw":11,"isMegawatt":false,"status":"AVAILABLE","source":"ndw"}},{"type":"Feature","geometry":{"type":"Point","coordinates":[4.69881,52.58928]},"properties":{"type":"charge","layer":"passenger","locationId":"56ccab94cdc8d4f841b82a25acc69ec4","name":"Jeneverbes 1","address":"Jeneverbes 1","city":"Heiloo","operatorName":"Vattenfall InCharge","maxPowerKw":11,"isMegawatt":false,"status":"AVAILABLE","source":"ndw"}},{"type":"Feature","geometry":{"type":"Point","coordinates":[4.704539,52.594945]},"properties":{"type":"charge","layer":"passenger","locationId":"5c3e794b6cb2b35eb5e59480123e8d87","name":"Werkendelslaan 96","address":"Werkendelslaan 96","city":"Heiloo","operatorName":"Vattenfall InCharge","maxPowerKw":22,"isMegawatt":false,"status":"AVAILABLE","source":"ndw"}},{"type":"Feature","geometry":{"type":"Point","coordinates":[4.68685,52.59787]},"properties":{"type":"charge","layer":"passenger","locationId":"b39e445d8655a160c41e0c5144b9d461","name":"Vredenoord 174","address":"Vredenoord 174","city":"Heiloo","operatorName":"Vattenfall InCharge","maxPowerKw":11,"isMegawatt":false,"status":"AVAILABLE","source":"ndw"}},{"type":"Feature","geometry":{"type":"MultiPolygon","coordinates":[[[[4.721528577259078,52.6225097730121],[4.7312628423388805,52.61868557908073],[4.731262901802116,52.61868555244667],[4.73318682043329,52.617655593849264],[4.739449762758563,52.613868867788625],[4.737878522600878,52.61216231326159],[4.737878259401565,52.61216203950672],[4.7333465382068916,52.60754786845756],[4.733897619007637,52.60729606917046],[4.736185327377721,52.60544527530516],[4.735408680262242,52.603825049734496],[4.737908006883482,52.59729119418778],[4.736964935812249,52.59576267157107],[4.7374606541740825,52.59385891933338],[4.752137370577582,52.59189150290857],[4.750967225485371,52.58911939698739],[4.744454624457851,52.590289016050164],[4.73999155100453,52.578928707691304],[4.726706596213709,52.57963766752804],[4.7248821262047445,52.578737676537976],[4.723337929057903,52.57976619958425],[4.718466791701346,52.580062012073505],[4.718181223894001,52.58008140658066],[4.710256532717696,52.58058810035602],[4.703754667312987,52.58033907611072],[4.703358862061666,52.58155153788358],[4.698315098650082,52.58185552532883],[4.6965862727082595,52.57897843872997],[4.691084411319063,52.579578739987824],[4.691303670078838,52.580049271860965],[4.685424190167208,52.58095751764847],[4.686242448613133,52.58295743384236],[4.685520888734371,52.58313156426896],[4.679272536619481,52.58387377007414],[4.677652825539167,52.58433773382878],[4.6777371382301,52.58548410097092],[4.671640025900468,52.58729857551628],[4.670614096347089,52.58872986391568],[4.673978401001145,52.58994774483197],[4.672580068266239,52.59090468046884],[4.672399570128986,52.59229740514689],[4.673861512636611,52.59292921653671],[4.673173764108345,52.596211497814636],[4.673878901236663,52.60095958588229],[4.674441317825638,52.603772149051],[4.68037261376669,52.608461184923904],[4.68076601757371,52.61028018722055],[4.683691567489212,52.61267304948785],[4.685804817483663,52.61777091957661],[4.685509702544691,52.61931187822561],[4.689991888657906,52.62375186468353],[4.705698814960652,52.621355051798496],[4.707953773756104,52.620349098385624],[4.714585224456518,52.624782685673615],[4.716306725562499,52.62498589013946],[4.721528577259078,52.6225097730121]]]]},"properties":{"type":"boundary","gemeente":"Heiloo","code":"GM0399"}}]}