{"type":"FeatureCollection","metadata":{"gemeente":"Houten","slug":"houten","code":"GM0321","generated_at":"2026-07-06T16:26:11.361Z","total_passenger":249,"total_freight":0,"bounds":[5.119562825567581,51.959432516805045,5.271407094619932,52.056757219321035],"operators":["DAEN Mobility","E-Flux by Road","Eneco","Laadnet","Lanova Laadpalen","NXT50Five","Pluq","Shell Recharge","Spirii","Tesla","TotalEnergies","Ubitricity","Valk Energy","Vattenfall","Vattenfall InCharge"]},"features":[{"type":"Feature","geometry":{"type":"Point","coordinates":[5.174258,52.014923]},"properties":{"type":"charge","layer":"passenger","locationId":"2514c377-aa0d-453b-955a-4c556021691d","name":"PP005005 - Donjonmuur 15, Houten","address":"15 Donjonmuur","city":"Houten","operatorName":"TotalEnergies","maxPowerKw":11,"isMegawatt":false,"status":"CHARGING","source":"ndw"}},{"type":"Feature","geometry":{"type":"Point","coordinates":[5.183857,52.03438]},"properties":{"type":"charge","layer":"passenger","locationId":"35bb5d14-1903-46ed-aff2-f87a7e199aff","name":"TNLP009095 - Eekhoornakker 78, Houten","address":"78 Eekhoornakker","city":"Houten","operatorName":"TotalEnergies","maxPowerKw":17,"isMegawatt":false,"status":"AVAILABLE","source":"ndw"}},{"type":"Feature","geometry":{"type":"Point","coordinates":[5.18961,52.01305]},"properties":{"type":"charge","layer":"passenger","locationId":"1594f998-f991-4147-b4f8-8c9b70c026a3","name":"PP001714 - Puntmos 46, Houten","address":"46 Puntmos","city":"Houten","operatorName":"TotalEnergies","maxPowerKw":11,"isMegawatt":false,"status":"CHARGING","source":"ndw"}},{"type":"Feature","geometry":{"type":"Point","coordinates":[5.19691,52.02139]},"properties":{"type":"charge","layer":"passenger","locationId":"56deaae3-8dce-42a5-99ef-0aab37a6e898","name":"PP002147 - Gletsjermeer 53, Houten","address":"53 Gletsjermeer","city":"Houten","operatorName":"TotalEnergies","maxPowerKw":11,"isMegawatt":false,"status":"AVAILABLE","source":"ndw"}},{"type":"Feature","geometry":{"type":"Point","coordinates":[5.161763,52.016636]},"properties":{"type":"charge","layer":"passenger","locationId":"eb4f76b7-f652-47d0-a6ce-4c3b9f80568e","name":"TNLP007105 - Geiserwater 15, Houten","address":"15 Geiserwater","city":"Houten","operatorName":"TotalEnergies","maxPowerKw":17,"isMegawatt":false,"status":"AVAILABLE","source":"ndw"}},{"type":"Feature","geometry":{"type":"Point","coordinates":[5.145719,52.035347]},"properties":{"type":"charge","layer":"passenger","locationId":"d45bfa3f-8059-4da9-a460-d971ba5e136a","name":"PP005431 - Schegcamp 7, Houten","address":"7 Schegcamp","city":"Houten","operatorName":"TotalEnergies","maxPowerKw":11,"isMegawatt":false,"status":"AVAILABLE","source":"ndw"}},{"type":"Feature","geometry":{"type":"Point","coordinates":[5.151121,52.03163]},"properties":{"type":"charge","layer":"passenger","locationId":"73946073-65d5-4bf3-9e23-355eb40c3e11","name":"PP005561 - Reaalslag 7, Houten","address":"7 Reaalslag","city":"Houten","operatorName":"TotalEnergies","maxPowerKw":11,"isMegawatt":false,"status":"AVAILABLE","source":"ndw"}},{"type":"Feature","geometry":{"type":"Point","coordinates":[5.16444,52.01305]},"properties":{"type":"charge","layer":"passenger","locationId":"21b843c3-e2f7-4825-a01f-d68f8ae3e5c0","name":"PP001468 - Vechtpolder 12, Houten","address":"12 Vechtpolder","city":"Houten","operatorName":"TotalEnergies","maxPowerKw":11,"isMegawatt":false,"status":"AVAILABLE","source":"ndw"}},{"type":"Feature","geometry":{"type":"Point","coordinates":[5.180873,52.012466]},"properties":{"type":"charge","layer":"passenger","locationId":"5784d333-8f70-4f3e-9a97-eff1a6abc62b","name":"PP005555 - Edelsteen 82, Houten","address":"82 Edelsteen","city":"Houten","operatorName":"TotalEnergies","maxPowerKw":11,"isMegawatt":false,"status":"AVAILABLE","source":"ndw"}},{"type":"Feature","geometry":{"type":"Point","coordinates":[5.171864,52.031722]},"properties":{"type":"charge","layer":"passenger","locationId":"c8bed6c7-6c67-4e8b-91be-a03713a5170d","name":"TNLP015263","address":"De Molen 65","city":"Houten","operatorName":"TotalEnergies","maxPowerKw":17,"isMegawatt":false,"status":"AVAILABLE","source":"ndw"}},{"type":"Feature","geometry":{"type":"Point","coordinates":[5.175533,52.04352]},"properties":{"type":"charge","layer":"passenger","locationId":"c8c65000-a92b-41f5-8bb5-a71de1b81005","name":"TNLP007280 - Gaffelveld 37, Houten","address":"37 Gaffelveld","city":"Houten","operatorName":"TotalEnergies","maxPowerKw":17,"isMegawatt":false,"status":"AVAILABLE","source":"ndw"}},{"type":"Feature","geometry":{"type":"Point","coordinates":[5.165418,52.016621]},"properties":{"type":"charge","layer":"passenger","locationId":"8900ff83-f17d-4314-b17d-83049a92d395","name":"TNLP034193","address":"Fonteinwater 14","city":"Houten","operatorName":"TotalEnergies","maxPowerKw":14,"isMegawatt":false,"status":"AVAILABLE","source":"ndw"}},{"type":"Feature","geometry":{"type":"Point","coordinates":[5.1731454,52.0108787]},"properties":{"type":"charge","layer":"passenger","locationId":"950","name":"Shell Recharge NL Galerijmuur 1","address":"Galerijmuur 1","city":"Houten","operatorName":"Ubitricity","maxPowerKw":22,"isMegawatt":false,"status":"CHARGING","source":"ndw","priceKwh":0.266}},{"type":"Feature","geometry":{"type":"Point","coordinates":[5.187931,52.019005]},"properties":{"type":"charge","layer":"passenger","locationId":"5b03c6a5-0027-4e84-bef9-ab1ec088aa93","name":"Laadplein - PP005007 - Bloesemtuin 17, Houten","address":"17 Bloesemtuin","city":"Houten","operatorName":"TotalEnergies","maxPowerKw":15,"isMegawatt":false,"status":"AVAILABLE","source":"ndw"}},{"type":"Feature","geometry":{"type":"Point","coordinates":[5.17695,52.01963]},"properties":{"type":"charge","layer":"passenger","locationId":"1478","name":"Shell Recharge NL De Bouw 117","address":"De Bouw 117","city":"Houten","operatorName":"Ubitricity","maxPowerKw":11,"isMegawatt":false,"status":"CHARGING","source":"ndw","priceKwh":0.388}},{"type":"Feature","geometry":{"type":"Point","coordinates":[5.159249,52.014948]},"properties":{"type":"charge","layer":"passenger","locationId":"07000bcbec04859da9fbb9fcfa0d4886","name":"Sodawater 112","address":"Sodawater 112","city":"Houten","operatorName":"Vattenfall InCharge","maxPowerKw":11,"isMegawatt":false,"status":"CHARGING","source":"ndw"}},{"type":"Feature","geometry":{"type":"Point","coordinates":[5.166517,52.013428]},"properties":{"type":"charge","layer":"passenger","locationId":"46d97fc7-41e5-4835-82a3-dfb809e23fb5","name":"TNLP007867 - Winterpolder 9, Houten","address":"9 Winterpolder","city":"Houten","operatorName":"TotalEnergies","maxPowerKw":17,"isMegawatt":false,"status":"AVAILABLE","source":"ndw"}},{"type":"Feature","geometry":{"type":"Point","coordinates":[5.14452,52.03349]},"properties":{"type":"charge","layer":"passenger","locationId":"57e2fd3a-a211-4ddf-a64f-e826580e0919","name":"PP004336 - Ruitercamp 1, Houten","address":"1 Ruitercamp","city":"Houten","operatorName":"TotalEnergies","maxPowerKw":11,"isMegawatt":false,"status":"AVAILABLE","source":"ndw"}},{"type":"Feature","geometry":{"type":"Point","coordinates":[5.15087,52.035015]},"properties":{"type":"charge","layer":"passenger","locationId":"726a0637-a5e6-4d8d-9779-db883af08855","name":"TNLP006754 - Riddersborch 35, Houten","address":"35 Riddersborch","city":"Houten","operatorName":"TotalEnergies","maxPowerKw":17,"isMegawatt":false,"status":"AVAILABLE","source":"ndw"}},{"type":"Feature","geometry":{"type":"Point","coordinates":[5.155122,52.03769]},"properties":{"type":"charge","layer":"passenger","locationId":"2c2ac433-cb20-4178-a4d6-2866abe91e1e","name":"TNLP006223 - Perzikgaarde 20, Houten","address":"20 Perzikgaarde","city":"Houten","operatorName":"TotalEnergies","maxPowerKw":17,"isMegawatt":false,"status":"AVAILABLE","source":"ndw"}},{"type":"Feature","geometry":{"type":"Point","coordinates":[5.164278,52.030926]},"properties":{"type":"charge","layer":"passenger","locationId":"533c1172-2f1b-409f-add1-d3b2cca2554e","name":"PP005332 - Klaverhof 26, Houten","address":"26 Klaverhof","city":"Houten","operatorName":"TotalEnergies","maxPowerKw":11,"isMegawatt":false,"status":"CHARGING","source":"ndw"}},{"type":"Feature","geometry":{"type":"Point","coordinates":[5.173372,52.04131]},"properties":{"type":"charge","layer":"passenger","locationId":"e0ba9c43-d4d8-499a-bfef-0fd79bef3b9a","name":"TNLP009102 - Gruttoweide 11, Houten","address":"11 Gruttoweide","city":"Houten","operatorName":"TotalEnergies","maxPowerKw":17,"isMegawatt":false,"status":"CHARGING","source":"ndw"}},{"type":"Feature","geometry":{"type":"Point","coordinates":[5.177722,52.038418]},"properties":{"type":"charge","layer":"passenger","locationId":"3f48dfa5-0dfe-4b65-bd48-df204268876e","name":"TNLP006887 - Snoeksloot 144, Houten","address":"144 Snoeksloot","city":"Houten","operatorName":"TotalEnergies","maxPowerKw":17,"isMegawatt":false,"status":"AVAILABLE","source":"ndw"}},{"type":"Feature","geometry":{"type":"Point","coordinates":[5.156666,52.026907]},"properties":{"type":"charge","layer":"passenger","locationId":"923382","name":"DAE_NL_2001231","address":"Vikingenpoort 7","city":"Houten","operatorName":"DAEN Mobility","maxPowerKw":11,"isMegawatt":false,"status":"AVAILABLE","source":"ndw","priceKwh":0.28}},{"type":"Feature","geometry":{"type":"Point","coordinates":[5.160679,52.01603]},"properties":{"type":"charge","layer":"passenger","locationId":"d289142f-b7d1-4f1c-9ec0-9c708d364ba6","name":"PP005500 - Sodawater 29, Houten","address":"29 Sodawater","city":"Houten","operatorName":"TotalEnergies","maxPowerKw":11,"isMegawatt":false,"status":"AVAILABLE","source":"ndw"}},{"type":"Feature","geometry":{"type":"Point","coordinates":[5.162959,52.037483]},"properties":{"type":"charge","layer":"passenger","locationId":"854f0ff5-a0f7-41d1-a6c8-6cd8b4e6a183","name":"TNLP007870 - Graanhoeve 11, Houten","address":"11 Graanhoeve","city":"Houten","operatorName":"TotalEnergies","maxPowerKw":17,"isMegawatt":false,"status":"AVAILABLE","source":"ndw"}},{"type":"Feature","geometry":{"type":"Point","coordinates":[5.146285,52.049032]},"properties":{"type":"charge","layer":"passenger","locationId":"68dbac3081cd24fe4b1a85dc","name":"Fort 't Hemeltje","address":"Fortweg 9","city":"Houten","operatorName":"E-Flux by Road","maxPowerKw":22,"isMegawatt":false,"status":"AVAILABLE","source":"ndw","priceKwh":0.63}},{"type":"Feature","geometry":{"type":"Point","coordinates":[5.146267,52.041438]},"properties":{"type":"charge","layer":"passenger","locationId":"62278750fc81810407d9617d","name":"Aangenaam Badkamers station 3","address":"Elzenkade  2","city":"Houten","operatorName":"E-Flux by Road","maxPowerKw":22,"isMegawatt":false,"status":"AVAILABLE","source":"ndw","priceKwh":0.62}},{"type":"Feature","geometry":{"type":"Point","coordinates":[5.14575,52.04113]},"properties":{"type":"charge","layer":"passenger","locationId":"d6191568-e7e6-4f27-8e22-d9b235b68489","name":"TNLP003633 - Essenkade 3, Houten","address":"3 Essenkade","city":"Houten","operatorName":"TotalEnergies","maxPowerKw":17,"isMegawatt":false,"status":"AVAILABLE","source":"ndw"}},{"type":"Feature","geometry":{"type":"Point","coordinates":[5.166812,52.032272]},"properties":{"type":"charge","layer":"passenger","locationId":"54a49dbb-86c9-443d-a14e-52f96ce2658f","name":"TNLP007528 - Kamillehof 41, Houten","address":"41 Kamillehof","city":"Houten","operatorName":"TotalEnergies","maxPowerKw":17,"isMegawatt":false,"status":"AVAILABLE","source":"ndw"}},{"type":"Feature","geometry":{"type":"Point","coordinates":[5.178515,52.042305]},"properties":{"type":"charge","layer":"passenger","locationId":"696e3a20-9458-4d27-8680-9447416c8ad3","name":"TNLP005757 - Rijfveld 28, Houten","address":"28 Rijfveld","city":"Houten","operatorName":"TotalEnergies","maxPowerKw":11,"isMegawatt":false,"status":"AVAILABLE","source":"ndw"}},{"type":"Feature","geometry":{"type":"Point","coordinates":[5.182855,52.022087]},"properties":{"type":"charge","layer":"passenger","locationId":"cb84d27f-2ea7-4336-9ab7-b451168a4a43","name":"TNLP007901 - Horigenland 29, Houten","address":"29 Horigenland","city":"Houten","operatorName":"TotalEnergies","maxPowerKw":17,"isMegawatt":false,"status":"AVAILABLE","source":"ndw"}},{"type":"Feature","geometry":{"type":"Point","coordinates":[5.149007,52.031097]},"properties":{"type":"charge","layer":"passenger","locationId":"54b2cdfc-a5f1-4361-91bf-06574f1f1ff0","name":"TNLP007641 - Nobelslag 88, Houten","address":"88 Nobelslag","city":"Houten","operatorName":"TotalEnergies","maxPowerKw":17,"isMegawatt":false,"status":"AVAILABLE","source":"ndw"}},{"type":"Feature","geometry":{"type":"Point","coordinates":[5.1746295,52.0211669]},"properties":{"type":"charge","layer":"passenger","locationId":"1400","name":"Shell Recharge NL Wegenbouw 3","address":"Wegenbouw 3","city":"Houten","operatorName":"Ubitricity","maxPowerKw":22,"isMegawatt":false,"status":"CHARGING","source":"ndw","priceKwh":0.266}},{"type":"Feature","geometry":{"type":"Point","coordinates":[5.188716,51.992225]},"properties":{"type":"charge","layer":"passenger","locationId":"669fc70d1971cc001c1a26f7","name":"ASS Beheer B.V.","address":"Lagedijk  32","city":"Schalkwijk","operatorName":"E-Flux by Road","maxPowerKw":22,"isMegawatt":false,"status":"CHARGING","source":"ndw","priceKwh":0.43}},{"type":"Feature","geometry":{"type":"Point","coordinates":[5.17474,52.03396]},"properties":{"type":"charge","layer":"passenger","locationId":"265","name":"Shell Recharge NL Glazeniersgilde 41","address":"Glazeniersgilde 41","city":"Houten","operatorName":"Ubitricity","maxPowerKw":11,"isMegawatt":false,"status":"CHARGING","source":"ndw","priceKwh":0.388}},{"type":"Feature","geometry":{"type":"Point","coordinates":[5.163378,52.014156]},"properties":{"type":"charge","layer":"passenger","locationId":"21216a88-679c-40bb-a9eb-66a55b12b94f","name":"PP005335 - Lingepolder 12, Houten","address":"12 Lingepolder","city":"Houten","operatorName":"TotalEnergies","maxPowerKw":11,"isMegawatt":false,"status":"CHARGING","source":"ndw"}},{"type":"Feature","geometry":{"type":"Point","coordinates":[5.187603,52.012375]},"properties":{"type":"charge","layer":"passenger","locationId":"5aa7586a-db73-449b-a5b4-c32b551e8a4d","name":"PP005635 - Blauwgras 52, Houten","address":"52 Blauwgras","city":"Houten","operatorName":"TotalEnergies","maxPowerKw":11,"isMegawatt":false,"status":"AVAILABLE","source":"ndw"}},{"type":"Feature","geometry":{"type":"Point","coordinates":[5.170294,52.031847]},"properties":{"type":"charge","layer":"passenger","locationId":"68affc0b2b2fd4e3ab6971ad","name":"De Molen 82  4","address":"De Molen 82","city":"Houten","operatorName":"E-Flux by Road","maxPowerKw":22,"isMegawatt":false,"status":"AVAILABLE","source":"ndw","priceKwh":0.48}},{"type":"Feature","geometry":{"type":"Point","coordinates":[5.1955954,52.0180161]},"properties":{"type":"charge","layer":"passenger","locationId":"1898","name":"Shell Recharge NL Witmos 36","address":"Witmos 36","city":"Houten","operatorName":"Ubitricity","maxPowerKw":22,"isMegawatt":false,"status":"AVAILABLE","source":"ndw","priceKwh":0.266}},{"type":"Feature","geometry":{"type":"Point","coordinates":[5.172201,52.021475]},"properties":{"type":"charge","layer":"passenger","locationId":"6480e0b5f3d35c001cb0454a","name":"HEVI station","address":"Nieuwe Schaft 1G","city":"Houten","operatorName":"E-Flux by Road","maxPowerKw":11,"isMegawatt":false,"status":"AVAILABLE","source":"ndw","priceKwh":0.39}},{"type":"Feature","geometry":{"type":"Point","coordinates":[5.13898,52.025601]},"properties":{"type":"charge","layer":"passenger","locationId":"69afbdd5a59b7c858b2efee5","name":"Van der Valk - Houten - Charging Stations","address":"Hoofdveste 25","city":"Houten","operatorName":"Valk Energy","maxPowerKw":200,"isMegawatt":false,"status":"AVAILABLE","source":"ndw","priceKwh":0.59}},{"type":"Feature","geometry":{"type":"Point","coordinates":[5.181727,52.01448]},"properties":{"type":"charge","layer":"passenger","locationId":"5405","name":"Shell Recharge NL9377 MRA-e Houten Raaigras","address":"Raaigras 99","city":"Utrecht","operatorName":"Shell Recharge","maxPowerKw":50,"isMegawatt":false,"status":"AVAILABLE","source":"ndw","priceKwh":0.543}},{"type":"Feature","geometry":{"type":"Point","coordinates":[5.16643,52.03774]},"properties":{"type":"charge","layer":"passenger","locationId":"193","name":"Shell Recharge NL Spoorhaag 84","address":"Spoorhaag 84","city":"Houten","operatorName":"Ubitricity","maxPowerKw":11,"isMegawatt":false,"status":"AVAILABLE","source":"ndw","priceKwh":0.388}},{"type":"Feature","geometry":{"type":"Point","coordinates":[5.183642,52.042255]},"properties":{"type":"charge","layer":"passenger","locationId":"84d9efe8-6871-41c3-a9b2-9fba15ca241e","name":"TNLP006074 - Blieksloot 43, Houten","address":"43 Blieksloot","city":"Houten","operatorName":"TotalEnergies","maxPowerKw":17,"isMegawatt":false,"status":"AVAILABLE","source":"ndw"}},{"type":"Feature","geometry":{"type":"Point","coordinates":[5.1889848,52.0158025]},"properties":{"type":"charge","layer":"passenger","locationId":"1018","name":"Shell Recharge NL Bronmos 19","address":"Bronmos 19","city":"Houten","operatorName":"Ubitricity","maxPowerKw":22,"isMegawatt":false,"status":"AVAILABLE","source":"ndw","priceKwh":0.266}},{"type":"Feature","geometry":{"type":"Point","coordinates":[5.18386,52.01864]},"properties":{"type":"charge","layer":"passenger","locationId":"05585f43-0295-438f-ba43-b73198339a02","name":"PP001346 - Anemonentuin 8, Houten","address":"8 Anemonentuin","city":"Houten","operatorName":"TotalEnergies","maxPowerKw":11,"isMegawatt":false,"status":"AVAILABLE","source":"ndw"}},{"type":"Feature","geometry":{"type":"Point","coordinates":[5.16194,52.01593]},"properties":{"type":"charge","layer":"passenger","locationId":"d04e5e3f-fac4-4aff-9d8f-21fdfc8d9521","name":"PP002148 - Sodawater 11, Houten","address":"11 Sodawater","city":"Houten","operatorName":"TotalEnergies","maxPowerKw":11,"isMegawatt":false,"status":"AVAILABLE","source":"ndw"}},{"type":"Feature","geometry":{"type":"Point","coordinates":[5.1730759,52.0323989]},"properties":{"type":"charge","layer":"passenger","locationId":"2189","name":"Shell Recharge NL Timmermansgilde 60","address":"Timmermansgilde 60","city":"Houten","operatorName":"Ubitricity","maxPowerKw":22,"isMegawatt":false,"status":"CHARGING","source":"ndw","priceKwh":0.266}},{"type":"Feature","geometry":{"type":"Point","coordinates":[5.185271,51.996449]},"properties":{"type":"charge","layer":"passenger","locationId":"1612252","name":"Laadnet Charon van Wijngaarden","address":"De Groes 42","city":"Schalkwijk","operatorName":"Laadnet","maxPowerKw":22,"isMegawatt":false,"status":"AVAILABLE","source":"ndw"}},{"type":"Feature","geometry":{"type":"Point","coordinates":[5.184468,52.022486]},"properties":{"type":"charge","layer":"passenger","locationId":"4306376","name":"Laadnet De Oude Sluis beheer BV","address":"Rozentuin 18","city":"Houten","operatorName":"Laadnet","maxPowerKw":22,"isMegawatt":false,"status":"CHARGING","source":"ndw"}},{"type":"Feature","geometry":{"type":"Point","coordinates":[5.1867223,52.0184614]},"properties":{"type":"charge","layer":"passenger","locationId":"792","name":"Shell Recharge NL Liesgras 122","address":"Liesgras 122","city":"Houten","operatorName":"Ubitricity","maxPowerKw":22,"isMegawatt":false,"status":"AVAILABLE","source":"ndw","priceKwh":0.266}},{"type":"Feature","geometry":{"type":"Point","coordinates":[5.16584,52.01633]},"properties":{"type":"charge","layer":"passenger","locationId":"272","name":"Shell Recharge NL Fonteinwater 2","address":"Fonteinwater 2","city":"Houten","operatorName":"Ubitricity","maxPowerKw":11,"isMegawatt":false,"status":"AVAILABLE","source":"ndw","priceKwh":0.388}},{"type":"Feature","geometry":{"type":"Point","coordinates":[5.172631,52.037888]},"properties":{"type":"charge","layer":"passenger","locationId":"362f5181-3042-4081-b385-18bf1562b971","name":"TNLP007472 - Talingweide 12, Houten","address":"12 Talingweide","city":"Houten","operatorName":"TotalEnergies","maxPowerKw":17,"isMegawatt":false,"status":"AVAILABLE","source":"ndw"}},{"type":"Feature","geometry":{"type":"Point","coordinates":[5.166131,52.024953]},"properties":{"type":"charge","layer":"passenger","locationId":"40B9E9DC-6C87-474C-AF23-3389FB635FAF","name":"Eneco eMobility FLOW ey - ENECO_G32359","address":"Dorpsstraat 36","city":"Houten","operatorName":"Eneco","maxPowerKw":22,"isMegawatt":false,"status":"AVAILABLE","source":"ndw","priceKwh":0.35}},{"type":"Feature","geometry":{"type":"Point","coordinates":[5.123579,52.03039]},"properties":{"type":"charge","layer":"passenger","locationId":"6669f0386ed345001c866254","name":"Brasserie de Utrechtse","address":"Heemsteedseweg 32a","city":"Houten","operatorName":"E-Flux by Road","maxPowerKw":22,"isMegawatt":false,"status":"AVAILABLE","source":"ndw","priceKwh":0.33}},{"type":"Feature","geometry":{"type":"Point","coordinates":[5.13817,52.02766]},"properties":{"type":"charge","layer":"passenger","locationId":"968A3EA0-0B6F-4919-A2D6-062D539A1CF4","name":"Eneco eMobility Broekhuis Volvo Houten","address":"Linieveste 10","city":"Houten","operatorName":"Eneco","maxPowerKw":22,"isMegawatt":false,"status":"AVAILABLE","source":"ndw","priceKwh":0.45}},{"type":"Feature","geometry":{"type":"Point","coordinates":[5.175254,52.017216]},"properties":{"type":"charge","layer":"passenger","locationId":"c7a4b192-768e-4432-85c2-9e02d8c4783a","name":"PP005428 - Leedijkerhout 12, Houten","address":"12 Leedijkerhout","city":"Houten","operatorName":"TotalEnergies","maxPowerKw":11,"isMegawatt":false,"status":"AVAILABLE","source":"ndw"}},{"type":"Feature","geometry":{"type":"Point","coordinates":[5.1577359,52.0322644]},"properties":{"type":"charge","layer":"passenger","locationId":"778","name":"Shell Recharge NL Luzerne-oord 8","address":"Luzerne-oord 8","city":"Houten","operatorName":"Ubitricity","maxPowerKw":22,"isMegawatt":false,"status":"AVAILABLE","source":"ndw","priceKwh":0.266}},{"type":"Feature","geometry":{"type":"Point","coordinates":[5.152789,52.029785]},"properties":{"type":"charge","layer":"passenger","locationId":"73feeac0-3050-4caf-89fd-153981292f5f","name":"TNLP007823 - Florijnslag 11, Houten","address":"11 Florijnslag","city":"Houten","operatorName":"TotalEnergies","maxPowerKw":17,"isMegawatt":false,"status":"AVAILABLE","source":"ndw"}},{"type":"Feature","geometry":{"type":"Point","coordinates":[5.138424,52.026183]},"properties":{"type":"charge","layer":"passenger","locationId":"b0b24013-ba31-4041-8033-85ac6db4f427","name":"Houten, Netherlands","address":" 19, Hoofdveste","city":"Houten","operatorName":"Tesla","maxPowerKw":250,"isMegawatt":false,"status":"AVAILABLE","source":"ndw","priceKwh":0.53}},{"type":"Feature","geometry":{"type":"Point","coordinates":[5.166496,52.039585]},"properties":{"type":"charge","layer":"passenger","locationId":"274b19aa-a16f-4a57-9235-13e62413dd34","name":"PP005018 - Sijsjeshaag 23, Houten","address":"23 Sijsjeshaag","city":"Houten","operatorName":"TotalEnergies","maxPowerKw":11,"isMegawatt":false,"status":"AVAILABLE","source":"ndw"}},{"type":"Feature","geometry":{"type":"Point","coordinates":[5.17975,52.03749]},"properties":{"type":"charge","layer":"passenger","locationId":"4e94afeb-e0d7-4c04-8d41-04ebf4d7adc5","name":"PP001343 - Distelvlinderberm 96, Houten","address":"96 Distelvlinderberm","city":"Houten","operatorName":"TotalEnergies","maxPowerKw":11,"isMegawatt":false,"status":"AVAILABLE","source":"ndw"}},{"type":"Feature","geometry":{"type":"Point","coordinates":[5.140306,52.025043]},"properties":{"type":"charge","layer":"passenger","locationId":"32424","name":"Circle K Houten inz De Staart","address":"De Staart 1","city":"Houten","operatorName":"Spirii","maxPowerKw":175,"isMegawatt":false,"status":"AVAILABLE","source":"ndw","priceKwh":0.65}},{"type":"Feature","geometry":{"type":"Point","coordinates":[5.17499,52.04015]},"properties":{"type":"charge","layer":"passenger","locationId":"555","name":"Shell Recharge NL Kwartelweide 47","address":"Kwartelweide 47","city":"Houten","operatorName":"Ubitricity","maxPowerKw":11,"isMegawatt":false,"status":"CHARGING","source":"ndw","priceKwh":0.388}},{"type":"Feature","geometry":{"type":"Point","coordinates":[5.162652,52.017086]},"properties":{"type":"charge","layer":"passenger","locationId":"c5be5e43-6c3f-4aff-a854-ae72ca684b7a","name":"TNLP007142 - Ballastwater 2, Houten","address":"2 Ballastwater","city":"Houten","operatorName":"TotalEnergies","maxPowerKw":17,"isMegawatt":false,"status":"CHARGING","source":"ndw"}},{"type":"Feature","geometry":{"type":"Point","coordinates":[5.151726,52.02797]},"properties":{"type":"charge","layer":"passenger","locationId":"56a8f2d9-331f-4594-83d2-818289767755","name":"TNLP007705 - Daalderslag 16, Houten","address":"16 Daalderslag","city":"Houten","operatorName":"TotalEnergies","maxPowerKw":17,"isMegawatt":false,"status":"AVAILABLE","source":"ndw"}},{"type":"Feature","geometry":{"type":"Point","coordinates":[5.22334,52.00209]},"properties":{"type":"charge","layer":"passenger","locationId":"bae7a97a-c44b-485e-9241-487890ad8622","name":"TNLP007042 - Kapelhof 1, T Goy","address":"1 Kapelhof","city":"T Goy","operatorName":"TotalEnergies","maxPowerKw":17,"isMegawatt":false,"status":"AVAILABLE","source":"ndw"}},{"type":"Feature","geometry":{"type":"Point","coordinates":[5.14522,52.02703]},"properties":{"type":"charge","layer":"passenger","locationId":"DB3237E8-6B27-4313-B011-95044B68F67B","name":"Eneco eMobility Voorveste 7 Houten","address":"Voorveste 7","city":"Houten","operatorName":"Eneco","maxPowerKw":22,"isMegawatt":false,"status":"AVAILABLE","source":"ndw","priceKwh":0.36}},{"type":"Feature","geometry":{"type":"Point","coordinates":[5.184373,52.014374]},"properties":{"type":"charge","layer":"passenger","locationId":"e948cc37-f169-4e36-a0f3-27482bfadcd6","name":"TNLP006629 - Vedergras 27, Houten","address":"27 Vedergras","city":"Houten","operatorName":"TotalEnergies","maxPowerKw":17,"isMegawatt":false,"status":"CHARGING","source":"ndw"}},{"type":"Feature","geometry":{"type":"Point","coordinates":[5.148327,52.03317]},"properties":{"type":"charge","layer":"passenger","locationId":"86e1cec0-2378-40b8-8d53-62e4f7519045","name":"TNLP005822 - Hoorncamp 21, Houten","address":"21 Hoorncamp","city":"Houten","operatorName":"TotalEnergies","maxPowerKw":17,"isMegawatt":false,"status":"AVAILABLE","source":"ndw"}},{"type":"Feature","geometry":{"type":"Point","coordinates":[5.176336,52.02064]},"properties":{"type":"charge","layer":"passenger","locationId":"0170D1CA-AA10-4DB1-8A29-D8C6BD4BBF42","name":"Eneco eMobility CSU B.V. - Houten","address":"De Bouw 79","city":"Houten","operatorName":"Eneco","maxPowerKw":22,"isMegawatt":false,"status":"AVAILABLE","source":"ndw","priceKwh":0.32}},{"type":"Feature","geometry":{"type":"Point","coordinates":[5.169633,52.037365]},"properties":{"type":"charge","layer":"passenger","locationId":"c23d4425-824a-49cb-9467-8185d6104dc6","name":"PP005006 - Wielewaalhaag 2, Houten","address":"2 Wielewaalhaag","city":"Houten","operatorName":"TotalEnergies","maxPowerKw":11,"isMegawatt":false,"status":"AVAILABLE","source":"ndw"}},{"type":"Feature","geometry":{"type":"Point","coordinates":[5.138675,52.031645]},"properties":{"type":"charge","layer":"passenger","locationId":"94500286-3E3C-42A0-9F02-DC88E86570C5","name":"Eneco eMobility DeBuut Horeca BV Houten","address":"Koedijk 1","city":"Houten","operatorName":"Eneco","maxPowerKw":22,"isMegawatt":false,"status":"AVAILABLE","source":"ndw","priceKwh":0.32}},{"type":"Feature","geometry":{"type":"Point","coordinates":[5.18938,52.01238]},"properties":{"type":"charge","layer":"passenger","locationId":"fe826301-0a1c-40db-85b6-50e284f77a78","name":"TNLP007555 - Fluweelmos 168, Houten","address":"168 Fluweelmos","city":"Houten","operatorName":"TotalEnergies","maxPowerKw":17,"isMegawatt":false,"status":"AVAILABLE","source":"ndw"}},{"type":"Feature","geometry":{"type":"Point","coordinates":[5.126596,52.032631]},"properties":{"type":"charge","layer":"passenger","locationId":"6808c2f434bf1bf3934758ab","name":"Kasteel Heemstede","address":"Heemsteedseweg 20","city":"Houten","operatorName":"E-Flux by Road","maxPowerKw":22,"isMegawatt":false,"status":"AVAILABLE","source":"ndw","priceKwh":0.45}},{"type":"Feature","geometry":{"type":"Point","coordinates":[5.15689,52.03671]},"properties":{"type":"charge","layer":"passenger","locationId":"6adb15fd7785134eb173832cceb2f29e","name":"Notengaarde 21","address":"Notengaarde 21","city":"Houten","operatorName":"Vattenfall InCharge","maxPowerKw":11,"isMegawatt":false,"status":"AVAILABLE","source":"ndw"}},{"type":"Feature","geometry":{"type":"Point","coordinates":[5.15893,52.02262]},"properties":{"type":"charge","layer":"passenger","locationId":"d6ebc7d4-f19f-4ffc-a55c-0859cf4ee5df","name":"PP002526 - Hefbrug 3, Houten","address":"3 Hefbrug","city":"Houten","operatorName":"TotalEnergies","maxPowerKw":13,"isMegawatt":false,"status":"AVAILABLE","source":"ndw"}},{"type":"Feature","geometry":{"type":"Point","coordinates":[5.144352,52.026958]},"properties":{"type":"charge","layer":"passenger","locationId":"6971cb1233f8809989200bb0","name":"Blom Houten 02","address":"Bergveste 6","city":"Houten","operatorName":"Lanova Laadpalen","maxPowerKw":22,"isMegawatt":false,"status":"AVAILABLE","source":"ndw","priceKwh":1.03}},{"type":"Feature","geometry":{"type":"Point","coordinates":[5.224931,52.00222]},"properties":{"type":"charge","layer":"passenger","locationId":"66e432b158d8a2001cbb4ef3","name":"VV 't Goy via Sportstroom","address":"Tuurdijk 33","city":"'t Goy","operatorName":"Pluq","maxPowerKw":22,"isMegawatt":false,"status":"UNAVAILABLE","source":"ndw","priceKwh":0.42}},{"type":"Feature","geometry":{"type":"Point","coordinates":[5.181972,52.022713]},"properties":{"type":"charge","layer":"passenger","locationId":"05ddf938-2043-472a-8126-81411d1a4034","name":"TNLP009719 - Kruisvaardersland 58, Houten","address":"58 Kruisvaardersland","city":"Houten","operatorName":"TotalEnergies","maxPowerKw":17,"isMegawatt":false,"status":"AVAILABLE","source":"ndw"}},{"type":"Feature","geometry":{"type":"Point","coordinates":[5.193914,52.021242]},"properties":{"type":"charge","layer":"passenger","locationId":"64331fb6-04e6-4faa-87ff-5c64476c9f3a","name":"TNLP034361","address":"Moerasmeer 74","city":"Houten","operatorName":"TotalEnergies","maxPowerKw":14,"isMegawatt":false,"status":"AVAILABLE","source":"ndw"}},{"type":"Feature","geometry":{"type":"Point","coordinates":[5.17464,52.0275]},"properties":{"type":"charge","layer":"passenger","locationId":"1599","name":"Shell Recharge NL Papiermolen 3","address":"Papiermolen 3","city":"Houten","operatorName":"Ubitricity","maxPowerKw":11,"isMegawatt":false,"status":"UNAVAILABLE","source":"ndw","priceKwh":0.388}},{"type":"Feature","geometry":{"type":"Point","coordinates":[5.18069,52.03619]},"properties":{"type":"charge","layer":"passenger","locationId":"580","name":"Shell Recharge NL Zomervlinderberm 20","address":"Zomervlinderberm 20","city":"Houten","operatorName":"Ubitricity","maxPowerKw":11,"isMegawatt":false,"status":"AVAILABLE","source":"ndw","priceKwh":0.388}},{"type":"Feature","geometry":{"type":"Point","coordinates":[5.16059,52.02695]},"properties":{"type":"charge","layer":"passenger","locationId":"9281f353-b94f-4763-9d41-5d5236b00de8","name":"TNLP015375 - Prins Bernhardweg 5, Houten","address":"5 Prins Bernhardweg","city":"Houten","operatorName":"TotalEnergies","maxPowerKw":17,"isMegawatt":false,"status":"AVAILABLE","source":"ndw"}},{"type":"Feature","geometry":{"type":"Point","coordinates":[5.162445,52.012782]},"properties":{"type":"charge","layer":"passenger","locationId":"69d7c2c4b56b8d477deadd96","name":"IJsselpolder 8 station","address":"IJsselpolder  8","city":"Houten","operatorName":"E-Flux by Road","maxPowerKw":22,"isMegawatt":false,"status":"AVAILABLE","source":"ndw","priceKwh":0.41}},{"type":"Feature","geometry":{"type":"Point","coordinates":[5.1469784,52.0348853]},"properties":{"type":"charge","layer":"passenger","locationId":"1307","name":"Shell Recharge NL Meercamp 44","address":"Meercamp 44","city":"Houten","operatorName":"Ubitricity","maxPowerKw":22,"isMegawatt":false,"status":"CHARGING","source":"ndw","priceKwh":0.266}},{"type":"Feature","geometry":{"type":"Point","coordinates":[5.171124,52.008128]},"properties":{"type":"charge","layer":"passenger","locationId":"69e8d100c938c8307ebbd978","name":"Lokaal Buiten","address":"Kanaaldijk Zuid 12","city":"Schalkwijk","operatorName":"Pluq","maxPowerKw":19,"isMegawatt":false,"status":"AVAILABLE","source":"ndw","priceKwh":0.44}},{"type":"Feature","geometry":{"type":"Point","coordinates":[5.141505,52.029115]},"properties":{"type":"charge","layer":"passenger","locationId":"03853C25-2E3F-4BD2-83BC-62A116D106C2","name":"Eneco eMobility VDM Cars Utrecht B.V. - Waterveste - Houten","address":"Waterveste 2","city":"Houten","operatorName":"Eneco","maxPowerKw":22,"isMegawatt":false,"status":"UNAVAILABLE","source":"ndw","priceKwh":0.58}},{"type":"Feature","geometry":{"type":"Point","coordinates":[5.17931,52.0105]},"properties":{"type":"charge","layer":"passenger","locationId":"390","name":"Shell Recharge NL Drijfsteen 2","address":"Drijfsteen 2","city":"Houten","operatorName":"Ubitricity","maxPowerKw":11,"isMegawatt":false,"status":"AVAILABLE","source":"ndw","priceKwh":0.388}},{"type":"Feature","geometry":{"type":"Point","coordinates":[5.15361,52.034042]},"properties":{"type":"charge","layer":"passenger","locationId":"5219d685-c4ab-4e5d-a84d-e21c0ddd016f","name":"TNLP005879 - Riddersborch 141, Houten","address":"141 Riddersborch","city":"Houten","operatorName":"TotalEnergies","maxPowerKw":11,"isMegawatt":false,"status":"AVAILABLE","source":"ndw"}},{"type":"Feature","geometry":{"type":"Point","coordinates":[5.177598,52.018647]},"properties":{"type":"charge","layer":"passenger","locationId":"60e80d856db4f848b6a1ced4","name":"De Bouw 149, Houten","address":"De Bouw 149","city":"Houten","operatorName":"E-Flux by Road","maxPowerKw":22,"isMegawatt":false,"status":"AVAILABLE","source":"ndw","priceKwh":0.63}},{"type":"Feature","geometry":{"type":"Point","coordinates":[5.14416,52.02337]},"properties":{"type":"charge","layer":"passenger","locationId":"c4d3ca63-f5ec-4c51-a197-43fb4917a659","name":"PP002529 - Duwboot 37, Houten","address":"37 Duwboot","city":"Houten","operatorName":"TotalEnergies","maxPowerKw":13,"isMegawatt":false,"status":"UNAVAILABLE","source":"ndw"}},{"type":"Feature","geometry":{"type":"Point","coordinates":[5.18414,52.01523]},"properties":{"type":"charge","layer":"passenger","locationId":"bc3fa440-a709-4c0e-8ab1-d8e8cc071618","name":"PP001767 - Parelgras 36, Houten","address":"36 Parelgras","city":"Houten","operatorName":"TotalEnergies","maxPowerKw":11,"isMegawatt":false,"status":"CHARGING","source":"ndw"}},{"type":"Feature","geometry":{"type":"Point","coordinates":[5.193785,52.022535]},"properties":{"type":"charge","layer":"passenger","locationId":"67b6de8ac805b3ad900da2b3","name":"Ranil’s Recharge","address":"Stuwmeer 39","city":"Houten","operatorName":"E-Flux by Road","maxPowerKw":14,"isMegawatt":false,"status":"AVAILABLE","source":"ndw","priceKwh":0.38}},{"type":"Feature","geometry":{"type":"Point","coordinates":[5.16718,52.01461]},"properties":{"type":"charge","layer":"passenger","locationId":"1609","name":"Shell Recharge NL Plantagepolder 2","address":"Plantagepolder 2","city":"Houten","operatorName":"Ubitricity","maxPowerKw":11,"isMegawatt":false,"status":"AVAILABLE","source":"ndw","priceKwh":0.388}},{"type":"Feature","geometry":{"type":"Point","coordinates":[5.147069,52.039065]},"properties":{"type":"charge","layer":"passenger","locationId":"47BED712-D5DA-4E3D-919C-05C1F9E3CFB9","name":"Eneco eMobility Zinnovators BV - Houten","address":"Peppelkade 46","city":"Houten","operatorName":"Eneco","maxPowerKw":11,"isMegawatt":false,"status":"AVAILABLE","source":"ndw","priceKwh":0.3}},{"type":"Feature","geometry":{"type":"Point","coordinates":[5.1552,52.027625]},"properties":{"type":"charge","layer":"passenger","locationId":"d7f0efb7c28c8c61b53c74117043b842","name":"Eburonenpoort 47","address":"Eburonenpoort 47","city":"Houten","operatorName":"Vattenfall InCharge","maxPowerKw":11,"isMegawatt":false,"status":"AVAILABLE","source":"ndw"}},{"type":"Feature","geometry":{"type":"Point","coordinates":[5.16096,52.02903]},"properties":{"type":"charge","layer":"passenger","locationId":"3528896","name":"Laadnet Limid Vastgoed B.V.","address":"Lichtschip 4","city":"Houten","operatorName":"Laadnet","maxPowerKw":22,"isMegawatt":false,"status":"AVAILABLE","source":"ndw"}},{"type":"Feature","geometry":{"type":"Point","coordinates":[5.17929,52.03481]},"properties":{"type":"charge","layer":"passenger","locationId":"421","name":"Shell Recharge NL Beverakker 19","address":"Beverakker 19","city":"Houten","operatorName":"Ubitricity","maxPowerKw":11,"isMegawatt":false,"status":"AVAILABLE","source":"ndw","priceKwh":0.388}},{"type":"Feature","geometry":{"type":"Point","coordinates":[5.176498,52.03937]},"properties":{"type":"charge","layer":"passenger","locationId":"1ef04462-513c-4052-8fdf-c715a96d1af5","name":"TNLP015391 - Eggeveld 49, Houten","address":"49 Eggeveld","city":"Houten","operatorName":"TotalEnergies","maxPowerKw":17,"isMegawatt":false,"status":"AVAILABLE","source":"ndw"}},{"type":"Feature","geometry":{"type":"Point","coordinates":[5.186708,52.012856]},"properties":{"type":"charge","layer":"passenger","locationId":"c5ce1dfc-00d0-488b-bbbf-2ac2f4b9bee4","name":"TNLP006609 - Kamgras 41, Houten","address":"41 Kamgras","city":"Houten","operatorName":"TotalEnergies","maxPowerKw":17,"isMegawatt":false,"status":"AVAILABLE","source":"ndw"}},{"type":"Feature","geometry":{"type":"Point","coordinates":[5.185176,52.0120222]},"properties":{"type":"charge","layer":"passenger","locationId":"1191","name":"Shell Recharge NL Blauwgras 1","address":"Blauwgras 1","city":"Houten","operatorName":"Ubitricity","maxPowerKw":22,"isMegawatt":false,"status":"CHARGING","source":"ndw","priceKwh":0.266}},{"type":"Feature","geometry":{"type":"Point","coordinates":[5.168927,52.040997]},"properties":{"type":"charge","layer":"passenger","locationId":"894dc255-298d-4a0a-9584-d0dff1214116","name":"TNLP007610 - Leeuwerikweide 39, Houten","address":"39 Leeuwerikweide","city":"Houten","operatorName":"TotalEnergies","maxPowerKw":17,"isMegawatt":false,"status":"AVAILABLE","source":"ndw"}},{"type":"Feature","geometry":{"type":"Point","coordinates":[5.181649,52.03803]},"properties":{"type":"charge","layer":"passenger","locationId":"bb79c4c0-d91d-49ca-b9cf-34496b29e78e","name":"TNLP007940 - Vuurvlinderberm 1, Houten","address":"1 Vuurvlinderberm","city":"Houten","operatorName":"TotalEnergies","maxPowerKw":17,"isMegawatt":false,"status":"AVAILABLE","source":"ndw"}},{"type":"Feature","geometry":{"type":"Point","coordinates":[5.170136,52.011971]},"properties":{"type":"charge","layer":"passenger","locationId":"7250a608-9bc4-4bbc-bafe-37814680ed4e","name":"TNLP034221","address":"Tolmuur 9","city":"Houten","operatorName":"TotalEnergies","maxPowerKw":14,"isMegawatt":false,"status":"AVAILABLE","source":"ndw"}},{"type":"Feature","geometry":{"type":"Point","coordinates":[5.185935,51.995136]},"properties":{"type":"charge","layer":"passenger","locationId":"ec98b34b-b035-4a3a-aecc-366e8f0db772","name":"PP005504 - Biesterlaan 106, Schalkwijk","address":"106 Biesterlaan","city":"Schalkwijk","operatorName":"TotalEnergies","maxPowerKw":11,"isMegawatt":false,"status":"AVAILABLE","source":"ndw"}},{"type":"Feature","geometry":{"type":"Point","coordinates":[5.16621,52.02863]},"properties":{"type":"charge","layer":"passenger","locationId":"bd963067-fe20-4028-bbdb-c69e2226f4d0","name":"TNLP009930 - Prinses Margrietweg 1, Houten","address":"1 Prinses Margrietweg","city":"Houten","operatorName":"TotalEnergies","maxPowerKw":17,"isMegawatt":false,"status":"AVAILABLE","source":"ndw"}},{"type":"Feature","geometry":{"type":"Point","coordinates":[5.198285,52.020138]},"properties":{"type":"charge","layer":"passenger","locationId":"6911fae5-c540-4ecc-949c-525aba0eed42","name":"TNLP007639 - Gletsjermeer 101, Houten","address":"101 Gletsjermeer","city":"Houten","operatorName":"TotalEnergies","maxPowerKw":17,"isMegawatt":false,"status":"AVAILABLE","source":"ndw"}},{"type":"Feature","geometry":{"type":"Point","coordinates":[5.1718477,52.0143745]},"properties":{"type":"charge","layer":"passenger","locationId":"2489","name":"Shell Recharge NL Boogmuur 53","address":"Boogmuur 53","city":"Houten","operatorName":"Ubitricity","maxPowerKw":22,"isMegawatt":false,"status":"AVAILABLE","source":"ndw","priceKwh":0.266}},{"type":"Feature","geometry":{"type":"Point","coordinates":[5.194105,52.01518]},"properties":{"type":"charge","layer":"passenger","locationId":"1b488ce1-b321-40ba-aa46-0263b0636423","name":"TNLP005773 - Zilvermos 53, Houten","address":"53 Zilvermos","city":"Houten","operatorName":"TotalEnergies","maxPowerKw":17,"isMegawatt":false,"status":"AVAILABLE","source":"ndw"}},{"type":"Feature","geometry":{"type":"Point","coordinates":[5.178794,52.014463]},"properties":{"type":"charge","layer":"passenger","locationId":"c81b07e7-d7f9-40a1-96cc-cc0e34868a12","name":"TNLP034342","address":"Leisteen 34","city":"Houten","operatorName":"TotalEnergies","maxPowerKw":14,"isMegawatt":false,"status":"AVAILABLE","source":"ndw"}},{"type":"Feature","geometry":{"type":"Point","coordinates":[5.170868,52.036125]},"properties":{"type":"charge","layer":"passenger","locationId":"79e85161f40fc9feb4ba7360671ccb8e","name":"Achterom 113","address":"Achterom 113","city":"Houten","operatorName":"Vattenfall InCharge","maxPowerKw":11,"isMegawatt":false,"status":"AVAILABLE","source":"ndw"}},{"type":"Feature","geometry":{"type":"Point","coordinates":[5.1655251,52.0359203]},"properties":{"type":"charge","layer":"passenger","locationId":"785","name":"Shell Recharge NL Weerwolfseind 20","address":"Weerwolfseind 20","city":"Houten","operatorName":"Ubitricity","maxPowerKw":22,"isMegawatt":false,"status":"AVAILABLE","source":"ndw","priceKwh":0.266}},{"type":"Feature","geometry":{"type":"Point","coordinates":[5.18595,52.01446]},"properties":{"type":"charge","layer":"passenger","locationId":"1532","name":"Shell Recharge NL Kamgras 50","address":"Kamgras 50","city":"Houten","operatorName":"Ubitricity","maxPowerKw":11,"isMegawatt":false,"status":"AVAILABLE","source":"ndw","priceKwh":0.388}},{"type":"Feature","geometry":{"type":"Point","coordinates":[5.182142,52.041]},"properties":{"type":"charge","layer":"passenger","locationId":"f46c7e55-7fca-42ba-a07a-9986090d32d3","name":"TNLP006905 - Snoeksloot 37, Houten","address":"37 Snoeksloot","city":"Houten","operatorName":"TotalEnergies","maxPowerKw":17,"isMegawatt":false,"status":"AVAILABLE","source":"ndw"}},{"type":"Feature","geometry":{"type":"Point","coordinates":[5.17094,52.02708]},"properties":{"type":"charge","layer":"passenger","locationId":"1577","name":"Shell Recharge NL Molenaarserf 46","address":"Molenaarserf 46","city":"Houten","operatorName":"Ubitricity","maxPowerKw":11,"isMegawatt":false,"status":"AVAILABLE","source":"ndw","priceKwh":0.388}},{"type":"Feature","geometry":{"type":"Point","coordinates":[5.176446,52.029236]},"properties":{"type":"charge","layer":"passenger","locationId":"e1ae0593-acf8-4614-98c7-f75b4c198180","name":"TNLP005680 - De Molen 19, Houten","address":"19 De Molen","city":"Houten","operatorName":"TotalEnergies","maxPowerKw":17,"isMegawatt":false,"status":"AVAILABLE","source":"ndw"}},{"type":"Feature","geometry":{"type":"Point","coordinates":[5.162173,52.035793]},"properties":{"type":"charge","layer":"passenger","locationId":"339e4a75-1f36-4639-a42a-4f2390ed37b0","name":"TNLP009709 - Kaashoeve 23, Houten","address":"23 Kaashoeve","city":"Houten","operatorName":"TotalEnergies","maxPowerKw":17,"isMegawatt":false,"status":"AVAILABLE","source":"ndw"}},{"type":"Feature","geometry":{"type":"Point","coordinates":[5.15896,52.03381]},"properties":{"type":"charge","layer":"passenger","locationId":"d96112af-004d-4593-999c-d2654e67dd1f","name":"PP001707 - Pruimengaarde 1, Houten","address":"1 Pruimengaarde","city":"Houten","operatorName":"TotalEnergies","maxPowerKw":11,"isMegawatt":false,"status":"AVAILABLE","source":"ndw"}},{"type":"Feature","geometry":{"type":"Point","coordinates":[5.1727,52.03395]},"properties":{"type":"charge","layer":"passenger","locationId":"12f88932-1a18-4d19-b0fb-f658f25f2e94","name":"TNLP009803 - De Fuik 30, Houten","address":"30 De Fuik","city":"Houten","operatorName":"TotalEnergies","maxPowerKw":17,"isMegawatt":false,"status":"CHARGING","source":"ndw"}},{"type":"Feature","geometry":{"type":"Point","coordinates":[5.184896,52.017517]},"properties":{"type":"charge","layer":"passenger","locationId":"44a6b283-e6cb-4226-8e35-43c890acda96","name":"TNLP005818 - Strekgras 23, Houten","address":"23 Strekgras","city":"Houten","operatorName":"TotalEnergies","maxPowerKw":11,"isMegawatt":false,"status":"AVAILABLE","source":"ndw"}},{"type":"Feature","geometry":{"type":"Point","coordinates":[5.180155,52.010853]},"properties":{"type":"charge","layer":"passenger","locationId":"d02931e2-d5b9-4fa8-abeb-55574bfa8263","name":"TNLP007642 - Gevelsteen 17, Houten","address":"17 Gevelsteen","city":"Houten","operatorName":"TotalEnergies","maxPowerKw":17,"isMegawatt":false,"status":"AVAILABLE","source":"ndw"}},{"type":"Feature","geometry":{"type":"Point","coordinates":[5.195996,52.018982]},"properties":{"type":"charge","layer":"passenger","locationId":"af870865-1620-4c5c-a70b-fc0ba2c2632e","name":"PP004135 - Gletsjermeer 38, Houten","address":"38 Gletsjermeer","city":"Houten","operatorName":"TotalEnergies","maxPowerKw":11,"isMegawatt":false,"status":"AVAILABLE","source":"ndw"}},{"type":"Feature","geometry":{"type":"Point","coordinates":[5.17034,52.0402]},"properties":{"type":"charge","layer":"passenger","locationId":"df45f4e3-23f9-4b61-a555-cacd71322813","name":"PP005208 - Karekietweide 2, Houten","address":"2 Karekietweide","city":"Houten","operatorName":"TotalEnergies","maxPowerKw":11,"isMegawatt":false,"status":"AVAILABLE","source":"ndw"}},{"type":"Feature","geometry":{"type":"Point","coordinates":[5.194577,52.013737]},"properties":{"type":"charge","layer":"passenger","locationId":"53da4cbb-6522-48e9-b11b-7e8135a65b0c","name":"TNLP009130 - Kantmos 19, Houten","address":"19 Kantmos","city":"Houten","operatorName":"TotalEnergies","maxPowerKw":17,"isMegawatt":false,"status":"AVAILABLE","source":"ndw"}},{"type":"Feature","geometry":{"type":"Point","coordinates":[5.171824,52.01517]},"properties":{"type":"charge","layer":"passenger","locationId":"d1fdcd5c-24fe-4bd7-852b-c70767b21a51","name":"PP005511 - Kristalwater 156, Houten","address":"156 Kristalwater","city":"Houten","operatorName":"TotalEnergies","maxPowerKw":11,"isMegawatt":false,"status":"CHARGING","source":"ndw"}},{"type":"Feature","geometry":{"type":"Point","coordinates":[5.175862,52.011543]},"properties":{"type":"charge","layer":"passenger","locationId":"5b4d8c59-ffcc-4408-a327-8ad5e1e4773e","name":"TNLP007558 - Dobbelsteen 1, Houten","address":"1 Dobbelsteen","city":"Houten","operatorName":"TotalEnergies","maxPowerKw":17,"isMegawatt":false,"status":"CHARGING","source":"ndw"}},{"type":"Feature","geometry":{"type":"Point","coordinates":[5.18903,52.016445]},"properties":{"type":"charge","layer":"passenger","locationId":"14bccb37-14ae-4579-925a-286d06cd607f","name":"PP005608 - Schijfmos 80, Houten","address":"80 Schijfmos","city":"Houten","operatorName":"TotalEnergies","maxPowerKw":11,"isMegawatt":false,"status":"AVAILABLE","source":"ndw"}},{"type":"Feature","geometry":{"type":"Point","coordinates":[5.18005,52.02067]},"properties":{"type":"charge","layer":"passenger","locationId":"505","name":"Shell Recharge NL Zuiderspoor 10","address":"Zuiderspoor 10","city":"Houten","operatorName":"Ubitricity","maxPowerKw":11,"isMegawatt":false,"status":"AVAILABLE","source":"ndw","priceKwh":0.388}},{"type":"Feature","geometry":{"type":"Point","coordinates":[5.132488,52.000793]},"properties":{"type":"charge","layer":"passenger","locationId":"f298cb3d-c1b3-4749-a23b-b961b2073eaf","name":"TNLP005714 - Weidebogerd 6, Tull en't Waal","address":"6 Weidebogerd","city":"Tull en't Waal","operatorName":"TotalEnergies","maxPowerKw":17,"isMegawatt":false,"status":"AVAILABLE","source":"ndw"}},{"type":"Feature","geometry":{"type":"Point","coordinates":[5.170279,52.031866]},"properties":{"type":"charge","layer":"passenger","locationId":"68affafb11962616cddbcd83","name":"De Molen 82  2","address":"De Molen  82","city":"Houten","operatorName":"E-Flux by Road","maxPowerKw":22,"isMegawatt":false,"status":"AVAILABLE","source":"ndw","priceKwh":0.48}},{"type":"Feature","geometry":{"type":"Point","coordinates":[5.150973,52.018283]},"properties":{"type":"charge","layer":"passenger","locationId":"696e31e32a307eeb89b0f383","name":"NXT 50five - Houten - Groene Hoon 1 - DC","address":"Groene Hoon 1","city":"Houten","operatorName":"NXT50Five","maxPowerKw":300,"isMegawatt":false,"status":"AVAILABLE","source":"ndw","priceKwh":0.6}},{"type":"Feature","geometry":{"type":"Point","coordinates":[5.15143,52.02766]},"properties":{"type":"charge","layer":"passenger","locationId":"1476","name":"Shell Recharge NL Daalderslag 31","address":"Daalderslag 31","city":"Houten","operatorName":"Ubitricity","maxPowerKw":11,"isMegawatt":false,"status":"AVAILABLE","source":"ndw","priceKwh":0.388}},{"type":"Feature","geometry":{"type":"Point","coordinates":[5.184161,52.020496]},"properties":{"type":"charge","layer":"passenger","locationId":"0263e1d9-80b9-46e9-b37b-651e68742af2","name":"TNLP007087 - Lelietuin 23, Houten","address":"23 Lelietuin","city":"Houten","operatorName":"TotalEnergies","maxPowerKw":17,"isMegawatt":false,"status":"AVAILABLE","source":"ndw"}},{"type":"Feature","geometry":{"type":"Point","coordinates":[5.186438,52.017746]},"properties":{"type":"charge","layer":"passenger","locationId":"c6ffa55a-6c17-43dd-a84e-dac75c375466","name":"TNLP006092 - Strekgras 2, Houten","address":"2 Strekgras","city":"Houten","operatorName":"TotalEnergies","maxPowerKw":17,"isMegawatt":false,"status":"AVAILABLE","source":"ndw"}},{"type":"Feature","geometry":{"type":"Point","coordinates":[5.1672,52.03018]},"properties":{"type":"charge","layer":"passenger","locationId":"f7a31e89-79b2-4f62-992a-095cec50cf44","name":"TNLP005730 - Koningin Emmaweg 60, Houten","address":"60 Koningin Emmaweg","city":"Houten","operatorName":"TotalEnergies","maxPowerKw":17,"isMegawatt":false,"status":"CHARGING","source":"ndw"}},{"type":"Feature","geometry":{"type":"Point","coordinates":[5.189619,52.024494]},"properties":{"type":"charge","layer":"passenger","locationId":"b807d459-d3d2-4840-a523-e6e3c0db02aa","name":"TNLP007491 - Strandmeer 1, Houten","address":"1 Strandmeer","city":"Houten","operatorName":"TotalEnergies","maxPowerKw":17,"isMegawatt":false,"status":"AVAILABLE","source":"ndw"}},{"type":"Feature","geometry":{"type":"Point","coordinates":[5.173898,52.01644]},"properties":{"type":"charge","layer":"passenger","locationId":"cf782383-ed8a-4214-8001-79060bc88ce3","name":"TNLP006960 - Leedijkerhout 3, Houten","address":"3 Leedijkerhout","city":"Houten","operatorName":"TotalEnergies","maxPowerKw":17,"isMegawatt":false,"status":"AVAILABLE","source":"ndw"}},{"type":"Feature","geometry":{"type":"Point","coordinates":[5.1631,52.0123]},"properties":{"type":"charge","layer":"passenger","locationId":"3782912","name":"Laadnet Bouwbedrijf Barten B.V.","address":"Kaagschip 7","city":"Houten","operatorName":"Laadnet","maxPowerKw":22,"isMegawatt":false,"status":"AVAILABLE","source":"ndw"}},{"type":"Feature","geometry":{"type":"Point","coordinates":[5.179097,52.019592]},"properties":{"type":"charge","layer":"passenger","locationId":"25ac1853-2909-4bca-b9f8-8714f5916d4d","name":"PP005372 - Hollandsspoor 1, Houten","address":"1 Hollandsspoor","city":"Houten","operatorName":"TotalEnergies","maxPowerKw":11,"isMegawatt":false,"status":"AVAILABLE","source":"ndw"}},{"type":"Feature","geometry":{"type":"Point","coordinates":[5.146267,52.041438]},"properties":{"type":"charge","layer":"passenger","locationId":"622786d3dbdc5291fc02e8f1","name":"Aangenaam Badkamers station 2","address":"Elzenkade  2","city":"Houten","operatorName":"E-Flux by Road","maxPowerKw":22,"isMegawatt":false,"status":"UNAVAILABLE","source":"ndw","priceKwh":0.62}},{"type":"Feature","geometry":{"type":"Point","coordinates":[5.175001,52.035755]},"properties":{"type":"charge","layer":"passenger","locationId":"fd097b6a-167b-4e92-b4a2-e99ffe1698a3","name":"PP005630 - Goudsmedengilde 19, Houten","address":"19 Goudsmedengilde","city":"Houten","operatorName":"TotalEnergies","maxPowerKw":11,"isMegawatt":false,"status":"AVAILABLE","source":"ndw"}},{"type":"Feature","geometry":{"type":"Point","coordinates":[5.1871478,52.0174858]},"properties":{"type":"charge","layer":"passenger","locationId":"2104","name":"Shell Recharge NL Wollengras 1","address":"Wollengras 1","city":"Houten","operatorName":"Ubitricity","maxPowerKw":22,"isMegawatt":false,"status":"AVAILABLE","source":"ndw","priceKwh":0.266}},{"type":"Feature","geometry":{"type":"Point","coordinates":[5.194366,52.020702]},"properties":{"type":"charge","layer":"passenger","locationId":"029e2b82-7555-465c-aff8-d5714f33f672","name":"TNLP007477 - Steppemeer 31, Houten","address":"31 Steppemeer","city":"Houten","operatorName":"TotalEnergies","maxPowerKw":17,"isMegawatt":false,"status":"CHARGING","source":"ndw"}},{"type":"Feature","geometry":{"type":"Point","coordinates":[5.200149,52.005207]},"properties":{"type":"charge","layer":"passenger","locationId":"674efdb725bf75dc42091b45","name":"Landgoed Wickenburgh","address":"Wickenburghseweg 17","city":"’t Goy","operatorName":"Pluq","maxPowerKw":14,"isMegawatt":false,"status":"AVAILABLE","source":"ndw","priceKwh":0.4}},{"type":"Feature","geometry":{"type":"Point","coordinates":[5.181951,52.020622]},"properties":{"type":"charge","layer":"passenger","locationId":"15633af3-d302-4381-a2a4-3ae643db1081","name":"TNLP009127 - Rijnspoor 22, Houten","address":"22 Rijnspoor","city":"Houten","operatorName":"TotalEnergies","maxPowerKw":17,"isMegawatt":false,"status":"AVAILABLE","source":"ndw"}},{"type":"Feature","geometry":{"type":"Point","coordinates":[5.1904023,52.0158535]},"properties":{"type":"charge","layer":"passenger","locationId":"1382","name":"Shell Recharge NL Varenmos 31","address":"Varenmos 31","city":"Houten","operatorName":"Ubitricity","maxPowerKw":22,"isMegawatt":false,"status":"AVAILABLE","source":"ndw","priceKwh":0.266}},{"type":"Feature","geometry":{"type":"Point","coordinates":[5.181413,52.02877]},"properties":{"type":"charge","layer":"passenger","locationId":"99ddad83-db45-4be5-96ae-0dcf8e791fcc","name":"TNLP007085 - Kruisboog 2, Houten","address":"2 Kruisboog","city":"Houten","operatorName":"TotalEnergies","maxPowerKw":17,"isMegawatt":false,"status":"AVAILABLE","source":"ndw"}},{"type":"Feature","geometry":{"type":"Point","coordinates":[5.17474,52.042126]},"properties":{"type":"charge","layer":"passenger","locationId":"cf6ca608-f964-48ad-8043-78200b4d5f1d","name":"TNLP005821 - Halsterveld 15, Houten","address":"15 Halsterveld","city":"Houten","operatorName":"TotalEnergies","maxPowerKw":11,"isMegawatt":false,"status":"AVAILABLE","source":"ndw"}},{"type":"Feature","geometry":{"type":"Point","coordinates":[5.15946,52.03735]},"properties":{"type":"charge","layer":"passenger","locationId":"547","name":"Shell Recharge NL Wagenhoeve 45","address":"Wagenhoeve 45","city":"Houten","operatorName":"Ubitricity","maxPowerKw":11,"isMegawatt":false,"status":"AVAILABLE","source":"ndw","priceKwh":0.388}},{"type":"Feature","geometry":{"type":"Point","coordinates":[5.19098,52.01464]},"properties":{"type":"charge","layer":"passenger","locationId":"520af865-8733-4cc1-bc71-d8fdceabce22","name":"PP001495 - Zijdemos 27, Houten","address":"27 Zijdemos","city":"Houten","operatorName":"TotalEnergies","maxPowerKw":11,"isMegawatt":false,"status":"AVAILABLE","source":"ndw"}},{"type":"Feature","geometry":{"type":"Point","coordinates":[5.175192,52.04094]},"properties":{"type":"charge","layer":"passenger","locationId":"983a6453-ab88-4781-ac6e-1239b79589e5","name":"TNLP005819 - Halsterveld 53, Houten","address":"53 Halsterveld","city":"Houten","operatorName":"TotalEnergies","maxPowerKw":11,"isMegawatt":false,"status":"CHARGING","source":"ndw"}},{"type":"Feature","geometry":{"type":"Point","coordinates":[5.146267,52.041438]},"properties":{"type":"charge","layer":"passenger","locationId":"622784f4cc9f5d583dd35ab7","name":"Aangenaam Badkamers station 1","address":"Elzenkade  2","city":"Houten","operatorName":"E-Flux by Road","maxPowerKw":22,"isMegawatt":false,"status":"AVAILABLE","source":"ndw","priceKwh":0.56}},{"type":"Feature","geometry":{"type":"Point","coordinates":[5.15624,52.035835]},"properties":{"type":"charge","layer":"passenger","locationId":"0a02c465-8483-4e16-b628-70806f2fccc8","name":"TNLP007513 - Appelgaarde 18, Houten","address":"18 Appelgaarde","city":"Houten","operatorName":"TotalEnergies","maxPowerKw":17,"isMegawatt":false,"status":"AVAILABLE","source":"ndw"}},{"type":"Feature","geometry":{"type":"Point","coordinates":[5.1749512,52.0151432]},"properties":{"type":"charge","layer":"passenger","locationId":"1167","name":"Shell Recharge NL Torenmuur 2","address":"Torenmuur 2","city":"Houten","operatorName":"Ubitricity","maxPowerKw":22,"isMegawatt":false,"status":"CHARGING","source":"ndw","priceKwh":0.266}},{"type":"Feature","geometry":{"type":"Point","coordinates":[5.191953,52.016773]},"properties":{"type":"charge","layer":"passenger","locationId":"9ea73035-a74e-4d16-8b9d-af8a6e56e6f2","name":"TNLP007640 - Schijfmos 29, Houten","address":"29 Schijfmos","city":"Houten","operatorName":"TotalEnergies","maxPowerKw":17,"isMegawatt":false,"status":"AVAILABLE","source":"ndw"}},{"type":"Feature","geometry":{"type":"Point","coordinates":[5.136805,52.044217]},"properties":{"type":"charge","layer":"passenger","locationId":"3774255","name":"Laadnet G de Kruijf transport BV","address":"Utrechtseweg 21","city":"Houten","operatorName":"Laadnet","maxPowerKw":22,"isMegawatt":false,"status":"AVAILABLE","source":"ndw"}},{"type":"Feature","geometry":{"type":"Point","coordinates":[5.1806746,52.0403473]},"properties":{"type":"charge","layer":"passenger","locationId":"2124","name":"Shell Recharge NL Snoeksloot 48","address":"Snoeksloot 48","city":"Houten","operatorName":"Ubitricity","maxPowerKw":22,"isMegawatt":false,"status":"AVAILABLE","source":"ndw","priceKwh":0.266}},{"type":"Feature","geometry":{"type":"Point","coordinates":[5.1765135,52.0427899]},"properties":{"type":"charge","layer":"passenger","locationId":"2540","name":"Shell Recharge NL Ploegveld 17","address":"Ploegveld 17","city":"Houten","operatorName":"Ubitricity","maxPowerKw":22,"isMegawatt":false,"status":"AVAILABLE","source":"ndw","priceKwh":0.266}},{"type":"Feature","geometry":{"type":"Point","coordinates":[5.16436,52.03431]},"properties":{"type":"charge","layer":"passenger","locationId":"793b21d1-12bc-4106-9c47-462131627652","name":"PP002525 - Dijkhoeve 33, Houten","address":"33 Dijkhoeve","city":"Houten","operatorName":"TotalEnergies","maxPowerKw":13,"isMegawatt":false,"status":"AVAILABLE","source":"ndw"}},{"type":"Feature","geometry":{"type":"Point","coordinates":[5.1721755,52.0190221]},"properties":{"type":"charge","layer":"passenger","locationId":"1799","name":"Shell Recharge NL Zwenghout 42","address":"Zwenghout 42","city":"Houten","operatorName":"Ubitricity","maxPowerKw":22,"isMegawatt":false,"status":"AVAILABLE","source":"ndw","priceKwh":0.266}},{"type":"Feature","geometry":{"type":"Point","coordinates":[5.1446401,52.0347404]},"properties":{"type":"charge","layer":"passenger","locationId":"2567","name":"Shell Recharge NL Hoekcamp 56","address":"Hoekcamp 56","city":"Houten","operatorName":"Ubitricity","maxPowerKw":22,"isMegawatt":false,"status":"AVAILABLE","source":"ndw","priceKwh":0.266}},{"type":"Feature","geometry":{"type":"Point","coordinates":[5.138739,52.026705]},"properties":{"type":"charge","layer":"passenger","locationId":"3604062","name":"Laadnet Hoofdveste 19","address":"Hoofdveste 19","city":"Houten","operatorName":"Laadnet","maxPowerKw":22,"isMegawatt":false,"status":"AVAILABLE","source":"ndw"}},{"type":"Feature","geometry":{"type":"Point","coordinates":[5.1862683,52.0194276]},"properties":{"type":"charge","layer":"passenger","locationId":"2103","name":"Shell Recharge NL Tulpentuin 7","address":"Tulpentuin 7","city":"Houten","operatorName":"Ubitricity","maxPowerKw":22,"isMegawatt":false,"status":"AVAILABLE","source":"ndw","priceKwh":0.266}},{"type":"Feature","geometry":{"type":"Point","coordinates":[5.162042,52.031918]},"properties":{"type":"charge","layer":"passenger","locationId":"1dfa10dd-1db1-46fc-80ab-d38fcd44161f","name":"PP005432 - Haver-Oord 47, Houten","address":"47 Haver-Oord","city":"Houten","operatorName":"TotalEnergies","maxPowerKw":11,"isMegawatt":false,"status":"AVAILABLE","source":"ndw"}},{"type":"Feature","geometry":{"type":"Point","coordinates":[5.17443,52.02171]},"properties":{"type":"charge","layer":"passenger","locationId":"679","name":"Shell Recharge NL Steigerbouw 2","address":"Steigerbouw 2","city":"Houten","operatorName":"Ubitricity","maxPowerKw":11,"isMegawatt":false,"status":"CHARGING","source":"ndw","priceKwh":0.388}},{"type":"Feature","geometry":{"type":"Point","coordinates":[5.1624925,52.030809]},"properties":{"type":"charge","layer":"passenger","locationId":"1283","name":"Shell Recharge NL Klaverhof 2","address":"Klaverhof 2","city":"Houten","operatorName":"Ubitricity","maxPowerKw":22,"isMegawatt":false,"status":"AVAILABLE","source":"ndw","priceKwh":0.266}},{"type":"Feature","geometry":{"type":"Point","coordinates":[5.13913,52.02655]},"properties":{"type":"charge","layer":"passenger","locationId":"ab6f12ec-7105-4078-91a4-465351903ae4","name":"PP002594 - Hoofdveste 15, Houten","address":"15 Hoofdveste","city":"Houten","operatorName":"TotalEnergies","maxPowerKw":13,"isMegawatt":false,"status":"AVAILABLE","source":"ndw"}},{"type":"Feature","geometry":{"type":"Point","coordinates":[5.140067,52.036335]},"properties":{"type":"charge","layer":"passenger","locationId":"6756fc91b4eea82fdcc78ed4","name":"Huurdersvereniging \"Paviljoen de Toekomst\"","address":"Meidoornkade 29 -33","city":"Houten","operatorName":"Pluq","maxPowerKw":22,"isMegawatt":false,"status":"UNAVAILABLE","source":"ndw","priceKwh":0.5}},{"type":"Feature","geometry":{"type":"Point","coordinates":[5.171816,52.0175]},"properties":{"type":"charge","layer":"passenger","locationId":"8ab027d3-dc25-4ea5-b518-4a839643d18d","name":"TNLP034532","address":"Zonnehout 10","city":"Houten","operatorName":"TotalEnergies","maxPowerKw":14,"isMegawatt":false,"status":"CHARGING","source":"ndw"}},{"type":"Feature","geometry":{"type":"Point","coordinates":[5.16773,52.03141]},"properties":{"type":"charge","layer":"passenger","locationId":"e4e20675-e69b-41da-b44d-220e90b15b5c","name":"TNLP007117 - Zilverschoonhof 17, Houten","address":"17 Zilverschoonhof","city":"Houten","operatorName":"TotalEnergies","maxPowerKw":17,"isMegawatt":false,"status":"AVAILABLE","source":"ndw"}},{"type":"Feature","geometry":{"type":"Point","coordinates":[5.1752257,52.0152881]},"properties":{"type":"charge","layer":"passenger","locationId":"2368","name":"Shell Recharge NL Torenmuur 2","address":"Torenmuur 2","city":"Houten","operatorName":"Ubitricity","maxPowerKw":22,"isMegawatt":false,"status":"AVAILABLE","source":"ndw","priceKwh":0.266}},{"type":"Feature","geometry":{"type":"Point","coordinates":[5.1815,52.02348]},"properties":{"type":"charge","layer":"passenger","locationId":"1552","name":"Shell Recharge NL Kruisvaardersland 41","address":"Kruisvaardersland 41","city":"Houten","operatorName":"Ubitricity","maxPowerKw":11,"isMegawatt":false,"status":"CHARGING","source":"ndw","priceKwh":0.388}},{"type":"Feature","geometry":{"type":"Point","coordinates":[5.177436,52.02201]},"properties":{"type":"charge","layer":"passenger","locationId":"26a852ef-b0c8-4359-997a-c27f724e56f6","name":"TNLP009039 - Het Spoor 110, Houten","address":"110 Het Spoor","city":"Houten","operatorName":"TotalEnergies","maxPowerKw":17,"isMegawatt":false,"status":"AVAILABLE","source":"ndw"}},{"type":"Feature","geometry":{"type":"Point","coordinates":[5.157798,52.030235]},"properties":{"type":"charge","layer":"passenger","locationId":"3c977887-56e1-4997-9554-d2b9266cefa3","name":"TNLP006975 - Boekweit-oord 30, Houten","address":"30 Boekweit-oord","city":"Houten","operatorName":"TotalEnergies","maxPowerKw":17,"isMegawatt":false,"status":"AVAILABLE","source":"ndw"}},{"type":"Feature","geometry":{"type":"Point","coordinates":[5.159789,52.015793]},"properties":{"type":"charge","layer":"passenger","locationId":"9cd520bd-68eb-4ff7-a1ed-357ce817dea0","name":"TNLP015000 - Sodawater 84, Houten","address":"84 Sodawater","city":"Houten","operatorName":"TotalEnergies","maxPowerKw":17,"isMegawatt":false,"status":"CHARGING","source":"ndw"}},{"type":"Feature","geometry":{"type":"Point","coordinates":[5.177219,52.01348]},"properties":{"type":"charge","layer":"passenger","locationId":"2836d713-6f1f-4034-b1c6-87d5fd179aed","name":"TNLP007612 - Natuursteen 12, Houten","address":"12 Natuursteen","city":"Houten","operatorName":"TotalEnergies","maxPowerKw":17,"isMegawatt":false,"status":"AVAILABLE","source":"ndw"}},{"type":"Feature","geometry":{"type":"Point","coordinates":[5.167905,52.01608]},"properties":{"type":"charge","layer":"passenger","locationId":"a62aee13-3627-4b57-b86d-0a463f940400","name":"TNLP007480 - Kristalwater 13, Houten","address":"13 Kristalwater","city":"Houten","operatorName":"TotalEnergies","maxPowerKw":17,"isMegawatt":false,"status":"AVAILABLE","source":"ndw"}},{"type":"Feature","geometry":{"type":"Point","coordinates":[5.170303,52.031834]},"properties":{"type":"charge","layer":"passenger","locationId":"68affcae2b2fd4e3ab6a1738","name":"De Molen 82  5","address":"De Molen 82","city":"Houten","operatorName":"E-Flux by Road","maxPowerKw":22,"isMegawatt":false,"status":"AVAILABLE","source":"ndw","priceKwh":0.48}},{"type":"Feature","geometry":{"type":"Point","coordinates":[5.163203,52.01494]},"properties":{"type":"charge","layer":"passenger","locationId":"f26e6b85-082c-4ba8-a9ec-c9fb4ac99d92","name":"TNLP006909 - Viswater 38, Houten","address":"38 Viswater","city":"Houten","operatorName":"TotalEnergies","maxPowerKw":17,"isMegawatt":false,"status":"CHARGING","source":"ndw"}},{"type":"Feature","geometry":{"type":"Point","coordinates":[5.16971,52.01977]},"properties":{"type":"charge","layer":"passenger","locationId":"5dd188c8-b446-407d-b291-0ca3cc144968","name":"PP001169 - Teakhout 10, Houten","address":"10 Teakhout","city":"Houten","operatorName":"TotalEnergies","maxPowerKw":11,"isMegawatt":false,"status":"CHARGING","source":"ndw"}},{"type":"Feature","geometry":{"type":"Point","coordinates":[5.147396,52.03646]},"properties":{"type":"charge","layer":"passenger","locationId":"b2ceb75c-d1e4-4b62-b9e0-eea24f5fde62","name":"TNLP007443 - Valkeniersborch 49, Houten","address":"49 Valkeniersborch","city":"Houten","operatorName":"TotalEnergies","maxPowerKw":17,"isMegawatt":false,"status":"AVAILABLE","source":"ndw"}},{"type":"Feature","geometry":{"type":"Point","coordinates":[5.1710073,52.036094]},"properties":{"type":"charge","layer":"passenger","locationId":"1168","name":"Shell Recharge NL Achterom 109","address":"Achterom 109","city":"Houten","operatorName":"Ubitricity","maxPowerKw":22,"isMegawatt":false,"status":"AVAILABLE","source":"ndw","priceKwh":0.266}},{"type":"Feature","geometry":{"type":"Point","coordinates":[5.17968,52.01371]},"properties":{"type":"charge","layer":"passenger","locationId":"1541","name":"Shell Recharge NL Kiezelsteen 1","address":"Kiezelsteen 1","city":"Houten","operatorName":"Ubitricity","maxPowerKw":11,"isMegawatt":false,"status":"AVAILABLE","source":"ndw","priceKwh":0.388}},{"type":"Feature","geometry":{"type":"Point","coordinates":[5.175463,52.021484]},"properties":{"type":"charge","layer":"passenger","locationId":"c5f06071-ddf0-471f-ad05-17f071157a31","name":"TNLP009084 - De Bouw 21, Houten","address":"21 De Bouw","city":"Houten","operatorName":"TotalEnergies","maxPowerKw":17,"isMegawatt":false,"status":"AVAILABLE","source":"ndw"}},{"type":"Feature","geometry":{"type":"Point","coordinates":[5.1510141,52.0352636]},"properties":{"type":"charge","layer":"passenger","locationId":"1953","name":"Shell Recharge NL Riddersborch 35","address":"Riddersborch 35","city":"Houten","operatorName":"Ubitricity","maxPowerKw":22,"isMegawatt":false,"status":"CHARGING","source":"ndw","priceKwh":0.266}},{"type":"Feature","geometry":{"type":"Point","coordinates":[5.17939,52.04097]},"properties":{"type":"charge","layer":"passenger","locationId":"575","name":"Shell Recharge NL Aalsloot 1","address":"Aalsloot 1","city":"Houten","operatorName":"Ubitricity","maxPowerKw":11,"isMegawatt":false,"status":"AVAILABLE","source":"ndw","priceKwh":0.388}},{"type":"Feature","geometry":{"type":"Point","coordinates":[5.18566,52.02198]},"properties":{"type":"charge","layer":"passenger","locationId":"456","name":"Shell Recharge NL Rotstuin 16","address":"Rotstuin 16","city":"Houten","operatorName":"Ubitricity","maxPowerKw":11,"isMegawatt":false,"status":"AVAILABLE","source":"ndw","priceKwh":0.388}},{"type":"Feature","geometry":{"type":"Point","coordinates":[5.157988,52.038387]},"properties":{"type":"charge","layer":"passenger","locationId":"683022524a1a21c933844a7d","name":"Cornell Jaspers 's station","address":"Bramengaarde 21","city":"Houten","operatorName":"E-Flux by Road","maxPowerKw":22,"isMegawatt":false,"status":"CHARGING","source":"ndw","priceKwh":0.53}},{"type":"Feature","geometry":{"type":"Point","coordinates":[5.168082,52.040125]},"properties":{"type":"charge","layer":"passenger","locationId":"029d2411e687b04c767f36c40a81d30f","name":"De Haag 52","address":"De Haag 52","city":"Houten","operatorName":"Vattenfall InCharge","maxPowerKw":11,"isMegawatt":false,"status":"CHARGING","source":"ndw"}},{"type":"Feature","geometry":{"type":"Point","coordinates":[5.149053,52.029022]},"properties":{"type":"charge","layer":"passenger","locationId":"105cd7a4-406c-434b-bf36-d68ce55dd736","name":"PP004151 - Muntslag 22, Houten","address":"22 Muntslag","city":"Houten","operatorName":"TotalEnergies","maxPowerKw":11,"isMegawatt":false,"status":"AVAILABLE","source":"ndw"}},{"type":"Feature","geometry":{"type":"Point","coordinates":[5.155329,52.030327]},"properties":{"type":"charge","layer":"passenger","locationId":"75949621-835b-4f3b-822f-446747619a80","name":"TNLP007924 - Batavenpoort 14, Houten","address":"14 Batavenpoort","city":"Houten","operatorName":"TotalEnergies","maxPowerKw":17,"isMegawatt":false,"status":"AVAILABLE","source":"ndw"}},{"type":"Feature","geometry":{"type":"Point","coordinates":[5.191874,52.014416]},"properties":{"type":"charge","layer":"passenger","locationId":"5642779d-79bc-432a-9f50-e492a23428c1","name":"TNLP009053 - Fluweelmos 1, Houten","address":"1 Fluweelmos","city":"Houten","operatorName":"TotalEnergies","maxPowerKw":17,"isMegawatt":false,"status":"CHARGING","source":"ndw"}},{"type":"Feature","geometry":{"type":"Point","coordinates":[5.16683,52.01949]},"properties":{"type":"charge","layer":"passenger","locationId":"8883da63-c974-4c1f-84e5-7615ffab6ad4","name":"PP001713 - Beukenhout 42, Houten","address":"42 Beukenhout","city":"Houten","operatorName":"TotalEnergies","maxPowerKw":11,"isMegawatt":false,"status":"AVAILABLE","source":"ndw"}},{"type":"Feature","geometry":{"type":"Point","coordinates":[5.17057,52.01228]},"properties":{"type":"charge","layer":"passenger","locationId":"1544","name":"Shell Recharge NL Kloostermuur 2","address":"Kloostermuur 2","city":"Houten","operatorName":"Ubitricity","maxPowerKw":11,"isMegawatt":false,"status":"AVAILABLE","source":"ndw","priceKwh":0.388}},{"type":"Feature","geometry":{"type":"Point","coordinates":[5.150461,52.033894]},"properties":{"type":"charge","layer":"passenger","locationId":"0d582d90-25ff-493f-8823-ef9974666cbe","name":"TNLP007644 - Strocamp 46, Houten","address":"46 Strocamp","city":"Houten","operatorName":"TotalEnergies","maxPowerKw":17,"isMegawatt":false,"status":"AVAILABLE","source":"ndw"}},{"type":"Feature","geometry":{"type":"Point","coordinates":[5.1917148,52.0118661]},"properties":{"type":"charge","layer":"passenger","locationId":"1059","name":"Shell Recharge NL Kantmos 81","address":"Kantmos 81","city":"Houten","operatorName":"Ubitricity","maxPowerKw":22,"isMegawatt":false,"status":"AVAILABLE","source":"ndw","priceKwh":0.266}},{"type":"Feature","geometry":{"type":"Point","coordinates":[5.1951,52.01723]},"properties":{"type":"charge","layer":"passenger","locationId":"1663","name":"Shell Recharge NL Witmos 2","address":"Witmos 2","city":"Houten","operatorName":"Ubitricity","maxPowerKw":11,"isMegawatt":false,"status":"AVAILABLE","source":"ndw","priceKwh":0.388}},{"type":"Feature","geometry":{"type":"Point","coordinates":[5.16052,52.03903]},"properties":{"type":"charge","layer":"passenger","locationId":"203","name":"Shell Recharge NL Paardenhoeve 7","address":"Paardenhoeve 7","city":"Houten","operatorName":"Ubitricity","maxPowerKw":11,"isMegawatt":false,"status":"AVAILABLE","source":"ndw","priceKwh":0.388}},{"type":"Feature","geometry":{"type":"Point","coordinates":[5.173624,52.01313]},"properties":{"type":"charge","layer":"passenger","locationId":"0605cdc4-ed88-4341-9c3f-706b504086ff","name":"TNLP008238 - Cascademuur 20, Houten","address":"20 Cascademuur","city":"Houten","operatorName":"TotalEnergies","maxPowerKw":17,"isMegawatt":false,"status":"AVAILABLE","source":"ndw"}},{"type":"Feature","geometry":{"type":"Point","coordinates":[5.158828,52.025528]},"properties":{"type":"charge","layer":"passenger","locationId":"409842fe-d248-46fb-b4b9-cb9d5fbcfa6c","name":"TNLP009016 - Suevenpoort 1, Houten","address":"1 Suevenpoort","city":"Houten","operatorName":"TotalEnergies","maxPowerKw":17,"isMegawatt":false,"status":"AVAILABLE","source":"ndw"}},{"type":"Feature","geometry":{"type":"Point","coordinates":[5.156672,52.034317]},"properties":{"type":"charge","layer":"passenger","locationId":"e7803111-00d7-4089-a938-01ed02002834","name":"TNLP007560 - Appelgaarde 56, Houten","address":"56 Appelgaarde","city":"Houten","operatorName":"TotalEnergies","maxPowerKw":17,"isMegawatt":false,"status":"AVAILABLE","source":"ndw"}},{"type":"Feature","geometry":{"type":"Point","coordinates":[5.1913952,52.025199]},"properties":{"type":"charge","layer":"passenger","locationId":"1226","name":"Shell Recharge NL Duinmeer 114","address":"Duinmeer 114","city":"Houten","operatorName":"Ubitricity","maxPowerKw":22,"isMegawatt":false,"status":"UNAVAILABLE","source":"ndw","priceKwh":0.266}},{"type":"Feature","geometry":{"type":"Point","coordinates":[5.162746,52.014263]},"properties":{"type":"charge","layer":"passenger","locationId":"0c63d43c-7282-43dc-9be5-6c5f9f14c750","name":"TNLP008433 - Rijnpolder 47, Houten","address":"47 Rijnpolder","city":"Houten","operatorName":"TotalEnergies","maxPowerKw":13,"isMegawatt":false,"status":"CHARGING","source":"ndw"}},{"type":"Feature","geometry":{"type":"Point","coordinates":[5.15617,52.02851]},"properties":{"type":"charge","layer":"passenger","locationId":"1501","name":"Shell Recharge NL Friezenpoort 11","address":"Friezenpoort 11","city":"Houten","operatorName":"Ubitricity","maxPowerKw":11,"isMegawatt":false,"status":"AVAILABLE","source":"ndw","priceKwh":0.388}},{"type":"Feature","geometry":{"type":"Point","coordinates":[5.169226,52.015194]},"properties":{"type":"charge","layer":"passenger","locationId":"4c13fc26-c544-4713-a4d9-1b15df1f7ede","name":"TNLP034201","address":"Kristalwater 42","city":"Houten","operatorName":"TotalEnergies","maxPowerKw":14,"isMegawatt":false,"status":"CHARGING","source":"ndw"}},{"type":"Feature","geometry":{"type":"Point","coordinates":[5.17485,52.0326]},"properties":{"type":"charge","layer":"passenger","locationId":"efde8163-21d4-441f-90c9-3b564379ddf6","name":"PP005492 - Klompenmakersgilde 97, Houten","address":"97 Klompenmakersgilde","city":"Houten","operatorName":"TotalEnergies","maxPowerKw":11,"isMegawatt":false,"status":"CHARGING","source":"ndw"}},{"type":"Feature","geometry":{"type":"Point","coordinates":[5.162001,52.02973]},"properties":{"type":"charge","layer":"passenger","locationId":"319b365f-f702-44bd-b8a1-8f0e5900c87c","name":"TNLP034170","address":"Lobbendijk 39","city":"Houten","operatorName":"TotalEnergies","maxPowerKw":14,"isMegawatt":false,"status":"AVAILABLE","source":"ndw"}},{"type":"Feature","geometry":{"type":"Point","coordinates":[5.162125,52.01226]},"properties":{"type":"charge","layer":"passenger","locationId":"b39820a5-85c3-4405-9032-b119b874817f","name":"TNLP007494 - Maaspolder 44, Houten","address":"44 Maaspolder","city":"Houten","operatorName":"TotalEnergies","maxPowerKw":17,"isMegawatt":false,"status":"AVAILABLE","source":"ndw"}},{"type":"Feature","geometry":{"type":"Point","coordinates":[5.1723877,52.0194834]},"properties":{"type":"charge","layer":"passenger","locationId":"942","name":"Shell Recharge NL Landbouw 43","address":"Landbouw 43","city":"Houten","operatorName":"Ubitricity","maxPowerKw":22,"isMegawatt":false,"status":"AVAILABLE","source":"ndw","priceKwh":0.266}},{"type":"Feature","geometry":{"type":"Point","coordinates":[5.13936,52.03017]},"properties":{"type":"charge","layer":"passenger","locationId":"ED2AB84B-BCCB-43AD-9B3C-1D391C0606B8","name":"Eneco eMobility Ettekoven B.V. - Houten","address":"Ringveste 11A","city":"Houten","operatorName":"Eneco","maxPowerKw":22,"isMegawatt":false,"status":"AVAILABLE","source":"ndw","priceKwh":0.32}},{"type":"Feature","geometry":{"type":"Point","coordinates":[5.185578,52.018884]},"properties":{"type":"charge","layer":"passenger","locationId":"7185c818d2f6c67f32d999dc8192de9d","name":"Tulpentuin 18","address":"Tulpentuin 18","city":"Houten","operatorName":"Vattenfall InCharge","maxPowerKw":11,"isMegawatt":false,"status":"AVAILABLE","source":"ndw"}},{"type":"Feature","geometry":{"type":"Point","coordinates":[5.178551,52.01971]},"properties":{"type":"charge","layer":"passenger","locationId":"699f6c4f-7ed7-47ce-a257-fc961e21c64f","name":"TNLP034570","address":"Hollandspoor 13","city":"Houten","operatorName":"TotalEnergies","maxPowerKw":14,"isMegawatt":false,"status":"AVAILABLE","source":"ndw"}},{"type":"Feature","geometry":{"type":"Point","coordinates":[5.19149,52.01344]},"properties":{"type":"charge","layer":"passenger","locationId":"1499","name":"Shell Recharge NL Fluweelmos 31","address":"Fluweelmos 31","city":"Houten","operatorName":"Ubitricity","maxPowerKw":11,"isMegawatt":false,"status":"AVAILABLE","source":"ndw","priceKwh":0.388}},{"type":"Feature","geometry":{"type":"Point","coordinates":[5.159264,52.0149]},"properties":{"type":"charge","layer":"passenger","locationId":"6254b9fa-4c9d-40b2-be21-a3ff5a855dd3","name":"TNLP007241 - Viswater 74, Houten","address":"74 Viswater","city":"Houten","operatorName":"TotalEnergies","maxPowerKw":17,"isMegawatt":false,"status":"AVAILABLE","source":"ndw"}},{"type":"Feature","geometry":{"type":"Point","coordinates":[5.17077,52.0335]},"properties":{"type":"charge","layer":"passenger","locationId":"94aa9ac3-4fba-4205-8001-4ca1c338056d","name":"PP001132 - Kruitmolen 1, Houten","address":"1 Kruitmolen","city":"Houten","operatorName":"TotalEnergies","maxPowerKw":11,"isMegawatt":false,"status":"AVAILABLE","source":"ndw"}},{"type":"Feature","geometry":{"type":"Point","coordinates":[5.179895,52.02481]},"properties":{"type":"charge","layer":"passenger","locationId":"f4b3fbe7-2eaf-4ebd-b277-b1b402fb9d38","name":"TNLP009043 - Patriottenlaan 26, Houten","address":"26 Patriottenlaan","city":"Houten","operatorName":"TotalEnergies","maxPowerKw":17,"isMegawatt":false,"status":"AVAILABLE","source":"ndw"}},{"type":"Feature","geometry":{"type":"Point","coordinates":[5.145311,52.023128]},"properties":{"type":"charge","layer":"passenger","locationId":"6697ba61d90304001c4ffb20","name":"Schadenet Winkel","address":"Duwvboot 77","city":"Houten","operatorName":"E-Flux by Road","maxPowerKw":22,"isMegawatt":false,"status":"AVAILABLE","source":"ndw","priceKwh":0.53}},{"type":"Feature","geometry":{"type":"Point","coordinates":[5.178227,52.033798]},"properties":{"type":"charge","layer":"passenger","locationId":"540e2ababa3bb2d616b30855fe641f52","name":"Schuttersgilde 23","address":"Schuttersgilde 23","city":"Houten","operatorName":"Vattenfall InCharge","maxPowerKw":11,"isMegawatt":false,"status":"AVAILABLE","source":"ndw"}},{"type":"Feature","geometry":{"type":"Point","coordinates":[5.18306,52.01189]},"properties":{"type":"charge","layer":"passenger","locationId":"94ebf3d5-086f-4b7b-aba1-f8301df6e0eb","name":"PP002528 - Raaigras 2, Houten","address":"2 Raaigras","city":"Houten","operatorName":"TotalEnergies","maxPowerKw":13,"isMegawatt":false,"status":"AVAILABLE","source":"ndw"}},{"type":"Feature","geometry":{"type":"Point","coordinates":[5.192808,52.023693]},"properties":{"type":"charge","layer":"passenger","locationId":"a9d6a9e9-c056-4f20-8c4d-1064742346a0","name":"TNLP006722 - Toendrameer 113, Houten","address":"113 Toendrameer","city":"Houten","operatorName":"TotalEnergies","maxPowerKw":17,"isMegawatt":false,"status":"AVAILABLE","source":"ndw"}},{"type":"Feature","geometry":{"type":"Point","coordinates":[5.17126,52.0112]},"properties":{"type":"charge","layer":"passenger","locationId":"549","name":"Shell Recharge NL Kanaalmuur 4","address":"Kanaalmuur 4","city":"Houten","operatorName":"Ubitricity","maxPowerKw":11,"isMegawatt":false,"status":"AVAILABLE","source":"ndw","priceKwh":0.388}},{"type":"Feature","geometry":{"type":"Point","coordinates":[5.162391,52.028797]},"properties":{"type":"charge","layer":"passenger","locationId":"6efe225d-4daf-47e7-95a9-f3fb5857449f","name":"TNLP007941 - Kostersgang 53, Houten","address":"53 Kostersgang","city":"Houten","operatorName":"TotalEnergies","maxPowerKw":17,"isMegawatt":false,"status":"AVAILABLE","source":"ndw"}},{"type":"Feature","geometry":{"type":"Point","coordinates":[5.16421,52.02784]},"properties":{"type":"charge","layer":"passenger","locationId":"829a6997-cf60-44ab-bd5b-ed777e5be11d","name":"TNLP007516 - Prins Clausstraat 1, Houten","address":"1 Prins Clausstraat","city":"Houten","operatorName":"TotalEnergies","maxPowerKw":17,"isMegawatt":false,"status":"AVAILABLE","source":"ndw"}},{"type":"Feature","geometry":{"type":"Point","coordinates":[5.170283,52.031855]},"properties":{"type":"charge","layer":"passenger","locationId":"68affb812b2fd4e3ab68f75b","name":"De Molen 82  3","address":"De Molen 82","city":"Houten","operatorName":"E-Flux by Road","maxPowerKw":22,"isMegawatt":false,"status":"AVAILABLE","source":"ndw","priceKwh":0.48}},{"type":"Feature","geometry":{"type":"Point","coordinates":[5.169431,52.031331]},"properties":{"type":"charge","layer":"passenger","locationId":"695ce40daa1d7d52c5bd176b","name":"Stefan's station","address":"Prins Willem-Alexanderweg  40","city":"Houten","operatorName":"Vattenfall","maxPowerKw":22,"isMegawatt":false,"status":"AVAILABLE","source":"ndw","priceKwh":0.43}},{"type":"Feature","geometry":{"type":"Point","coordinates":[5.1812961,52.0119186]},"properties":{"type":"charge","layer":"passenger","locationId":"2043","name":"Shell Recharge NL Maansteen 9","address":"Maansteen 9","city":"Houten","operatorName":"Ubitricity","maxPowerKw":22,"isMegawatt":false,"status":"AVAILABLE","source":"ndw","priceKwh":0.266}},{"type":"Feature","geometry":{"type":"Point","coordinates":[5.17031,52.031823]},"properties":{"type":"charge","layer":"passenger","locationId":"68affd36be72366fb49a61a3","name":"De Molen 82  6","address":"De Molen 82","city":"Houten","operatorName":"E-Flux by Road","maxPowerKw":22,"isMegawatt":false,"status":"AVAILABLE","source":"ndw","priceKwh":0.48}},{"type":"Feature","geometry":{"type":"Point","coordinates":[5.169046,52.011627]},"properties":{"type":"charge","layer":"passenger","locationId":"c3dca9a7-5600-4a37-9b85-9bbc57ce1d8c","name":"TNLP009744 - Kloostermuur 36, Houten","address":"36 Kloostermuur","city":"Houten","operatorName":"TotalEnergies","maxPowerKw":17,"isMegawatt":false,"status":"AVAILABLE","source":"ndw"}},{"type":"Feature","geometry":{"type":"Point","coordinates":[5.1698,52.027332]},"properties":{"type":"charge","layer":"passenger","locationId":"38059493-4d4b-41bc-a8a6-3daebea5385f","name":"TNLP008227 - Molenaarserf 65, Houten","address":"65 Molenaarserf","city":"Houten","operatorName":"TotalEnergies","maxPowerKw":17,"isMegawatt":false,"status":"AVAILABLE","source":"ndw"}},{"type":"Feature","geometry":{"type":"Point","coordinates":[5.175305,52.019352]},"properties":{"type":"charge","layer":"passenger","locationId":"65adbfb2-e424-4921-8f49-34b9c6ff5377","name":"TNLP007922 - Wegenbouw 88, Houten","address":"88 Wegenbouw","city":"Houten","operatorName":"TotalEnergies","maxPowerKw":17,"isMegawatt":false,"status":"AVAILABLE","source":"ndw"}},{"type":"Feature","geometry":{"type":"Point","coordinates":[5.14153,52.03945]},"properties":{"type":"charge","layer":"passenger","locationId":"7d145bf0-34ae-42e4-8120-030142a5cae8","name":"TNLP003513 - Meidoornkade 22, Houten","address":"22 Meidoornkade","city":"Houten","operatorName":"TotalEnergies","maxPowerKw":17,"isMegawatt":false,"status":"AVAILABLE","source":"ndw"}},{"type":"Feature","geometry":{"type":"Point","coordinates":[5.185549,52.01637]},"properties":{"type":"charge","layer":"passenger","locationId":"f7a1ee42-7223-4a42-82a7-b57be2619e17","name":"TNLP009074 - Borstelgras 19, Houten","address":"19 Borstelgras","city":"Houten","operatorName":"TotalEnergies","maxPowerKw":17,"isMegawatt":false,"status":"AVAILABLE","source":"ndw"}},{"type":"Feature","geometry":{"type":"Point","coordinates":[5.19451,52.01532]},"properties":{"type":"charge","layer":"passenger","locationId":"b2bded3325add5436e36e35f70d717f9","name":"Zilvermos 4","address":"Zilvermos 4","city":"Houten","operatorName":"Vattenfall InCharge","maxPowerKw":11,"isMegawatt":false,"status":"AVAILABLE","source":"ndw"}},{"type":"Feature","geometry":{"type":"Point","coordinates":[5.183585,52.023354]},"properties":{"type":"charge","layer":"passenger","locationId":"1438ae4d-5118-4f6b-8307-e08637e77da0","name":"PP005467 - Geuzenland 25, Houten","address":"25 Geuzenland","city":"Houten","operatorName":"TotalEnergies","maxPowerKw":11,"isMegawatt":false,"status":"AVAILABLE","source":"ndw"}},{"type":"Feature","geometry":{"type":"Point","coordinates":[5.164931,52.02397]},"properties":{"type":"charge","layer":"passenger","locationId":"a5e8a99e-a8f1-4871-93bc-590177b6161e","name":"TNLP009036 - Dorpsstraat 68, Houten","address":"68 Dorpsstraat","city":"Houten","operatorName":"TotalEnergies","maxPowerKw":17,"isMegawatt":false,"status":"AVAILABLE","source":"ndw"}},{"type":"Feature","geometry":{"type":"Point","coordinates":[5.185928,52.013914]},"properties":{"type":"charge","layer":"passenger","locationId":"086329eaf053650e44ef12a067a16c64","name":"Kamgras 40","address":"Kamgras 40","city":"Houten","operatorName":"Vattenfall InCharge","maxPowerKw":11,"isMegawatt":false,"status":"CHARGING","source":"ndw"}},{"type":"Feature","geometry":{"type":"Point","coordinates":[5.177679,52.043373]},"properties":{"type":"charge","layer":"passenger","locationId":"cd969026-96b0-44a1-b2f8-ab14fcc480e2","name":"TNLP005755 - Strekelveld 7, Houten","address":"7 Strekelveld","city":"Houten","operatorName":"TotalEnergies","maxPowerKw":11,"isMegawatt":false,"status":"CHARGING","source":"ndw"}},{"type":"Feature","geometry":{"type":"Point","coordinates":[5.182413,51.99602]},"properties":{"type":"charge","layer":"passenger","locationId":"f80a06cd-fd64-440e-858b-184566cdbaba","name":"TNLP003685 - de Groes 2 B, Schalkwijk","address":"2 B de Groes","city":"Schalkwijk","operatorName":"TotalEnergies","maxPowerKw":17,"isMegawatt":false,"status":"AVAILABLE","source":"ndw"}},{"type":"Feature","geometry":{"type":"Point","coordinates":[5.171751,52.030086]},"properties":{"type":"charge","layer":"passenger","locationId":"10fe4dc86dbf680c801a8875d9baae9b","name":"Standerdmolen 10","address":"Standerdmolen 10","city":"Houten","operatorName":"Vattenfall InCharge","maxPowerKw":11,"isMegawatt":false,"status":"AVAILABLE","source":"ndw"}},{"type":"Feature","geometry":{"type":"Point","coordinates":[5.18787,52.024731]},"properties":{"type":"charge","layer":"passenger","locationId":"634041e0657df0f46b3ea690","name":"Jeff Verheul 's station","address":"Kasteeltuin  7","city":"Houten","operatorName":"E-Flux by Road","maxPowerKw":11,"isMegawatt":false,"status":"AVAILABLE","source":"ndw","priceKwh":0.58}},{"type":"Feature","geometry":{"type":"Point","coordinates":[5.15391,52.0294]},"properties":{"type":"charge","layer":"passenger","locationId":"05e5bea39dbd60aefbf4e1072105b47b","name":"Romeinenpoort 31","address":"Romeinenpoort 31","city":"Houten","operatorName":"Vattenfall InCharge","maxPowerKw":11,"isMegawatt":false,"status":"AVAILABLE","source":"ndw"}},{"type":"Feature","geometry":{"type":"Point","coordinates":[5.15797,52.037933]},"properties":{"type":"charge","layer":"passenger","locationId":"7ea5392c0d3933f166de2122a982d430","name":"Bramengaarde 26","address":"Bramengaarde 26","city":"Houten","operatorName":"Vattenfall InCharge","maxPowerKw":11,"isMegawatt":false,"status":"AVAILABLE","source":"ndw"}},{"type":"Feature","geometry":{"type":"Point","coordinates":[5.188104,51.996973]},"properties":{"type":"charge","layer":"passenger","locationId":"9d5410034c03a70c7dcd8b7ef733d41f","name":"Biesterlaan 18","address":"Biesterlaan 18","city":"Schalkwijk","operatorName":"Vattenfall InCharge","maxPowerKw":11,"isMegawatt":false,"status":"AVAILABLE","source":"ndw"}},{"type":"Feature","geometry":{"type":"Point","coordinates":[5.168256,52.03839]},"properties":{"type":"charge","layer":"passenger","locationId":"7fc1315cb7436c50af752550106036a4","name":"Koolmeeshaag 26","address":"Koolmeeshaag 26","city":"Houten","operatorName":"Vattenfall InCharge","maxPowerKw":11,"isMegawatt":false,"status":"AVAILABLE","source":"ndw"}},{"type":"Feature","geometry":{"type":"Point","coordinates":[5.17967,52.023594]},"properties":{"type":"charge","layer":"passenger","locationId":"62b536cf01192f9d8721464342329e43","name":"Hagepreekland 28","address":"Hagepreekland 28","city":"Houten","operatorName":"Vattenfall InCharge","maxPowerKw":11,"isMegawatt":false,"status":"AVAILABLE","source":"ndw"}},{"type":"Feature","geometry":{"type":"Point","coordinates":[5.17805,52.01618]},"properties":{"type":"charge","layer":"passenger","locationId":"444aa812-fb4b-4557-a6a6-5b6bbdd44ecd","name":"Piazza 98","address":"Piazza 98","city":"HOUTEN","operatorName":"Vattenfall InCharge","maxPowerKw":22,"isMegawatt":false,"status":"CHARGING","source":"ndw"}},{"type":"Feature","geometry":{"type":"Point","coordinates":[5.15347,52.03083]},"properties":{"type":"charge","layer":"passenger","locationId":"9a709a5068853bf1c1637f34c92ac078","name":"Guldenslag 84","address":"Guldenslag 84","city":"Houten","operatorName":"Vattenfall InCharge","maxPowerKw":11,"isMegawatt":false,"status":"CHARGING","source":"ndw"}},{"type":"Feature","geometry":{"type":"MultiPolygon","coordinates":[[[[5.153030153595399,52.056757219321035],[5.160743089267683,52.04551466523421],[5.178836042629757,52.04572019835147],[5.178930240366908,52.04634040619643],[5.187366997395631,52.044123457450866],[5.189498833068095,52.043314123478105],[5.191472228345597,52.043044417378745],[5.188984159434034,52.038404687887926],[5.189540886843325,52.03698852958191],[5.192503148355396,52.03440880966689],[5.195432030442456,52.03642700379885],[5.199449384868009,52.03371726461185],[5.20091013184685,52.0316633141414],[5.1991027022052565,52.025219036474304],[5.200207536800119,52.022905272261326],[5.203526609783605,52.020076268719286],[5.202164562023826,52.01744688602719],[5.219373572637287,52.015215596462426],[5.2245007633455325,52.013436599497496],[5.230571581997752,52.010356165161156],[5.243190142128502,51.9987932896457],[5.242354654728058,51.99866223196375],[5.244017982030729,51.998350992866605],[5.243540574046875,51.997614081529],[5.245384811123156,51.99598396945751],[5.256129410802707,51.99361089468649],[5.253324875695652,51.99233526823163],[5.254140658346862,51.986070905873596],[5.271407094619932,51.98114506659032],[5.271267864398761,51.98105086695083],[5.266047035538819,51.975807190430544],[5.25627061765905,51.97094153997297],[5.246523229179499,51.977498403118226],[5.242269865057951,51.97872988826042],[5.236866550301667,51.978757640998246],[5.233006130853914,51.97755057524234],[5.2299119706539665,51.97564909777659],[5.2239562758607425,51.967814173565976],[5.219057796526924,51.96342768900848],[5.213469595753767,51.960666091743605],[5.213434821479945,51.96065331570196],[5.2059881740495415,51.959432516805045],[5.198844825110311,51.960197798057344],[5.189720025417896,51.962914247228625],[5.18022603912898,51.96744836344611],[5.172721350948942,51.96961735996542],[5.160952858924784,51.970470092229995],[5.154603015829026,51.971766195788014],[5.14971314978696,51.974271394992314],[5.14688265790885,51.97681745505073],[5.143610090948376,51.98414942063904],[5.143595383209782,51.98421830203412],[5.141880043128003,51.99073017285672],[5.139676310406057,51.99394331977896],[5.133867606991672,51.996687342264586],[5.1282163760631265,51.99775309322528],[5.119562825567581,51.99992422927092],[5.120820626365498,52.003324923496216],[5.121021955883042,52.003701381663035],[5.122836228533557,52.00860688842688],[5.125568722046711,52.01668654718278],[5.128350949041176,52.02461390420776],[5.130992896634691,52.024723887117744],[5.121773798433588,52.03043287226519],[5.129672032302122,52.0498528348522],[5.124717578696405,52.0499154327118],[5.126831549391866,52.054918190460846],[5.145675234752557,52.052559070470664],[5.149941116226566,52.05558920312274],[5.152808191877095,52.056687967567235],[5.153030153595399,52.056757219321035]]]]},"properties":{"type":"boundary","gemeente":"Houten","code":"GM0321"}}]}