{"type":"FeatureCollection","metadata":{"gemeente":"IJsselstein","slug":"ijsselstein","code":"GM0353","generated_at":"2026-07-06T16:26:11.361Z","total_passenger":154,"total_freight":0,"bounds":[4.978392416352495,51.99123318293138,5.077717271314899,52.06114306357085],"operators":["DAEN Mobility","E-Flux by Road","Eneco","Shell Recharge","TotalEnergies","Ubitricity","Vattenfall InCharge","e-VOLTT"]},"features":[{"type":"Feature","geometry":{"type":"Point","coordinates":[5.048052,52.018764]},"properties":{"type":"charge","layer":"passenger","locationId":"fffedff6-8d52-4124-9fcd-b0954b3c16b2","name":"TNLP009182 - Guyottestraat 12 tt, IJsselstein","address":"12 tt Guyottestraat","city":"IJsselstein","operatorName":"TotalEnergies","maxPowerKw":17,"isMegawatt":false,"status":"AVAILABLE","source":"ndw"}},{"type":"Feature","geometry":{"type":"Point","coordinates":[5.037601,52.022896]},"properties":{"type":"charge","layer":"passenger","locationId":"7006afd9-6e91-452e-9879-4f816611be90","name":"TNLP006868 - Dissel 42, IJsselstein","address":"42 Dissel","city":"IJsselstein","operatorName":"TotalEnergies","maxPowerKw":17,"isMegawatt":false,"status":"AVAILABLE","source":"ndw"}},{"type":"Feature","geometry":{"type":"Point","coordinates":[5.035713,52.026245]},"properties":{"type":"charge","layer":"passenger","locationId":"df8d0dc0-b4f3-4a7e-a482-8108e31c509b","name":"TNLP008381 - Pelgrimsweg 64, IJsselstein","address":"64 Pelgrimsweg","city":"IJsselstein","operatorName":"TotalEnergies","maxPowerKw":13,"isMegawatt":false,"status":"AVAILABLE","source":"ndw"}},{"type":"Feature","geometry":{"type":"Point","coordinates":[5.058534,52.013915]},"properties":{"type":"charge","layer":"passenger","locationId":"349","name":"Shell Recharge NL9127 - Gamma Ijsselstein","address":"Tinbergenlaan 11","city":"Ijsselstein","operatorName":"Shell Recharge","maxPowerKw":150,"isMegawatt":false,"status":"AVAILABLE","source":"ndw","priceKwh":0.7025}},{"type":"Feature","geometry":{"type":"Point","coordinates":[5.042077,52.01303]},"properties":{"type":"charge","layer":"passenger","locationId":"3433fd9e-a0c1-4365-95cb-7b6d829afc3b","name":"TNLP009055 - Sofiastraat 7, IJsselstein","address":"7 Sofiastraat","city":"IJsselstein","operatorName":"TotalEnergies","maxPowerKw":17,"isMegawatt":false,"status":"AVAILABLE","source":"ndw"}},{"type":"Feature","geometry":{"type":"Point","coordinates":[5.043738,52.011627]},"properties":{"type":"charge","layer":"passenger","locationId":"30f48727-40d5-4fc0-a136-3ed9368e3f52","name":"TNLP005907 - Tuinensingel 25, IJsselstein","address":"25 Tuinensingel","city":"IJsselstein","operatorName":"TotalEnergies","maxPowerKw":17,"isMegawatt":false,"status":"CHARGING","source":"ndw"}},{"type":"Feature","geometry":{"type":"Point","coordinates":[5.047238,52.02867]},"properties":{"type":"charge","layer":"passenger","locationId":"74b08c1f-08b7-4848-866a-ec2ac62dcabe","name":"TNLP008117 - Miranda 1, IJsselstein","address":"1 Miranda","city":"IJsselstein","operatorName":"TotalEnergies","maxPowerKw":17,"isMegawatt":false,"status":"AVAILABLE","source":"ndw"}},{"type":"Feature","geometry":{"type":"Point","coordinates":[5.056922,52.018049]},"properties":{"type":"charge","layer":"passenger","locationId":"OST21P0054_0013_1","name":"OST21P0054_0013_1","address":"Hoge Dijk 1","city":"IJsselstein","operatorName":"e-VOLTT","maxPowerKw":38,"isMegawatt":false,"status":"AVAILABLE","source":"ndw","priceKwh":0.25}},{"type":"Feature","geometry":{"type":"Point","coordinates":[5.031089,52.014591]},"properties":{"type":"charge","layer":"passenger","locationId":"bb606d669fbf3b3383f78d17c4ffbb5a","name":"Jacob van Maerlantstraat 3","address":"Jacob van Maerlantstraat 3","city":"IJsselstein","operatorName":"Vattenfall InCharge","maxPowerKw":11,"isMegawatt":false,"status":"AVAILABLE","source":"ndw"}},{"type":"Feature","geometry":{"type":"Point","coordinates":[5.04217,52.03255]},"properties":{"type":"charge","layer":"passenger","locationId":"1e3b567f-b5e5-42e5-8040-695b590caedc","name":"TNLP008533 - Maansteenhof 5, IJsselstein","address":"5 Maansteenhof","city":"IJsselstein","operatorName":"TotalEnergies","maxPowerKw":13,"isMegawatt":false,"status":"AVAILABLE","source":"ndw"}},{"type":"Feature","geometry":{"type":"Point","coordinates":[5.026491,52.024407]},"properties":{"type":"charge","layer":"passenger","locationId":"5b3cd4472e46f17d87d0f04d3e9113e6","name":"Tolgaarderlaan 25","address":"Tolgaarderlaan 25","city":"IJsselstein","operatorName":"Vattenfall InCharge","maxPowerKw":11,"isMegawatt":false,"status":"AVAILABLE","source":"ndw"}},{"type":"Feature","geometry":{"type":"Point","coordinates":[5.033781,52.009953]},"properties":{"type":"charge","layer":"passenger","locationId":"4aa50830-8cf7-41dd-a4f7-8db710b6be24","name":"TNLP007719 - Aziësingel 22, IJsselstein","address":"22 Aziësingel","city":"IJsselstein","operatorName":"TotalEnergies","maxPowerKw":17,"isMegawatt":false,"status":"AVAILABLE","source":"ndw"}},{"type":"Feature","geometry":{"type":"Point","coordinates":[5.057504,52.025463]},"properties":{"type":"charge","layer":"passenger","locationId":"4c40f022-0b77-409b-8542-e956f76c567a","name":"TNLP006771 - Ruimtevaartbaan 143, IJsselstein","address":"143 Ruimtevaartbaan","city":"IJsselstein","operatorName":"TotalEnergies","maxPowerKw":17,"isMegawatt":false,"status":"AVAILABLE","source":"ndw"}},{"type":"Feature","geometry":{"type":"Point","coordinates":[5.02971,52.02383]},"properties":{"type":"charge","layer":"passenger","locationId":"98","name":"Shell Recharge NL Teenschillerlaan 17","address":"Teenschillerlaan 17","city":"IJsselstein","operatorName":"Ubitricity","maxPowerKw":11,"isMegawatt":false,"status":"CHARGING","source":"ndw","priceKwh":0.388}},{"type":"Feature","geometry":{"type":"Point","coordinates":[5.056922,52.018049]},"properties":{"type":"charge","layer":"passenger","locationId":"OST21P0054_0013_0","name":"OST21P0054_0013_0","address":"Hoge Dijk 1","city":"IJsselstein","operatorName":"e-VOLTT","maxPowerKw":38,"isMegawatt":false,"status":"UNAVAILABLE","source":"ndw","priceKwh":0.25}},{"type":"Feature","geometry":{"type":"Point","coordinates":[5.045824,52.033604]},"properties":{"type":"charge","layer":"passenger","locationId":"7525cf85-6472-47e8-8aa5-e6cc8babeb60","name":"TNLP009319 - Topaashof 7, IJsselstein","address":"7 Topaashof","city":"IJsselstein","operatorName":"TotalEnergies","maxPowerKw":17,"isMegawatt":false,"status":"AVAILABLE","source":"ndw"}},{"type":"Feature","geometry":{"type":"Point","coordinates":[5.058161,52.020817]},"properties":{"type":"charge","layer":"passenger","locationId":"1e4fcc9a-f93f-4a8b-b6e2-8b631ad8dcd3","name":"TNLP008226 - Italielaan 23, IJsselstein","address":"23 Italielaan","city":"IJsselstein","operatorName":"TotalEnergies","maxPowerKw":17,"isMegawatt":false,"status":"CHARGING","source":"ndw"}},{"type":"Feature","geometry":{"type":"Point","coordinates":[5.048986,52.020527]},"properties":{"type":"charge","layer":"passenger","locationId":"c3783844-8fe8-4270-97bb-8ce4cd1c0401","name":"TNLP007285 - Hazenveld 376, IJsselstein","address":"376 Hazenveld","city":"IJsselstein","operatorName":"TotalEnergies","maxPowerKw":17,"isMegawatt":false,"status":"AVAILABLE","source":"ndw"}},{"type":"Feature","geometry":{"type":"Point","coordinates":[5.0561662,52.021167]},"properties":{"type":"charge","layer":"passenger","locationId":"1876","name":"Shell Recharge NL Italielaan 44","address":"Italielaan 44","city":"IJsselstein","operatorName":"Ubitricity","maxPowerKw":22,"isMegawatt":false,"status":"AVAILABLE","source":"ndw","priceKwh":0.266}},{"type":"Feature","geometry":{"type":"Point","coordinates":[5.042741,52.014065]},"properties":{"type":"charge","layer":"passenger","locationId":"4d27d293-c2f1-4384-84f8-83a2184472a9","name":"TNLP005963 - Praagsingel 538, IJsselstein","address":"538 Praagsingel","city":"IJsselstein","operatorName":"TotalEnergies","maxPowerKw":17,"isMegawatt":false,"status":"AVAILABLE","source":"ndw"}},{"type":"Feature","geometry":{"type":"Point","coordinates":[5.032207,52.009773]},"properties":{"type":"charge","layer":"passenger","locationId":"359ad606-cd8c-4764-ae43-d0897256b47a","name":"TNLP006126 - Canberrapad 9, IJsselstein","address":"9 Canberrapad","city":"IJsselstein","operatorName":"TotalEnergies","maxPowerKw":11,"isMegawatt":false,"status":"CHARGING","source":"ndw"}},{"type":"Feature","geometry":{"type":"Point","coordinates":[5.036943,52.02716]},"properties":{"type":"charge","layer":"passenger","locationId":"03a63d34-1696-45a6-af23-072f35704059","name":"TNLP009027 - Witakker 20, IJsselstein","address":"20 Witakker","city":"IJsselstein","operatorName":"TotalEnergies","maxPowerKw":17,"isMegawatt":false,"status":"AVAILABLE","source":"ndw"}},{"type":"Feature","geometry":{"type":"Point","coordinates":[5.04393,52.02424]},"properties":{"type":"charge","layer":"passenger","locationId":"af61ac1b-24fb-451c-aa46-96d359e688c8","name":"PP001885 - Praamplein 1, Ijsselstein","address":"1 Praamplein","city":"Ijsselstein","operatorName":"TotalEnergies","maxPowerKw":11,"isMegawatt":false,"status":"AVAILABLE","source":"ndw"}},{"type":"Feature","geometry":{"type":"Point","coordinates":[5.044588,52.033744]},"properties":{"type":"charge","layer":"passenger","locationId":"ecffb4d5ecd1938011427e2b8e77eada","name":"Opaalhof 37","address":"Opaalhof 37","city":"IJsselstein","operatorName":"Vattenfall InCharge","maxPowerKw":11,"isMegawatt":false,"status":"AVAILABLE","source":"ndw"}},{"type":"Feature","geometry":{"type":"Point","coordinates":[5.038661,52.01364]},"properties":{"type":"charge","layer":"passenger","locationId":"0cecadb9-efa4-45cc-aab6-c38e5d368038","name":"TNLP007489 - Waalsingel 50, IJsselstein","address":"50 Waalsingel","city":"IJsselstein","operatorName":"TotalEnergies","maxPowerKw":17,"isMegawatt":false,"status":"AVAILABLE","source":"ndw"}},{"type":"Feature","geometry":{"type":"Point","coordinates":[5.02912,52.01397]},"properties":{"type":"charge","layer":"passenger","locationId":"8ff863a9-e458-48ea-8b93-40656cda8332","name":"PP001498 - Jacob van Maerlantstraat 43, IJsselstein","address":"43 Jacob van Maerlantstraat","city":"IJsselstein","operatorName":"TotalEnergies","maxPowerKw":11,"isMegawatt":false,"status":"UNAVAILABLE","source":"ndw"}},{"type":"Feature","geometry":{"type":"Point","coordinates":[5.0551069,52.0191182]},"properties":{"type":"charge","layer":"passenger","locationId":"2803","name":"Shell Recharge NL Willem Barentszstraat 2","address":"Willem Barentszstraat 2","city":"IJsselstein","operatorName":"Ubitricity","maxPowerKw":22,"isMegawatt":false,"status":"AVAILABLE","source":"ndw","priceKwh":0.266}},{"type":"Feature","geometry":{"type":"Point","coordinates":[5.047793,52.030716]},"properties":{"type":"charge","layer":"passenger","locationId":"e2ae9993-dc7e-4f4b-a118-06386f5d7ebd","name":"TNLP009322 - Edelstenenbaan 37, IJsselstein","address":"37 Edelstenenbaan","city":"IJsselstein","operatorName":"TotalEnergies","maxPowerKw":15,"isMegawatt":false,"status":"CHARGING","source":"ndw"}},{"type":"Feature","geometry":{"type":"Point","coordinates":[5.03167,52.01305]},"properties":{"type":"charge","layer":"passenger","locationId":"b60f3617-62d8-493a-814c-8451ecfd9b89","name":"TNLP007328 - Thorbeckesingel 12, IJsselstein","address":"12 Thorbeckesingel","city":"IJsselstein","operatorName":"TotalEnergies","maxPowerKw":17,"isMegawatt":false,"status":"AVAILABLE","source":"ndw"}},{"type":"Feature","geometry":{"type":"Point","coordinates":[5.04825,52.01235]},"properties":{"type":"charge","layer":"passenger","locationId":"262fc74d-400a-4672-8dc0-7a1799198908","name":"PP001259 - Jan Bijhouwerstraat 100, IJsselstein","address":"100 Jan Bijhouwerstraat","city":"IJsselstein","operatorName":"TotalEnergies","maxPowerKw":11,"isMegawatt":false,"status":"UNAVAILABLE","source":"ndw"}},{"type":"Feature","geometry":{"type":"Point","coordinates":[5.05145,52.02288]},"properties":{"type":"charge","layer":"passenger","locationId":"1454","name":"Shell Recharge NL Andorrastraat 1","address":"Andorrastraat 1","city":"IJsselstein","operatorName":"Ubitricity","maxPowerKw":11,"isMegawatt":false,"status":"AVAILABLE","source":"ndw","priceKwh":0.388}},{"type":"Feature","geometry":{"type":"Point","coordinates":[5.027053,52.020958]},"properties":{"type":"charge","layer":"passenger","locationId":"0d6dd6ad-4a3c-4954-bb64-74b47f864b4e","name":"TNLP008629 - Ganzenweide 1, IJsselstein","address":"1 Ganzenweide","city":"IJsselstein","operatorName":"TotalEnergies","maxPowerKw":13,"isMegawatt":false,"status":"CHARGING","source":"ndw"}},{"type":"Feature","geometry":{"type":"Point","coordinates":[5.03759,52.01782]},"properties":{"type":"charge","layer":"passenger","locationId":"D96B2D61-2C00-4B7F-91E1-A7EA15B44B4B","name":"Eneco eMobility AxionContinu - Benschopperweg 14 - IJsselstein","address":"Benschopperweg 14","city":"IJsselstein","operatorName":"Eneco","maxPowerKw":11,"isMegawatt":false,"status":"AVAILABLE","source":"ndw","priceKwh":0.32}},{"type":"Feature","geometry":{"type":"Point","coordinates":[5.0451077,52.0262802]},"properties":{"type":"charge","layer":"passenger","locationId":"2597","name":"Shell Recharge NL Neptunus 32","address":"Neptunus 32","city":"IJsselstein","operatorName":"Ubitricity","maxPowerKw":22,"isMegawatt":false,"status":"AVAILABLE","source":"ndw","priceKwh":0.266}},{"type":"Feature","geometry":{"type":"Point","coordinates":[5.0433256,52.0108425]},"properties":{"type":"charge","layer":"passenger","locationId":"2649","name":"Shell Recharge NL Tuinensingel 33","address":"Tuinensingel 33","city":"IJsselstein","operatorName":"Ubitricity","maxPowerKw":22,"isMegawatt":false,"status":"AVAILABLE","source":"ndw","priceKwh":0.266}},{"type":"Feature","geometry":{"type":"Point","coordinates":[5.04158,52.0102]},"properties":{"type":"charge","layer":"passenger","locationId":"b5546b61-5274-4cbe-b54f-1b14281f3360","name":"TNLP008225 - Rigastraat 2, IJsselstein","address":"2 Rigastraat","city":"IJsselstein","operatorName":"TotalEnergies","maxPowerKw":17,"isMegawatt":false,"status":"AVAILABLE","source":"ndw"}},{"type":"Feature","geometry":{"type":"Point","coordinates":[5.05517,52.02694]},"properties":{"type":"charge","layer":"passenger","locationId":"75","name":"Shell Recharge NL Tereschkovahof 80","address":"Tereschkovahof 80","city":"IJsselstein","operatorName":"Ubitricity","maxPowerKw":11,"isMegawatt":false,"status":"AVAILABLE","source":"ndw","priceKwh":0.388}},{"type":"Feature","geometry":{"type":"Point","coordinates":[5.03511,52.01506]},"properties":{"type":"charge","layer":"passenger","locationId":"464","name":"Shell Recharge NL Jacob van Deventerstraat 44","address":"Jacob van Deventerstraat 44","city":"Ijsselstein","operatorName":"Ubitricity","maxPowerKw":11,"isMegawatt":false,"status":"AVAILABLE","source":"ndw","priceKwh":0.388}},{"type":"Feature","geometry":{"type":"Point","coordinates":[5.0319451,52.0141261]},"properties":{"type":"charge","layer":"passenger","locationId":"2382","name":"Shell Recharge NL Johannes Blaeustraat 14","address":"Johannes Blaeustraat 14","city":"IJsselstein","operatorName":"Ubitricity","maxPowerKw":22,"isMegawatt":false,"status":"AVAILABLE","source":"ndw","priceKwh":0.266}},{"type":"Feature","geometry":{"type":"Point","coordinates":[5.046643,52.03226]},"properties":{"type":"charge","layer":"passenger","locationId":"0c532f6b-be07-4b34-9393-46f4bd747b5a","name":"TNLP007330 - Edelstenenbaan 52, IJsselstein","address":"52 Edelstenenbaan","city":"IJsselstein","operatorName":"TotalEnergies","maxPowerKw":17,"isMegawatt":false,"status":"CHARGING","source":"ndw"}},{"type":"Feature","geometry":{"type":"Point","coordinates":[5.050388,52.02952]},"properties":{"type":"charge","layer":"passenger","locationId":"679e029e-e50c-4a84-94b3-d7854e769d8b","name":"TNLP007989 - Ametisthof 1, IJsselstein","address":"1 Ametisthof","city":"IJsselstein","operatorName":"TotalEnergies","maxPowerKw":17,"isMegawatt":false,"status":"AVAILABLE","source":"ndw"}},{"type":"Feature","geometry":{"type":"Point","coordinates":[5.040153,52.02182]},"properties":{"type":"charge","layer":"passenger","locationId":"80de2c11-9b39-4aa3-8759-10999c6f0182","name":"TNLP009939 - Philips Willemplantsoen 18, IJsselstein","address":"18 Philips Willemplantsoen","city":"IJsselstein","operatorName":"TotalEnergies","maxPowerKw":17,"isMegawatt":false,"status":"AVAILABLE","source":"ndw"}},{"type":"Feature","geometry":{"type":"Point","coordinates":[5.052863,52.02834]},"properties":{"type":"charge","layer":"passenger","locationId":"d0a02655-7d33-4b94-931a-6650e35ec879","name":"TNLP006130 - Ruimtevaartbaan 22, IJsselstein","address":"22 Ruimtevaartbaan","city":"IJsselstein","operatorName":"TotalEnergies","maxPowerKw":17,"isMegawatt":false,"status":"AVAILABLE","source":"ndw"}},{"type":"Feature","geometry":{"type":"Point","coordinates":[5.0442,52.02142]},"properties":{"type":"charge","layer":"passenger","locationId":"1550","name":"Shell Recharge NL Kronenburgplantsoen 1","address":"Kronenburgplantsoen 1","city":"IJsselstein","operatorName":"Ubitricity","maxPowerKw":11,"isMegawatt":false,"status":"CHARGING","source":"ndw","priceKwh":0.388}},{"type":"Feature","geometry":{"type":"Point","coordinates":[5.041699,52.02052]},"properties":{"type":"charge","layer":"passenger","locationId":"3e428970-5bd4-427b-a69c-c93de9e60584","name":"TNLP007717 - Kasteellaan 1, Ijsselstein","address":"1 Kasteellaan","city":"Ijsselstein","operatorName":"TotalEnergies","maxPowerKw":17,"isMegawatt":false,"status":"CHARGING","source":"ndw"}},{"type":"Feature","geometry":{"type":"Point","coordinates":[5.04884,52.02727]},"properties":{"type":"charge","layer":"passenger","locationId":"113aa53d-1241-483a-b883-c6e65c8b5b0a","name":"PP001964 - Eurovisieplein 16, IJsselstein","address":"16 Eurovisieplein","city":"IJsselstein","operatorName":"TotalEnergies","maxPowerKw":11,"isMegawatt":false,"status":"AVAILABLE","source":"ndw"}},{"type":"Feature","geometry":{"type":"Point","coordinates":[5.056188,52.0249]},"properties":{"type":"charge","layer":"passenger","locationId":"503dd408-4020-4df2-9b33-1c63a6046159","name":"TNLP009948 - Stereoplein 30, IJsselstein","address":"30 Stereoplein","city":"IJsselstein","operatorName":"TotalEnergies","maxPowerKw":17,"isMegawatt":false,"status":"AVAILABLE","source":"ndw"}},{"type":"Feature","geometry":{"type":"Point","coordinates":[5.05057,52.02449]},"properties":{"type":"charge","layer":"passenger","locationId":"87725851c5bb33f30eb99fe72e81672f","name":"Prinses Christinaplein 3","address":"Prinses Christinaplein 3","city":"IJsselstein","operatorName":"Vattenfall InCharge","maxPowerKw":11,"isMegawatt":false,"status":"UNAVAILABLE","source":"ndw"}},{"type":"Feature","geometry":{"type":"Point","coordinates":[5.02756,52.02611]},"properties":{"type":"charge","layer":"passenger","locationId":"1509","name":"Shell Recharge NL Heemradenlaan 28","address":"Heemradenlaan 28","city":"IJsselstein","operatorName":"Ubitricity","maxPowerKw":11,"isMegawatt":false,"status":"CHARGING","source":"ndw","priceKwh":0.388}},{"type":"Feature","geometry":{"type":"Point","coordinates":[5.048651,52.011574]},"properties":{"type":"charge","layer":"passenger","locationId":"f2833119-0272-4905-809a-fb2ba62638d9","name":"TNLP009054 - Johann Knoopstraat 38, IJsselstein","address":"38 Johann Knoopstraat","city":"IJsselstein","operatorName":"TotalEnergies","maxPowerKw":17,"isMegawatt":false,"status":"AVAILABLE","source":"ndw"}},{"type":"Feature","geometry":{"type":"Point","coordinates":[5.031481,52.02698]},"properties":{"type":"charge","layer":"passenger","locationId":"500b98db45a0411c0106e4c2d91a22de","name":"Sijpesteijn 37","address":"Sijpesteijn 37","city":"IJsselstein","operatorName":"Vattenfall InCharge","maxPowerKw":11,"isMegawatt":false,"status":"AVAILABLE","source":"ndw"}},{"type":"Feature","geometry":{"type":"Point","coordinates":[5.036629,52.010122]},"properties":{"type":"charge","layer":"passenger","locationId":"8c78278af3d144794e7d1f0f70fa5721","name":"Schepenensingel 17","address":"Schepenensingel 17","city":"IJsselstein","operatorName":"Vattenfall InCharge","maxPowerKw":11,"isMegawatt":false,"status":"AVAILABLE","source":"ndw"}},{"type":"Feature","geometry":{"type":"Point","coordinates":[5.032526,52.014874]},"properties":{"type":"charge","layer":"passenger","locationId":"25931a8f-7af4-4806-a54a-2fe21e41aafb","name":"TNLP006867 - Schepenensingel 83, IJsselstein","address":"83 Schepenensingel","city":"IJsselstein","operatorName":"TotalEnergies","maxPowerKw":17,"isMegawatt":false,"status":"AVAILABLE","source":"ndw"}},{"type":"Feature","geometry":{"type":"Point","coordinates":[5.03732,52.00987]},"properties":{"type":"charge","layer":"passenger","locationId":"1519","name":"Shell Recharge NL Hongkongstraat 1","address":"Hongkongstraat 1","city":"IJsselstein","operatorName":"Ubitricity","maxPowerKw":11,"isMegawatt":false,"status":"AVAILABLE","source":"ndw","priceKwh":0.388}},{"type":"Feature","geometry":{"type":"Point","coordinates":[5.03781,52.01157]},"properties":{"type":"charge","layer":"passenger","locationId":"cf1a8a06-5387-431a-8499-681e2b19abe8","name":"PP001895 - Merkelbachlaan 2, IJsselstein","address":"2 Merkelbachlaan","city":"IJsselstein","operatorName":"TotalEnergies","maxPowerKw":11,"isMegawatt":false,"status":"AVAILABLE","source":"ndw"}},{"type":"Feature","geometry":{"type":"Point","coordinates":[5.039587,52.019463]},"properties":{"type":"charge","layer":"passenger","locationId":"ba9eef00-c1a8-433f-b1c8-39dd64269295","name":"TNLP008440 - Achtersloot 12, IJsselstein","address":"12 Achtersloot","city":"IJsselstein","operatorName":"TotalEnergies","maxPowerKw":13,"isMegawatt":false,"status":"AVAILABLE","source":"ndw"}},{"type":"Feature","geometry":{"type":"Point","coordinates":[5.045057,52.026527]},"properties":{"type":"charge","layer":"passenger","locationId":"9be48748-2159-45c9-ad76-beed53344a25","name":"TNLP006165 - Neptunus 32, IJsselstein","address":"32 Neptunus","city":"IJsselstein","operatorName":"TotalEnergies","maxPowerKw":17,"isMegawatt":false,"status":"AVAILABLE","source":"ndw"}},{"type":"Feature","geometry":{"type":"Point","coordinates":[5.02535,52.02269]},"properties":{"type":"charge","layer":"passenger","locationId":"cb121292-3746-433f-aaa4-71f0973d8075","name":"TNLP005713 - Goudplevier 89, IJsselstein","address":"89 Goudplevier","city":"IJsselstein","operatorName":"TotalEnergies","maxPowerKw":17,"isMegawatt":false,"status":"AVAILABLE","source":"ndw"}},{"type":"Feature","geometry":{"type":"Point","coordinates":[5.040595,52.011734]},"properties":{"type":"charge","layer":"passenger","locationId":"3001d736-d7d4-49ee-8167-3a85b9ad95ac","name":"PP001140 - Sint Petersburglaan 33, IJsselstein","address":"33 Sint Petersburglaan","city":"IJsselstein","operatorName":"TotalEnergies","maxPowerKw":11,"isMegawatt":false,"status":"AVAILABLE","source":"ndw"}},{"type":"Feature","geometry":{"type":"Point","coordinates":[5.049945,52.010086]},"properties":{"type":"charge","layer":"passenger","locationId":"8dc3734e-da0b-4143-a9c0-b8358e97196b","name":"TNLP009051 - Jamaicahof 1, IJsselstein","address":"1 Jamaicahof","city":"IJsselstein","operatorName":"TotalEnergies","maxPowerKw":17,"isMegawatt":false,"status":"AVAILABLE","source":"ndw"}},{"type":"Feature","geometry":{"type":"Point","coordinates":[5.044712,52.014192]},"properties":{"type":"charge","layer":"passenger","locationId":"4397e169-8891-44dd-b3a4-1e2b3e8583a3","name":"TNLP034146","address":"Marga Klompestraat 3","city":"IJsselstein","operatorName":"TotalEnergies","maxPowerKw":14,"isMegawatt":false,"status":"CHARGING","source":"ndw"}},{"type":"Feature","geometry":{"type":"Point","coordinates":[5.0373998,52.0162199]},"properties":{"type":"charge","layer":"passenger","locationId":"2344","name":"Shell Recharge NL Roest Crolliusstraat 17","address":"Roest Crolliusstraat 17","city":"IJsselstein","operatorName":"Ubitricity","maxPowerKw":22,"isMegawatt":false,"status":"AVAILABLE","source":"ndw","priceKwh":0.266}},{"type":"Feature","geometry":{"type":"Point","coordinates":[5.025307,52.024204]},"properties":{"type":"charge","layer":"passenger","locationId":"b0370e44-5039-4295-9c6b-cb1148c7ccfc","name":"TNLP006787 - Vinkenerf 10, IJsselstein","address":"10 Vinkenerf","city":"IJsselstein","operatorName":"TotalEnergies","maxPowerKw":17,"isMegawatt":false,"status":"AVAILABLE","source":"ndw"}},{"type":"Feature","geometry":{"type":"Point","coordinates":[5.062681,52.014939]},"properties":{"type":"charge","layer":"passenger","locationId":"243cda66-fc21-4409-a5ab-9bd206ea1a59","name":"Lorentzlaan 1","address":"Lorentzlaan 1","city":"IJsselstein","operatorName":"Vattenfall InCharge","maxPowerKw":50,"isMegawatt":false,"status":"AVAILABLE","source":"ndw"}},{"type":"Feature","geometry":{"type":"Point","coordinates":[5.0481629,52.0184225]},"properties":{"type":"charge","layer":"passenger","locationId":"2334","name":"Shell Recharge NL Heer Gijsbrechtstraat 35","address":"Heer Gijsbrechtstraat 35","city":"IJsselstein","operatorName":"Ubitricity","maxPowerKw":22,"isMegawatt":false,"status":"AVAILABLE","source":"ndw","priceKwh":0.266}},{"type":"Feature","geometry":{"type":"Point","coordinates":[5.057981,52.019673]},"properties":{"type":"charge","layer":"passenger","locationId":"1641","name":"Shell Recharge NL Strakonicestraat 19","address":"Strakonicestraat 19","city":"IJsselstein","operatorName":"Ubitricity","maxPowerKw":11,"isMegawatt":false,"status":"AVAILABLE","source":"ndw","priceKwh":0.388}},{"type":"Feature","geometry":{"type":"Point","coordinates":[5.065056,52.012045]},"properties":{"type":"charge","layer":"passenger","locationId":"922941","name":"Parkdeck 3 DAE_NL_2000736","address":"Kamerlingh Onneslaan 9","city":"IJsselstein","operatorName":"DAEN Mobility","maxPowerKw":22,"isMegawatt":false,"status":"AVAILABLE","source":"ndw","priceKwh":0.25}},{"type":"Feature","geometry":{"type":"Point","coordinates":[5.046506,52.01057]},"properties":{"type":"charge","layer":"passenger","locationId":"c34bad2f-eded-4fa4-97ff-36b20001693e","name":"TNLP008646 - Colombiahof 2, IJsselstein","address":"2 Colombiahof","city":"IJsselstein","operatorName":"TotalEnergies","maxPowerKw":13,"isMegawatt":false,"status":"AVAILABLE","source":"ndw"}},{"type":"Feature","geometry":{"type":"Point","coordinates":[5.02773,52.02141]},"properties":{"type":"charge","layer":"passenger","locationId":"a44b4b95-141a-4cbc-a535-4c3440da496a","name":"PP002532 - Kruidenierweg 20, IJsselstein","address":"20 Kruidenierweg","city":"IJsselstein","operatorName":"TotalEnergies","maxPowerKw":13,"isMegawatt":false,"status":"AVAILABLE","source":"ndw"}},{"type":"Feature","geometry":{"type":"Point","coordinates":[5.03413,52.02848]},"properties":{"type":"charge","layer":"passenger","locationId":"220f19c6-5967-4d8a-8f6e-19ba6dd6dc8e","name":"TNLP006789 - Herteveld 5, IJsselstein","address":"5 Herteveld","city":"IJsselstein","operatorName":"TotalEnergies","maxPowerKw":17,"isMegawatt":false,"status":"CHARGING","source":"ndw"}},{"type":"Feature","geometry":{"type":"Point","coordinates":[5.031321,52.029507]},"properties":{"type":"charge","layer":"passenger","locationId":"3ea55468-2c42-4166-ba6e-9824fdc2fe2a","name":"TNLP008332 - Guntersteijn 22, IJsselstein","address":"22 Guntersteijn","city":"IJsselstein","operatorName":"TotalEnergies","maxPowerKw":13,"isMegawatt":false,"status":"AVAILABLE","source":"ndw"}},{"type":"Feature","geometry":{"type":"Point","coordinates":[5.0495859,52.0105818]},"properties":{"type":"charge","layer":"passenger","locationId":"2106","name":"Shell Recharge NL Cubahof 11","address":"Cubahof 11","city":"IJsselstein","operatorName":"Ubitricity","maxPowerKw":22,"isMegawatt":false,"status":"AVAILABLE","source":"ndw","priceKwh":0.266}},{"type":"Feature","geometry":{"type":"Point","coordinates":[5.035848,52.0289379]},"properties":{"type":"charge","layer":"passenger","locationId":"1824","name":"Shell Recharge NL Schonauwen 46","address":"Schonauwen 46","city":"IJsselstein","operatorName":"Ubitricity","maxPowerKw":22,"isMegawatt":false,"status":"AVAILABLE","source":"ndw","priceKwh":0.266}},{"type":"Feature","geometry":{"type":"Point","coordinates":[5.03538,52.02271]},"properties":{"type":"charge","layer":"passenger","locationId":"1486","name":"Shell Recharge NL Dissel 192","address":"Dissel 192","city":"IJsselstein","operatorName":"Ubitricity","maxPowerKw":11,"isMegawatt":false,"status":"AVAILABLE","source":"ndw","priceKwh":0.388}},{"type":"Feature","geometry":{"type":"Point","coordinates":[5.041209,52.00904]},"properties":{"type":"charge","layer":"passenger","locationId":"015aea40-2a2b-4519-ba14-fe6d96e34efb","name":"TNLP008462 - Arizonahof 22, IJsselstein","address":"22 Arizonahof","city":"IJsselstein","operatorName":"TotalEnergies","maxPowerKw":13,"isMegawatt":false,"status":"AVAILABLE","source":"ndw"}},{"type":"Feature","geometry":{"type":"Point","coordinates":[5.04048,52.00892]},"properties":{"type":"charge","layer":"passenger","locationId":"670","name":"Shell Recharge NL Arizonahof 8","address":"Arizonahof 8","city":"IJsselstein","operatorName":"Ubitricity","maxPowerKw":11,"isMegawatt":false,"status":"CHARGING","source":"ndw","priceKwh":0.388}},{"type":"Feature","geometry":{"type":"Point","coordinates":[5.028401,52.021744]},"properties":{"type":"charge","layer":"passenger","locationId":"54f6cf98-143f-40e2-b697-6d1586fa0e5a","name":"TNLP007825 - Weegbree 37, IJsselstein","address":"37 Weegbree","city":"IJsselstein","operatorName":"TotalEnergies","maxPowerKw":17,"isMegawatt":false,"status":"CHARGING","source":"ndw"}},{"type":"Feature","geometry":{"type":"Point","coordinates":[5.040479,52.029921]},"properties":{"type":"charge","layer":"passenger","locationId":"3b788a6258c6a1fd28a19e801fc1c469","name":"Zomerdijk 42A","address":"Zomerdijk 42A","city":"IJsselstein","operatorName":"Vattenfall InCharge","maxPowerKw":11,"isMegawatt":false,"status":"UNAVAILABLE","source":"ndw"}},{"type":"Feature","geometry":{"type":"Point","coordinates":[5.02956,52.02667]},"properties":{"type":"charge","layer":"passenger","locationId":"7c5c1baf-56fb-4c4f-8460-7b06d7847c2e","name":"PP001496 - Heemradenlaan 42, IJsselstein","address":"42 Heemradenlaan","city":"IJsselstein","operatorName":"TotalEnergies","maxPowerKw":11,"isMegawatt":false,"status":"UNAVAILABLE","source":"ndw"}},{"type":"Feature","geometry":{"type":"Point","coordinates":[5.0439,52.01204]},"properties":{"type":"charge","layer":"passenger","locationId":"1648","name":"Shell Recharge NL Tuinensingel 17","address":"Tuinensingel 17","city":"IJsselstein","operatorName":"Ubitricity","maxPowerKw":11,"isMegawatt":false,"status":"AVAILABLE","source":"ndw","priceKwh":0.388}},{"type":"Feature","geometry":{"type":"Point","coordinates":[5.050568,52.018986]},"properties":{"type":"charge","layer":"passenger","locationId":"f7d1d384504048831156b561035043b8","name":"Jolandeplantsoen 49","address":"Jolandeplantsoen 49","city":"IJsselstein","operatorName":"Vattenfall InCharge","maxPowerKw":11,"isMegawatt":false,"status":"CHARGING","source":"ndw"}},{"type":"Feature","geometry":{"type":"Point","coordinates":[5.03391,52.01393]},"properties":{"type":"charge","layer":"passenger","locationId":"1627","name":"Shell Recharge NL Schaepmanstraat 1","address":"Schaepmanstraat 1","city":"IJsselstein","operatorName":"Ubitricity","maxPowerKw":11,"isMegawatt":false,"status":"CHARGING","source":"ndw","priceKwh":0.388}},{"type":"Feature","geometry":{"type":"Point","coordinates":[5.037924,52.007063]},"properties":{"type":"charge","layer":"passenger","locationId":"923512","name":"DAE_NL_2001226","address":"Floridalaan 39","city":"IJsselstein","operatorName":"DAEN Mobility","maxPowerKw":11,"isMegawatt":false,"status":"AVAILABLE","source":"ndw","priceKwh":0.29}},{"type":"Feature","geometry":{"type":"Point","coordinates":[5.044868,52.023957]},"properties":{"type":"charge","layer":"passenger","locationId":"5463005b-b7f4-437f-9567-b654c534ff29","name":"TNLP034507","address":"Trekschuit 9","city":"IJsselstein","operatorName":"TotalEnergies","maxPowerKw":14,"isMegawatt":false,"status":"CHARGING","source":"ndw"}},{"type":"Feature","geometry":{"type":"Point","coordinates":[5.053127,52.026295]},"properties":{"type":"charge","layer":"passenger","locationId":"a7b7b420-117c-4181-9cc2-a790661ef7a0","name":"TNLP034198","address":"Nipkowplein 58","city":"IJsselstein","operatorName":"TotalEnergies","maxPowerKw":14,"isMegawatt":false,"status":"AVAILABLE","source":"ndw"}},{"type":"Feature","geometry":{"type":"Point","coordinates":[5.03145,52.01147]},"properties":{"type":"charge","layer":"passenger","locationId":"73e4758e-8266-4fed-9ff1-43864eaf8f48","name":"TNLP009919 - Maassingel 104, IJsselstein","address":"104 Maassingel","city":"IJsselstein","operatorName":"TotalEnergies","maxPowerKw":17,"isMegawatt":false,"status":"AVAILABLE","source":"ndw"}},{"type":"Feature","geometry":{"type":"Point","coordinates":[5.059129,52.018066]},"properties":{"type":"charge","layer":"passenger","locationId":"03964064-349c-4c78-a2ea-b4caa147a756","name":"TNLP008448 - Jenastraat 1, IJsselstein","address":"1 Jenastraat","city":"IJsselstein","operatorName":"TotalEnergies","maxPowerKw":13,"isMegawatt":false,"status":"CHARGING","source":"ndw"}},{"type":"Feature","geometry":{"type":"Point","coordinates":[5.033823,52.025852]},"properties":{"type":"charge","layer":"passenger","locationId":"43952489-72dd-45b0-8fc5-609467cae123","name":"TNLP006877 - Klompenmaker 15, IJsselstein","address":"15 Klompenmaker","city":"IJsselstein","operatorName":"TotalEnergies","maxPowerKw":17,"isMegawatt":false,"status":"AVAILABLE","source":"ndw"}},{"type":"Feature","geometry":{"type":"Point","coordinates":[5.024199,52.025645]},"properties":{"type":"charge","layer":"passenger","locationId":"30ec61ef-4c26-49ec-a931-12c64b158cdf","name":"TNLP034110","address":"Fazantenerf 1","city":"IJsselstein","operatorName":"TotalEnergies","maxPowerKw":14,"isMegawatt":false,"status":"AVAILABLE","source":"ndw"}},{"type":"Feature","geometry":{"type":"Point","coordinates":[5.031002,52.026596]},"properties":{"type":"charge","layer":"passenger","locationId":"44a047fa-de71-4205-bb24-c3200fc464b9","name":"TNLP008118 - Sijpesteijn 33, IJsselstein","address":"33 Sijpesteijn","city":"IJsselstein","operatorName":"TotalEnergies","maxPowerKw":17,"isMegawatt":false,"status":"CHARGING","source":"ndw"}},{"type":"Feature","geometry":{"type":"Point","coordinates":[5.04066,52.01628]},"properties":{"type":"charge","layer":"passenger","locationId":"76a8dc91-6a68-4069-935d-597dd695f1fe","name":"PP002533, PP002534 - Podiumweg 1, IJsselstein","address":"1 Podiumweg","city":"IJsselstein","operatorName":"TotalEnergies","maxPowerKw":13,"isMegawatt":false,"status":"AVAILABLE","source":"ndw"}},{"type":"Feature","geometry":{"type":"Point","coordinates":[5.044211,52.013363]},"properties":{"type":"charge","layer":"passenger","locationId":"25cc4501-06d6-4f12-aa7d-cb19b7a5faee","name":"TNLP008995 - Tuinensingel 1, Ijsselstein","address":"1 Tuinensingel","city":"Ijsselstein","operatorName":"TotalEnergies","maxPowerKw":13,"isMegawatt":false,"status":"AVAILABLE","source":"ndw"}},{"type":"Feature","geometry":{"type":"Point","coordinates":[5.040849,52.02343]},"properties":{"type":"charge","layer":"passenger","locationId":"7c76679f-4ec4-46c2-aad3-a2d033858a21","name":"TNLP006166 - Simon Stevinlaan 2, IJsselstein","address":"2 Simon Stevinlaan","city":"IJsselstein","operatorName":"TotalEnergies","maxPowerKw":17,"isMegawatt":false,"status":"AVAILABLE","source":"ndw"}},{"type":"Feature","geometry":{"type":"Point","coordinates":[5.050512,52.024126]},"properties":{"type":"charge","layer":"passenger","locationId":"894b46b06651716ae95c0d4a8e19a586","name":"Kon. Julianalaan 94","address":"Kon. Julianalaan 94","city":"IJsselstein","operatorName":"Vattenfall InCharge","maxPowerKw":11,"isMegawatt":false,"status":"AVAILABLE","source":"ndw"}},{"type":"Feature","geometry":{"type":"Point","coordinates":[5.019511,52.046795]},"properties":{"type":"charge","layer":"passenger","locationId":"67e54837228c13d89e320e66","name":"Marnemoende 's station","address":"Noord IJsseldijk  107b","city":"IJsselstein","operatorName":"E-Flux by Road","maxPowerKw":21,"isMegawatt":false,"status":"AVAILABLE","source":"ndw","priceKwh":0.62}},{"type":"Feature","geometry":{"type":"Point","coordinates":[5.065056,52.012045]},"properties":{"type":"charge","layer":"passenger","locationId":"922942","name":"Parkdeck 4 DAE_NL_2000737","address":"Kamerlingh Onneslaan 9","city":"IJsselstein","operatorName":"DAEN Mobility","maxPowerKw":22,"isMegawatt":false,"status":"UNAVAILABLE","source":"ndw","priceKwh":0.25}},{"type":"Feature","geometry":{"type":"Point","coordinates":[5.04631,52.01678]},"properties":{"type":"charge","layer":"passenger","locationId":"1511","name":"Shell Recharge NL Heer Arendstraat 11","address":"Heer Arendstraat 11","city":"IJsselstein","operatorName":"Ubitricity","maxPowerKw":11,"isMegawatt":false,"status":"CHARGING","source":"ndw","priceKwh":0.388}},{"type":"Feature","geometry":{"type":"Point","coordinates":[5.048761,52.02466]},"properties":{"type":"charge","layer":"passenger","locationId":"d1d76ff6-98b9-47fd-baf3-d783198e85dc","name":"TNLP007338 - Koningin Julianalaan 14, IJsselstein","address":"14 Koningin Julianalaan","city":"IJsselstein","operatorName":"TotalEnergies","maxPowerKw":17,"isMegawatt":false,"status":"AVAILABLE","source":"ndw"}},{"type":"Feature","geometry":{"type":"Point","coordinates":[5.0437657,52.0271158]},"properties":{"type":"charge","layer":"passenger","locationId":"1424","name":"Shell Recharge NL Wegahof 27","address":"Wegahof 27","city":"IJsselstein","operatorName":"Ubitricity","maxPowerKw":22,"isMegawatt":false,"status":"AVAILABLE","source":"ndw","priceKwh":0.266}},{"type":"Feature","geometry":{"type":"Point","coordinates":[5.037247,52.021152]},"properties":{"type":"charge","layer":"passenger","locationId":"c560c569-7acb-4e7f-b3eb-f76f38f3623a","name":"TNLP006093 - Vicarielaan 158, IJsselstein","address":"158 Vicarielaan","city":"IJsselstein","operatorName":"TotalEnergies","maxPowerKw":17,"isMegawatt":false,"status":"AVAILABLE","source":"ndw"}},{"type":"Feature","geometry":{"type":"Point","coordinates":[5.0309753,52.0122982]},"properties":{"type":"charge","layer":"passenger","locationId":"2117","name":"Shell Recharge NL Ruys de Beerenbrouckstraat 15","address":"Ruys de Beerenbrouckstraat 15","city":"IJsselstein","operatorName":"Ubitricity","maxPowerKw":22,"isMegawatt":false,"status":"AVAILABLE","source":"ndw","priceKwh":0.266}},{"type":"Feature","geometry":{"type":"Point","coordinates":[5.0478077,52.0129904]},"properties":{"type":"charge","layer":"passenger","locationId":"2165","name":"Shell Recharge NL Hugo Poortmanstraat 66","address":"Hugo Poortmanstraat 66","city":"IJsselstein","operatorName":"Ubitricity","maxPowerKw":22,"isMegawatt":false,"status":"AVAILABLE","source":"ndw","priceKwh":0.266}},{"type":"Feature","geometry":{"type":"Point","coordinates":[5.043269,52.025322]},"properties":{"type":"charge","layer":"passenger","locationId":"05d74014-da54-4b60-ba84-7c55830f04a8","name":"TNLP006292 - Trekschuit 55, IJsselstein","address":"55 Trekschuit","city":"IJsselstein","operatorName":"TotalEnergies","maxPowerKw":17,"isMegawatt":false,"status":"CHARGING","source":"ndw"}},{"type":"Feature","geometry":{"type":"Point","coordinates":[5.0462682,52.0211481]},"properties":{"type":"charge","layer":"passenger","locationId":"1164","name":"Shell Recharge NL Utrechtsestraat 10","address":"Utrechtsestraat 10","city":"IJsselstein","operatorName":"Ubitricity","maxPowerKw":22,"isMegawatt":false,"status":"AVAILABLE","source":"ndw","priceKwh":0.266}},{"type":"Feature","geometry":{"type":"Point","coordinates":[5.036804,52.009068]},"properties":{"type":"charge","layer":"passenger","locationId":"ddb3d8a9-76d3-4f80-b5c7-1202f67c5f11","name":"TNLP006325 - Schepenensingel 2, IJsselstein","address":"2 Schepenensingel","city":"IJsselstein","operatorName":"TotalEnergies","maxPowerKw":17,"isMegawatt":false,"status":"AVAILABLE","source":"ndw"}},{"type":"Feature","geometry":{"type":"Point","coordinates":[5.03993,52.01]},"properties":{"type":"charge","layer":"passenger","locationId":"39ad5071-0531-4955-99d8-0b8e2a1fa651","name":"PP002531 - Praagsingel 62, IJsselstein","address":"62 Praagsingel","city":"IJsselstein","operatorName":"TotalEnergies","maxPowerKw":13,"isMegawatt":false,"status":"UNAVAILABLE","source":"ndw"}},{"type":"Feature","geometry":{"type":"Point","coordinates":[5.0442154,52.00951]},"properties":{"type":"charge","layer":"passenger","locationId":"2108","name":"Shell Recharge NL Dakotahof 22","address":"Dakotahof 22","city":"IJsselstein","operatorName":"Ubitricity","maxPowerKw":22,"isMegawatt":false,"status":"AVAILABLE","source":"ndw","priceKwh":0.266}},{"type":"Feature","geometry":{"type":"Point","coordinates":[5.04356,52.0187]},"properties":{"type":"charge","layer":"passenger","locationId":"550","name":"Shell Recharge NL Schuttersgracht 8","address":"Schuttersgracht 8","city":"IJsselstein","operatorName":"Ubitricity","maxPowerKw":11,"isMegawatt":false,"status":"AVAILABLE","source":"ndw","priceKwh":0.388}},{"type":"Feature","geometry":{"type":"Point","coordinates":[5.044518,52.009426]},"properties":{"type":"charge","layer":"passenger","locationId":"b9edd9bf-844e-4fe3-860b-52554be4650f","name":"TNLP006137 - Dakotahof 18, IJsselstein","address":"18 Dakotahof","city":"IJsselstein","operatorName":"TotalEnergies","maxPowerKw":17,"isMegawatt":false,"status":"AVAILABLE","source":"ndw"}},{"type":"Feature","geometry":{"type":"Point","coordinates":[5.03261,52.00947]},"properties":{"type":"charge","layer":"passenger","locationId":"aac261490c48fe63b2e65a24c1cd4637","name":"Delhistraat 1","address":"Delhistraat 1","city":"IJsselstein","operatorName":"Vattenfall InCharge","maxPowerKw":11,"isMegawatt":false,"status":"AVAILABLE","source":"ndw"}},{"type":"Feature","geometry":{"type":"Point","coordinates":[5.04903,52.01674]},"properties":{"type":"charge","layer":"passenger","locationId":"7441a7cb-710f-4003-9ab9-4cc7eb0dd53c","name":"PP002579 - Jan van der Heydenweg 3, IJsselstein","address":"3 Jan van der Heydenweg","city":"IJsselstein","operatorName":"TotalEnergies","maxPowerKw":13,"isMegawatt":false,"status":"CHARGING","source":"ndw"}},{"type":"Feature","geometry":{"type":"Point","coordinates":[5.049748,52.029903]},"properties":{"type":"charge","layer":"passenger","locationId":"f0732fad-c7ba-4892-a717-4eaa8e718a9b","name":"TNLP006128 - Diamanthof 1, IJsselstein","address":"1 Diamanthof","city":"IJsselstein","operatorName":"TotalEnergies","maxPowerKw":17,"isMegawatt":false,"status":"AVAILABLE","source":"ndw"}},{"type":"Feature","geometry":{"type":"Point","coordinates":[5.034014,52.021755]},"properties":{"type":"charge","layer":"passenger","locationId":"365e2d62-2e60-4aba-8a7e-9ef36e876ca0","name":"TNLP009831 - Brunel 56, IJsselstein","address":"56 Brunel","city":"IJsselstein","operatorName":"TotalEnergies","maxPowerKw":17,"isMegawatt":false,"status":"AVAILABLE","source":"ndw"}},{"type":"Feature","geometry":{"type":"Point","coordinates":[5.040175,52.016205]},"properties":{"type":"charge","layer":"passenger","locationId":"5721fb43-738d-44b3-b04d-12abf5632444","name":"TNLP006316 - Tepestraat 44, IJsselstein","address":"44 Tepestraat","city":"IJsselstein","operatorName":"TotalEnergies","maxPowerKw":17,"isMegawatt":false,"status":"AVAILABLE","source":"ndw"}},{"type":"Feature","geometry":{"type":"Point","coordinates":[5.029444,52.024715]},"properties":{"type":"charge","layer":"passenger","locationId":"a117633e-f609-4918-9021-46209af0ea48","name":"TNLP009124 - Teenschillerlaan 45, IJsselstein","address":"45 Teenschillerlaan","city":"IJsselstein","operatorName":"TotalEnergies","maxPowerKw":17,"isMegawatt":false,"status":"AVAILABLE","source":"ndw"}},{"type":"Feature","geometry":{"type":"Point","coordinates":[5.03163,52.02026]},"properties":{"type":"charge","layer":"passenger","locationId":"866fdb01cd489c6f176a2f63c05aec12","name":"Duizendblad 23","address":"Duizendblad 23","city":"IJsselstein","operatorName":"Vattenfall InCharge","maxPowerKw":11,"isMegawatt":false,"status":"AVAILABLE","source":"ndw"}},{"type":"Feature","geometry":{"type":"Point","coordinates":[5.035205,52.012184]},"properties":{"type":"charge","layer":"passenger","locationId":"58e882d4-f76f-48b7-bd1a-4ac0b49fed43","name":"TNLP006666 - Dommelstraat 6, IJsselstein","address":"6 Dommelstraat","city":"IJsselstein","operatorName":"TotalEnergies","maxPowerKw":17,"isMegawatt":false,"status":"AVAILABLE","source":"ndw"}},{"type":"Feature","geometry":{"type":"Point","coordinates":[5.039116,52.011124]},"properties":{"type":"charge","layer":"passenger","locationId":"adf841d3-daba-4c98-bfb4-f37dc0a8e212","name":"TNLP007721 - Praagsingel 438, Ijsselstein","address":"438 Praagsingel","city":"Ijsselstein","operatorName":"TotalEnergies","maxPowerKw":17,"isMegawatt":false,"status":"AVAILABLE","source":"ndw"}},{"type":"Feature","geometry":{"type":"Point","coordinates":[5.057768,52.020073]},"properties":{"type":"charge","layer":"passenger","locationId":"26f71b0e-fd98-4bc3-b66d-2a2c1ee500d8","name":"TNLP006122 - Ringoven 52, IJsselstein","address":"52 Ringoven","city":"IJsselstein","operatorName":"TotalEnergies","maxPowerKw":17,"isMegawatt":false,"status":"AVAILABLE","source":"ndw"}},{"type":"Feature","geometry":{"type":"Point","coordinates":[5.04607,52.03176]},"properties":{"type":"charge","layer":"passenger","locationId":"63c2ef91-c8d8-4b4c-bece-513ce32aaf94","name":"PP001341 - Onyxhof 1, IJsselstein","address":"1 Onyxhof","city":"IJsselstein","operatorName":"TotalEnergies","maxPowerKw":11,"isMegawatt":false,"status":"AVAILABLE","source":"ndw"}},{"type":"Feature","geometry":{"type":"Point","coordinates":[5.055638,52.022427]},"properties":{"type":"charge","layer":"passenger","locationId":"4c32a37f-a5fb-4c05-9c21-7f60b848546b","name":"TNLP005962 - Duitslandstraat 36, IJsselstein","address":"36 Duitslandstraat","city":"IJsselstein","operatorName":"TotalEnergies","maxPowerKw":17,"isMegawatt":false,"status":"AVAILABLE","source":"ndw"}},{"type":"Feature","geometry":{"type":"Point","coordinates":[5.026599,52.023185]},"properties":{"type":"charge","layer":"passenger","locationId":"61f6a9ce2da5302f2a8305268a5165a2","name":"Goudplevier 14","address":"Goudplevier 14","city":"IJsselstein","operatorName":"Vattenfall InCharge","maxPowerKw":11,"isMegawatt":false,"status":"AVAILABLE","source":"ndw"}},{"type":"Feature","geometry":{"type":"Point","coordinates":[5.030406,52.021725]},"properties":{"type":"charge","layer":"passenger","locationId":"23c08aa6-d84c-4d4a-88e2-9286e6ba4e56","name":"TNLP005900 - Ratelaar 1, IJsselstein","address":"1 Ratelaar","city":"IJsselstein","operatorName":"TotalEnergies","maxPowerKw":17,"isMegawatt":false,"status":"AVAILABLE","source":"ndw"}},{"type":"Feature","geometry":{"type":"Point","coordinates":[5.063861,52.01182]},"properties":{"type":"charge","layer":"passenger","locationId":"922940","name":"Portiersloge","address":"Kamerlingh Onneslaan 18","city":"IJsselstein","operatorName":"DAEN Mobility","maxPowerKw":22,"isMegawatt":false,"status":"AVAILABLE","source":"ndw","priceKwh":0.25}},{"type":"Feature","geometry":{"type":"Point","coordinates":[5.0548795,52.0275831]},"properties":{"type":"charge","layer":"passenger","locationId":"2515","name":"Shell Recharge NL Ruimtevaartbaan 62","address":"Ruimtevaartbaan 62","city":"IJsselstein","operatorName":"Ubitricity","maxPowerKw":22,"isMegawatt":false,"status":"AVAILABLE","source":"ndw","priceKwh":0.266}},{"type":"Feature","geometry":{"type":"Point","coordinates":[5.03867,52.02522]},"properties":{"type":"charge","layer":"passenger","locationId":"b934c152-2eaa-4db2-94f1-12352ea6712e","name":"TNLP006811 - Haanderik 15, IJsselstein","address":"15 Haanderik","city":"IJsselstein","operatorName":"TotalEnergies","maxPowerKw":17,"isMegawatt":false,"status":"AVAILABLE","source":"ndw"}},{"type":"Feature","geometry":{"type":"Point","coordinates":[5.044528,52.031322]},"properties":{"type":"charge","layer":"passenger","locationId":"d4dd2906-255d-4fa9-9481-c370e012f769","name":"TNLP009766 - Mars 8, IJsselstein","address":"8 Mars","city":"IJsselstein","operatorName":"TotalEnergies","maxPowerKw":17,"isMegawatt":false,"status":"AVAILABLE","source":"ndw"}},{"type":"Feature","geometry":{"type":"Point","coordinates":[5.05197,52.01236]},"properties":{"type":"charge","layer":"passenger","locationId":"0fa2457c-83ba-4bc0-ab64-a91544715c99","name":"TNLP007866 - Ambachtsweg 1, IJsselstein","address":"1 Ambachtsweg","city":"IJsselstein","operatorName":"TotalEnergies","maxPowerKw":17,"isMegawatt":false,"status":"AVAILABLE","source":"ndw"}},{"type":"Feature","geometry":{"type":"Point","coordinates":[5.0376,52.01649]},"properties":{"type":"charge","layer":"passenger","locationId":"749","name":"Shell Recharge NL Van der Poststraat 12","address":"Van der Poststraat 12","city":"IJsselstein","operatorName":"Ubitricity","maxPowerKw":11,"isMegawatt":false,"status":"AVAILABLE","source":"ndw","priceKwh":0.388}},{"type":"Feature","geometry":{"type":"Point","coordinates":[5.0417085,52.0131584]},"properties":{"type":"charge","layer":"passenger","locationId":"1879","name":"Shell Recharge NL Sofiastraat 12","address":"Sofiastraat 12","city":"IJsselstein","operatorName":"Ubitricity","maxPowerKw":22,"isMegawatt":false,"status":"AVAILABLE","source":"ndw","priceKwh":0.266}},{"type":"Feature","geometry":{"type":"Point","coordinates":[5.044584,52.01663]},"properties":{"type":"charge","layer":"passenger","locationId":"fef446f4-4366-4a2c-97dc-708076f03ec9","name":"TNLP009068 - Maximiliaanstraat 17, IJsselstein","address":"17 Maximiliaanstraat","city":"IJsselstein","operatorName":"TotalEnergies","maxPowerKw":17,"isMegawatt":false,"status":"AVAILABLE","source":"ndw"}},{"type":"Feature","geometry":{"type":"Point","coordinates":[5.03588,52.024998]},"properties":{"type":"charge","layer":"passenger","locationId":"822a19af-bf72-4a5d-8915-654fb3ef34ca","name":"TNLP008318 - Weegbree 127, IJsselstein","address":"127 Weegbree","city":"IJsselstein","operatorName":"TotalEnergies","maxPowerKw":13,"isMegawatt":false,"status":"AVAILABLE","source":"ndw"}},{"type":"Feature","geometry":{"type":"Point","coordinates":[5.056384,52.01407]},"properties":{"type":"charge","layer":"passenger","locationId":"2a3d6c28-6a45-40df-b207-91e7916928ef","name":"TNLP006760 - Middenweg 31, IJsselstein","address":"31 Middenweg","city":"IJsselstein","operatorName":"TotalEnergies","maxPowerKw":17,"isMegawatt":false,"status":"AVAILABLE","source":"ndw"}},{"type":"Feature","geometry":{"type":"Point","coordinates":[5.065056,52.012045]},"properties":{"type":"charge","layer":"passenger","locationId":"922943","name":"Parkdeck 5 DAE_NL_2000738","address":"Kamerlingh Onneslaan 9","city":"IJsselstein","operatorName":"DAEN Mobility","maxPowerKw":22,"isMegawatt":false,"status":"UNAVAILABLE","source":"ndw","priceKwh":0.25}},{"type":"Feature","geometry":{"type":"Point","coordinates":[5.034387,52.029213]},"properties":{"type":"charge","layer":"passenger","locationId":"8f36e399-dd20-4943-8163-2c6b00c6f2a8","name":"TNLP007576 - Herteveld 16, IJsselstein","address":"16 Herteveld","city":"IJsselstein","operatorName":"TotalEnergies","maxPowerKw":17,"isMegawatt":false,"status":"AVAILABLE","source":"ndw"}},{"type":"Feature","geometry":{"type":"Point","coordinates":[5.04267,52.01311]},"properties":{"type":"charge","layer":"passenger","locationId":"1635","name":"Shell Recharge NL Sofiastraat 6","address":"Sofiastraat 6","city":"IJsselstein","operatorName":"Ubitricity","maxPowerKw":11,"isMegawatt":false,"status":"AVAILABLE","source":"ndw","priceKwh":0.388}},{"type":"Feature","geometry":{"type":"Point","coordinates":[5.03538,52.02716]},"properties":{"type":"charge","layer":"passenger","locationId":"71b0bf97e130288c11b827453f7bc2d2","name":"Witakker 10","address":"Witakker 10","city":"IJsselstein","operatorName":"Vattenfall InCharge","maxPowerKw":11,"isMegawatt":false,"status":"AVAILABLE","source":"ndw"}},{"type":"Feature","geometry":{"type":"Point","coordinates":[5.053993,52.024155]},"properties":{"type":"charge","layer":"passenger","locationId":"29a50689-74d6-4b65-bf65-26ec9a2a9f17","name":"TNLP007831 - Frankrijkstraat 53, IJsselstein","address":"53 Frankrijkstraat","city":"IJsselstein","operatorName":"TotalEnergies","maxPowerKw":17,"isMegawatt":false,"status":"AVAILABLE","source":"ndw"}},{"type":"Feature","geometry":{"type":"Point","coordinates":[5.053019,52.022804]},"properties":{"type":"charge","layer":"passenger","locationId":"dba33490-7c7b-4e1f-ad20-4dd0e3553afe","name":"TNLP009880 - Belgiëstraat 13, IJsselstein","address":"13 Belgiëstraat","city":"IJsselstein","operatorName":"TotalEnergies","maxPowerKw":17,"isMegawatt":false,"status":"AVAILABLE","source":"ndw"}},{"type":"Feature","geometry":{"type":"Point","coordinates":[5.038212,52.015537]},"properties":{"type":"charge","layer":"passenger","locationId":"1116dda5-a9f0-4e39-ba49-389aa4c2cdc0","name":"TNLP009109 - Van Leuffenpad 7, IJsselstein","address":"7 Van Leuffenpad","city":"IJsselstein","operatorName":"TotalEnergies","maxPowerKw":17,"isMegawatt":false,"status":"AVAILABLE","source":"ndw"}},{"type":"Feature","geometry":{"type":"Point","coordinates":[5.025743,52.026592]},"properties":{"type":"charge","layer":"passenger","locationId":"14038106-53e0-419d-82ac-2db8663ff349","name":"TNLP008028 - Merelweg 4, IJsselstein","address":"4 Merelweg","city":"IJsselstein","operatorName":"TotalEnergies","maxPowerKw":17,"isMegawatt":false,"status":"AVAILABLE","source":"ndw"}},{"type":"Feature","geometry":{"type":"Point","coordinates":[5.055449,52.019028]},"properties":{"type":"charge","layer":"passenger","locationId":"7d1b12f9-38a4-4067-bfbb-f0f22c83d963","name":"TNLP008150 - Willem Barentszstraat 2, IJsselstein","address":"2 Willem Barentszstraat","city":"IJsselstein","operatorName":"TotalEnergies","maxPowerKw":17,"isMegawatt":false,"status":"AVAILABLE","source":"ndw"}},{"type":"Feature","geometry":{"type":"Point","coordinates":[5.038819,52.013391]},"properties":{"type":"charge","layer":"passenger","locationId":"588506b8-8fc5-4059-abf7-f0f59a588e97","name":"TNLP034521","address":"Waalsingel 52","city":"IJsselstein","operatorName":"TotalEnergies","maxPowerKw":14,"isMegawatt":false,"status":"CHARGING","source":"ndw"}},{"type":"Feature","geometry":{"type":"Point","coordinates":[5.051491,52.02101]},"properties":{"type":"charge","layer":"passenger","locationId":"a9ca1d1f-587b-469c-8e97-9dbc94f80a6f","name":"PP005165 - Turfschouw 13, Ijsselstein","address":"13 Turfschouw","city":"Ijsselstein","operatorName":"TotalEnergies","maxPowerKw":11,"isMegawatt":false,"status":"AVAILABLE","source":"ndw"}},{"type":"Feature","geometry":{"type":"Point","coordinates":[5.047921,52.01404]},"properties":{"type":"charge","layer":"passenger","locationId":"319b1fee-0604-4bcc-80ca-a9ab49f862bf","name":"TNLP009541 - Hendrik Copijnstraat 66, IJsselstein","address":"66 Hendrik Copijnstraat","city":"IJsselstein","operatorName":"TotalEnergies","maxPowerKw":17,"isMegawatt":false,"status":"AVAILABLE","source":"ndw"}},{"type":"Feature","geometry":{"type":"Point","coordinates":[5.041586,52.019245]},"properties":{"type":"charge","layer":"passenger","locationId":"a4035d33-ee5f-4887-a6ce-555de8f6fd02","name":"TNLP006211 - Kloosterhof 12, IJsselstein","address":"12 Kloosterhof","city":"IJsselstein","operatorName":"TotalEnergies","maxPowerKw":17,"isMegawatt":false,"status":"AVAILABLE","source":"ndw"}},{"type":"Feature","geometry":{"type":"Point","coordinates":[5.03811,52.02197]},"properties":{"type":"charge","layer":"passenger","locationId":"d09d43736ac80dafc8426b316a9e2ee1","name":"Stalpaert van der Wielenlaan 2","address":"Stalpaert van der Wielenlaan 2","city":"IJsselstein","operatorName":"Vattenfall InCharge","maxPowerKw":11,"isMegawatt":false,"status":"AVAILABLE","source":"ndw"}},{"type":"Feature","geometry":{"type":"Point","coordinates":[5.048022,52.021137]},"properties":{"type":"charge","layer":"passenger","locationId":"ea2aaeb6-f45d-4eb1-a4da-e950133f37b6","name":"TNLP007283 - Hazenveld 1, IJsselstein","address":"1 Hazenveld","city":"IJsselstein","operatorName":"TotalEnergies","maxPowerKw":17,"isMegawatt":false,"status":"AVAILABLE","source":"ndw"}},{"type":"Feature","geometry":{"type":"Point","coordinates":[5.041663,52.019301]},"properties":{"type":"charge","layer":"passenger","locationId":"a72ed747e9fa0c799a9892133e628150","name":"Kronenburgplantsoen 34","address":"Kronenburgplantsoen 34","city":"IJsselstein","operatorName":"Vattenfall InCharge","maxPowerKw":11,"isMegawatt":false,"status":"CHARGING","source":"ndw"}},{"type":"Feature","geometry":{"type":"Point","coordinates":[5.028222,52.023471]},"properties":{"type":"charge","layer":"passenger","locationId":"3406c69c053452be426cb5926cef9d2d","name":"Koperslagerlaan 21","address":"Koperslagerlaan 21","city":"IJsselstein","operatorName":"Vattenfall InCharge","maxPowerKw":11,"isMegawatt":false,"status":"CHARGING","source":"ndw"}},{"type":"Feature","geometry":{"type":"Point","coordinates":[5.033998,52.026097]},"properties":{"type":"charge","layer":"passenger","locationId":"69cca2187d39e5eb29ec5bdd1502b879","name":"Klompenmaker 17","address":"Klompenmaker 17","city":"IJsselstein","operatorName":"Vattenfall InCharge","maxPowerKw":11,"isMegawatt":false,"status":"CHARGING","source":"ndw"}},{"type":"Feature","geometry":{"type":"Point","coordinates":[5.03609,52.00769]},"properties":{"type":"charge","layer":"passenger","locationId":"289ff4d0308a10a6c4b12ab7834e631b","name":"Zuiderparklaan 9","address":"Zuiderparklaan 9","city":"IJsselstein","operatorName":"Vattenfall InCharge","maxPowerKw":11,"isMegawatt":false,"status":"AVAILABLE","source":"ndw"}},{"type":"Feature","geometry":{"type":"Point","coordinates":[5.03335,52.02881]},"properties":{"type":"charge","layer":"passenger","locationId":"0773335aa57f70fbbbccdc9d3f080a45","name":"Schonauwen 69","address":"Schonauwen 69","city":"IJsselstein","operatorName":"Vattenfall InCharge","maxPowerKw":11,"isMegawatt":false,"status":"AVAILABLE","source":"ndw"}},{"type":"Feature","geometry":{"type":"Point","coordinates":[5.02448,52.02136]},"properties":{"type":"charge","layer":"passenger","locationId":"dfd52d3c9167ecb427cfdf5de8c08ba4","name":"Talingweide 133","address":"Talingweide 133","city":"IJsselstein","operatorName":"Vattenfall InCharge","maxPowerKw":11,"isMegawatt":false,"status":"AVAILABLE","source":"ndw"}},{"type":"Feature","geometry":{"type":"MultiPolygon","coordinates":[[[[5.017426544132499,52.06099123575772],[5.021610170188505,52.05580807376402],[5.025592871541456,52.05585653495651],[5.027119326639002,52.055395792115746],[5.026960786870317,52.054632483701056],[5.028261084725285,52.05358063937901],[5.027671942773891,52.0516959973651],[5.028339686441588,52.05076109827617],[5.038043947207031,52.04417163839349],[5.045582916957311,52.03477382141114],[5.051421063613552,52.030105584238825],[5.0519795394485385,52.030888041728744],[5.055339435930278,52.02973838468715],[5.054909528754518,52.02886563495622],[5.061020539992151,52.02628213702803],[5.062800805926896,52.02682334893733],[5.062873344617924,52.025743331485124],[5.062944404832146,52.02523847184984],[5.065991079163381,52.01870455233562],[5.067998203949836,52.01440398310947],[5.0689327525622945,52.01416923258175],[5.071426141856793,52.009862831994894],[5.073601296453921,52.005909504717515],[5.074860500135513,52.00355362681657],[5.072793442975842,52.00030816150496],[5.075785156069744,52.00078097314134],[5.077717271314899,51.998705087651864],[5.0775349583841605,51.99745194616231],[5.066285917941778,51.99407351758932],[5.06263785006036,51.99123318293138],[5.055865870255645,51.99408070444221],[5.053082016016007,51.995384778083434],[5.0538856736851825,51.99663113680382],[5.052611583215514,51.99765435090302],[5.042469870462761,52.00566838525822],[5.036045368444086,52.004259003660536],[5.034001936290021,52.00393699368139],[5.031771977129605,52.007518950584924],[5.030141967654709,52.01016433558413],[5.029351557296188,52.011472023631256],[5.027316222786485,52.014779718524395],[5.027082431575816,52.014776994894945],[5.023913048994802,52.019932168852534],[5.020353528098904,52.02556571408812],[5.019721449093311,52.025533075099155],[4.995194549862604,52.02172055202113],[4.99404609348215,52.02974025142749],[4.983138845411771,52.02778473814673],[4.978989596948677,52.03807157196513],[4.978392416352495,52.039686679077285],[4.983276465757504,52.04023687731737],[4.9903029302557895,52.05243854167597],[4.991074511830785,52.052864563459764],[4.9953322344184645,52.0526078557763],[4.997147406193667,52.05295231783571],[5.001125450629815,52.05402884217726],[5.004900937923043,52.055556130582715],[5.0102834042931335,52.05374121945355],[5.01707425726037,52.06114306357085],[5.017426544132499,52.06099123575772]]]]},"properties":{"type":"boundary","gemeente":"IJsselstein","code":"GM0353"}}]}