{"type":"FeatureCollection","metadata":{"gemeente":"Kaag en Braassem","slug":"kaag-en-braassem","code":"GM1884","generated_at":"2026-07-06T16:26:11.361Z","total_passenger":151,"total_freight":0,"bounds":[4.5381532047628514,52.15224867334701,4.729562272713666,52.23384246733632],"operators":["E-Flux by Road","EQUANS","Eneco","Vattenfall InCharge"]},"features":[{"type":"Feature","geometry":{"type":"Point","coordinates":[4.629149,52.203133]},"properties":{"type":"charge","layer":"passenger","locationId":"90798945","name":"EQUANS SGZH 2.0 Spoorstraat 23","address":"Spoorstraat 23","city":"Roelofarendsveen","operatorName":"EQUANS","maxPowerKw":11,"isMegawatt":false,"status":"AVAILABLE","source":"ndw"}},{"type":"Feature","geometry":{"type":"Point","coordinates":[4.668091,52.224702]},"properties":{"type":"charge","layer":"passenger","locationId":"89914488","name":"EQUANS SGZH 2.0 89914488","address":"Verlaat 88","city":"Leimuiden","operatorName":"EQUANS","maxPowerKw":11,"isMegawatt":false,"status":"AVAILABLE","source":"ndw"}},{"type":"Feature","geometry":{"type":"Point","coordinates":[4.673242,52.2217]},"properties":{"type":"charge","layer":"passenger","locationId":"89927113","name":"EQUANS SGZH 2.0 89927113","address":"Kloofpad 11 a","city":"Leimuiden","operatorName":"EQUANS","maxPowerKw":11,"isMegawatt":false,"status":"AVAILABLE","source":"ndw"}},{"type":"Feature","geometry":{"type":"Point","coordinates":[4.633109,52.173397]},"properties":{"type":"charge","layer":"passenger","locationId":"89188773","name":"EQUANS SGZH 2.0 89188773","address":"Witte Klaver 58","city":"Woubrugge","operatorName":"EQUANS","maxPowerKw":17,"isMegawatt":false,"status":"AVAILABLE","source":"ndw"}},{"type":"Feature","geometry":{"type":"Point","coordinates":[4.633537,52.200009]},"properties":{"type":"charge","layer":"passenger","locationId":"89261473","name":"EQUANS SGZH 1.0 89261473","address":"Oostoever 13","city":"Roelofarendsveen","operatorName":"EQUANS","maxPowerKw":11,"isMegawatt":false,"status":"CHARGING","source":"ndw"}},{"type":"Feature","geometry":{"type":"Point","coordinates":[4.667654,52.222244]},"properties":{"type":"charge","layer":"passenger","locationId":"89358816","name":"EQUANS SGZH 2.0 89358816","address":"Cederplein 131","city":"Leimuiden","operatorName":"EQUANS","maxPowerKw":11,"isMegawatt":false,"status":"AVAILABLE","source":"ndw"}},{"type":"Feature","geometry":{"type":"Point","coordinates":[4.67237,52.227434]},"properties":{"type":"charge","layer":"passenger","locationId":"89261503","name":"EQUANS SGZH 1.0 89261503","address":"Noordeinde 48","city":"Leimuiden","operatorName":"EQUANS","maxPowerKw":11,"isMegawatt":false,"status":"AVAILABLE","source":"ndw"}},{"type":"Feature","geometry":{"type":"Point","coordinates":[4.637091,52.200396]},"properties":{"type":"charge","layer":"passenger","locationId":"89261486","name":"EQUANS SGZH 1.0 89261486","address":"Biezenoever 16","city":"Roelofarendsveen","operatorName":"EQUANS","maxPowerKw":11,"isMegawatt":false,"status":"AVAILABLE","source":"ndw"}},{"type":"Feature","geometry":{"type":"Point","coordinates":[4.64187,52.216149]},"properties":{"type":"charge","layer":"passenger","locationId":"89261500","name":"EQUANS SGZH 1.0 89261500","address":"Poelruit 4","city":"Oude Wetering","operatorName":"EQUANS","maxPowerKw":11,"isMegawatt":false,"status":"AVAILABLE","source":"ndw"}},{"type":"Feature","geometry":{"type":"Point","coordinates":[4.577344,52.169]},"properties":{"type":"charge","layer":"passenger","locationId":"89261464","name":"EQUANS SGZH 1.0 89261464","address":"Theo Bosmanlaan 32","city":"Hoogmade","operatorName":"EQUANS","maxPowerKw":11,"isMegawatt":false,"status":"AVAILABLE","source":"ndw"}},{"type":"Feature","geometry":{"type":"Point","coordinates":[4.615356,52.197515]},"properties":{"type":"charge","layer":"passenger","locationId":"6203ec4202718bb5ccfbf2df","name":"Airport Indoor Parking Laadpaal 4","address":"Veenderveld 10","city":"Roelofarendsveen","operatorName":"E-Flux by Road","maxPowerKw":22,"isMegawatt":false,"status":"AVAILABLE","source":"ndw","priceKwh":0.92}},{"type":"Feature","geometry":{"type":"Point","coordinates":[4.627782,52.199958]},"properties":{"type":"charge","layer":"passenger","locationId":"89185503","name":"EQUANS SGZH 2.0 89185503","address":"Zeekool 11","city":"Roelofarendsveen","operatorName":"EQUANS","maxPowerKw":17,"isMegawatt":false,"status":"AVAILABLE","source":"ndw"}},{"type":"Feature","geometry":{"type":"Point","coordinates":[4.581272,52.191126]},"properties":{"type":"charge","layer":"passenger","locationId":"89261490","name":"EQUANS SGZH 2.0 Pastoor Kwakmanlaan 113","address":"Pastoor Kwakmanlaan 113","city":"Rijpwetering","operatorName":"EQUANS","maxPowerKw":11,"isMegawatt":false,"status":"AVAILABLE","source":"ndw"}},{"type":"Feature","geometry":{"type":"Point","coordinates":[4.61274,52.19392]},"properties":{"type":"charge","layer":"passenger","locationId":"91417681","name":"EQUANS SGZH 2.0 Veenderveld 51","address":"Veenderveld 51","city":"Roelofarendsveen","operatorName":"EQUANS","maxPowerKw":11,"isMegawatt":false,"status":"AVAILABLE","source":"ndw"}},{"type":"Feature","geometry":{"type":"Point","coordinates":[4.63062,52.20385]},"properties":{"type":"charge","layer":"passenger","locationId":"91246109","name":"EQUANS SGZH 2.0 Spoorstraat 34","address":"Spoorstraat 34","city":"Roelofarendsveen","operatorName":"EQUANS","maxPowerKw":11,"isMegawatt":false,"status":"AVAILABLE","source":"ndw"}},{"type":"Feature","geometry":{"type":"Point","coordinates":[4.631214,52.202349]},"properties":{"type":"charge","layer":"passenger","locationId":"89264141","name":"EQUANS SGZH 1.0 89904875","address":"Westeinde 1","city":"Roelofarendsveen","operatorName":"EQUANS","maxPowerKw":11,"isMegawatt":false,"status":"AVAILABLE","source":"ndw"}},{"type":"Feature","geometry":{"type":"Point","coordinates":[4.631227,52.200545]},"properties":{"type":"charge","layer":"passenger","locationId":"89192565","name":"EQUANS SGZH 2.0 89192565","address":"Noordeinde 57","city":"Roelofarendsveen","operatorName":"EQUANS","maxPowerKw":17,"isMegawatt":false,"status":"CHARGING","source":"ndw"}},{"type":"Feature","geometry":{"type":"Point","coordinates":[4.630854,52.208256]},"properties":{"type":"charge","layer":"passenger","locationId":"89927127","name":"EQUANS SGZH 2.0 89927127","address":"Godfried Bomanslaan 9","city":"Roelofarendsveen","operatorName":"EQUANS","maxPowerKw":11,"isMegawatt":false,"status":"AVAILABLE","source":"ndw"}},{"type":"Feature","geometry":{"type":"Point","coordinates":[4.63013,52.206062]},"properties":{"type":"charge","layer":"passenger","locationId":"89261476","name":"EQUANS SGZH 1.0 89261476","address":"Begoniastraat 12","city":"Roelofarendsveen","operatorName":"EQUANS","maxPowerKw":11,"isMegawatt":false,"status":"CHARGING","source":"ndw"}},{"type":"Feature","geometry":{"type":"Point","coordinates":[4.627616,52.198254]},"properties":{"type":"charge","layer":"passenger","locationId":"89261474","name":"EQUANS SGZH 1.0 89261474","address":"Meiraap 3","city":"Roelofarendsveen","operatorName":"EQUANS","maxPowerKw":11,"isMegawatt":false,"status":"AVAILABLE","source":"ndw"}},{"type":"Feature","geometry":{"type":"Point","coordinates":[4.623475,52.200838]},"properties":{"type":"charge","layer":"passenger","locationId":"89261475","name":"EQUANS SGZH 1.0 89261475","address":"Robijn 17","city":"roelofarendsveen","operatorName":"EQUANS","maxPowerKw":11,"isMegawatt":false,"status":"AVAILABLE","source":"ndw"}},{"type":"Feature","geometry":{"type":"Point","coordinates":[4.633844,52.196997]},"properties":{"type":"charge","layer":"passenger","locationId":"90201707","name":"EQUANS SGZH 2.0 Zegge 54 hoek Waterbies","address":"Zegge 54","city":"Roelofarendsveen","operatorName":"EQUANS","maxPowerKw":11,"isMegawatt":false,"status":"CHARGING","source":"ndw"}},{"type":"Feature","geometry":{"type":"Point","coordinates":[4.633248,52.201615]},"properties":{"type":"charge","layer":"passenger","locationId":"90347638","name":"EQUANS SGZH 1.0 Noordplein 85","address":"Noordplein 85","city":"Roelofarendsveen","operatorName":"EQUANS","maxPowerKw":11,"isMegawatt":false,"status":"AVAILABLE","source":"ndw"}},{"type":"Feature","geometry":{"type":"Point","coordinates":[4.638516,52.163638]},"properties":{"type":"charge","layer":"passenger","locationId":"90243237","name":"EQUANS SGZH 2.0 A. de Graaflaan 20","address":"A. de Graaflaan 20","city":"Woubrugge","operatorName":"EQUANS","maxPowerKw":11,"isMegawatt":false,"status":"AVAILABLE","source":"ndw"}},{"type":"Feature","geometry":{"type":"Point","coordinates":[4.641472,52.215823]},"properties":{"type":"charge","layer":"passenger","locationId":"89358776","name":"EQUANS SGZH 2.0 89358776","address":"Poelruit 48","city":"Oude Wetering","operatorName":"EQUANS","maxPowerKw":11,"isMegawatt":false,"status":"CHARGING","source":"ndw"}},{"type":"Feature","geometry":{"type":"Point","coordinates":[4.580846,52.19248]},"properties":{"type":"charge","layer":"passenger","locationId":"90909745","name":"EQUANS SGZH 2.0 Oud Adeselaan 27","address":"Oud Adeselaan 27","city":"Rijpwetering","operatorName":"EQUANS","maxPowerKw":11,"isMegawatt":false,"status":"AVAILABLE","source":"ndw"}},{"type":"Feature","geometry":{"type":"Point","coordinates":[4.63538,52.20918]},"properties":{"type":"charge","layer":"passenger","locationId":"90943621","name":"EQUANS SGZH 2.0 Rembrandt van Rijnsingel 18","address":"Rembrandt van Rijnsingel 18","city":"Roelofarendsveen","operatorName":"EQUANS","maxPowerKw":11,"isMegawatt":false,"status":"CHARGING","source":"ndw"}},{"type":"Feature","geometry":{"type":"Point","coordinates":[4.627667,52.190276]},"properties":{"type":"charge","layer":"passenger","locationId":"89261465","name":"EQUANS SGZH 1.0 89261465","address":"Zoutershof 2","city":"Roelofarendsveen","operatorName":"EQUANS","maxPowerKw":11,"isMegawatt":false,"status":"AVAILABLE","source":"ndw"}},{"type":"Feature","geometry":{"type":"Point","coordinates":[4.63616,52.20102]},"properties":{"type":"charge","layer":"passenger","locationId":"90891397","name":"EQUANS SGZH 2.0 Kikkeroever 3","address":"Kikkeroever 3","city":"Kaag en Braassem","operatorName":"EQUANS","maxPowerKw":11,"isMegawatt":false,"status":"AVAILABLE","source":"ndw"}},{"type":"Feature","geometry":{"type":"Point","coordinates":[4.637126,52.201691]},"properties":{"type":"charge","layer":"passenger","locationId":"89261485","name":"EQUANS SGZH 1.0 89261485","address":"Rietoever 60","city":"Roelofarendsveen","operatorName":"EQUANS","maxPowerKw":11,"isMegawatt":false,"status":"AVAILABLE","source":"ndw"}},{"type":"Feature","geometry":{"type":"Point","coordinates":[4.662414,52.221464]},"properties":{"type":"charge","layer":"passenger","locationId":"89261511","name":"EQUANS SGZH 1.0 89261511","address":"Zilverreiger 14","city":"Leimuiden","operatorName":"EQUANS","maxPowerKw":11,"isMegawatt":false,"status":"AVAILABLE","source":"ndw"}},{"type":"Feature","geometry":{"type":"Point","coordinates":[4.632008,52.169447]},"properties":{"type":"charge","layer":"passenger","locationId":"89261523","name":"EQUANS SGZH 1.0 89261523","address":"van Schellingerhoutstraat 31","city":"Woubrugge","operatorName":"EQUANS","maxPowerKw":11,"isMegawatt":false,"status":"AVAILABLE","source":"ndw"}},{"type":"Feature","geometry":{"type":"Point","coordinates":[4.633231,52.206957]},"properties":{"type":"charge","layer":"passenger","locationId":"89914494","name":"EQUANS SGZH 2.0 89914494","address":"Goudknop 11","city":"Roelofarendsveen","operatorName":"EQUANS","maxPowerKw":11,"isMegawatt":false,"status":"AVAILABLE","source":"ndw"}},{"type":"Feature","geometry":{"type":"Point","coordinates":[4.686818,52.191154]},"properties":{"type":"charge","layer":"passenger","locationId":"62f22814fc55b7b42b0aa24b","name":"laadpunt 2 de Pannekoekenbakker","address":"Woudsedijk-zuid 43","city":"Woubrugge","operatorName":"E-Flux by Road","maxPowerKw":22,"isMegawatt":false,"status":"AVAILABLE","source":"ndw","priceKwh":0.48}},{"type":"Feature","geometry":{"type":"Point","coordinates":[4.604283,52.167471]},"properties":{"type":"charge","layer":"passenger","locationId":"64667cbcb807350012f9b303","name":"Mariahoeve-Logies laadstation","address":"Ofwegen 8","city":"Woubrugge","operatorName":"E-Flux by Road","maxPowerKw":22,"isMegawatt":false,"status":"AVAILABLE","source":"ndw","priceKwh":0.43}},{"type":"Feature","geometry":{"type":"Point","coordinates":[4.641327,52.205537]},"properties":{"type":"charge","layer":"passenger","locationId":"89261481","name":"EQUANS SGZH 1.0 89261481","address":"Van Harteveldstraat 1","city":"Roelofarendsveen","operatorName":"EQUANS","maxPowerKw":11,"isMegawatt":false,"status":"CHARGING","source":"ndw"}},{"type":"Feature","geometry":{"type":"Point","coordinates":[4.615305,52.197442]},"properties":{"type":"charge","layer":"passenger","locationId":"6203f18a80b7267e3e5752d9","name":"Airport Indoor Parking Laadpaal 7","address":"Veenderveld 10","city":"Roelofarendsveen","operatorName":"E-Flux by Road","maxPowerKw":22,"isMegawatt":false,"status":"AVAILABLE","source":"ndw","priceKwh":0.92}},{"type":"Feature","geometry":{"type":"Point","coordinates":[4.631912,52.203021]},"properties":{"type":"charge","layer":"passenger","locationId":"90932870","name":"EQUANS SGZH 2.0 Noordhoek 7","address":"Noordhoek 7","city":"Roelofarendsveen","operatorName":"EQUANS","maxPowerKw":11,"isMegawatt":false,"status":"AVAILABLE","source":"ndw"}},{"type":"Feature","geometry":{"type":"Point","coordinates":[4.670476,52.195415]},"properties":{"type":"charge","layer":"passenger","locationId":"89261515","name":"EQUANS SGZH 1.0 89261515","address":"herenweg 147","city":"Rijnsaterwoude","operatorName":"EQUANS","maxPowerKw":11,"isMegawatt":false,"status":"AVAILABLE","source":"ndw"}},{"type":"Feature","geometry":{"type":"Point","coordinates":[4.615334,52.197479]},"properties":{"type":"charge","layer":"passenger","locationId":"6203ec7880b726cdcf56fe3f","name":"Airport Indoor Parking Laadpaal 5","address":"Veenderveld 10","city":"Roelofarendsveen","operatorName":"E-Flux by Road","maxPowerKw":22,"isMegawatt":false,"status":"AVAILABLE","source":"ndw","priceKwh":0.92}},{"type":"Feature","geometry":{"type":"Point","coordinates":[4.629268,52.198669]},"properties":{"type":"charge","layer":"passenger","locationId":"673ba1cce2c61923c528f62e","name":"EV STATION NOORDAKKER","address":"Noordakker 1","city":"Roelofarendsveen","operatorName":"E-Flux by Road","maxPowerKw":22,"isMegawatt":false,"status":"AVAILABLE","source":"ndw","priceKwh":0.42}},{"type":"Feature","geometry":{"type":"Point","coordinates":[4.671021,52.220958]},"properties":{"type":"charge","layer":"passenger","locationId":"89927115","name":"EQUANS SGZH 2.0 89927115","address":"Dorpsstraat 2 t","city":"Leimuiden","operatorName":"EQUANS","maxPowerKw":11,"isMegawatt":false,"status":"AVAILABLE","source":"ndw"}},{"type":"Feature","geometry":{"type":"Point","coordinates":[4.624276,52.194788]},"properties":{"type":"charge","layer":"passenger","locationId":"89261471","name":"EQUANS SGZH 1.0 89261471","address":"Schoolplein 56","city":"Roelofarendsveen","operatorName":"EQUANS","maxPowerKw":11,"isMegawatt":false,"status":"AVAILABLE","source":"ndw"}},{"type":"Feature","geometry":{"type":"Point","coordinates":[4.669263,52.197115]},"properties":{"type":"charge","layer":"passenger","locationId":"89261514","name":"EQUANS SGZH 1.0 89261514","address":"Meerbon 23","city":"Rijnsaterwoude","operatorName":"EQUANS","maxPowerKw":11,"isMegawatt":false,"status":"AVAILABLE","source":"ndw"}},{"type":"Feature","geometry":{"type":"Point","coordinates":[4.6245,52.21444]},"properties":{"type":"charge","layer":"passenger","locationId":"91462408","name":"EQUANS SGZH 2.0 Regenboogweg 106","address":"Regenboogweg 106","city":"Nieuwe Wetering","operatorName":"EQUANS","maxPowerKw":11,"isMegawatt":false,"status":"CHARGING","source":"ndw"}},{"type":"Feature","geometry":{"type":"Point","coordinates":[4.627714,52.198849]},"properties":{"type":"charge","layer":"passenger","locationId":"89261468","name":"EQUANS SGZH 1.0 89261468","address":"Mierikswortel 8","city":"Roelofarendsveen","operatorName":"EQUANS","maxPowerKw":11,"isMegawatt":false,"status":"AVAILABLE","source":"ndw"}},{"type":"Feature","geometry":{"type":"Point","coordinates":[4.636289,52.168683]},"properties":{"type":"charge","layer":"passenger","locationId":"89261519","name":"EQUANS SGZH 1.0 89261519","address":"Thuisweide 16","city":"Woubrugge","operatorName":"EQUANS","maxPowerKw":11,"isMegawatt":false,"status":"CHARGING","source":"ndw"}},{"type":"Feature","geometry":{"type":"Point","coordinates":[4.643659,52.212386]},"properties":{"type":"charge","layer":"passenger","locationId":"89261496","name":"EQUANS SGZH 1.0 89261496","address":"Schoener 17","city":"Oude Wetering","operatorName":"EQUANS","maxPowerKw":11,"isMegawatt":false,"status":"AVAILABLE","source":"ndw"}},{"type":"Feature","geometry":{"type":"Point","coordinates":[4.615391,52.19758]},"properties":{"type":"charge","layer":"passenger","locationId":"62038bd47bf89942a6e87db8","name":"Airport Indoor Parking Laadpaal 1","address":"Veenderveld 10","city":"Roelofarendsveen","operatorName":"E-Flux by Road","maxPowerKw":22,"isMegawatt":false,"status":"AVAILABLE","source":"ndw","priceKwh":0.42}},{"type":"Feature","geometry":{"type":"Point","coordinates":[4.665808,52.223815]},"properties":{"type":"charge","layer":"passenger","locationId":"89370462","name":"EQUANS SGZH 2.0 89370462","address":"Larikslaan 20","city":"Leimuiden","operatorName":"EQUANS","maxPowerKw":11,"isMegawatt":false,"status":"AVAILABLE","source":"ndw"}},{"type":"Feature","geometry":{"type":"Point","coordinates":[4.632382,52.200471]},"properties":{"type":"charge","layer":"passenger","locationId":"89641563","name":"EQUANS SGZH 2.0 89641563","address":"Oeverdreef 51","city":"Roelofarendsveen","operatorName":"EQUANS","maxPowerKw":11,"isMegawatt":false,"status":"AVAILABLE","source":"ndw"}},{"type":"Feature","geometry":{"type":"Point","coordinates":[4.635885,52.167525]},"properties":{"type":"charge","layer":"passenger","locationId":"89238545","name":"EQUANS SGZH 2.0 89238545","address":"Gerbrand Swartlaan 17","city":"Woubrugge","operatorName":"EQUANS","maxPowerKw":17,"isMegawatt":false,"status":"AVAILABLE","source":"ndw"}},{"type":"Feature","geometry":{"type":"Point","coordinates":[4.615327,52.197475]},"properties":{"type":"charge","layer":"passenger","locationId":"6203f0ffdb17df4561c8e8f3","name":"Airport Indoor Parking Laadpaal 6","address":"Veenderveld 10","city":"Roelofarendsveen","operatorName":"E-Flux by Road","maxPowerKw":22,"isMegawatt":false,"status":"AVAILABLE","source":"ndw","priceKwh":0.92}},{"type":"Feature","geometry":{"type":"Point","coordinates":[4.557985,52.216561]},"properties":{"type":"charge","layer":"passenger","locationId":"6D77CF59-CE20-4D6B-8F4F-CBBE695D7030","name":"Eneco eMobility Stal op de Kaag - Julianalaan 26","address":"Julianalaan 26","city":"Kaag","operatorName":"Eneco","maxPowerKw":22,"isMegawatt":false,"status":"UNAVAILABLE","source":"ndw","priceKwh":0.42}},{"type":"Feature","geometry":{"type":"Point","coordinates":[4.627582,52.204352]},"properties":{"type":"charge","layer":"passenger","locationId":"89261478","name":"EQUANS SGZH 1.0 89261478","address":"Lijsterhof 1","city":"Roelofarendsveen","operatorName":"EQUANS","maxPowerKw":11,"isMegawatt":false,"status":"AVAILABLE","source":"ndw"}},{"type":"Feature","geometry":{"type":"Point","coordinates":[4.671137,52.191515]},"properties":{"type":"charge","layer":"passenger","locationId":"89261513","name":"EQUANS SGZH 1.0 89261513","address":"Zonnedauwlaan 25","city":"Rijnsaterwoude","operatorName":"EQUANS","maxPowerKw":11,"isMegawatt":false,"status":"AVAILABLE","source":"ndw"}},{"type":"Feature","geometry":{"type":"Point","coordinates":[4.62755,52.193042]},"properties":{"type":"charge","layer":"passenger","locationId":"89261466","name":"EQUANS SGZH 1.0 89261466","address":"Witte Singel 1","city":"Roelofarendsveen","operatorName":"EQUANS","maxPowerKw":11,"isMegawatt":false,"status":"CHARGING","source":"ndw"}},{"type":"Feature","geometry":{"type":"Point","coordinates":[4.67048,52.22145]},"properties":{"type":"charge","layer":"passenger","locationId":"89921149","name":"EQUANS SGZH 2.0 89921149","address":"Drechtlaan 29","city":"Leimuiden","operatorName":"EQUANS","maxPowerKw":11,"isMegawatt":false,"status":"AVAILABLE","source":"ndw"}},{"type":"Feature","geometry":{"type":"Point","coordinates":[4.686528,52.190823]},"properties":{"type":"charge","layer":"passenger","locationId":"62f17975fc55b7d48efe4ed1","name":"Laadpunt 1 de Pannekoekenbakker","address":"Woudsedijk-zuid 43","city":"Woubrugge","operatorName":"E-Flux by Road","maxPowerKw":22,"isMegawatt":false,"status":"AVAILABLE","source":"ndw","priceKwh":0.48}},{"type":"Feature","geometry":{"type":"Point","coordinates":[4.62589,52.201732]},"properties":{"type":"charge","layer":"passenger","locationId":"89235742","name":"EQUANS SGZH 2.0 89235742","address":"Westeinde 57B","city":"Roelofarendsveen","operatorName":"EQUANS","maxPowerKw":11,"isMegawatt":false,"status":"AVAILABLE","source":"ndw"}},{"type":"Feature","geometry":{"type":"Point","coordinates":[4.666053,52.223688]},"properties":{"type":"charge","layer":"passenger","locationId":"89261505","name":"EQUANS SGZH 1.0 89261505","address":"Larikslaan 20","city":"Leimuiden","operatorName":"EQUANS","maxPowerKw":11,"isMegawatt":false,"status":"AVAILABLE","source":"ndw"}},{"type":"Feature","geometry":{"type":"Point","coordinates":[4.581332,52.194333]},"properties":{"type":"charge","layer":"passenger","locationId":"89261492","name":"EQUANS SGZH 1.0 89261492","address":"Oude Bocht 1","city":"Rijpwetering","operatorName":"EQUANS","maxPowerKw":11,"isMegawatt":false,"status":"AVAILABLE","source":"ndw"}},{"type":"Feature","geometry":{"type":"Point","coordinates":[4.627784,52.207206]},"properties":{"type":"charge","layer":"passenger","locationId":"89061032","name":"EQUANS SGZH 1.0 89061032","address":"Gooiland 2","city":"Roelofarendsveen","operatorName":"EQUANS","maxPowerKw":22,"isMegawatt":false,"status":"AVAILABLE","source":"ndw"}},{"type":"Feature","geometry":{"type":"Point","coordinates":[4.615381,52.197567]},"properties":{"type":"charge","layer":"passenger","locationId":"6203e80e80b72630a656c508","name":"Airport Indoor Parking Laadpaal 2","address":"Veenderveld 10","city":"Roelofarendsveen","operatorName":"E-Flux by Road","maxPowerKw":22,"isMegawatt":false,"status":"CHARGING","source":"ndw","priceKwh":0.42}},{"type":"Feature","geometry":{"type":"Point","coordinates":[4.644393,52.216651]},"properties":{"type":"charge","layer":"passenger","locationId":"89261493","name":"EQUANS SGZH 1.0 89261493","address":"Johan Sepershof 3","city":"Oude Wetering","operatorName":"EQUANS","maxPowerKw":11,"isMegawatt":false,"status":"AVAILABLE","source":"ndw"}},{"type":"Feature","geometry":{"type":"Point","coordinates":[4.578537,52.190956]},"properties":{"type":"charge","layer":"passenger","locationId":"89473076","name":"EQUANS SGZH 2.0 89473076","address":"Pastoor Kwakmanlaan 2","city":"Rijpwetering","operatorName":"EQUANS","maxPowerKw":11,"isMegawatt":false,"status":"AVAILABLE","source":"ndw"}},{"type":"Feature","geometry":{"type":"Point","coordinates":[4.670642,52.226026]},"properties":{"type":"charge","layer":"passenger","locationId":"89358978","name":"EQUANS SGZH 2.0 89358978","address":"Verlaat 24","city":"Leimuiden","operatorName":"EQUANS","maxPowerKw":11,"isMegawatt":false,"status":"AVAILABLE","source":"ndw"}},{"type":"Feature","geometry":{"type":"Point","coordinates":[4.66843,52.226175]},"properties":{"type":"charge","layer":"passenger","locationId":"89261504","name":"EQUANS SGZH 1.0 89261504","address":"Rietlanden 58","city":"Leimuiden","operatorName":"EQUANS","maxPowerKw":11,"isMegawatt":false,"status":"AVAILABLE","source":"ndw"}},{"type":"Feature","geometry":{"type":"Point","coordinates":[4.64262,52.214141]},"properties":{"type":"charge","layer":"passenger","locationId":"89261494","name":"EQUANS SGZH 1.0 89261494","address":"Grundel 35","city":"Oude Wetering","operatorName":"EQUANS","maxPowerKw":11,"isMegawatt":false,"status":"AVAILABLE","source":"ndw"}},{"type":"Feature","geometry":{"type":"Point","coordinates":[4.66683,52.22577]},"properties":{"type":"charge","layer":"passenger","locationId":"91246454","name":"EQUANS SGZH 2.0 Esdoornlaan 33","address":"Esdoornlaan 33","city":"Leimuiden","operatorName":"EQUANS","maxPowerKw":11,"isMegawatt":false,"status":"AVAILABLE","source":"ndw"}},{"type":"Feature","geometry":{"type":"Point","coordinates":[4.645113,52.207509]},"properties":{"type":"charge","layer":"passenger","locationId":"89358838","name":"EQUANS SGZH 2.0 89358838","address":"Burgemeester van Wichenlaan 3","city":"Oude Wetering","operatorName":"EQUANS","maxPowerKw":11,"isMegawatt":false,"status":"CHARGING","source":"ndw"}},{"type":"Feature","geometry":{"type":"Point","coordinates":[4.581534,52.169362]},"properties":{"type":"charge","layer":"passenger","locationId":"89261462","name":"EQUANS SGZH 1.0 89261462","address":"Van Alcmaerlaan 17","city":"Hoogmade","operatorName":"EQUANS","maxPowerKw":11,"isMegawatt":false,"status":"AVAILABLE","source":"ndw"}},{"type":"Feature","geometry":{"type":"Point","coordinates":[4.66873,52.221108]},"properties":{"type":"charge","layer":"passenger","locationId":"90943576","name":"EQUANS SGZH 2.0 Drechtlaan 91","address":"Drechtlaan 91","city":"Leimuiden","operatorName":"EQUANS","maxPowerKw":11,"isMegawatt":false,"status":"AVAILABLE","source":"ndw"}},{"type":"Feature","geometry":{"type":"Point","coordinates":[4.674733,52.223385]},"properties":{"type":"charge","layer":"passenger","locationId":"89261506","name":"EQUANS SGZH 1.0 89261506","address":"Tuinderij 52","city":"Leimuiden","operatorName":"EQUANS","maxPowerKw":11,"isMegawatt":false,"status":"CHARGING","source":"ndw"}},{"type":"Feature","geometry":{"type":"Point","coordinates":[4.625077,52.199235]},"properties":{"type":"charge","layer":"passenger","locationId":"89261470","name":"EQUANS SGZH 1.0 89261470","address":"Kardoen 2","city":"Roelofarendsveen","operatorName":"EQUANS","maxPowerKw":11,"isMegawatt":false,"status":"CHARGING","source":"ndw"}},{"type":"Feature","geometry":{"type":"Point","coordinates":[4.6422,52.21923]},"properties":{"type":"charge","layer":"passenger","locationId":"91261684","name":"EQUANS SGZH 2.0 Googstraat 3","address":"Googstraat 3","city":"Oude Wetering","operatorName":"EQUANS","maxPowerKw":11,"isMegawatt":false,"status":"AVAILABLE","source":"ndw"}},{"type":"Feature","geometry":{"type":"Point","coordinates":[4.672623,52.22468]},"properties":{"type":"charge","layer":"passenger","locationId":"89094408","name":"EQUANS SGZH 1.0 89094408","address":"Dorpsstraat 104","city":"Leimuiden","operatorName":"EQUANS","maxPowerKw":22,"isMegawatt":false,"status":"AVAILABLE","source":"ndw"}},{"type":"Feature","geometry":{"type":"Point","coordinates":[4.670411,52.196013]},"properties":{"type":"charge","layer":"passenger","locationId":"89914491","name":"EQUANS SGZH 2.0 89914491","address":"Suyderbon 11","city":"Rijnsaterwoude","operatorName":"EQUANS","maxPowerKw":11,"isMegawatt":false,"status":"AVAILABLE","source":"ndw"}},{"type":"Feature","geometry":{"type":"Point","coordinates":[4.629206,52.172639]},"properties":{"type":"charge","layer":"passenger","locationId":"89261520","name":"EQUANS SGZH 1.0 89261520","address":"Schouw 7","city":"Woubrugge","operatorName":"EQUANS","maxPowerKw":11,"isMegawatt":false,"status":"CHARGING","source":"ndw"}},{"type":"Feature","geometry":{"type":"Point","coordinates":[4.66371,52.22426]},"properties":{"type":"charge","layer":"passenger","locationId":"91210058","name":"EQUANS SGZH 2.0 Dennenlaan 71","address":"Dennenlaan 71","city":"Leimuiden","operatorName":"EQUANS","maxPowerKw":11,"isMegawatt":false,"status":"AVAILABLE","source":"ndw"}},{"type":"Feature","geometry":{"type":"Point","coordinates":[4.632245,52.205208]},"properties":{"type":"charge","layer":"passenger","locationId":"89193037","name":"EQUANS SGZH 2.0 89193037","address":"Waterlelie 5","city":"Roelofarendsveen","operatorName":"EQUANS","maxPowerKw":11,"isMegawatt":false,"status":"AVAILABLE","source":"ndw"}},{"type":"Feature","geometry":{"type":"Point","coordinates":[4.584442,52.192435]},"properties":{"type":"charge","layer":"passenger","locationId":"89261489","name":"EQUANS SGZH 1.0 89261489","address":"Pastoor van der Plaatstraat 13","city":"Rijpwetering","operatorName":"EQUANS","maxPowerKw":11,"isMegawatt":false,"status":"AVAILABLE","source":"ndw"}},{"type":"Feature","geometry":{"type":"Point","coordinates":[4.673657,52.198531]},"properties":{"type":"charge","layer":"passenger","locationId":"89261512","name":"EQUANS SGZH 1.0 89261512","address":"Kerkweg 3","city":"Rijnsaterwoude","operatorName":"EQUANS","maxPowerKw":11,"isMegawatt":false,"status":"AVAILABLE","source":"ndw"}},{"type":"Feature","geometry":{"type":"Point","coordinates":[4.62917,52.20141]},"properties":{"type":"charge","layer":"passenger","locationId":"91246116","name":"EQUANS SGZH 2.0 Saffier 25","address":"Saffier 25","city":"Roelofarendsveen","operatorName":"EQUANS","maxPowerKw":11,"isMegawatt":false,"status":"AVAILABLE","source":"ndw"}},{"type":"Feature","geometry":{"type":"Point","coordinates":[4.633326,52.2067]},"properties":{"type":"charge","layer":"passenger","locationId":"89261472","name":"EQUANS SGZH 1.0 89261472","address":"goudknop 1","city":"roelofarendsveen","operatorName":"EQUANS","maxPowerKw":11,"isMegawatt":false,"status":"AVAILABLE","source":"ndw"}},{"type":"Feature","geometry":{"type":"Point","coordinates":[4.639102,52.167461]},"properties":{"type":"charge","layer":"passenger","locationId":"89261522","name":"EQUANS SGZH 1.0 89261522","address":"Raadhuisstraat 2T","city":"Woubrugge","operatorName":"EQUANS","maxPowerKw":11,"isMegawatt":false,"status":"AVAILABLE","source":"ndw"}},{"type":"Feature","geometry":{"type":"Point","coordinates":[4.64404,52.206226]},"properties":{"type":"charge","layer":"passenger","locationId":"89443697","name":"EQUANS SGZH 2.0 89443697","address":"Gerarduspad 58","city":"Oude Wetering","operatorName":"EQUANS","maxPowerKw":11,"isMegawatt":false,"status":"AVAILABLE","source":"ndw"}},{"type":"Feature","geometry":{"type":"Point","coordinates":[4.673973,52.225514]},"properties":{"type":"charge","layer":"passenger","locationId":"89443698","name":"EQUANS SGZH 2.0 Havenpad 206","address":"Havenpad 206","city":"Leimuiden","operatorName":"EQUANS","maxPowerKw":11,"isMegawatt":false,"status":"AVAILABLE","source":"ndw"}},{"type":"Feature","geometry":{"type":"Point","coordinates":[4.642454,52.207042]},"properties":{"type":"charge","layer":"passenger","locationId":"89261501","name":"EQUANS SGZH 1.0 89261501","address":"Meerkreuk 42","city":"Oude Wetering","operatorName":"EQUANS","maxPowerKw":11,"isMegawatt":false,"status":"AVAILABLE","source":"ndw"}},{"type":"Feature","geometry":{"type":"Point","coordinates":[4.61537,52.197536]},"properties":{"type":"charge","layer":"passenger","locationId":"6203ebf380b7261bd156f350","name":"Airport Indoor Parking Laadpaal 3","address":"Veenderveld 10","city":"Roelofarendsveen","operatorName":"E-Flux by Road","maxPowerKw":22,"isMegawatt":false,"status":"AVAILABLE","source":"ndw","priceKwh":0.92}},{"type":"Feature","geometry":{"type":"Point","coordinates":[4.638685,52.209668]},"properties":{"type":"charge","layer":"passenger","locationId":"89261479","name":"EQUANS SGZH 1.0 89261479","address":"Rembrandt van Rijnsingel 72","city":"Roelofarendsveen","operatorName":"EQUANS","maxPowerKw":11,"isMegawatt":false,"status":"CHARGING","source":"ndw"}},{"type":"Feature","geometry":{"type":"Point","coordinates":[4.578025,52.16751]},"properties":{"type":"charge","layer":"passenger","locationId":"90877337","name":"EQUANS SGZH 2.0 Kerkstraat 56","address":"Kerkstraat 56","city":"Hoogmade","operatorName":"EQUANS","maxPowerKw":11,"isMegawatt":false,"status":"AVAILABLE","source":"ndw"}},{"type":"Feature","geometry":{"type":"Point","coordinates":[4.632561,52.198757]},"properties":{"type":"charge","layer":"passenger","locationId":"90189318","name":"EQUANS SGZH 2.0 Oeverdreef 2 s","address":"Oeverdreef 2 s","city":"Roelofarendsveen","operatorName":"EQUANS","maxPowerKw":11,"isMegawatt":false,"status":"AVAILABLE","source":"ndw"}},{"type":"Feature","geometry":{"type":"Point","coordinates":[4.63454,52.17249]},"properties":{"type":"charge","layer":"passenger","locationId":"91314050","name":"EQUANS SGZH 2.0 Watermunt 2","address":"Watermunt 2","city":"Woubrugge","operatorName":"EQUANS","maxPowerKw":11,"isMegawatt":false,"status":"AVAILABLE","source":"ndw"}},{"type":"Feature","geometry":{"type":"Point","coordinates":[4.640317,52.215244]},"properties":{"type":"charge","layer":"passenger","locationId":"89261499","name":"EQUANS SGZH 1.0 89261499","address":"Zonnedauw 32","city":"Oude Wetering","operatorName":"EQUANS","maxPowerKw":11,"isMegawatt":false,"status":"AVAILABLE","source":"ndw"}},{"type":"Feature","geometry":{"type":"Point","coordinates":[4.635632,52.203557]},"properties":{"type":"charge","layer":"passenger","locationId":"90823793","name":"EQUANS SGZH 2.0 Dijkstraat 1","address":"Dijkstraat 1","city":"Roelofarendsveen","operatorName":"EQUANS","maxPowerKw":11,"isMegawatt":false,"status":"CHARGING","source":"ndw"}},{"type":"Feature","geometry":{"type":"Point","coordinates":[4.63927,52.20482]},"properties":{"type":"charge","layer":"passenger","locationId":"91357683","name":"EQUANS SGZH 2.0 Lijsterbesstraat 22","address":"Lijsterbesstraat 22","city":"Roelofarendsveen","operatorName":"EQUANS","maxPowerKw":11,"isMegawatt":false,"status":"AVAILABLE","source":"ndw"}},{"type":"Feature","geometry":{"type":"Point","coordinates":[4.582776,52.170938]},"properties":{"type":"charge","layer":"passenger","locationId":"89261461","name":"EQUANS SGZH 1.0 89261461","address":"Noordeinde 26","city":"Hoogmade","operatorName":"EQUANS","maxPowerKw":11,"isMegawatt":false,"status":"AVAILABLE","source":"ndw"}},{"type":"Feature","geometry":{"type":"Point","coordinates":[4.624927,52.200696]},"properties":{"type":"charge","layer":"passenger","locationId":"89261487","name":"EQUANS SGZH 1.0 89261487","address":"smaragd 31","city":"roelofarendsveen","operatorName":"EQUANS","maxPowerKw":11,"isMegawatt":false,"status":"AVAILABLE","source":"ndw"}},{"type":"Feature","geometry":{"type":"Point","coordinates":[4.642933,52.209674]},"properties":{"type":"charge","layer":"passenger","locationId":"90095176","name":"EQUANS SGZH 2.0 Vlet 16","address":"Vlet 16","city":"Oude Wetering","operatorName":"EQUANS","maxPowerKw":11,"isMegawatt":false,"status":"AVAILABLE","source":"ndw"}},{"type":"Feature","geometry":{"type":"Point","coordinates":[4.57777,52.19271]},"properties":{"type":"charge","layer":"passenger","locationId":"90877334","name":"EQUANS SGZH 2.0 Oud Adeselaan 36 b","address":"Oud Adeselaan 36 b","city":"Rijpwetering","operatorName":"EQUANS","maxPowerKw":11,"isMegawatt":false,"status":"AVAILABLE","source":"ndw"}},{"type":"Feature","geometry":{"type":"Point","coordinates":[4.643737,52.218676]},"properties":{"type":"charge","layer":"passenger","locationId":"90282002","name":"EQUANS SGZH 1.0 Noordschans 1","address":"Noordschans 1","city":"Oude Wetering","operatorName":"EQUANS","maxPowerKw":11,"isMegawatt":false,"status":"AVAILABLE","source":"ndw"}},{"type":"Feature","geometry":{"type":"Point","coordinates":[4.581347,52.169891]},"properties":{"type":"charge","layer":"passenger","locationId":"90197503","name":"EQUANS SGZH 2.0 de Bruijnlaan 17","address":"de Bruijnlaan 17","city":"Hoogmade","operatorName":"EQUANS","maxPowerKw":11,"isMegawatt":false,"status":"AVAILABLE","source":"ndw"}},{"type":"Feature","geometry":{"type":"Point","coordinates":[4.664145,52.222211]},"properties":{"type":"charge","layer":"passenger","locationId":"89261509","name":"EQUANS SGZH 1.0 89261509","address":"Prunusstraat 3","city":"Leimuiden","operatorName":"EQUANS","maxPowerKw":11,"isMegawatt":false,"status":"AVAILABLE","source":"ndw"}},{"type":"Feature","geometry":{"type":"Point","coordinates":[4.628963,52.189489]},"properties":{"type":"charge","layer":"passenger","locationId":"89261483","name":"EQUANS SGZH 1.0 89261483","address":"Westmeerlaan 34","city":"roelofarendsveen","operatorName":"EQUANS","maxPowerKw":11,"isMegawatt":false,"status":"AVAILABLE","source":"ndw"}},{"type":"Feature","geometry":{"type":"Point","coordinates":[4.560695,52.211636]},"properties":{"type":"charge","layer":"passenger","locationId":"89261166","name":"EQUANS SGZH 1.0 89261166","address":"Nassaulaan 6","city":"Kaag","operatorName":"EQUANS","maxPowerKw":11,"isMegawatt":false,"status":"AVAILABLE","source":"ndw"}},{"type":"Feature","geometry":{"type":"Point","coordinates":[4.615273,52.197405]},"properties":{"type":"charge","layer":"passenger","locationId":"6203f1c102718b2204fc5477","name":"Airport Indoor Parking Laadpaal 8","address":"Veenderveld 10","city":"Roelofarendsveen","operatorName":"E-Flux by Road","maxPowerKw":22,"isMegawatt":false,"status":"CHARGING","source":"ndw","priceKwh":0.92}},{"type":"Feature","geometry":{"type":"Point","coordinates":[4.659188,52.221607]},"properties":{"type":"charge","layer":"passenger","locationId":"89261508","name":"EQUANS SGZH 1.0 89261508","address":"Leeuwerik 31","city":"Leimuiden","operatorName":"EQUANS","maxPowerKw":11,"isMegawatt":false,"status":"AVAILABLE","source":"ndw"}},{"type":"Feature","geometry":{"type":"Point","coordinates":[4.620347,52.20132]},"properties":{"type":"charge","layer":"passenger","locationId":"91261682","name":"EQUANS SGZH 2.0 Westeinde 81 b","address":"Westeinde 81 b","city":"Roelofarendsveen","operatorName":"EQUANS","maxPowerKw":11,"isMegawatt":false,"status":"AVAILABLE","source":"ndw"}},{"type":"Feature","geometry":{"type":"Point","coordinates":[4.625652,52.201359]},"properties":{"type":"charge","layer":"passenger","locationId":"90094573","name":"EQUANS SGZH 2.0 Toermalijn 5","address":"Toermalijn 5","city":"Roelofarendsveen","operatorName":"EQUANS","maxPowerKw":11,"isMegawatt":false,"status":"AVAILABLE","source":"ndw"}},{"type":"Feature","geometry":{"type":"Point","coordinates":[4.632168,52.203181]},"properties":{"type":"charge","layer":"passenger","locationId":"89261482","name":"EQUANS SGZH 1.0 89261482","address":"Noordhoek 7","city":"Roelofarendsveen","operatorName":"EQUANS","maxPowerKw":11,"isMegawatt":false,"status":"AVAILABLE","source":"ndw"}},{"type":"Feature","geometry":{"type":"Point","coordinates":[4.642477,52.208702]},"properties":{"type":"charge","layer":"passenger","locationId":"89261495","name":"EQUANS SGZH 1.0 89261495","address":"Saskia van Uylenburchlaan 13","city":"Oude Wetering","operatorName":"EQUANS","maxPowerKw":11,"isMegawatt":false,"status":"AVAILABLE","source":"ndw"}},{"type":"Feature","geometry":{"type":"Point","coordinates":[4.635529,52.170715]},"properties":{"type":"charge","layer":"passenger","locationId":"89261518","name":"EQUANS SGZH 1.0 Emmalaan 50","address":"Emmalaan 50","city":"Woubrugge","operatorName":"EQUANS","maxPowerKw":11,"isMegawatt":false,"status":"AVAILABLE","source":"ndw"}},{"type":"Feature","geometry":{"type":"Point","coordinates":[4.67448,52.2224]},"properties":{"type":"charge","layer":"passenger","locationId":"91452084","name":"EQUANS SGZH 2.0 Kloofpad 112","address":"Kloofpad 112","city":"Leimuiden","operatorName":"EQUANS","maxPowerKw":11,"isMegawatt":false,"status":"AVAILABLE","source":"ndw"}},{"type":"Feature","geometry":{"type":"Point","coordinates":[4.633646,52.200921]},"properties":{"type":"charge","layer":"passenger","locationId":"89473075","name":"EQUANS SGZH 2.0 89473075","address":"Centrumoever 16","city":"Roelofarendsveen","operatorName":"EQUANS","maxPowerKw":11,"isMegawatt":false,"status":"AVAILABLE","source":"ndw"}},{"type":"Feature","geometry":{"type":"Point","coordinates":[4.636456,52.169551]},"properties":{"type":"charge","layer":"passenger","locationId":"90912049","name":"EQUANS SGZH 2.0 Emmalaan 16","address":"Emmalaan 16","city":"Woubrugge","operatorName":"EQUANS","maxPowerKw":11,"isMegawatt":false,"status":"AVAILABLE","source":"ndw"}},{"type":"Feature","geometry":{"type":"Point","coordinates":[4.579367,52.167592]},"properties":{"type":"charge","layer":"passenger","locationId":"89261460","name":"EQUANS SGZH 1.0 89261460","address":"Kerkstraat 40","city":"Hoogmade","operatorName":"EQUANS","maxPowerKw":11,"isMegawatt":false,"status":"AVAILABLE","source":"ndw"}},{"type":"Feature","geometry":{"type":"Point","coordinates":[4.680653,52.225951]},"properties":{"type":"charge","layer":"passenger","locationId":"89261502","name":"EQUANS SGZH 1.0 89261502","address":"Burgemeesters Bakhuizenlaan 48","city":"Leimuiden","operatorName":"EQUANS","maxPowerKw":11,"isMegawatt":false,"status":"AVAILABLE","source":"ndw"}},{"type":"Feature","geometry":{"type":"Point","coordinates":[4.559718,52.213823]},"properties":{"type":"charge","layer":"passenger","locationId":"89261165","name":"EQUANS SGZH 1.0 89261165","address":"Prins Willem-Alexanderlaan 27","city":"Kaag","operatorName":"EQUANS","maxPowerKw":11,"isMegawatt":false,"status":"AVAILABLE","source":"ndw"}},{"type":"Feature","geometry":{"type":"Point","coordinates":[4.633342,52.200947]},"properties":{"type":"charge","layer":"passenger","locationId":"90189330","name":"EQUANS SGZH 2.0 Roelofoever 16","address":"Roelofoever 16","city":"Roelofarendsveen","operatorName":"EQUANS","maxPowerKw":11,"isMegawatt":false,"status":"AVAILABLE","source":"ndw"}},{"type":"Feature","geometry":{"type":"Point","coordinates":[4.643098,52.210162]},"properties":{"type":"charge","layer":"passenger","locationId":"90318905","name":"EQUANS SGZH 2.0 Praam 36","address":"Praam 36","city":"Oude Wetering","operatorName":"EQUANS","maxPowerKw":11,"isMegawatt":false,"status":"AVAILABLE","source":"ndw"}},{"type":"Feature","geometry":{"type":"Point","coordinates":[4.57876,52.192423]},"properties":{"type":"charge","layer":"passenger","locationId":"89261491","name":"EQUANS SGZH 1.0 89261491","address":"H.P. van der Poellaan 3","city":"Rijpwetering","operatorName":"EQUANS","maxPowerKw":11,"isMegawatt":false,"status":"AVAILABLE","source":"ndw"}},{"type":"Feature","geometry":{"type":"Point","coordinates":[4.67416,52.22481]},"properties":{"type":"charge","layer":"passenger","locationId":"90912084","name":"EQUANS SGZH 2.0 Dorpsplein 15","address":"Dorpsplein 15","city":"Leimuiden","operatorName":"EQUANS","maxPowerKw":11,"isMegawatt":false,"status":"AVAILABLE","source":"ndw"}},{"type":"Feature","geometry":{"type":"Point","coordinates":[4.63074,52.173538]},"properties":{"type":"charge","layer":"passenger","locationId":"89261521","name":"EQUANS SGZH 2.0 Tjalk 28","address":"Tjalk 28","city":"Woubrugge","operatorName":"EQUANS","maxPowerKw":11,"isMegawatt":false,"status":"AVAILABLE","source":"ndw"}},{"type":"Feature","geometry":{"type":"Point","coordinates":[4.62501,52.198482]},"properties":{"type":"charge","layer":"passenger","locationId":"89261469","name":"EQUANS SGZH 1.0 89261469","address":"Koolraap 20","city":"Roelofarendsveen","operatorName":"EQUANS","maxPowerKw":11,"isMegawatt":false,"status":"AVAILABLE","source":"ndw"}},{"type":"Feature","geometry":{"type":"Point","coordinates":[4.636266,52.204807]},"properties":{"type":"charge","layer":"passenger","locationId":"89261480","name":"EQUANS SGZH 1.0 89261480","address":"Populierenstraat 29","city":"Roelofarendsveen","operatorName":"EQUANS","maxPowerKw":11,"isMegawatt":false,"status":"AVAILABLE","source":"ndw"}},{"type":"Feature","geometry":{"type":"Point","coordinates":[4.56342,52.190086]},"properties":{"type":"charge","layer":"passenger","locationId":"89261488","name":"EQUANS SGZH 1.0 Dirk Thomaszstraat 16a","address":"Dirk Thomaszstraat 16a","city":"Oud Ade","operatorName":"EQUANS","maxPowerKw":11,"isMegawatt":false,"status":"UNAVAILABLE","source":"ndw"}},{"type":"Feature","geometry":{"type":"Point","coordinates":[4.639168,52.203918]},"properties":{"type":"charge","layer":"passenger","locationId":"89307476","name":"EQUANS SGZH 2.0 89307476","address":"Lijsterbesstraat 1","city":"Roelofarendsveen","operatorName":"EQUANS","maxPowerKw":11,"isMegawatt":false,"status":"AVAILABLE","source":"ndw"}},{"type":"Feature","geometry":{"type":"Point","coordinates":[4.631451,52.201442]},"properties":{"type":"charge","layer":"passenger","locationId":"89261467","name":"EQUANS SGZH 1.0 89261467","address":"Opaal 1","city":"Roelofarendsveen","operatorName":"EQUANS","maxPowerKw":11,"isMegawatt":false,"status":"CHARGING","source":"ndw"}},{"type":"Feature","geometry":{"type":"Point","coordinates":[4.668931,52.222231]},"properties":{"type":"charge","layer":"passenger","locationId":"90850298","name":"EQUANS SGZH 2.0 Peppelhof 1","address":"Peppelhof 1","city":"Leimuiden","operatorName":"EQUANS","maxPowerKw":11,"isMegawatt":false,"status":"AVAILABLE","source":"ndw"}},{"type":"Feature","geometry":{"type":"Point","coordinates":[4.58936,52.196518]},"properties":{"type":"charge","layer":"passenger","locationId":"f6758438-65f1-4ab0-a47e-700233bef264","name":"Ripselaan 6","address":"Ripselaan 6","city":"RIJPWETERING","operatorName":"Vattenfall InCharge","maxPowerKw":22,"isMegawatt":false,"status":"AVAILABLE","source":"ndw"}},{"type":"Feature","geometry":{"type":"Point","coordinates":[4.63382,52.19795]},"properties":{"type":"charge","layer":"passenger","locationId":"89914492","name":"EQUANS SGZH 2.0 89914492","address":"Veenpluis 28","city":"Roelofarendsveen","operatorName":"EQUANS","maxPowerKw":11,"isMegawatt":false,"status":"AVAILABLE","source":"ndw"}},{"type":"Feature","geometry":{"type":"Point","coordinates":[4.640477,52.21751]},"properties":{"type":"charge","layer":"passenger","locationId":"90167014","name":"EQUANS SGZH 2.0 Speenkruid 15","address":"Speenkruid 15","city":"Oude Wetering","operatorName":"EQUANS","maxPowerKw":11,"isMegawatt":false,"status":"AVAILABLE","source":"ndw"}},{"type":"Feature","geometry":{"type":"Point","coordinates":[4.62672,52.20627]},"properties":{"type":"charge","layer":"passenger","locationId":"89261477","name":"EQUANS SGZH 2.0 Gruttohof 11","address":"Gruttohof 11","city":"Roelofarendsveen","operatorName":"EQUANS","maxPowerKw":11,"isMegawatt":false,"status":"AVAILABLE","source":"ndw"}},{"type":"Feature","geometry":{"type":"Point","coordinates":[4.63275,52.199431]},"properties":{"type":"charge","layer":"passenger","locationId":"89261484","name":"EQUANS SGZH 1.0 89261484","address":"Zuidoever 2","city":"Roelofarendsveen","operatorName":"EQUANS","maxPowerKw":11,"isMegawatt":false,"status":"AVAILABLE","source":"ndw"}},{"type":"Feature","geometry":{"type":"Point","coordinates":[4.632704,52.167213]},"properties":{"type":"charge","layer":"passenger","locationId":"89261516","name":"EQUANS SGZH 1.0 Gerbrand Swartlaan 55","address":"Gerbrand Swartlaan 55","city":"Woubrugge","operatorName":"EQUANS","maxPowerKw":11,"isMegawatt":false,"status":"AVAILABLE","source":"ndw"}},{"type":"Feature","geometry":{"type":"Point","coordinates":[4.633451,52.170537]},"properties":{"type":"charge","layer":"passenger","locationId":"89261517","name":"EQUANS SGZH 1.0 89261517","address":"Bateweg 74","city":"Woubrugge","operatorName":"EQUANS","maxPowerKw":11,"isMegawatt":false,"status":"CHARGING","source":"ndw"}},{"type":"Feature","geometry":{"type":"Point","coordinates":[4.670755,52.222575]},"properties":{"type":"charge","layer":"passenger","locationId":"89188785","name":"EQUANS SGZH 2.0 89188785","address":"Goudenregenstraat 12","city":"Leimuiden","operatorName":"EQUANS","maxPowerKw":17,"isMegawatt":false,"status":"AVAILABLE","source":"ndw"}},{"type":"Feature","geometry":{"type":"Point","coordinates":[4.637565,52.168782]},"properties":{"type":"charge","layer":"passenger","locationId":"90909751","name":"EQUANS SGZH 2.0 Abraham Vermaaspad 1","address":"Abraham Vermaaspad 1","city":"Woubrugge","operatorName":"EQUANS","maxPowerKw":11,"isMegawatt":false,"status":"AVAILABLE","source":"ndw"}},{"type":"Feature","geometry":{"type":"Point","coordinates":[4.641752,52.217928]},"properties":{"type":"charge","layer":"passenger","locationId":"89261498","name":"EQUANS SGZH 1.0 89261498","address":"Watermunt 65","city":"Oude Wetering","operatorName":"EQUANS","maxPowerKw":11,"isMegawatt":false,"status":"AVAILABLE","source":"ndw"}},{"type":"Feature","geometry":{"type":"Point","coordinates":[4.631531,52.184111]},"properties":{"type":"charge","layer":"passenger","locationId":"89473071","name":"EQUANS SGZH 2.0 89473071","address":"Zuidhoek 52","city":"Roelofarendsveen","operatorName":"EQUANS","maxPowerKw":11,"isMegawatt":false,"status":"AVAILABLE","source":"ndw"}},{"type":"Feature","geometry":{"type":"Point","coordinates":[4.642224,52.2128]},"properties":{"type":"charge","layer":"passenger","locationId":"89927112","name":"EQUANS SGZH 2.0 89927112","address":"Schoener 88","city":"Oude Wetering","operatorName":"EQUANS","maxPowerKw":11,"isMegawatt":false,"status":"AVAILABLE","source":"ndw"}},{"type":"Feature","geometry":{"type":"Point","coordinates":[4.579169,52.1695]},"properties":{"type":"charge","layer":"passenger","locationId":"89261463","name":"EQUANS SGZH 1.0 89261463","address":"Pieter van Hemerenplantsoen 15","city":"Hoogmade","operatorName":"EQUANS","maxPowerKw":11,"isMegawatt":false,"status":"AVAILABLE","source":"ndw"}},{"type":"Feature","geometry":{"type":"Point","coordinates":[4.66541,52.22553]},"properties":{"type":"charge","layer":"passenger","locationId":"90883004","name":"EQUANS SGZH 2.0 Griede 3","address":"Griede 3","city":"Leimuiden","operatorName":"EQUANS","maxPowerKw":11,"isMegawatt":false,"status":"CHARGING","source":"ndw"}},{"type":"Feature","geometry":{"type":"Point","coordinates":[4.62651,52.1986]},"properties":{"type":"charge","layer":"passenger","locationId":"90877335","name":"EQUANS SGZH 2.0 Mierikswortel 31","address":"Mierikswortel 31","city":"Roelofarendsveen","operatorName":"EQUANS","maxPowerKw":11,"isMegawatt":false,"status":"CHARGING","source":"ndw"}},{"type":"Feature","geometry":{"type":"Point","coordinates":[4.641317,52.216889]},"properties":{"type":"charge","layer":"passenger","locationId":"89261497","name":"EQUANS SGZH 1.0 89261497","address":"Bosrank 3","city":"Oude wetering","operatorName":"EQUANS","maxPowerKw":11,"isMegawatt":false,"status":"AVAILABLE","source":"ndw"}},{"type":"Feature","geometry":{"type":"Point","coordinates":[4.661625,52.222338]},"properties":{"type":"charge","layer":"passenger","locationId":"89261507","name":"EQUANS SGZH 1.0 89261507","address":"Kemphaan 1","city":"Leimuiden","operatorName":"EQUANS","maxPowerKw":11,"isMegawatt":false,"status":"AVAILABLE","source":"ndw"}},{"type":"Feature","geometry":{"type":"Point","coordinates":[4.636343,52.165933]},"properties":{"type":"charge","layer":"passenger","locationId":"91261695","name":"EQUANS SGZH 2.0 A. de Graaflaan 1","address":"A. de Graaflaan 1","city":"Woubrugge","operatorName":"EQUANS","maxPowerKw":11,"isMegawatt":false,"status":"AVAILABLE","source":"ndw"}},{"type":"Feature","geometry":{"type":"Point","coordinates":[4.631617,52.197694]},"properties":{"type":"charge","layer":"passenger","locationId":"90094568","name":"EQUANS SGZH 2.0 Gele Plomp 1","address":"Gele Plomp 1","city":"Roelofarendsveen","operatorName":"EQUANS","maxPowerKw":11,"isMegawatt":false,"status":"CHARGING","source":"ndw"}},{"type":"Feature","geometry":{"type":"Point","coordinates":[4.63237,52.17014]},"properties":{"type":"charge","layer":"passenger","locationId":"91339660","name":"EQUANS SGZH 2.0 C.Kempenaarlaan 43","address":"C.Kempenaarlaan 43","city":"Woubrugge","operatorName":"EQUANS","maxPowerKw":11,"isMegawatt":false,"status":"AVAILABLE","source":"ndw"}},{"type":"Feature","geometry":{"type":"Point","coordinates":[4.65775,52.22478]},"properties":{"type":"charge","layer":"passenger","locationId":"91284549","name":"EQUANS SGZH 2.0 Mastweg 4","address":"Mastweg 4","city":"Leimuiden","operatorName":"EQUANS","maxPowerKw":11,"isMegawatt":false,"status":"AVAILABLE","source":"ndw"}},{"type":"Feature","geometry":{"type":"MultiPolygon","coordinates":[[[[4.724154341635766,52.232371756118276],[4.722896340773161,52.22036432318055],[4.723649314301157,52.218235385929354],[4.723301684122743,52.216354281738106],[4.723764128840122,52.21657406938179],[4.724558501549544,52.21322325228344],[4.724738666725663,52.21258379815186],[4.729562272713666,52.21027156932138],[4.728765730366438,52.209819234611956],[4.725334151118886,52.21151036589036],[4.724529785243441,52.2108012405308],[4.723890126958862,52.21093623608239],[4.723783952460915,52.21143531518877],[4.7233597882136795,52.21094290045474],[4.720774013621151,52.201276912405426],[4.719990043448558,52.20161902089791],[4.707577744498731,52.20490199784297],[4.705072924198297,52.201224990459565],[4.699347714710412,52.19416837105491],[4.695315361133439,52.189154863562706],[4.69083005993273,52.19167432980828],[4.688927549672192,52.19187838393446],[4.6871647672329955,52.18627868180798],[4.681208743284578,52.167504587043595],[4.679840469207979,52.16274577916556],[4.665335060911307,52.16243379320662],[4.645516006050083,52.16200787137411],[4.641484801668889,52.16181586074497],[4.6398452112316155,52.16160668863284],[4.619031598333197,52.158708331490104],[4.610592771930214,52.15757200449382],[4.605922528217738,52.1569352914702],[4.57273630840206,52.15224867334701],[4.57148053751291,52.1531093894134],[4.561633481584151,52.16081947549498],[4.562647697238182,52.16132919497292],[4.560489743694871,52.16413052570907],[4.562399383116201,52.16611929995553],[4.560591871064622,52.1667834319931],[4.555700532305413,52.16442592902886],[4.552757831101997,52.16310433689861],[4.550349501746459,52.163013506459464],[4.542329436208463,52.171954077071035],[4.5400110679010295,52.17556914076025],[4.5390652929595605,52.17710119076483],[4.538778678384519,52.18013056327586],[4.5381532047628514,52.18008518715891],[4.543662342138699,52.187394369253084],[4.543000654823499,52.1881196642649],[4.544518982999722,52.19152196723388],[4.544480275820089,52.192217897377816],[4.545254965651971,52.19408945859573],[4.546767060957496,52.19897607842552],[4.549374659340633,52.19893819899117],[4.549296946526971,52.198362289706644],[4.5541289768751385,52.19834249630805],[4.554045588705261,52.197582605165664],[4.557154621397341,52.1977423998367],[4.556866385738159,52.19800713093226],[4.556807554947793,52.19850273160797],[4.556663594816518,52.19881810639474],[4.555564024437726,52.19920324443708],[4.555566942087112,52.19940585775208],[4.55535855450978,52.19944204442982],[4.555199991284436,52.19961280086106],[4.5552686348123785,52.19969769328955],[4.55557132750551,52.19971035886495],[4.555577597109992,52.20014570548001],[4.558141932188108,52.20036739829802],[4.5596495721003025,52.200497711029385],[4.559553924484673,52.20196186598708],[4.561661318917723,52.203639875709115],[4.560520644897657,52.203658725976865],[4.560685854245719,52.20477949501236],[4.558268919467232,52.20576101579832],[4.558090075759068,52.20852145199321],[4.558954007053697,52.21024203108241],[4.554284241607378,52.21231247259803],[4.5553734454668176,52.21401582002459],[4.557825508852037,52.215067417244796],[4.556907878398726,52.21641520070343],[4.558432520204699,52.21879899631679],[4.572201543858037,52.21699955216132],[4.573756306822289,52.21725766193113],[4.583552534154776,52.2188746422603],[4.5981800844421565,52.21554559720524],[4.6027608989665785,52.21455868818365],[4.6184364518219985,52.214476171998044],[4.622483102936737,52.21492314343634],[4.625843955511473,52.215301643204526],[4.625844549867281,52.21530171354841],[4.632633763978882,52.21618466591504],[4.638573875226565,52.218487010732595],[4.644021440782033,52.220651560577075],[4.647177121371255,52.221206264246746],[4.6538531233518805,52.22434605028343],[4.658473116710401,52.22609866729362],[4.665846622612174,52.22799679785577],[4.668345204372014,52.22958079790459],[4.670347535106556,52.230756173267665],[4.676698480277881,52.225925906508],[4.679974600414314,52.226763496193854],[4.683631796274137,52.22635442272665],[4.686210075922011,52.22663385047289],[4.6962437014231675,52.2321096719745],[4.7002432860672965,52.23307984235488],[4.704427709819538,52.23384246733632],[4.724154341635766,52.232371756118276]]]]},"properties":{"type":"boundary","gemeente":"Kaag en Braassem","code":"GM1884"}}]}