{"type":"FeatureCollection","metadata":{"gemeente":"Krimpenerwaard","slug":"krimpenerwaard","code":"GM1931","generated_at":"2026-07-06T16:26:11.361Z","total_passenger":258,"total_freight":0,"bounds":[4.576329070816476,51.88938279234093,4.877792638293838,52.022272143534515],"operators":["Allego","Alva Charging Services","DAEN Mobility","E-Flux by Road","EQUANS","Eneco","Laadnet","Lanova Laadpalen","NRG Mobility","Smappee"]},"features":[{"type":"Feature","geometry":{"type":"Point","coordinates":[4.635059,51.932454]},"properties":{"type":"charge","layer":"passenger","locationId":"NLLOC012007","name":"NL, Essenlaan 32, 2935 SN Ouderkerk aan den IJssel","address":"Essenlaan 32","city":"Ouderkerk aan den IJssel","operatorName":"Allego","maxPowerKw":11,"isMegawatt":false,"status":"AVAILABLE","source":"ndw","priceKwh":0.511}},{"type":"Feature","geometry":{"type":"Point","coordinates":[4.841462,51.949562]},"properties":{"type":"charge","layer":"passenger","locationId":"NLLOC002698","name":"NLD, Boerhaavelaan 2, 2871KK Schoonhoven","address":"Boerhaavelaan 2","city":"Schoonhoven","operatorName":"Allego","maxPowerKw":11,"isMegawatt":false,"status":"AVAILABLE","source":"ndw","priceKwh":0.511}},{"type":"Feature","geometry":{"type":"Point","coordinates":[4.679366,51.982462]},"properties":{"type":"charge","layer":"passenger","locationId":"NLLOC012507","name":"NL, Groene Wetering 14, 2831 XL Gouderak","address":"Groene Wetering 14","city":"Gouderak","operatorName":"Allego","maxPowerKw":11,"isMegawatt":false,"status":"AVAILABLE","source":"ndw","priceKwh":0.511}},{"type":"Feature","geometry":{"type":"Point","coordinates":[4.847254,51.953021]},"properties":{"type":"charge","layer":"passenger","locationId":"89329968","name":"EQUANS SGZH 2.0 89329968","address":"'s-Heerenbergstraat 20","city":"Schoonhoven","operatorName":"EQUANS","maxPowerKw":11,"isMegawatt":false,"status":"AVAILABLE","source":"ndw"}},{"type":"Feature","geometry":{"type":"Point","coordinates":[4.69262,51.899965]},"properties":{"type":"charge","layer":"passenger","locationId":"NLLOC001950","name":"NLD, Lekkerkerk, Van Markenstraat 15","address":"Van Markenstraat 15","city":"Lekkerkerk","operatorName":"Allego","maxPowerKw":11,"isMegawatt":false,"status":"AVAILABLE","source":"ndw","priceKwh":0.511}},{"type":"Feature","geometry":{"type":"Point","coordinates":[4.86986,51.947333]},"properties":{"type":"charge","layer":"passenger","locationId":"91351264","name":"EQUANS SGZH 2.0 Distelvinkstraat hoek Fazantstraat 26","address":"Distelvinkstraat hoek Fazantstraat 26","city":"Schoonhoven","operatorName":"EQUANS","maxPowerKw":11,"isMegawatt":false,"status":"AVAILABLE","source":"ndw"}},{"type":"Feature","geometry":{"type":"Point","coordinates":[4.793188,51.935605]},"properties":{"type":"charge","layer":"passenger","locationId":"NLLOC002842","name":"NLD, Oosterhoef 53, 2861 WE Bergambacht","address":"Oosterhoef 53","city":"Bergambacht","operatorName":"Allego","maxPowerKw":11,"isMegawatt":false,"status":"AVAILABLE","source":"ndw","priceKwh":0.511}},{"type":"Feature","geometry":{"type":"Point","coordinates":[4.634367,51.898906]},"properties":{"type":"charge","layer":"passenger","locationId":"89190176","name":"EQUANS SGZH 2.0 89190176","address":"Baken 19","city":"Krimpen aan de Lek","operatorName":"EQUANS","maxPowerKw":17,"isMegawatt":false,"status":"AVAILABLE","source":"ndw"}},{"type":"Feature","geometry":{"type":"Point","coordinates":[4.808029,51.929392]},"properties":{"type":"charge","layer":"passenger","locationId":"89344627","name":"EQUANS SGZH 2.0 89344627","address":"Snackertstraat 41","city":"Ammerstol","operatorName":"EQUANS","maxPowerKw":17,"isMegawatt":false,"status":"CHARGING","source":"ndw"}},{"type":"Feature","geometry":{"type":"Point","coordinates":[4.777056,51.962174]},"properties":{"type":"charge","layer":"passenger","locationId":"933729","name":"FCS Betonstaal B.V.","address":"Nijverheidseweg 54A","city":"Stolwijk","operatorName":"Smappee","maxPowerKw":120,"isMegawatt":false,"status":"AVAILABLE","source":"ndw","priceKwh":0.429}},{"type":"Feature","geometry":{"type":"Point","coordinates":[4.776059,51.974452]},"properties":{"type":"charge","layer":"passenger","locationId":"NLLOC007052","name":"NL, Zwanendreef 23, 2821 VZ, Stolwijk","address":"Zwanendreef 23","city":"Stolwijk","operatorName":"Allego","maxPowerKw":11,"isMegawatt":false,"status":"CHARGING","source":"ndw","priceKwh":0.511}},{"type":"Feature","geometry":{"type":"Point","coordinates":[4.775249,51.9966]},"properties":{"type":"charge","layer":"passenger","locationId":"89940122","name":"EQUANS SGZH 2.0 89940122","address":"Schaatsenrijder 1","city":"Haastrecht","operatorName":"EQUANS","maxPowerKw":11,"isMegawatt":false,"status":"AVAILABLE","source":"ndw"}},{"type":"Feature","geometry":{"type":"Point","coordinates":[4.846063,51.946154]},"properties":{"type":"charge","layer":"passenger","locationId":"89620762","name":"EQUANS SGZH 2.0 Groene Singel 10","address":"Groene Singel 10","city":"Schoonhoven","operatorName":"EQUANS","maxPowerKw":11,"isMegawatt":false,"status":"CHARGING","source":"ndw"}},{"type":"Feature","geometry":{"type":"Point","coordinates":[4.64083,51.93052]},"properties":{"type":"charge","layer":"passenger","locationId":"90961297","name":"EQUANS SGZH 2.0 Kerkweg 128","address":"Kerkweg 128","city":"Ouderkerk aan den IJssel","operatorName":"EQUANS","maxPowerKw":11,"isMegawatt":false,"status":"AVAILABLE","source":"ndw"}},{"type":"Feature","geometry":{"type":"Point","coordinates":[4.686392,51.900151]},"properties":{"type":"charge","layer":"passenger","locationId":"89187791","name":"EQUANS SGZH 2.0 89187791","address":"Baandershof 12","city":"Lekkerkerk","operatorName":"EQUANS","maxPowerKw":17,"isMegawatt":false,"status":"AVAILABLE","source":"ndw"}},{"type":"Feature","geometry":{"type":"Point","coordinates":[4.777252,51.995646]},"properties":{"type":"charge","layer":"passenger","locationId":"90111900","name":"EQUANS SGZH 2.0 Madelief 55","address":"Madelief 55","city":"Haastrecht","operatorName":"EQUANS","maxPowerKw":11,"isMegawatt":false,"status":"CHARGING","source":"ndw"}},{"type":"Feature","geometry":{"type":"Point","coordinates":[4.689917,51.90547]},"properties":{"type":"charge","layer":"passenger","locationId":"90386347","name":"EQUANS SGZH 2.0 Korentiende 4 (Korentiende 17 TO)","address":"Korentiende 4","city":"Lekkerkerk","operatorName":"EQUANS","maxPowerKw":11,"isMegawatt":false,"status":"AVAILABLE","source":"ndw"}},{"type":"Feature","geometry":{"type":"Point","coordinates":[4.868186,51.950532]},"properties":{"type":"charge","layer":"passenger","locationId":"633400252e17513ef44caf96","name":"Laadpaal 6","address":"Opaalstraat  2","city":"Schoonhoven","operatorName":"E-Flux by Road","maxPowerKw":22,"isMegawatt":false,"status":"UNAVAILABLE","source":"ndw"}},{"type":"Feature","geometry":{"type":"Point","coordinates":[4.868245,51.950377]},"properties":{"type":"charge","layer":"passenger","locationId":"6333fef4aecb38e39921c33b","name":"Laadpaal 3","address":"Opaalstraat 2","city":"Schoonhoven","operatorName":"E-Flux by Road","maxPowerKw":22,"isMegawatt":false,"status":"AVAILABLE","source":"ndw","priceKwh":0.43}},{"type":"Feature","geometry":{"type":"Point","coordinates":[4.825634,51.942164]},"properties":{"type":"charge","layer":"passenger","locationId":"922906","name":"Carport","address":"Provincialeweg 16","city":"Bergambacht","operatorName":"DAEN Mobility","maxPowerKw":11,"isMegawatt":false,"status":"AVAILABLE","source":"ndw","priceKwh":1.5}},{"type":"Feature","geometry":{"type":"Point","coordinates":[4.853656,51.947278]},"properties":{"type":"charge","layer":"passenger","locationId":"89918754","name":"EQUANS SGZH 2.0 89918754","address":"Doelenplein 26","city":"Schoonhoven","operatorName":"EQUANS","maxPowerKw":11,"isMegawatt":false,"status":"CHARGING","source":"ndw"}},{"type":"Feature","geometry":{"type":"Point","coordinates":[4.844868,51.951265]},"properties":{"type":"charge","layer":"passenger","locationId":"89620719","name":"EQUANS SGZH 2.0 89620719","address":"Albert Plesmanstraat 4a","city":"Schoonhoven","operatorName":"EQUANS","maxPowerKw":11,"isMegawatt":false,"status":"AVAILABLE","source":"ndw"}},{"type":"Feature","geometry":{"type":"Point","coordinates":[4.805032,51.926532]},"properties":{"type":"charge","layer":"passenger","locationId":"90201714","name":"EQUANS SGZH 2.0 't Molenweer 6","address":"'t Molenweer 6","city":"Ammerstol","operatorName":"EQUANS","maxPowerKw":11,"isMegawatt":false,"status":"AVAILABLE","source":"ndw"}},{"type":"Feature","geometry":{"type":"Point","coordinates":[4.778225,51.970282]},"properties":{"type":"charge","layer":"passenger","locationId":"89185488","name":"EQUANS SGZH 2.0 89185488","address":"Waterland 1","city":"Stolwijk","operatorName":"EQUANS","maxPowerKw":17,"isMegawatt":false,"status":"AVAILABLE","source":"ndw"}},{"type":"Feature","geometry":{"type":"Point","coordinates":[4.840848,51.95279]},"properties":{"type":"charge","layer":"passenger","locationId":"NLLOC002207","name":"NLD, Schoonhoven, Huygensplein 5","address":"Huygensplein 5","city":"Schoonhoven","operatorName":"Allego","maxPowerKw":11,"isMegawatt":false,"status":"AVAILABLE","source":"ndw","priceKwh":0.511}},{"type":"Feature","geometry":{"type":"Point","coordinates":[4.625594,51.896284]},"properties":{"type":"charge","layer":"passenger","locationId":"69d51835244f7ea48d855d68","name":"Lader Schoolstraat","address":"Schoolstraat 76","city":"Krimpen aan de Lek","operatorName":"E-Flux by Road","maxPowerKw":11,"isMegawatt":false,"status":"AVAILABLE","source":"ndw","priceKwh":0.63}},{"type":"Feature","geometry":{"type":"Point","coordinates":[4.843569,51.949664]},"properties":{"type":"charge","layer":"passenger","locationId":"90954916","name":"EQUANS SGZH 2.0 Rotterdamseweg 27","address":"Rotterdamseweg 27","city":"Schoonhoven","operatorName":"EQUANS","maxPowerKw":11,"isMegawatt":false,"status":"AVAILABLE","source":"ndw"}},{"type":"Feature","geometry":{"type":"Point","coordinates":[4.777349,51.996706]},"properties":{"type":"charge","layer":"passenger","locationId":"NLLOC009630","name":"NL, Boterbloem 21, 2851 ZC, Haastrecht","address":"Boterbloem 21","city":"Haastrecht","operatorName":"Allego","maxPowerKw":11,"isMegawatt":false,"status":"CHARGING","source":"ndw","priceKwh":0.511}},{"type":"Feature","geometry":{"type":"Point","coordinates":[4.79084,51.9337]},"properties":{"type":"charge","layer":"passenger","locationId":"91204036","name":"EQUANS SGZH 2.0 Meidoornstraat 86","address":"Meidoornstraat 86","city":"Bergambacht","operatorName":"EQUANS","maxPowerKw":11,"isMegawatt":false,"status":"AVAILABLE","source":"ndw"}},{"type":"Feature","geometry":{"type":"Point","coordinates":[4.868325,51.950364]},"properties":{"type":"charge","layer":"passenger","locationId":"630f4c5a8a92e3bbe4f93c69","name":"Laadpaal 1","address":"Opaalstraat  2","city":"Schoonhoven","operatorName":"E-Flux by Road","maxPowerKw":22,"isMegawatt":false,"status":"AVAILABLE","source":"ndw","priceKwh":0.51}},{"type":"Feature","geometry":{"type":"Point","coordinates":[4.67622,51.89948]},"properties":{"type":"charge","layer":"passenger","locationId":"89641412","name":"EQUANS SGZH 2.0 89641412","address":"Jan Ligthartstraat 129","city":"Lekkerkerk","operatorName":"EQUANS","maxPowerKw":11,"isMegawatt":false,"status":"AVAILABLE","source":"ndw"}},{"type":"Feature","geometry":{"type":"Point","coordinates":[4.794202,51.923561]},"properties":{"type":"charge","layer":"passenger","locationId":"e47affec6bae4ccc8156","name":"MDB DC-lader Bergambacht","address":"Lekdijk Oost 21","city":"Bergambacht","operatorName":"NRG Mobility","maxPowerKw":50,"isMegawatt":false,"status":"AVAILABLE","source":"ndw","priceKwh":0.5}},{"type":"Feature","geometry":{"type":"Point","coordinates":[4.788533,51.922379]},"properties":{"type":"charge","layer":"passenger","locationId":"4046881253294b07b86b905ef30b3915","name":"MDB Opslag","address":"Lekdijk","city":"Bergambacht","operatorName":"","maxPowerKw":11,"isMegawatt":false,"status":"AVAILABLE","source":"ndw","priceKwh":0.55}},{"type":"Feature","geometry":{"type":"Point","coordinates":[4.794202,51.923561]},"properties":{"type":"charge","layer":"passenger","locationId":"185a1f11646846a5899a805d19b1d11f","name":"MDB- vaste laadpalen Bergambacht","address":"Lekdijk Oost 21","city":"Bergambacht","operatorName":"NRG Mobility","maxPowerKw":11,"isMegawatt":false,"status":"AVAILABLE","source":"ndw","priceKwh":0.5}},{"type":"Feature","geometry":{"type":"Point","coordinates":[4.788533,51.922379]},"properties":{"type":"charge","layer":"passenger","locationId":"07985ea4169841a588c1016bbf506488","name":"MDB- vaste laadpalen Bergambacht","address":"Lekdijk","city":"Bergambacht","operatorName":"","maxPowerKw":11,"isMegawatt":false,"status":"AVAILABLE","source":"ndw","priceKwh":0.55}},{"type":"Feature","geometry":{"type":"Point","coordinates":[4.784082,51.928744]},"properties":{"type":"charge","layer":"passenger","locationId":"89307465","name":"EQUANS SGZH 2.0 89307465","address":"Poorthuisstraat 59","city":"Bergambacht","operatorName":"EQUANS","maxPowerKw":17,"isMegawatt":false,"status":"AVAILABLE","source":"ndw"}},{"type":"Feature","geometry":{"type":"Point","coordinates":[4.86748,51.947494]},"properties":{"type":"charge","layer":"passenger","locationId":"NLLOC003213","name":"NLD Kattestaart 2, 2871 NM, Schoonhoven","address":"Kattestaart 2","city":"Schoonhoven","operatorName":"Allego","maxPowerKw":22,"isMegawatt":false,"status":"AVAILABLE","source":"ndw","priceKwh":0.511}},{"type":"Feature","geometry":{"type":"Point","coordinates":[4.683809,51.89874]},"properties":{"type":"charge","layer":"passenger","locationId":"922976","name":"DAE_NL_2000803","address":"Kerkweg 64","city":"Lekkerkerk","operatorName":"DAEN Mobility","maxPowerKw":4,"isMegawatt":false,"status":"UNAVAILABLE","source":"ndw","priceKwh":0.45}},{"type":"Feature","geometry":{"type":"Point","coordinates":[4.87373,51.94628]},"properties":{"type":"charge","layer":"passenger","locationId":"91025040","name":"EQUANS SGZH 2.0 Roodmus 31","address":"Roodmus 31","city":"Schoonhoven","operatorName":"EQUANS","maxPowerKw":11,"isMegawatt":false,"status":"AVAILABLE","source":"ndw"}},{"type":"Feature","geometry":{"type":"Point","coordinates":[4.845596,51.953752]},"properties":{"type":"charge","layer":"passenger","locationId":"90306102","name":"EQUANS SGZH 2.0 Edelsmidsdreef 42","address":"Edelsmidsdreef 42","city":"Schoonhoven","operatorName":"EQUANS","maxPowerKw":11,"isMegawatt":false,"status":"AVAILABLE","source":"ndw"}},{"type":"Feature","geometry":{"type":"Point","coordinates":[4.635282,51.894721]},"properties":{"type":"charge","layer":"passenger","locationId":"89307453","name":"EQUANS SGZH 2.0 89307453","address":"Buitenweg 15","city":"Krimpen aan de Lek","operatorName":"EQUANS","maxPowerKw":17,"isMegawatt":false,"status":"AVAILABLE","source":"ndw"}},{"type":"Feature","geometry":{"type":"Point","coordinates":[4.84996,51.943039]},"properties":{"type":"charge","layer":"passenger","locationId":"B77ADC5C-0302-4B5D-B914-CD7EE6D0A043","name":"Eneco eMobility Cafe-Restaurant Belvedere B.V. - Lekdijk West 4 - Schoonhoven","address":"Lekdijk West 4","city":"Schoonhoven","operatorName":"Eneco","maxPowerKw":11,"isMegawatt":false,"status":"AVAILABLE","source":"ndw","priceKwh":0.32}},{"type":"Feature","geometry":{"type":"Point","coordinates":[4.625753,51.892252]},"properties":{"type":"charge","layer":"passenger","locationId":"NLLOC009823","name":"NL, Blokmakersstraat 2, 2931GB, Krimpen aan de Lek","address":"Blokmakersstraat 2","city":"Krimpen aan de Lek","operatorName":"Allego","maxPowerKw":11,"isMegawatt":false,"status":"AVAILABLE","source":"ndw","priceKwh":0.511}},{"type":"Feature","geometry":{"type":"Point","coordinates":[4.792416,51.933735]},"properties":{"type":"charge","layer":"passenger","locationId":"2268693","name":"Laadnet BAB","address":"Oosterhoef 13","city":"Bergambacht","operatorName":"Laadnet","maxPowerKw":11,"isMegawatt":false,"status":"UNAVAILABLE","source":"ndw"}},{"type":"Feature","geometry":{"type":"Point","coordinates":[4.687418,51.905435]},"properties":{"type":"charge","layer":"passenger","locationId":"NLLOC003941","name":"NLD Patrijspad 38, 2941 RG Lekkerkerk","address":"Patrijspad 38","city":"Lekkerkerk","operatorName":"Allego","maxPowerKw":11,"isMegawatt":false,"status":"CHARGING","source":"ndw","priceKwh":0.511}},{"type":"Feature","geometry":{"type":"Point","coordinates":[4.810071,51.930355]},"properties":{"type":"charge","layer":"passenger","locationId":"NLLOC009392","name":"NL, Aan de Griendsloot 17, 2865 WX, Ammerstol","address":"Aan de Griendsloot 17","city":"Ammerstol","operatorName":"Allego","maxPowerKw":11,"isMegawatt":false,"status":"AVAILABLE","source":"ndw","priceKwh":0.511}},{"type":"Feature","geometry":{"type":"Point","coordinates":[4.86823,51.94717]},"properties":{"type":"charge","layer":"passenger","locationId":"91372885","name":"EQUANS SGZH 2.0 Koninginnekruid 16","address":"Koninginnekruid 16","city":"Schoonhoven","operatorName":"EQUANS","maxPowerKw":11,"isMegawatt":false,"status":"AVAILABLE","source":"ndw"}},{"type":"Feature","geometry":{"type":"Point","coordinates":[4.685613,51.905263]},"properties":{"type":"charge","layer":"passenger","locationId":"89235340","name":"EQUANS SGZH 2.0 89235340","address":"Slobeendstraat 1","city":"Lekkerkerk","operatorName":"EQUANS","maxPowerKw":17,"isMegawatt":false,"status":"AVAILABLE","source":"ndw"}},{"type":"Feature","geometry":{"type":"Point","coordinates":[4.865876,51.945003]},"properties":{"type":"charge","layer":"passenger","locationId":"89332808","name":"EQUANS SGZH 2.0 89332808","address":"Walnootstraat 1","city":"Schoonhoven","operatorName":"EQUANS","maxPowerKw":17,"isMegawatt":false,"status":"AVAILABLE","source":"ndw"}},{"type":"Feature","geometry":{"type":"Point","coordinates":[4.780558,51.932239]},"properties":{"type":"charge","layer":"passenger","locationId":"89185480","name":"EQUANS SGZH 2.0 89185480","address":"Burgemeester Winklerstraat 55","city":"Bergambacht","operatorName":"EQUANS","maxPowerKw":17,"isMegawatt":false,"status":"AVAILABLE","source":"ndw"}},{"type":"Feature","geometry":{"type":"Point","coordinates":[4.774018,51.975602]},"properties":{"type":"charge","layer":"passenger","locationId":"89972702","name":"EQUANS SGZH 2.0 Karekietstraat 57","address":"Karekietstraat 57","city":"Stolwijk","operatorName":"EQUANS","maxPowerKw":11,"isMegawatt":false,"status":"UNAVAILABLE","source":"ndw"}},{"type":"Feature","geometry":{"type":"Point","coordinates":[4.849933,51.948903]},"properties":{"type":"charge","layer":"passenger","locationId":"90306101","name":"EQUANS SGZH 2.0 Koestraat 160","address":"Koestraat 160","city":"Schoonhoven","operatorName":"EQUANS","maxPowerKw":11,"isMegawatt":false,"status":"AVAILABLE","source":"ndw"}},{"type":"Feature","geometry":{"type":"Point","coordinates":[4.685737,51.896115]},"properties":{"type":"charge","layer":"passenger","locationId":"NLLOC006950","name":"NL, Burgemeester van der Willigenstraat 47, 2941 ES, Lekkerkerk","address":"Burgemeester van der Willigenstraat 47","city":"Lekkerkerk","operatorName":"Allego","maxPowerKw":11,"isMegawatt":false,"status":"UNAVAILABLE","source":"ndw","priceKwh":0.511}},{"type":"Feature","geometry":{"type":"Point","coordinates":[4.779547,51.971331]},"properties":{"type":"charge","layer":"passenger","locationId":"89344659","name":"EQUANS SGZH 2.0 89344659","address":"Groenhove 52","city":"Stolwijk","operatorName":"EQUANS","maxPowerKw":17,"isMegawatt":false,"status":"AVAILABLE","source":"ndw"}},{"type":"Feature","geometry":{"type":"Point","coordinates":[4.62264,51.89372]},"properties":{"type":"charge","layer":"passenger","locationId":"90384938","name":"EQUANS SGZH 2.0 Admiraal de Ruyterstraat 1","address":"Admiraal de Ruyterstraat 1","city":"Krimpen aan de Lek","operatorName":"EQUANS","maxPowerKw":11,"isMegawatt":false,"status":"AVAILABLE","source":"ndw"}},{"type":"Feature","geometry":{"type":"Point","coordinates":[4.62666,51.89209]},"properties":{"type":"charge","layer":"passenger","locationId":"91012612","name":"EQUANS SGZH 2.0 Zeilmakersstraat 1 t.h.v. Visserijstraat 2","address":"Zeilmakersstraat 1","city":"Krimpen aan de Lek","operatorName":"EQUANS","maxPowerKw":11,"isMegawatt":false,"status":"AVAILABLE","source":"ndw"}},{"type":"Feature","geometry":{"type":"Point","coordinates":[4.78725,51.93741]},"properties":{"type":"charge","layer":"passenger","locationId":"91025043","name":"EQUANS SGZH 2.0 Weidestraat 24","address":"Weidestraat 24","city":"Bergambacht","operatorName":"EQUANS","maxPowerKw":11,"isMegawatt":false,"status":"AVAILABLE","source":"ndw"}},{"type":"Feature","geometry":{"type":"Point","coordinates":[4.680158,51.898876]},"properties":{"type":"charge","layer":"passenger","locationId":"NLLOC016340","name":"NL, Jan Ligthartstraat 42, 2941 GP, Lekkerkerk","address":"Jan Ligthartstraat 42","city":"Lekkerkerk","operatorName":"Allego","maxPowerKw":11,"isMegawatt":false,"status":"AVAILABLE","source":"ndw","priceKwh":0.511}},{"type":"Feature","geometry":{"type":"Point","coordinates":[4.684287,51.896064]},"properties":{"type":"charge","layer":"passenger","locationId":"89190178","name":"EQUANS SGZH 2.0 89190178","address":"Burgemeester Roosstraat 28","city":"Lekkerkerk","operatorName":"EQUANS","maxPowerKw":17,"isMegawatt":false,"status":"UNAVAILABLE","source":"ndw"}},{"type":"Feature","geometry":{"type":"Point","coordinates":[4.62539,51.893805]},"properties":{"type":"charge","layer":"passenger","locationId":"89187777","name":"EQUANS SGZH 2.0 89187777","address":"Koningin Julianastraat 2A","city":"Krimpen aan de Lek","operatorName":"EQUANS","maxPowerKw":17,"isMegawatt":false,"status":"AVAILABLE","source":"ndw"}},{"type":"Feature","geometry":{"type":"Point","coordinates":[4.839429,51.949034]},"properties":{"type":"charge","layer":"passenger","locationId":"89344629","name":"EQUANS SGZH 2.0 89344629","address":"Van 't Hoffplaats 40","city":"Schoonhoven","operatorName":"EQUANS","maxPowerKw":17,"isMegawatt":false,"status":"UNAVAILABLE","source":"ndw"}},{"type":"Feature","geometry":{"type":"Point","coordinates":[4.626688,51.899013]},"properties":{"type":"charge","layer":"passenger","locationId":"NLLOC003357","name":"NLD Rederij van Holststraat 13, 2931 PL, Krimpen aan de Lek","address":"Rederij van Holststraat 13","city":"Krimpen aan de Lek","operatorName":"Allego","maxPowerKw":11,"isMegawatt":false,"status":"AVAILABLE","source":"ndw","priceKwh":0.511}},{"type":"Feature","geometry":{"type":"Point","coordinates":[4.685666,51.896628]},"properties":{"type":"charge","layer":"passenger","locationId":"611e2744d54784f390f73119","name":"Burg. v.d. Willigenstraat 58, Lekkerkerk","address":"Burg. v.d. Willigenstraat 58,","city":"Lekkerkerk","operatorName":"E-Flux by Road","maxPowerKw":14,"isMegawatt":false,"status":"CHARGING","source":"ndw","priceKwh":0.31}},{"type":"Feature","geometry":{"type":"Point","coordinates":[4.681389,51.897624]},"properties":{"type":"charge","layer":"passenger","locationId":"NLLOC010831","name":"NL,Lorentzweg 3, 2941 VC Lekkerkerk","address":"Lorentzweg 3","city":"Lekkerkerk","operatorName":"Allego","maxPowerKw":11,"isMegawatt":false,"status":"AVAILABLE","source":"ndw","priceKwh":0.511}},{"type":"Feature","geometry":{"type":"Point","coordinates":[4.85467,51.94384]},"properties":{"type":"charge","layer":"passenger","locationId":"91313261","name":"EQUANS SGZH 2.0 Wal 9","address":"Wal 9","city":"Schoonhoven","operatorName":"EQUANS","maxPowerKw":11,"isMegawatt":false,"status":"AVAILABLE","source":"ndw"}},{"type":"Feature","geometry":{"type":"Point","coordinates":[4.871152,51.949919]},"properties":{"type":"charge","layer":"passenger","locationId":"89187800","name":"EQUANS SGZH 2.0 89187800","address":"Leeuwerikstraat 79","city":"Schoonhoven","operatorName":"EQUANS","maxPowerKw":17,"isMegawatt":false,"status":"AVAILABLE","source":"ndw"}},{"type":"Feature","geometry":{"type":"Point","coordinates":[4.788217,51.933257]},"properties":{"type":"charge","layer":"passenger","locationId":"NLLOC003335","name":"NLD Meidoornstraat 8, 2861 VH Bergambacht","address":"Meidoornstraat 8","city":"Bergambacht","operatorName":"Allego","maxPowerKw":11,"isMegawatt":false,"status":"AVAILABLE","source":"ndw","priceKwh":0.511}},{"type":"Feature","geometry":{"type":"Point","coordinates":[4.689194,51.89597]},"properties":{"type":"charge","layer":"passenger","locationId":"89307487","name":"EQUANS SGZH 2.0 89307487","address":"Voorstraat 10","city":"Lekkerkerk","operatorName":"EQUANS","maxPowerKw":17,"isMegawatt":false,"status":"AVAILABLE","source":"ndw"}},{"type":"Feature","geometry":{"type":"Point","coordinates":[4.78251,51.93012]},"properties":{"type":"charge","layer":"passenger","locationId":"91204037","name":"EQUANS SGZH 2.0 Palissade 14","address":"Palissade 14","city":"Bergambacht","operatorName":"EQUANS","maxPowerKw":11,"isMegawatt":false,"status":"AVAILABLE","source":"ndw"}},{"type":"Feature","geometry":{"type":"Point","coordinates":[4.691208,51.900958]},"properties":{"type":"charge","layer":"passenger","locationId":"68b841c8b924edab21a7c6b6","name":"Station Zaak 2","address":"Luijtenstraat  30","city":"Lekkerkerk","operatorName":"Lanova Laadpalen","maxPowerKw":11,"isMegawatt":false,"status":"CHARGING","source":"ndw","priceKwh":0.33}},{"type":"Feature","geometry":{"type":"Point","coordinates":[4.637278,51.93224]},"properties":{"type":"charge","layer":"passenger","locationId":"NLLOC002077","name":"NLD, Ouderkerk aan den Ijssel, Rozenlaan 3","address":"Rozenlaan 3","city":"Ouderkerk aan den Ijssel","operatorName":"Allego","maxPowerKw":11,"isMegawatt":false,"status":"AVAILABLE","source":"ndw","priceKwh":0.511}},{"type":"Feature","geometry":{"type":"Point","coordinates":[4.84778,51.95144]},"properties":{"type":"charge","layer":"passenger","locationId":"91042807","name":"EQUANS SGZH 2.0 's-Heerenbergstraat 2 c","address":"'s-Heerenbergstraat 2 c","city":"Schoonhoven","operatorName":"EQUANS","maxPowerKw":11,"isMegawatt":false,"status":"AVAILABLE","source":"ndw"}},{"type":"Feature","geometry":{"type":"Point","coordinates":[4.849311,51.951145]},"properties":{"type":"charge","layer":"passenger","locationId":"NLLOC016046","name":"NL, Meester Kesperstraat 2, 2871GS, Schoonhoven","address":"Meester Kesperstraat 2","city":"Schoonhoven","operatorName":"Allego","maxPowerKw":11,"isMegawatt":false,"status":"AVAILABLE","source":"ndw","priceKwh":0.511}},{"type":"Feature","geometry":{"type":"Point","coordinates":[4.84719,51.94362]},"properties":{"type":"charge","layer":"passenger","locationId":"91328849","name":"EQUANS SGZH 2.0 Groene Singel 1","address":"Groene Singel 1","city":"Schoonhoven","operatorName":"EQUANS","maxPowerKw":11,"isMegawatt":false,"status":"AVAILABLE","source":"ndw"}},{"type":"Feature","geometry":{"type":"Point","coordinates":[4.843007,51.947423]},"properties":{"type":"charge","layer":"passenger","locationId":"NLLOC006429","name":"NL, Debijelaan 2, 2871 LE, Schoonhoven","address":"Debijelaan 2","city":"Schoonhoven","operatorName":"Allego","maxPowerKw":11,"isMegawatt":false,"status":"AVAILABLE","source":"ndw","priceKwh":0.511}},{"type":"Feature","geometry":{"type":"Point","coordinates":[4.862802,51.946475]},"properties":{"type":"charge","layer":"passenger","locationId":"NLLOC013778","name":"NL, Sparrenstraat 12, 2871 RJ Schoonhoven","address":"Sparrenstraat 12","city":"Schoonhoven","operatorName":"Allego","maxPowerKw":11,"isMegawatt":false,"status":"AVAILABLE","source":"ndw","priceKwh":0.511}},{"type":"Feature","geometry":{"type":"Point","coordinates":[4.775993,52.003345]},"properties":{"type":"charge","layer":"passenger","locationId":"69c2da068a9e1c8104827d28","name":"Asu Theisens 's station","address":"Dunantstraat 45","city":"Haastrecht","operatorName":"E-Flux by Road","maxPowerKw":14,"isMegawatt":false,"status":"AVAILABLE","source":"ndw","priceKwh":0.73}},{"type":"Feature","geometry":{"type":"Point","coordinates":[4.864802,51.946166]},"properties":{"type":"charge","layer":"passenger","locationId":"NLLOC002822","name":"NLD, Vlierstraat 13, 2871RS Schoonhoven","address":"Vlierstraat 13","city":"Schoonhoven","operatorName":"Allego","maxPowerKw":11,"isMegawatt":false,"status":"AVAILABLE","source":"ndw","priceKwh":0.511}},{"type":"Feature","geometry":{"type":"Point","coordinates":[4.630203,51.892257]},"properties":{"type":"charge","layer":"passenger","locationId":"NLLOC002294","name":"NLD, Rijsdijk 36, Krimpen aan de Lek","address":"Rijsdijk 36","city":"Krimpen aan de Lek","operatorName":"Allego","maxPowerKw":11,"isMegawatt":false,"status":"AVAILABLE","source":"ndw","priceKwh":0.511}},{"type":"Feature","geometry":{"type":"Point","coordinates":[4.645621,51.930291]},"properties":{"type":"charge","layer":"passenger","locationId":"NLLOC006954","name":"NL, Sportlaan 29, 2935 AV, Ouderkerk aan den IJssel","address":"Sportlaan 29","city":"Ouderkerk aan den IJssel","operatorName":"Allego","maxPowerKw":11,"isMegawatt":false,"status":"AVAILABLE","source":"ndw","priceKwh":0.511}},{"type":"Feature","geometry":{"type":"Point","coordinates":[4.847679,51.95352]},"properties":{"type":"charge","layer":"passenger","locationId":"NLLOC017617","name":"NL, Jan Lutmastraat 15, 2871WK, Schoonhoven","address":"Jan Lutmastraat 15","city":"Schoonhoven","operatorName":"Allego","maxPowerKw":11,"isMegawatt":false,"status":"AVAILABLE","source":"ndw","priceKwh":0.511}},{"type":"Feature","geometry":{"type":"Point","coordinates":[4.83719,51.95465]},"properties":{"type":"charge","layer":"passenger","locationId":"91048997","name":"EQUANS SGZH 2.0 Leeghwaterstraat 143","address":"Leeghwaterstraat 143","city":"Schoonhoven","operatorName":"EQUANS","maxPowerKw":11,"isMegawatt":false,"status":"CHARGING","source":"ndw"}},{"type":"Feature","geometry":{"type":"Point","coordinates":[4.807062,51.929338]},"properties":{"type":"charge","layer":"passenger","locationId":"89968064","name":"EQUANS SGZH 2.0 Sportlaan 5","address":"Sportlaan 5","city":"Ammerstol","operatorName":"EQUANS","maxPowerKw":11,"isMegawatt":false,"status":"AVAILABLE","source":"ndw"}},{"type":"Feature","geometry":{"type":"Point","coordinates":[4.637851,51.935645]},"properties":{"type":"charge","layer":"passenger","locationId":"NLLOC006478","name":"NL, Burgemeester van Waningstraat 1, 2935 XB, Ouderkerk aan den IJssel","address":"Burgemeester van Waningstraat 1","city":"Ouderkerk aan den IJssel","operatorName":"Allego","maxPowerKw":11,"isMegawatt":false,"status":"AVAILABLE","source":"ndw","priceKwh":0.511}},{"type":"Feature","geometry":{"type":"Point","coordinates":[4.776939,51.971572]},"properties":{"type":"charge","layer":"passenger","locationId":"NLLOC003503","name":"NLD Veenderij 3, 2821 ZM Stolwijk","address":"Veenderij 3","city":"Stolwijk","operatorName":"Allego","maxPowerKw":11,"isMegawatt":false,"status":"AVAILABLE","source":"ndw","priceKwh":0.511}},{"type":"Feature","geometry":{"type":"Point","coordinates":[4.769155,52.001868]},"properties":{"type":"charge","layer":"passenger","locationId":"90302665","name":"EQUANS SGZH 2.0 Populierendreef 2","address":"Populierendreef 2","city":"Haastrecht","operatorName":"EQUANS","maxPowerKw":11,"isMegawatt":false,"status":"AVAILABLE","source":"ndw"}},{"type":"Feature","geometry":{"type":"Point","coordinates":[4.794071,51.937669]},"properties":{"type":"charge","layer":"passenger","locationId":"89188761","name":"EQUANS SGZH 2.0 89188761","address":"Paardebloem 14","city":"Bergambacht","operatorName":"EQUANS","maxPowerKw":17,"isMegawatt":false,"status":"AVAILABLE","source":"ndw"}},{"type":"Feature","geometry":{"type":"Point","coordinates":[4.678834,51.900004]},"properties":{"type":"charge","layer":"passenger","locationId":"NLLOC002264","name":"NLD, Lekkerkerk, Da Costastraat 113","address":"Da Costastraat 113","city":"Lekkerkerk","operatorName":"Allego","maxPowerKw":11,"isMegawatt":false,"status":"AVAILABLE","source":"ndw","priceKwh":0.511}},{"type":"Feature","geometry":{"type":"Point","coordinates":[4.628546,51.892732]},"properties":{"type":"charge","layer":"passenger","locationId":"90822475","name":"EQUANS SGZH 2.0 Expeditiestraat 24","address":"Expeditiestraat 24","city":"Krimpen aan de Lek","operatorName":"EQUANS","maxPowerKw":11,"isMegawatt":false,"status":"AVAILABLE","source":"ndw"}},{"type":"Feature","geometry":{"type":"Point","coordinates":[4.691044,51.904102]},"properties":{"type":"charge","layer":"passenger","locationId":"NLLOC003161","name":"NLD, Vlastiende 22 2941 RT Lekkerkerk","address":"Vlastiende 22","city":"Lekkerkerk","operatorName":"Allego","maxPowerKw":11,"isMegawatt":false,"status":"AVAILABLE","source":"ndw","priceKwh":0.511}},{"type":"Feature","geometry":{"type":"Point","coordinates":[4.821166,51.975148]},"properties":{"type":"charge","layer":"passenger","locationId":"NLLOC003957","name":"NLD Julianaplein 13, 2855 AM Vlist","address":"Julianaplein 13","city":"Vlist","operatorName":"Allego","maxPowerKw":11,"isMegawatt":false,"status":"AVAILABLE","source":"ndw","priceKwh":0.511}},{"type":"Feature","geometry":{"type":"Point","coordinates":[4.781972,51.929373]},"properties":{"type":"charge","layer":"passenger","locationId":"NLLOC002300","name":"NLD, Bergambacht, Traverse 12","address":"Traverse 12","city":"Bergambacht","operatorName":"Allego","maxPowerKw":11,"isMegawatt":false,"status":"AVAILABLE","source":"ndw","priceKwh":0.511}},{"type":"Feature","geometry":{"type":"Point","coordinates":[4.677349,51.893749]},"properties":{"type":"charge","layer":"passenger","locationId":"90822372","name":"EQUANS SGZH 2.0 Westeinde 21","address":"Westeinde 21","city":"Lekkerkerk","operatorName":"EQUANS","maxPowerKw":11,"isMegawatt":false,"status":"AVAILABLE","source":"ndw"}},{"type":"Feature","geometry":{"type":"Point","coordinates":[4.639385,51.965545]},"properties":{"type":"charge","layer":"passenger","locationId":"89982151","name":"EQUANS SGZH 2.0 Nieuwlandsekade 7","address":"Nieuwlandsekade 7","city":"Ouderkerk aan den IJssel","operatorName":"EQUANS","maxPowerKw":11,"isMegawatt":false,"status":"AVAILABLE","source":"ndw"}},{"type":"Feature","geometry":{"type":"Point","coordinates":[4.62633,51.8958]},"properties":{"type":"charge","layer":"passenger","locationId":"91310353","name":"EQUANS SGZH 2.0 De Eendracht 44","address":"De Eendracht 44","city":"Krimpen aan de Lek","operatorName":"EQUANS","maxPowerKw":11,"isMegawatt":false,"status":"AVAILABLE","source":"ndw"}},{"type":"Feature","geometry":{"type":"Point","coordinates":[4.591081,51.904548]},"properties":{"type":"charge","layer":"passenger","locationId":"9277f3cb31a94547bc4d7050cee88ac5","name":"Vaste laadpalen Struijk","address":"Noord 77","city":"Krimpen aan de Lek","operatorName":"NRG Mobility","maxPowerKw":11,"isMegawatt":false,"status":"AVAILABLE","source":"ndw","priceKwh":0.5}},{"type":"Feature","geometry":{"type":"Point","coordinates":[4.838588,51.950954]},"properties":{"type":"charge","layer":"passenger","locationId":"89445015","name":"EQUANS SGZH 2.0 89445015","address":"Fleminghof 1","city":"Schoonhoven","operatorName":"EQUANS","maxPowerKw":11,"isMegawatt":false,"status":"AVAILABLE","source":"ndw"}},{"type":"Feature","geometry":{"type":"Point","coordinates":[4.842601,51.952243]},"properties":{"type":"charge","layer":"passenger","locationId":"90223478","name":"EQUANS SGZH 2.0 Marconiplein 3 (Beneluxlaan 2 )","address":"Marconiplein 3","city":"Schoonhoven","operatorName":"EQUANS","maxPowerKw":11,"isMegawatt":false,"status":"AVAILABLE","source":"ndw"}},{"type":"Feature","geometry":{"type":"Point","coordinates":[4.690856,51.901153]},"properties":{"type":"charge","layer":"passenger","locationId":"69f8aa29874780dcd02ee7e5","name":"Metalflex - laadpaal buiten hek","address":"Luijtenstraat 45","city":"Lekkerkerk","operatorName":"E-Flux by Road","maxPowerKw":22,"isMegawatt":false,"status":"AVAILABLE","source":"ndw","priceKwh":0.36}},{"type":"Feature","geometry":{"type":"Point","coordinates":[4.837749,51.953003]},"properties":{"type":"charge","layer":"passenger","locationId":"NLLOC007375","name":"NL, Leeghwaterstraat 56, 2871 PB, Schoonhoven","address":"Leeghwaterstraat 56","city":"Schoonhoven","operatorName":"Allego","maxPowerKw":11,"isMegawatt":false,"status":"AVAILABLE","source":"ndw","priceKwh":0.511}},{"type":"Feature","geometry":{"type":"Point","coordinates":[4.858393,51.946731]},"properties":{"type":"charge","layer":"passenger","locationId":"89459774","name":"EQUANS SGZH 2.0 89459774","address":"Cellebroedersstraat 6","city":"Schoonhoven","operatorName":"EQUANS","maxPowerKw":11,"isMegawatt":false,"status":"AVAILABLE","source":"ndw"}},{"type":"Feature","geometry":{"type":"Point","coordinates":[4.633304,51.935433]},"properties":{"type":"charge","layer":"passenger","locationId":"89825750","name":"EQUANS SGZH 2.0 89825750","address":"Dorpsstraat 58","city":"Ouderkerk aan den IJssel","operatorName":"EQUANS","maxPowerKw":11,"isMegawatt":false,"status":"AVAILABLE","source":"ndw"}},{"type":"Feature","geometry":{"type":"Point","coordinates":[4.633571,51.900573]},"properties":{"type":"charge","layer":"passenger","locationId":"89954329","name":"EQUANS SGZH 2.0 89954329","address":"Kakebeen 72","city":"Krimpen aan de Lek","operatorName":"EQUANS","maxPowerKw":11,"isMegawatt":false,"status":"AVAILABLE","source":"ndw"}},{"type":"Feature","geometry":{"type":"Point","coordinates":[4.857885,51.947736]},"properties":{"type":"charge","layer":"passenger","locationId":"NLLOC005742","name":"NLD, Lopikerplein 2a, 2871 AN Schoonhoven","address":"Lopikerplein 2a","city":"Schoonhoven","operatorName":"Allego","maxPowerKw":11,"isMegawatt":false,"status":"UNAVAILABLE","source":"ndw","priceKwh":0.511}},{"type":"Feature","geometry":{"type":"Point","coordinates":[4.784492,51.933649]},"properties":{"type":"charge","layer":"passenger","locationId":"NLLOC002209","name":"NLD, Bergambacht, Secretaris Schipperstraat 48","address":"Secretaris Schipperstraat 48","city":"Bergambacht","operatorName":"Allego","maxPowerKw":11,"isMegawatt":false,"status":"AVAILABLE","source":"ndw","priceKwh":0.511}},{"type":"Feature","geometry":{"type":"Point","coordinates":[4.634805,51.934042]},"properties":{"type":"charge","layer":"passenger","locationId":"NLLOC002090","name":"NLD, Ouderkerk aan den IJssel, Abelenlaan 1","address":"Abelenlaan 1","city":"Ouderkerk aan den IJssel","operatorName":"Allego","maxPowerKw":11,"isMegawatt":false,"status":"AVAILABLE","source":"ndw","priceKwh":0.511}},{"type":"Feature","geometry":{"type":"Point","coordinates":[4.7853,51.924353]},"properties":{"type":"charge","layer":"passenger","locationId":"NLLOC006157","name":"NL, De Watertoren 2, 2861 HA, Bergambacht","address":"De Watertoren 2","city":"Bergambacht","operatorName":"Allego","maxPowerKw":11,"isMegawatt":false,"status":"AVAILABLE","source":"ndw","priceKwh":0.511}},{"type":"Feature","geometry":{"type":"Point","coordinates":[4.774485,51.967165]},"properties":{"type":"charge","layer":"passenger","locationId":"90386369","name":"EQUANS SGZH 2.0 Nijverheidsweg 3","address":"Nijverheidsweg 3","city":"Stolwijk","operatorName":"EQUANS","maxPowerKw":11,"isMegawatt":false,"status":"AVAILABLE","source":"ndw"}},{"type":"Feature","geometry":{"type":"Point","coordinates":[4.685366,51.898316]},"properties":{"type":"charge","layer":"passenger","locationId":"89185498","name":"EQUANS SGZH 2.0 89185498","address":"Touwbaan 13","city":"Lekkerkerk","operatorName":"EQUANS","maxPowerKw":17,"isMegawatt":false,"status":"AVAILABLE","source":"ndw"}},{"type":"Feature","geometry":{"type":"Point","coordinates":[4.689071,51.906079]},"properties":{"type":"charge","layer":"passenger","locationId":"89235327","name":"EQUANS SGZH 2.0 89235327","address":"Randweg 1","city":"Lekkerkerk","operatorName":"EQUANS","maxPowerKw":17,"isMegawatt":false,"status":"AVAILABLE","source":"ndw"}},{"type":"Feature","geometry":{"type":"Point","coordinates":[4.791835,51.936503]},"properties":{"type":"charge","layer":"passenger","locationId":"89233093","name":"EQUANS SGZH 2.0 89233093","address":"Wielewaal 1","city":"Bergambacht","operatorName":"EQUANS","maxPowerKw":17,"isMegawatt":false,"status":"AVAILABLE","source":"ndw"}},{"type":"Feature","geometry":{"type":"Point","coordinates":[4.861263,51.947938]},"properties":{"type":"charge","layer":"passenger","locationId":"6527fc5dd94248001c33d942","name":"DC lader Automobielbedrijf de Bruijn BV","address":"Broeikweg 3","city":"Schoonhoven","operatorName":"Alva Charging Services","maxPowerKw":16,"isMegawatt":false,"status":"AVAILABLE","source":"ndw","priceKwh":0.61}},{"type":"Feature","geometry":{"type":"Point","coordinates":[4.632477,51.899485]},"properties":{"type":"charge","layer":"passenger","locationId":"NLLOC011788","name":"NL, Kakebeen, 1, 2931RD, Krimpen aan de Lek","address":"Kakebeen 1","city":"Krimpen aan de Lek","operatorName":"Allego","maxPowerKw":11,"isMegawatt":false,"status":"AVAILABLE","source":"ndw","priceKwh":0.511}},{"type":"Feature","geometry":{"type":"Point","coordinates":[4.684409,51.903052]},"properties":{"type":"charge","layer":"passenger","locationId":"63088274","name":"EQUANS Fletcher 63088274","address":"Kerkweg 138","city":"Lekkerkerk","operatorName":"EQUANS","maxPowerKw":11,"isMegawatt":false,"status":"AVAILABLE","source":"ndw"}},{"type":"Feature","geometry":{"type":"Point","coordinates":[4.636772,51.930799]},"properties":{"type":"charge","layer":"passenger","locationId":"90830524","name":"EQUANS SGZH 2.0 Reigerlaan 14","address":"Reigerlaan 14","city":"Ouderkerk aan den IJssel","operatorName":"EQUANS","maxPowerKw":11,"isMegawatt":false,"status":"AVAILABLE","source":"ndw"}},{"type":"Feature","geometry":{"type":"Point","coordinates":[4.777313,51.973872]},"properties":{"type":"charge","layer":"passenger","locationId":"90279193","name":"EQUANS SGZH 2.0 Snippendreef 1","address":"Snippendreef 1","city":"Stolwijk","operatorName":"EQUANS","maxPowerKw":11,"isMegawatt":false,"status":"AVAILABLE","source":"ndw"}},{"type":"Feature","geometry":{"type":"Point","coordinates":[4.849742,51.946311]},"properties":{"type":"charge","layer":"passenger","locationId":"89620795","name":"EQUANS SGZH 2.0 89620795","address":"Havenstraat 118","city":"Schoonhoven","operatorName":"EQUANS","maxPowerKw":11,"isMegawatt":false,"status":"CHARGING","source":"ndw"}},{"type":"Feature","geometry":{"type":"Point","coordinates":[4.6319,51.89474]},"properties":{"type":"charge","layer":"passenger","locationId":"91012716","name":"EQUANS SGZH 2.0 Joost van den Vondelstraat 48","address":"Joost van den Vondelstraat 48","city":"Krimpen aan de Lek","operatorName":"EQUANS","maxPowerKw":11,"isMegawatt":false,"status":"CHARGING","source":"ndw"}},{"type":"Feature","geometry":{"type":"Point","coordinates":[4.676156,51.897699]},"properties":{"type":"charge","layer":"passenger","locationId":"90301946","name":"EQUANS SGZH 2.0 Lange Dreef 16","address":"Lange Dreef 16","city":"Lekkerkerk","operatorName":"EQUANS","maxPowerKw":11,"isMegawatt":false,"status":"CHARGING","source":"ndw"}},{"type":"Feature","geometry":{"type":"Point","coordinates":[4.676355,51.985129]},"properties":{"type":"charge","layer":"passenger","locationId":"90202780","name":"EQUANS SGZH 2.0 Kranepoort 22","address":"Kranepoort 22","city":"Gouderak","operatorName":"EQUANS","maxPowerKw":11,"isMegawatt":false,"status":"AVAILABLE","source":"ndw"}},{"type":"Feature","geometry":{"type":"Point","coordinates":[4.790347,52.004945]},"properties":{"type":"charge","layer":"passenger","locationId":"67c9c415b180e693678602b2","name":"Aantjes BV - elektrisch laden","address":"Provincialeweg oost 107b","city":"Haastrecht","operatorName":"E-Flux by Road","maxPowerKw":22,"isMegawatt":false,"status":"AVAILABLE","source":"ndw","priceKwh":0.53}},{"type":"Feature","geometry":{"type":"Point","coordinates":[4.627473,51.894219]},"properties":{"type":"charge","layer":"passenger","locationId":"89624341","name":"EQUANS SGZH 2.0 De Eendracht 1 c","address":"De Eendracht 1 c","city":"Krimpen aan de Lek","operatorName":"EQUANS","maxPowerKw":11,"isMegawatt":false,"status":"AVAILABLE","source":"ndw"}},{"type":"Feature","geometry":{"type":"Point","coordinates":[4.868153,51.950592]},"properties":{"type":"charge","layer":"passenger","locationId":"6333ffe573fc28a5c59f4c41","name":"Laadpaal 5","address":"Opaalstraat 2","city":"Schoonhoven","operatorName":"E-Flux by Road","maxPowerKw":22,"isMegawatt":false,"status":"UNAVAILABLE","source":"ndw","priceKwh":0.58}},{"type":"Feature","geometry":{"type":"Point","coordinates":[4.840705,51.947552]},"properties":{"type":"charge","layer":"passenger","locationId":"90248539","name":"EQUANS SGZH 2.0 Lafontainepad 40","address":"Lafontainepad 40","city":"Schoonhoven","operatorName":"EQUANS","maxPowerKw":11,"isMegawatt":false,"status":"AVAILABLE","source":"ndw"}},{"type":"Feature","geometry":{"type":"Point","coordinates":[4.783527,51.93541]},"properties":{"type":"charge","layer":"passenger","locationId":"NLLOC002086","name":"NLD, Bergambacht, Pleinstraat 1","address":"Pleinstraat 1","city":"Bergambacht","operatorName":"Allego","maxPowerKw":11,"isMegawatt":false,"status":"UNAVAILABLE","source":"ndw","priceKwh":0.511}},{"type":"Feature","geometry":{"type":"Point","coordinates":[4.6801,51.90122]},"properties":{"type":"charge","layer":"passenger","locationId":"90992157","name":"EQUANS SGZH 2.0 Groen van Prinsterersingel 16","address":"Groen van Prinsterersingel 16","city":"Lekkerkerk","operatorName":"EQUANS","maxPowerKw":11,"isMegawatt":false,"status":"AVAILABLE","source":"ndw"}},{"type":"Feature","geometry":{"type":"Point","coordinates":[4.691208,51.900958]},"properties":{"type":"charge","layer":"passenger","locationId":"68b8415ef562e4775999c0a7","name":"Station zaak 1","address":"Luijtenstraat  30","city":"Lekkerkerk","operatorName":"Lanova Laadpalen","maxPowerKw":11,"isMegawatt":false,"status":"AVAILABLE","source":"ndw","priceKwh":0.33}},{"type":"Feature","geometry":{"type":"Point","coordinates":[4.83809,51.947342]},"properties":{"type":"charge","layer":"passenger","locationId":"91141487","name":"EQUANS SGZH 2.0 Albert Schweitzerlaan 23","address":"Albert Schweitzerlaan 23","city":"Schoonhoven","operatorName":"EQUANS","maxPowerKw":11,"isMegawatt":false,"status":"AVAILABLE","source":"ndw"}},{"type":"Feature","geometry":{"type":"Point","coordinates":[4.775595,52.001048]},"properties":{"type":"charge","layer":"passenger","locationId":"90822424","name":"EQUANS SGZH 2.0 Kleine Haven 3 A","address":"Kleine Haven 3 A","city":"Haastrecht","operatorName":"EQUANS","maxPowerKw":11,"isMegawatt":false,"status":"AVAILABLE","source":"ndw"}},{"type":"Feature","geometry":{"type":"Point","coordinates":[4.769744,51.971906]},"properties":{"type":"charge","layer":"passenger","locationId":"NLLOC004236","name":"NLD Populierenlaan 17, 2821 BA Stolwijk","address":"Populierenlaan 17","city":"Stolwijk","operatorName":"Allego","maxPowerKw":11,"isMegawatt":false,"status":"AVAILABLE","source":"ndw","priceKwh":0.511}},{"type":"Feature","geometry":{"type":"Point","coordinates":[4.675448,51.984229]},"properties":{"type":"charge","layer":"passenger","locationId":"NLLOC002089","name":"NLD, Gouderak, Karel Doormanlaan 27","address":"Karel Doormanlaan 27","city":"Gouderak","operatorName":"Allego","maxPowerKw":11,"isMegawatt":false,"status":"AVAILABLE","source":"ndw","priceKwh":0.511}},{"type":"Feature","geometry":{"type":"Point","coordinates":[4.687625,51.900095]},"properties":{"type":"charge","layer":"passenger","locationId":"90291089","name":"EQUANS SGZH 2.0 Koninginneweg 66","address":"Koninginneweg 66","city":"Lekkerkerk","operatorName":"EQUANS","maxPowerKw":11,"isMegawatt":false,"status":"CHARGING","source":"ndw"}},{"type":"Feature","geometry":{"type":"Point","coordinates":[4.6323,51.934007]},"properties":{"type":"charge","layer":"passenger","locationId":"NLLOC003924","name":"NLD Bakwetering 8, 2935 SC Ouderkerk aan den IJssel","address":"Bakwetering 8","city":"Ouderkerk aan den IJssel","operatorName":"Allego","maxPowerKw":11,"isMegawatt":false,"status":"AVAILABLE","source":"ndw","priceKwh":0.511}},{"type":"Feature","geometry":{"type":"Point","coordinates":[4.868671,51.944868]},"properties":{"type":"charge","layer":"passenger","locationId":"NLLOC016778","name":"NL, Waterviolier 9, 2871NZ, Schoonhoven","address":"Waterviolier 9","city":"Schoonhoven","operatorName":"Allego","maxPowerKw":11,"isMegawatt":false,"status":"AVAILABLE","source":"ndw","priceKwh":0.511}},{"type":"Feature","geometry":{"type":"Point","coordinates":[4.68744,51.90457]},"properties":{"type":"charge","layer":"passenger","locationId":"91012713","name":"EQUANS SGZH 2.0 Patrijspad 4","address":"Patrijspad 4","city":"Lekkerkerk","operatorName":"EQUANS","maxPowerKw":11,"isMegawatt":false,"status":"AVAILABLE","source":"ndw"}},{"type":"Feature","geometry":{"type":"Point","coordinates":[4.706627,51.945473]},"properties":{"type":"charge","layer":"passenger","locationId":"NLLOC002867","name":"NLD, Koningin Julianastraat 39, 2825BJ Berkenwoude","address":"Koningin Julianastraat 39","city":"Berkenwoude","operatorName":"Allego","maxPowerKw":11,"isMegawatt":false,"status":"AVAILABLE","source":"ndw","priceKwh":0.511}},{"type":"Feature","geometry":{"type":"Point","coordinates":[4.793858,51.934924]},"properties":{"type":"charge","layer":"passenger","locationId":"89329970","name":"EQUANS SGZH 2.0 89329970","address":"Godevaertshoef 30","city":"Bergambacht","operatorName":"EQUANS","maxPowerKw":17,"isMegawatt":false,"status":"CHARGING","source":"ndw"}},{"type":"Feature","geometry":{"type":"Point","coordinates":[4.845608,51.949536]},"properties":{"type":"charge","layer":"passenger","locationId":"NLLOC002821","name":"NLD, Waagmeestersstraat 1, 2871 GK Schoonhoven","address":"Waagmeesterstraat 1","city":"Schoonhoven","operatorName":"Allego","maxPowerKw":11,"isMegawatt":false,"status":"AVAILABLE","source":"ndw","priceKwh":0.511}},{"type":"Feature","geometry":{"type":"Point","coordinates":[4.770895,51.975345]},"properties":{"type":"charge","layer":"passenger","locationId":"89332819","name":"EQUANS SGZH 2.0 89332819","address":"Bilwijkerweg 41","city":"Stolwijk","operatorName":"EQUANS","maxPowerKw":17,"isMegawatt":false,"status":"CHARGING","source":"ndw"}},{"type":"Feature","geometry":{"type":"Point","coordinates":[4.644159,51.967077]},"properties":{"type":"charge","layer":"passenger","locationId":"611e279d85128595f3a84937","name":"Lageweg 39, Ouderkerk aan den IJssel (Privé)","address":"Lageweg 39,","city":"Ouderkerk aan den IJssel","operatorName":"E-Flux by Road","maxPowerKw":11,"isMegawatt":false,"status":"AVAILABLE","source":"ndw","priceKwh":0.31}},{"type":"Feature","geometry":{"type":"Point","coordinates":[4.871753,51.94949]},"properties":{"type":"charge","layer":"passenger","locationId":"89972650","name":"EQUANS SGZH 2.0 Bergeendstraat 12","address":"Bergeendstraat 12","city":"Schoonhoven","operatorName":"EQUANS","maxPowerKw":11,"isMegawatt":false,"status":"AVAILABLE","source":"ndw"}},{"type":"Feature","geometry":{"type":"Point","coordinates":[4.624077,51.897037]},"properties":{"type":"charge","layer":"passenger","locationId":"89190179","name":"EQUANS SGZH 2.0 89190179","address":"Florastraat 66","city":"Krimpen aan de Lek","operatorName":"EQUANS","maxPowerKw":17,"isMegawatt":false,"status":"AVAILABLE","source":"ndw"}},{"type":"Feature","geometry":{"type":"Point","coordinates":[4.815496,52.013006]},"properties":{"type":"charge","layer":"passenger","locationId":"2701370","name":"Laadnet De Samenwerking - W.P. Harting","address":"Provincialeweg Oost 34A","city":"Haastrecht","operatorName":"Laadnet","maxPowerKw":22,"isMegawatt":false,"status":"AVAILABLE","source":"ndw"}},{"type":"Feature","geometry":{"type":"Point","coordinates":[4.78075,51.99799]},"properties":{"type":"charge","layer":"passenger","locationId":"91036752","name":"EQUANS SGZH 2.0 Julianalaan 36","address":"Julianalaan 36","city":"Haastrecht","operatorName":"EQUANS","maxPowerKw":11,"isMegawatt":false,"status":"AVAILABLE","source":"ndw"}},{"type":"Feature","geometry":{"type":"Point","coordinates":[4.688656,51.903513]},"properties":{"type":"charge","layer":"passenger","locationId":"89459886","name":"EQUANS SGZH 2.0 89459886","address":"Fazantstraat 15","city":"Lekkerkerk","operatorName":"EQUANS","maxPowerKw":11,"isMegawatt":false,"status":"AVAILABLE","source":"ndw"}},{"type":"Feature","geometry":{"type":"Point","coordinates":[4.768055,51.974807]},"properties":{"type":"charge","layer":"passenger","locationId":"89968075","name":"EQUANS SGZH 2.0 Rembrandtlaan 23","address":"Rembrandtlaan 23","city":"Stolwijk","operatorName":"EQUANS","maxPowerKw":11,"isMegawatt":false,"status":"AVAILABLE","source":"ndw"}},{"type":"Feature","geometry":{"type":"Point","coordinates":[4.87163,51.946868]},"properties":{"type":"charge","layer":"passenger","locationId":"NLLOC004231","name":"NLD Kolibrie 2, 2872 AP Schoonhoven","address":"Kolibrie 2","city":"Schoohoven","operatorName":"Allego","maxPowerKw":11,"isMegawatt":false,"status":"AVAILABLE","source":"ndw","priceKwh":0.511}},{"type":"Feature","geometry":{"type":"Point","coordinates":[4.792603,51.934102]},"properties":{"type":"charge","layer":"passenger","locationId":"89295725","name":"EQUANS SGZH 2.0 Linde 9","address":"Linde 9","city":"Bergambacht","operatorName":"EQUANS","maxPowerKw":17,"isMegawatt":false,"status":"AVAILABLE","source":"ndw"}},{"type":"Feature","geometry":{"type":"Point","coordinates":[4.627533,51.895726]},"properties":{"type":"charge","layer":"passenger","locationId":"89344607","name":"EQUANS SGZH 2.0 89344607","address":"Klein Profijt 1","city":"Krimpen aan de Lek","operatorName":"EQUANS","maxPowerKw":11,"isMegawatt":false,"status":"AVAILABLE","source":"ndw"}},{"type":"Feature","geometry":{"type":"Point","coordinates":[4.68734,51.90011]},"properties":{"type":"charge","layer":"passenger","locationId":"NLLOC011487","name":"NL, Koninginneweg 54a, 2941 XK Lekkerkerk","address":"Koninginneweg 54a","city":"Lekkerkerk","operatorName":"Allego","maxPowerKw":11,"isMegawatt":false,"status":"AVAILABLE","source":"ndw","priceKwh":0.511}},{"type":"Feature","geometry":{"type":"Point","coordinates":[4.851502,51.94483]},"properties":{"type":"charge","layer":"passenger","locationId":"611e27798512856ea3a84935","name":"Haven 34, Schoonhoven","address":"Haven 34,","city":"Schoonhoven","operatorName":"E-Flux by Road","maxPowerKw":14,"isMegawatt":false,"status":"CHARGING","source":"ndw","priceKwh":0.31}},{"type":"Feature","geometry":{"type":"Point","coordinates":[4.812088,51.930717]},"properties":{"type":"charge","layer":"passenger","locationId":"89344646","name":"EQUANS SGZH 2.0 89344646","address":"Aan de Griendsloot 52","city":"Ammerstol","operatorName":"EQUANS","maxPowerKw":17,"isMegawatt":false,"status":"AVAILABLE","source":"ndw"}},{"type":"Feature","geometry":{"type":"Point","coordinates":[4.782006,51.927748]},"properties":{"type":"charge","layer":"passenger","locationId":"NLLOC003149","name":"NLD Hoektoren 2, 2861DL Bergambacht","address":"Hoektoren 2","city":"Bergambacht","operatorName":"Allego","maxPowerKw":11,"isMegawatt":false,"status":"AVAILABLE","source":"ndw","priceKwh":0.511}},{"type":"Feature","geometry":{"type":"Point","coordinates":[4.636103,51.89728]},"properties":{"type":"charge","layer":"passenger","locationId":"90266717","name":"EQUANS SGZH 2.0 Neptunushof 43","address":"Neptunushof 43","city":"Krimpen aan de Lek","operatorName":"EQUANS","maxPowerKw":11,"isMegawatt":false,"status":"AVAILABLE","source":"ndw"}},{"type":"Feature","geometry":{"type":"Point","coordinates":[4.642292,51.928331]},"properties":{"type":"charge","layer":"passenger","locationId":"NLLOC014850","name":"NL, Geerlaan 6, 2935 RA Ouderkerk aan den IJssel","address":"Geerlaan 6","city":"Oudekerk aan den IJssel","operatorName":"Allego","maxPowerKw":11,"isMegawatt":false,"status":"AVAILABLE","source":"ndw","priceKwh":0.511}},{"type":"Feature","geometry":{"type":"Point","coordinates":[4.840619,51.954609]},"properties":{"type":"charge","layer":"passenger","locationId":"90279223","name":"EQUANS SGZH 2.0 Bergambachterstraat 22","address":"Bergambachterstraat 22","city":"Schoonhoven","operatorName":"EQUANS","maxPowerKw":11,"isMegawatt":false,"status":"AVAILABLE","source":"ndw"}},{"type":"Feature","geometry":{"type":"Point","coordinates":[4.77671,52.002258]},"properties":{"type":"charge","layer":"passenger","locationId":"NLLOC009137","name":"NL, Hoogstraat 80, 2851BH, Haastrecht","address":"Hoogstraat 80","city":"Haastrecht","operatorName":"Allego","maxPowerKw":11,"isMegawatt":false,"status":"AVAILABLE","source":"ndw","priceKwh":0.511}},{"type":"Feature","geometry":{"type":"Point","coordinates":[4.802929,51.925055]},"properties":{"type":"charge","layer":"passenger","locationId":"89307488","name":"EQUANS SGZH 2.0 89307488","address":"Lekdijk 22","city":"Ammerstol","operatorName":"EQUANS","maxPowerKw":17,"isMegawatt":false,"status":"AVAILABLE","source":"ndw"}},{"type":"Feature","geometry":{"type":"Point","coordinates":[4.861518,51.947493]},"properties":{"type":"charge","layer":"passenger","locationId":"89921138","name":"EQUANS SGZH 2.0 89921138","address":"Achterwetering 2 a","city":"Schoonhoven","operatorName":"EQUANS","maxPowerKw":11,"isMegawatt":false,"status":"AVAILABLE","source":"ndw"}},{"type":"Feature","geometry":{"type":"Point","coordinates":[4.685045,51.896873]},"properties":{"type":"charge","layer":"passenger","locationId":"NLLOC001948","name":"NLD, Lekkerkerk, Burg van de Willigenstraat 58","address":"Burg van de Willigenstraat 58","city":"Lekkerkerk","operatorName":"Allego","maxPowerKw":11,"isMegawatt":false,"status":"AVAILABLE","source":"ndw","priceKwh":0.511}},{"type":"Feature","geometry":{"type":"Point","coordinates":[4.70695,51.946184]},"properties":{"type":"charge","layer":"passenger","locationId":"89185481","name":"EQUANS SGZH 2.0 Westeinde 10","address":"Westeinde 10","city":"Berkenwoude","operatorName":"EQUANS","maxPowerKw":17,"isMegawatt":false,"status":"AVAILABLE","source":"ndw"}},{"type":"Feature","geometry":{"type":"Point","coordinates":[4.68877,51.90556]},"properties":{"type":"charge","layer":"passenger","locationId":"91011888","name":"EQUANS SGZH 2.0 Reigerlaan 2","address":"Reigerlaan 2","city":"Lekkerkerk","operatorName":"EQUANS","maxPowerKw":11,"isMegawatt":false,"status":"AVAILABLE","source":"ndw"}},{"type":"Feature","geometry":{"type":"Point","coordinates":[4.848124,51.944798]},"properties":{"type":"charge","layer":"passenger","locationId":"NLLOC003973","name":"NLD, Olivier van Noortplein 16, 2871 SR Schoonhoven","address":"Olivier van Noortplein 16","city":"Schoonhoven","operatorName":"Allego","maxPowerKw":11,"isMegawatt":false,"status":"CHARGING","source":"ndw","priceKwh":0.511}},{"type":"Feature","geometry":{"type":"Point","coordinates":[4.855224,51.946554]},"properties":{"type":"charge","layer":"passenger","locationId":"NLLOC002206","name":"NLD Wal 34, 2871 BC Schoonhoven","address":"Wal 34","city":"Schoonhoven","operatorName":"Allego","maxPowerKw":11,"isMegawatt":false,"status":"AVAILABLE","source":"ndw","priceKwh":0.511}},{"type":"Feature","geometry":{"type":"Point","coordinates":[4.785411,51.935905]},"properties":{"type":"charge","layer":"passenger","locationId":"90121687","name":"EQUANS SGZH 2.0 Jasmijnstraat 3","address":"Jasmijnstraat 3","city":"Bergambacht","operatorName":"EQUANS","maxPowerKw":11,"isMegawatt":false,"status":"AVAILABLE","source":"ndw"}},{"type":"Feature","geometry":{"type":"Point","coordinates":[4.67588,51.8964]},"properties":{"type":"charge","layer":"passenger","locationId":"90961299","name":"EQUANS SGZH 2.0 Molenwerf 42","address":"Molenwerf 42","city":"Lekkerkerk","operatorName":"EQUANS","maxPowerKw":11,"isMegawatt":false,"status":"AVAILABLE","source":"ndw"}},{"type":"Feature","geometry":{"type":"Point","coordinates":[4.847396,51.947558]},"properties":{"type":"charge","layer":"passenger","locationId":"NLLOC005668","name":"NLD Spoorstraat 56, 2871 TP Schoonhoven","address":"Spoorstraat 56","city":"Schoonhoven","operatorName":"Allego","maxPowerKw":11,"isMegawatt":false,"status":"AVAILABLE","source":"ndw","priceKwh":0.511}},{"type":"Feature","geometry":{"type":"Point","coordinates":[4.692169,51.898204]},"properties":{"type":"charge","layer":"passenger","locationId":"NLLOC001949","name":"NLD, Lekkerkerk, Jan Tomstraat 4","address":"Jan Tomstraat 4","city":"Lekkerkerk","operatorName":"Allego","maxPowerKw":11,"isMegawatt":false,"status":"AVAILABLE","source":"ndw","priceKwh":0.511}},{"type":"Feature","geometry":{"type":"Point","coordinates":[4.76574,51.97721]},"properties":{"type":"charge","layer":"passenger","locationId":"91036754","name":"EQUANS SGZH 2.0 Begoniastraat 1","address":"Begoniastraat 1","city":"Stolwijk","operatorName":"EQUANS","maxPowerKw":11,"isMegawatt":false,"status":"AVAILABLE","source":"ndw"}},{"type":"Feature","geometry":{"type":"Point","coordinates":[4.676336,51.895766]},"properties":{"type":"charge","layer":"passenger","locationId":"NLLOC004384","name":"NLD Molenwerf 52, 2941 TE Lekkerkerk","address":"Molenwerf 52","city":"Lekkerkerk","operatorName":"Allego","maxPowerKw":11,"isMegawatt":false,"status":"AVAILABLE","source":"ndw","priceKwh":0.511}},{"type":"Feature","geometry":{"type":"Point","coordinates":[4.638527,51.966116]},"properties":{"type":"charge","layer":"passenger","locationId":"NLLOC011619","name":"NL, Kaaswetering 1, 2935 CZ, Ouderkerk aan den IJssel","address":"Kaaswetering 1","city":"Ouderkerk aan den IJssel","operatorName":"Allego","maxPowerKw":11,"isMegawatt":false,"status":"AVAILABLE","source":"ndw","priceKwh":0.511}},{"type":"Feature","geometry":{"type":"Point","coordinates":[4.685496,51.899914]},"properties":{"type":"charge","layer":"passenger","locationId":"90386348","name":"EQUANS SGZH 2.0 Touwbaan 51","address":"Touwbaan 51","city":"Lekkerkerk","operatorName":"EQUANS","maxPowerKw":11,"isMegawatt":false,"status":"AVAILABLE","source":"ndw"}},{"type":"Feature","geometry":{"type":"Point","coordinates":[4.674234,51.985633]},"properties":{"type":"charge","layer":"passenger","locationId":"91141172","name":"EQUANS SGZH 2.0 Zellingkade 1","address":"Zellingkade 1","city":"Gouderak","operatorName":"EQUANS","maxPowerKw":11,"isMegawatt":false,"status":"AVAILABLE","source":"ndw"}},{"type":"Feature","geometry":{"type":"Point","coordinates":[4.841627,51.950932]},"properties":{"type":"charge","layer":"passenger","locationId":"89927141","name":"EQUANS SGZH 2.0 89927141","address":"Tinbergenlaan 41","city":"Schoonhoven","operatorName":"EQUANS","maxPowerKw":11,"isMegawatt":false,"status":"AVAILABLE","source":"ndw"}},{"type":"Feature","geometry":{"type":"Point","coordinates":[4.775819,51.99973]},"properties":{"type":"charge","layer":"passenger","locationId":"NLLOC010258","name":"NL, Concordiaplein 1, 2851 VV, Haastrecht","address":"Concordiaplein 1","city":"Haastrecht","operatorName":"Allego","maxPowerKw":11,"isMegawatt":false,"status":"AVAILABLE","source":"ndw","priceKwh":0.511}},{"type":"Feature","geometry":{"type":"Point","coordinates":[4.775685,51.999316]},"properties":{"type":"charge","layer":"passenger","locationId":"90279191","name":"EQUANS SGZH 2.0 Bredeweg 21","address":"Bredeweg 21","city":"Haastrecht","operatorName":"EQUANS","maxPowerKw":11,"isMegawatt":false,"status":"AVAILABLE","source":"ndw"}},{"type":"Feature","geometry":{"type":"Point","coordinates":[4.767609,51.977259]},"properties":{"type":"charge","layer":"passenger","locationId":"89187792","name":"EQUANS SGZH 2.0 89187792","address":"Azaleastraat 12","city":"Stolwijk","operatorName":"EQUANS","maxPowerKw":17,"isMegawatt":false,"status":"AVAILABLE","source":"ndw"}},{"type":"Feature","geometry":{"type":"Point","coordinates":[4.869743,51.944304]},"properties":{"type":"charge","layer":"passenger","locationId":"89258247","name":"EQUANS SGZH 2.0 89258247","address":"Zonnedauw 41","city":"Schoonhoven","operatorName":"EQUANS","maxPowerKw":11,"isMegawatt":false,"status":"AVAILABLE","source":"ndw"}},{"type":"Feature","geometry":{"type":"Point","coordinates":[4.87135,51.94785]},"properties":{"type":"charge","layer":"passenger","locationId":"89258293","name":"EQUANS SGZH 2.0 89258293","address":"Gruttostraat 45","city":"Schoonhoven","operatorName":"EQUANS","maxPowerKw":17,"isMegawatt":false,"status":"AVAILABLE","source":"ndw"}},{"type":"Feature","geometry":{"type":"Point","coordinates":[4.707173,51.94795]},"properties":{"type":"charge","layer":"passenger","locationId":"NLLOC003261","name":"NLD Dreef 71 2825 AN Berkenwoude","address":"Dreef 71","city":"Berkenwoude","operatorName":"Allego","maxPowerKw":11,"isMegawatt":false,"status":"AVAILABLE","source":"ndw","priceKwh":0.511}},{"type":"Feature","geometry":{"type":"Point","coordinates":[4.777839,52.003624]},"properties":{"type":"charge","layer":"passenger","locationId":"NLLOC011241","name":"NL, Duanantstraat 85, 2851 BX Haastrecht","address":"Dunantstraat 85","city":"Haastrecht","operatorName":"Allego","maxPowerKw":11,"isMegawatt":false,"status":"AVAILABLE","source":"ndw","priceKwh":0.511}},{"type":"Feature","geometry":{"type":"Point","coordinates":[4.842311,51.954776]},"properties":{"type":"charge","layer":"passenger","locationId":"NLLOC016998","name":"NL, Galvanistraat, 59, 2871XB, Schoonhoven","address":"Galvanistraat 59","city":"Schoonhoven","operatorName":"Allego","maxPowerKw":11,"isMegawatt":false,"status":"AVAILABLE","source":"ndw","priceKwh":0.511}},{"type":"Feature","geometry":{"type":"Point","coordinates":[4.686272,51.902439]},"properties":{"type":"charge","layer":"passenger","locationId":"89187789","name":"EQUANS SGZH 2.0 89187789","address":"Prinsesseweg 31","city":"Lekkerkerk","operatorName":"EQUANS","maxPowerKw":17,"isMegawatt":false,"status":"AVAILABLE","source":"ndw"}},{"type":"Feature","geometry":{"type":"Point","coordinates":[4.768014,51.978428]},"properties":{"type":"charge","layer":"passenger","locationId":"90832008","name":"EQUANS SGZH 2.0 Rietgors 56","address":"Rietgors 56","city":"Stolwijk","operatorName":"EQUANS","maxPowerKw":11,"isMegawatt":false,"status":"AVAILABLE","source":"ndw"}},{"type":"Feature","geometry":{"type":"Point","coordinates":[4.870827,51.948937]},"properties":{"type":"charge","layer":"passenger","locationId":"NLLOC004901","name":"NLD Eksterstraat 30, 2872 AH Schoonhoven","address":"Eksterstraat 30","city":"Schoonhoven","operatorName":"Allego","maxPowerKw":11,"isMegawatt":false,"status":"AVAILABLE","source":"ndw","priceKwh":0.511}},{"type":"Feature","geometry":{"type":"Point","coordinates":[4.680782,51.984883]},"properties":{"type":"charge","layer":"passenger","locationId":"NLLOC006876","name":"NL, Pijlkruid 2, 2831 VN, Gouderak","address":"Pijlkruid 2","city":"Gouderak","operatorName":"Allego","maxPowerKw":11,"isMegawatt":false,"status":"UNAVAILABLE","source":"ndw","priceKwh":0.511}},{"type":"Feature","geometry":{"type":"Point","coordinates":[4.847805,51.946276]},"properties":{"type":"charge","layer":"passenger","locationId":"90279220","name":"EQUANS SGZH 2.0 Jacoba van Beierenstraat 8","address":"Jacoba van Beierenstraat 8","city":"Schoonhoven","operatorName":"EQUANS","maxPowerKw":11,"isMegawatt":false,"status":"AVAILABLE","source":"ndw"}},{"type":"Feature","geometry":{"type":"Point","coordinates":[4.872879,51.947905]},"properties":{"type":"charge","layer":"passenger","locationId":"89332816","name":"EQUANS SGZH 2.0 89332816","address":"Merellaan 41","city":"Schoonhoven","operatorName":"EQUANS","maxPowerKw":17,"isMegawatt":false,"status":"AVAILABLE","source":"ndw"}},{"type":"Feature","geometry":{"type":"Point","coordinates":[4.781109,51.934919]},"properties":{"type":"charge","layer":"passenger","locationId":"89344620","name":"EQUANS SGZH 2.0 89344620","address":"Burgemeester Huijbrechtstraat 11","city":"Bergambacht","operatorName":"EQUANS","maxPowerKw":11,"isMegawatt":false,"status":"CHARGING","source":"ndw"}},{"type":"Feature","geometry":{"type":"Point","coordinates":[4.628401,51.901075]},"properties":{"type":"charge","layer":"passenger","locationId":"NLLOC002755","name":"NLD, Noordwester 1, 2931PH Krimpen aan de Lek","address":"Noordwester 1","city":"Krimpen aan de Lek","operatorName":"Allego","maxPowerKw":11,"isMegawatt":false,"status":"AVAILABLE","source":"ndw","priceKwh":0.511}},{"type":"Feature","geometry":{"type":"Point","coordinates":[4.630224,51.894448]},"properties":{"type":"charge","layer":"passenger","locationId":"NLLOC003516","name":"NLD De Markt 311, 2931 EC Krimpen aan de Lek","address":"De Markt 311","city":"Krimpen aan de Lek","operatorName":"Allego","maxPowerKw":11,"isMegawatt":false,"status":"AVAILABLE","source":"ndw","priceKwh":0.511}},{"type":"Feature","geometry":{"type":"Point","coordinates":[4.6237,51.89299]},"properties":{"type":"charge","layer":"passenger","locationId":"91387365","name":"EQUANS SGZH 2.0 Schoolstraat 22","address":"Schoolstraat 22","city":"Krimpen aan de Lek","operatorName":"EQUANS","maxPowerKw":11,"isMegawatt":false,"status":"AVAILABLE","source":"ndw"}},{"type":"Feature","geometry":{"type":"Point","coordinates":[4.778721,51.969454]},"properties":{"type":"charge","layer":"passenger","locationId":"89968078","name":"EQUANS SGZH 2.0 Waterland 23","address":"Waterland 23","city":"Stolwijk","operatorName":"EQUANS","maxPowerKw":11,"isMegawatt":false,"status":"AVAILABLE","source":"ndw"}},{"type":"Feature","geometry":{"type":"Point","coordinates":[4.640498,51.966345]},"properties":{"type":"charge","layer":"passenger","locationId":"89344660","name":"EQUANS SGZH 2.0 89344660","address":"Hoge Molenwerf 24","city":"Ouderkerk aan den IJssel","operatorName":"EQUANS","maxPowerKw":17,"isMegawatt":false,"status":"CHARGING","source":"ndw"}},{"type":"Feature","geometry":{"type":"Point","coordinates":[4.626594,51.897296]},"properties":{"type":"charge","layer":"passenger","locationId":"90822426","name":"EQUANS SGZH 2.0 Schepenstraat 15","address":"Schepenstraat 15","city":"Krimpen aan de Lek","operatorName":"EQUANS","maxPowerKw":11,"isMegawatt":false,"status":"AVAILABLE","source":"ndw"}},{"type":"Feature","geometry":{"type":"Point","coordinates":[4.782439,51.927777]},"properties":{"type":"charge","layer":"passenger","locationId":"NLLOC008413","name":"NL, Traverse 42, 2861 HC Bergambacht","address":"Traverse 42","city":"Bergambacht","operatorName":"Allego","maxPowerKw":11,"isMegawatt":false,"status":"AVAILABLE","source":"ndw","priceKwh":0.511}},{"type":"Feature","geometry":{"type":"Point","coordinates":[4.766904,51.974004]},"properties":{"type":"charge","layer":"passenger","locationId":"NLLOC010121","name":"NL, Buitenom 58, 2821BN, Stolwijk","address":"Buitenom 58","city":"Stolwijk","operatorName":"Allego","maxPowerKw":11,"isMegawatt":false,"status":"AVAILABLE","source":"ndw","priceKwh":0.511}},{"type":"Feature","geometry":{"type":"Point","coordinates":[4.633981,51.897659]},"properties":{"type":"charge","layer":"passenger","locationId":"89396926","name":"EQUANS SGZH 2.0 89396926","address":"Maasstraat 1","city":"Krimpen aan de Lek","operatorName":"EQUANS","maxPowerKw":17,"isMegawatt":false,"status":"AVAILABLE","source":"ndw"}},{"type":"Feature","geometry":{"type":"Point","coordinates":[4.677597,51.983303]},"properties":{"type":"charge","layer":"passenger","locationId":"90066823","name":"EQUANS SGZH 2.0 Beemd 15","address":"Beemd 15","city":"Gouderak","operatorName":"EQUANS","maxPowerKw":11,"isMegawatt":false,"status":"AVAILABLE","source":"ndw"}},{"type":"Feature","geometry":{"type":"Point","coordinates":[4.67945,51.895674]},"properties":{"type":"charge","layer":"passenger","locationId":"89235324","name":"EQUANS SGZH 2.0 89235324","address":"Nicolaas Beetsstraat 403","city":"Lekkerkerk","operatorName":"EQUANS","maxPowerKw":11,"isMegawatt":false,"status":"AVAILABLE","source":"ndw"}},{"type":"Feature","geometry":{"type":"Point","coordinates":[4.863507,51.945279]},"properties":{"type":"charge","layer":"passenger","locationId":"89620696","name":"EQUANS SGZH 2.0 Iepenpad 24 (t.h.v. Meidoornpad)","address":"Iepenpad 24","city":"Schoonhoven","operatorName":"EQUANS","maxPowerKw":11,"isMegawatt":false,"status":"AVAILABLE","source":"ndw"}},{"type":"Feature","geometry":{"type":"Point","coordinates":[4.850772,51.948112]},"properties":{"type":"charge","layer":"passenger","locationId":"89620839","name":"EQUANS SGZH 2.0 89620839","address":"Uitdragersstraat 9","city":"Schoonhoven","operatorName":"EQUANS","maxPowerKw":11,"isMegawatt":false,"status":"AVAILABLE","source":"ndw"}},{"type":"Feature","geometry":{"type":"Point","coordinates":[4.639203,51.929728]},"properties":{"type":"charge","layer":"passenger","locationId":"90823797","name":"EQUANS SGZH 2.0 Zwaluwhof 11","address":"Zwaluwhof 11","city":"Ouderkerk aan den IJssel","operatorName":"EQUANS","maxPowerKw":11,"isMegawatt":false,"status":"AVAILABLE","source":"ndw"}},{"type":"Feature","geometry":{"type":"Point","coordinates":[4.786911,51.934713]},"properties":{"type":"charge","layer":"passenger","locationId":"89332817","name":"EQUANS SGZH 2.0 89332817","address":"Boomgaard 7","city":"Bergambacht","operatorName":"EQUANS","maxPowerKw":17,"isMegawatt":false,"status":"AVAILABLE","source":"ndw"}},{"type":"Feature","geometry":{"type":"Point","coordinates":[4.825634,51.942164]},"properties":{"type":"charge","layer":"passenger","locationId":"922907","name":"Parking","address":"Provincialeweg 16","city":"Bergambacht","operatorName":"DAEN Mobility","maxPowerKw":11,"isMegawatt":false,"status":"AVAILABLE","source":"ndw","priceKwh":1.5}},{"type":"Feature","geometry":{"type":"Point","coordinates":[4.68022,51.8992]},"properties":{"type":"charge","layer":"passenger","locationId":"91012718","name":"EQUANS SGZH 2.0 Vincent van Goghstraat 23","address":"Vincent van Goghstraat 23","city":"Lekkerkerk","operatorName":"EQUANS","maxPowerKw":11,"isMegawatt":false,"status":"AVAILABLE","source":"ndw"}},{"type":"Feature","geometry":{"type":"Point","coordinates":[4.676092,51.986805]},"properties":{"type":"charge","layer":"passenger","locationId":"89601971","name":"EQUANS SGZH 2.0 89601971","address":"Havenhoofd 3","city":"Gouderak","operatorName":"EQUANS","maxPowerKw":11,"isMegawatt":false,"status":"CHARGING","source":"ndw"}},{"type":"Feature","geometry":{"type":"Point","coordinates":[4.623766,51.895659]},"properties":{"type":"charge","layer":"passenger","locationId":"NLLOC002208","name":"NLD, Krimpen aan de Lek, Kamillestraat 1","address":"Kamillestraat 1","city":"Krimpen aan de Lek","operatorName":"Allego","maxPowerKw":11,"isMegawatt":false,"status":"CHARGING","source":"ndw","priceKwh":0.511}},{"type":"Feature","geometry":{"type":"Point","coordinates":[4.675232,51.986209]},"properties":{"type":"charge","layer":"passenger","locationId":"NLLOC003739","name":"NLD Zellingkade 21, 2831 BA Gouderak","address":"Zellingkade 21","city":"Gouderak","operatorName":"Allego","maxPowerKw":11,"isMegawatt":false,"status":"CHARGING","source":"ndw","priceKwh":0.511}},{"type":"Feature","geometry":{"type":"Point","coordinates":[4.628417,51.892115]},"properties":{"type":"charge","layer":"passenger","locationId":"90020636","name":"EQUANS SGZH 2.0 Hoofdstraat 1","address":"Hoofdstraat 1","city":"Krimpen aan de Lek","operatorName":"EQUANS","maxPowerKw":11,"isMegawatt":false,"status":"AVAILABLE","source":"ndw"}},{"type":"Feature","geometry":{"type":"Point","coordinates":[4.86288,51.94743]},"properties":{"type":"charge","layer":"passenger","locationId":"AB423FAF-885F-4185-BC1C-9FBF04291CC1","name":"Eneco eMobility Slootweg 2 Schoonhoven","address":"Slootweg 2","city":"Schoonhoven","operatorName":"Eneco","maxPowerKw":22,"isMegawatt":false,"status":"AVAILABLE","source":"ndw","priceKwh":0.32}},{"type":"Feature","geometry":{"type":"Point","coordinates":[4.839111,51.954464]},"properties":{"type":"charge","layer":"passenger","locationId":"89490590","name":"EQUANS SGZH 2.0 89490590","address":"Voltastraat 116","city":"Schoonhoven","operatorName":"EQUANS","maxPowerKw":11,"isMegawatt":false,"status":"AVAILABLE","source":"ndw"}},{"type":"Feature","geometry":{"type":"Point","coordinates":[4.807216,51.927427]},"properties":{"type":"charge","layer":"passenger","locationId":"89972699","name":"EQUANS SGZH 2.0 Europalaan 21","address":"Europalaan 21","city":"Ammerstol","operatorName":"EQUANS","maxPowerKw":11,"isMegawatt":false,"status":"AVAILABLE","source":"ndw"}},{"type":"Feature","geometry":{"type":"Point","coordinates":[4.851847,51.94958]},"properties":{"type":"charge","layer":"passenger","locationId":"NLLOC005675","name":"NLD Nieuwe Singel 41, 2871 AX Schoonhoven","address":"Nieuwe Singel 41","city":"Schoonhoven","operatorName":"Allego","maxPowerKw":11,"isMegawatt":false,"status":"AVAILABLE","source":"ndw","priceKwh":0.511}},{"type":"Feature","geometry":{"type":"Point","coordinates":[4.778755,51.998465]},"properties":{"type":"charge","layer":"passenger","locationId":"NLLOC002697","name":"NLD, Amaliahof 61, 2851XM Haastrecht","address":"Amaliahof 61","city":"Haastrecht","operatorName":"Allego","maxPowerKw":11,"isMegawatt":false,"status":"AVAILABLE","source":"ndw","priceKwh":0.511}},{"type":"Feature","geometry":{"type":"Point","coordinates":[4.789928,51.935245]},"properties":{"type":"charge","layer":"passenger","locationId":"89187788","name":"EQUANS SGZH 2.0 89187788","address":"Meester Kamerplein 1","city":"Bergambacht","operatorName":"EQUANS","maxPowerKw":17,"isMegawatt":false,"status":"AVAILABLE","source":"ndw"}},{"type":"Feature","geometry":{"type":"Point","coordinates":[4.840274,51.956289]},"properties":{"type":"charge","layer":"passenger","locationId":"90832053","name":"EQUANS SGZH 2.0 Ampèrelaan 8","address":"Ampèrelaan 8","city":"Schoonhoven","operatorName":"EQUANS","maxPowerKw":11,"isMegawatt":false,"status":"CHARGING","source":"ndw"}},{"type":"Feature","geometry":{"type":"Point","coordinates":[4.811355,51.928926]},"properties":{"type":"charge","layer":"passenger","locationId":"89185484","name":"EQUANS SGZH 2.0 89185484","address":"Den Hoeff 32","city":"Ammerstol","operatorName":"EQUANS","maxPowerKw":17,"isMegawatt":false,"status":"AVAILABLE","source":"ndw"}},{"type":"Feature","geometry":{"type":"Point","coordinates":[4.681941,51.8994]},"properties":{"type":"charge","layer":"passenger","locationId":"89185499","name":"EQUANS SGZH 2.0 89185499","address":"Lorentzweg 46","city":"Lekkerkerk","operatorName":"EQUANS","maxPowerKw":17,"isMegawatt":false,"status":"AVAILABLE","source":"ndw"}},{"type":"Feature","geometry":{"type":"Point","coordinates":[4.868234,51.950384]},"properties":{"type":"charge","layer":"passenger","locationId":"6333f7674701ad83d223d87d","name":"Laadpaal 2","address":"Opaalstraat 2","city":"Schoonhoven","operatorName":"E-Flux by Road","maxPowerKw":22,"isMegawatt":false,"status":"AVAILABLE","source":"ndw","priceKwh":0.51}},{"type":"Feature","geometry":{"type":"Point","coordinates":[4.772603,51.974208]},"properties":{"type":"charge","layer":"passenger","locationId":"89332820","name":"EQUANS SGZH 2.0 89332820","address":"Jan Steenlaan 20","city":"Stolwijk","operatorName":"EQUANS","maxPowerKw":17,"isMegawatt":false,"status":"CHARGING","source":"ndw"}},{"type":"Feature","geometry":{"type":"Point","coordinates":[4.772412,52.001131]},"properties":{"type":"charge","layer":"passenger","locationId":"NLLOC004237","name":"NLD Peperstraat 5, 2851 BG Haastrecht","address":"Peperstraat 5","city":"Haastrecht","operatorName":"Allego","maxPowerKw":11,"isMegawatt":false,"status":"CHARGING","source":"ndw","priceKwh":0.511}},{"type":"Feature","geometry":{"type":"Point","coordinates":[4.621065,51.893998]},"properties":{"type":"charge","layer":"passenger","locationId":"NLLOC011541","name":"NL, Tuinstraat 23 2931 AX Krimpen aan de Lek","address":"Tuinstraat 23","city":"Krimpen aan de Lek","operatorName":"Allego","maxPowerKw":11,"isMegawatt":false,"status":"AVAILABLE","source":"ndw","priceKwh":0.511}},{"type":"Feature","geometry":{"type":"Point","coordinates":[4.84875,51.9543]},"properties":{"type":"charge","layer":"passenger","locationId":"91442556","name":"EQUANS SGZH 2.0 Vlisterweg 14","address":"Vlisterweg 14","city":"Schoonhoven","operatorName":"EQUANS","maxPowerKw":11,"isMegawatt":false,"status":"AVAILABLE","source":"ndw"}},{"type":"Feature","geometry":{"type":"Point","coordinates":[4.631317,51.897847]},"properties":{"type":"charge","layer":"passenger","locationId":"89187796","name":"EQUANS SGZH 2.0 89187796","address":"van Ostadestraat 9","city":"Krimpen aan de Lek","operatorName":"EQUANS","maxPowerKw":17,"isMegawatt":false,"status":"AVAILABLE","source":"ndw"}},{"type":"Feature","geometry":{"type":"Point","coordinates":[4.871362,51.946251]},"properties":{"type":"charge","layer":"passenger","locationId":"89484877","name":"EQUANS SGZH 2.0 89484877","address":"De Mees 1","city":"Schoonhoven","operatorName":"EQUANS","maxPowerKw":11,"isMegawatt":false,"status":"AVAILABLE","source":"ndw"}},{"type":"Feature","geometry":{"type":"Point","coordinates":[4.679805,51.983822]},"properties":{"type":"charge","layer":"passenger","locationId":"90305376","name":"EQUANS SGZH 2.0 Lindendaal 1","address":"Lindendaal 1","city":"Gouderak","operatorName":"EQUANS","maxPowerKw":11,"isMegawatt":false,"status":"CHARGING","source":"ndw"}},{"type":"Feature","geometry":{"type":"Point","coordinates":[4.769324,51.976465]},"properties":{"type":"charge","layer":"passenger","locationId":"90279192","name":"EQUANS SGZH 2.0 Bilwijkerweg 69","address":"Bilwijkerweg 69","city":"Stolwijk","operatorName":"EQUANS","maxPowerKw":11,"isMegawatt":false,"status":"AVAILABLE","source":"ndw"}},{"type":"Feature","geometry":{"type":"Point","coordinates":[4.771371,51.972393]},"properties":{"type":"charge","layer":"passenger","locationId":"611e2763851285e0dca84934","name":"Dorpsplein 8, Stolwijk","address":"Dorpsplein 8,","city":"Stolwijk","operatorName":"E-Flux by Road","maxPowerKw":22,"isMegawatt":false,"status":"AVAILABLE","source":"ndw","priceKwh":0.31}},{"type":"Feature","geometry":{"type":"Point","coordinates":[4.640485,51.896979]},"properties":{"type":"charge","layer":"passenger","locationId":"NLLOC012293","name":"NL, Breekade 35, 2931LA, Krimpen aan de Lek","address":"Breekade 35","city":"Krimpen aan de Lek","operatorName":"Allego","maxPowerKw":11,"isMegawatt":false,"status":"CHARGING","source":"ndw","priceKwh":0.511}},{"type":"Feature","geometry":{"type":"Point","coordinates":[4.810307,51.92786]},"properties":{"type":"charge","layer":"passenger","locationId":"89885268","name":"EQUANS SGZH 2.0 89885268","address":"Mandenmakerstraat 13","city":"Ammerstol","operatorName":"EQUANS","maxPowerKw":11,"isMegawatt":false,"status":"AVAILABLE","source":"ndw"}},{"type":"Feature","geometry":{"type":"Point","coordinates":[4.79239,51.937019]},"properties":{"type":"charge","layer":"passenger","locationId":"90306199","name":"EQUANS SGZH 2.0 Houtstraat 48","address":"Houtstraat 48","city":"Bergambacht","operatorName":"EQUANS","maxPowerKw":11,"isMegawatt":false,"status":"AVAILABLE","source":"ndw"}},{"type":"Feature","geometry":{"type":"Point","coordinates":[4.84816,51.94828]},"properties":{"type":"charge","layer":"passenger","locationId":"91442557","name":"EQUANS SGZH 2.0 Spoorstraat 11","address":"Spoorstraat 11","city":"Schoonhoven","operatorName":"EQUANS","maxPowerKw":11,"isMegawatt":false,"status":"AVAILABLE","source":"ndw"}},{"type":"Feature","geometry":{"type":"Point","coordinates":[4.768544,52.001809]},"properties":{"type":"charge","layer":"passenger","locationId":"NLLOC004415","name":"NLD Wilgendreef 2, 2851 TP Haastrecht","address":"Wilgendreef 2","city":"Haastrecht","operatorName":"Allego","maxPowerKw":11,"isMegawatt":false,"status":"AVAILABLE","source":"ndw","priceKwh":0.511}},{"type":"Feature","geometry":{"type":"Point","coordinates":[4.68269,51.89688]},"properties":{"type":"charge","layer":"passenger","locationId":"91357950","name":"EQUANS SGZH 2.0 Raadhuisplein 69","address":"Raadhuisplein 69","city":"Lekkerkerk","operatorName":"EQUANS","maxPowerKw":11,"isMegawatt":false,"status":"AVAILABLE","source":"ndw"}},{"type":"Feature","geometry":{"type":"Point","coordinates":[4.783871,51.927287]},"properties":{"type":"charge","layer":"passenger","locationId":"90682186","name":"EQUANS SGZH 2.0 Dijklaan 43","address":"Dijklaan 43","city":"Bergambacht","operatorName":"EQUANS","maxPowerKw":11,"isMegawatt":false,"status":"AVAILABLE","source":"ndw"}},{"type":"Feature","geometry":{"type":"Point","coordinates":[4.85569,51.94516]},"properties":{"type":"charge","layer":"passenger","locationId":"91128047","name":"EQUANS SGZH 2.0 Het Bastion 9","address":"Het Bastion 9","city":"Schoonhoven","operatorName":"EQUANS","maxPowerKw":11,"isMegawatt":false,"status":"AVAILABLE","source":"ndw"}},{"type":"Feature","geometry":{"type":"Point","coordinates":[4.773638,52.003099]},"properties":{"type":"charge","layer":"passenger","locationId":"90279108","name":"EQUANS SGZH 2.0 Veerlaan 10","address":"Veerlaan 10","city":"Haastrecht","operatorName":"EQUANS","maxPowerKw":11,"isMegawatt":false,"status":"AVAILABLE","source":"ndw"}},{"type":"Feature","geometry":{"type":"Point","coordinates":[4.635755,51.896222]},"properties":{"type":"charge","layer":"passenger","locationId":"NLLOC002843","name":"NLD, Krimpen aan de Lek, Neptunushof 13 2931XR","address":"Neptunushof 13","city":"Krimpen aan de Lek","operatorName":"Allego","maxPowerKw":11,"isMegawatt":false,"status":"CHARGING","source":"ndw","priceKwh":0.511}},{"type":"Feature","geometry":{"type":"Point","coordinates":[4.845428,51.954619]},"properties":{"type":"charge","layer":"passenger","locationId":"90186835","name":"EQUANS SGZH 2.0 Edelsmidsdreef 56 D","address":"Edelsmidsdreef 56 D","city":"Schoonhoven","operatorName":"EQUANS","maxPowerKw":11,"isMegawatt":false,"status":"CHARGING","source":"ndw"}},{"type":"Feature","geometry":{"type":"Point","coordinates":[4.679421,51.900601]},"properties":{"type":"charge","layer":"passenger","locationId":"89190177","name":"EQUANS SGZH 2.0 89190177","address":"Berlagestraat 52","city":"Lekkerkerk","operatorName":"EQUANS","maxPowerKw":17,"isMegawatt":false,"status":"AVAILABLE","source":"ndw"}},{"type":"Feature","geometry":{"type":"Point","coordinates":[4.773914,51.998436]},"properties":{"type":"charge","layer":"passenger","locationId":"89344621","name":"EQUANS SGZH 2.0 89344621","address":"Roerdompstraat 10","city":"Haastrecht","operatorName":"EQUANS","maxPowerKw":17,"isMegawatt":false,"status":"AVAILABLE","source":"ndw"}},{"type":"Feature","geometry":{"type":"Point","coordinates":[4.837579,51.951512]},"properties":{"type":"charge","layer":"passenger","locationId":"90306215","name":"EQUANS SGZH 2.0 Pascalplein 48","address":"Pascalplein 48","city":"Schoonhoven","operatorName":"EQUANS","maxPowerKw":11,"isMegawatt":false,"status":"AVAILABLE","source":"ndw"}},{"type":"Feature","geometry":{"type":"Point","coordinates":[4.644083,51.929882]},"properties":{"type":"charge","layer":"passenger","locationId":"89828094","name":"EQUANS SGZH 2.0 89828094","address":"Sportlaan 2","city":"Ouderkerk aan den IJssel","operatorName":"EQUANS","maxPowerKw":11,"isMegawatt":false,"status":"AVAILABLE","source":"ndw"}},{"type":"Feature","geometry":{"type":"Point","coordinates":[4.682389,51.898693]},"properties":{"type":"charge","layer":"passenger","locationId":"90185731","name":"EQUANS SGZH 2.0 Jan Ligthartstraat 12","address":"Jan Ligthartstraat 12","city":"Lekkerkerk","operatorName":"EQUANS","maxPowerKw":11,"isMegawatt":false,"status":"AVAILABLE","source":"ndw"}},{"type":"Feature","geometry":{"type":"Point","coordinates":[4.85137,51.945974]},"properties":{"type":"charge","layer":"passenger","locationId":"89981238","name":"EQUANS SGZH 2.0 Haven 82","address":"Haven 82","city":"Schoonhoven","operatorName":"EQUANS","maxPowerKw":11,"isMegawatt":false,"status":"CHARGING","source":"ndw"}},{"type":"Feature","geometry":{"type":"Point","coordinates":[4.78352,51.93181]},"properties":{"type":"charge","layer":"passenger","locationId":"89314528","name":"EQUANS SGZH 2.0 Meent 5","address":"Meent 5","city":"Bergambacht","operatorName":"EQUANS","maxPowerKw":22,"isMegawatt":false,"status":"AVAILABLE","source":"ndw"}},{"type":"Feature","geometry":{"type":"Point","coordinates":[4.79126,51.935647]},"properties":{"type":"charge","layer":"passenger","locationId":"90386370","name":"EQUANS SGZH 2.0 Merelstraat 34","address":"Merelstraat 34","city":"Bergambacht","operatorName":"EQUANS","maxPowerKw":11,"isMegawatt":false,"status":"AVAILABLE","source":"ndw"}},{"type":"Feature","geometry":{"type":"Point","coordinates":[4.850707,51.948321]},"properties":{"type":"charge","layer":"passenger","locationId":"89344632","name":"EQUANS SGZH 2.0 89344632","address":"Koestraat 119 A","city":"Schoonhoven","operatorName":"EQUANS","maxPowerKw":17,"isMegawatt":false,"status":"AVAILABLE","source":"ndw"}},{"type":"Feature","geometry":{"type":"Point","coordinates":[4.627975,51.899891]},"properties":{"type":"charge","layer":"passenger","locationId":"89882984","name":"EQUANS SGZH 2.0 89882984","address":"Poolcirkel 1","city":"Krimpen aan de Lek","operatorName":"EQUANS","maxPowerKw":11,"isMegawatt":false,"status":"AVAILABLE","source":"ndw"}},{"type":"Feature","geometry":{"type":"Point","coordinates":[4.868309,51.950304]},"properties":{"type":"charge","layer":"passenger","locationId":"6333ff83aecb387c7021f194","name":"Laadpaal 4","address":"Opaalstraat 2","city":"Schoonhoven","operatorName":"E-Flux by Road","maxPowerKw":22,"isMegawatt":false,"status":"AVAILABLE","source":"ndw","priceKwh":0.51}},{"type":"Feature","geometry":{"type":"Point","coordinates":[4.836556,51.968027]},"properties":{"type":"charge","layer":"passenger","locationId":"677bdc0fc9b9a85a593be550","name":"michael koerts 's station","address":"Bonrepas 17","city":"vlist","operatorName":"E-Flux by Road","maxPowerKw":22,"isMegawatt":false,"status":"UNAVAILABLE","source":"ndw"}},{"type":"Feature","geometry":{"type":"Point","coordinates":[4.638218,51.933451]},"properties":{"type":"charge","layer":"passenger","locationId":"89307490","name":"EQUANS SGZH 2.0 89307490","address":"Julianastraat 2 B","city":"Ouderkerk aan den IJssel","operatorName":"EQUANS","maxPowerKw":17,"isMegawatt":false,"status":"UNAVAILABLE","source":"ndw"}},{"type":"Feature","geometry":{"type":"Point","coordinates":[4.681736,51.984226]},"properties":{"type":"charge","layer":"passenger","locationId":"89307489","name":"EQUANS SGZH 2.0 89307489","address":"Weegbree 18","city":"Gouderak","operatorName":"EQUANS","maxPowerKw":17,"isMegawatt":false,"status":"AVAILABLE","source":"ndw"}},{"type":"Feature","geometry":{"type":"Point","coordinates":[4.640985,51.929457]},"properties":{"type":"charge","layer":"passenger","locationId":"89258279","name":"EQUANS SGZH 2.0 89258279","address":"Reigerlaan 23","city":"Ouderkerk aan den IJssel","operatorName":"EQUANS","maxPowerKw":11,"isMegawatt":false,"status":"CHARGING","source":"ndw"}},{"type":"Feature","geometry":{"type":"Point","coordinates":[4.637762,51.931631]},"properties":{"type":"charge","layer":"passenger","locationId":"90279218","name":"EQUANS SGZH 2.0 Karekiethof 9","address":"Karekiethof 9","city":"Ouderkerk aan den IJssel","operatorName":"EQUANS","maxPowerKw":11,"isMegawatt":false,"status":"AVAILABLE","source":"ndw"}},{"type":"Feature","geometry":{"type":"Point","coordinates":[4.809966,51.926942]},"properties":{"type":"charge","layer":"passenger","locationId":"89235323","name":"EQUANS SGZH 2.0 89235323","address":"Kerkplein 3","city":"Ammerstol","operatorName":"EQUANS","maxPowerKw":17,"isMegawatt":false,"status":"AVAILABLE","source":"ndw"}},{"type":"Feature","geometry":{"type":"Point","coordinates":[4.781512,51.92985]},"properties":{"type":"charge","layer":"passenger","locationId":"90377605","name":"EQUANS SGZH 2.0 Weergang 1 (Traverse)","address":"Weergang 1","city":"Bergambacht","operatorName":"EQUANS","maxPowerKw":11,"isMegawatt":false,"status":"CHARGING","source":"ndw"}},{"type":"Feature","geometry":{"type":"MultiPolygon","coordinates":[[[[4.8082858971595295,52.014143578933826],[4.812632111210405,52.013942159217706],[4.815859699319127,52.014030313294214],[4.821485482074826,52.015918615248346],[4.824995052852379,52.01723693506867],[4.833335551270445,52.01642323697971],[4.840178815224477,52.0167072329005],[4.846896508003873,52.018181995161726],[4.847204148839597,52.01797458827047],[4.848603441346864,52.016117184189696],[4.8563862881352575,52.00683823928395],[4.8571271435291195,52.00595968042854],[4.853602628228583,52.004798579821355],[4.8178065210564,51.99976707735248],[4.82696914898096,51.992594783145826],[4.835218241018892,51.986143039045665],[4.834114747259953,51.98558026113813],[4.8442971944960505,51.97635171839349],[4.845546569363863,51.97520040101486],[4.847553358943579,51.97513679663627],[4.849766050608207,51.97385395843764],[4.8603822887569965,51.9680133374836],[4.8643044946294225,51.96339715523331],[4.865673936502275,51.960433120909165],[4.868956554110501,51.956706491320276],[4.871597820946089,51.953710432320115],[4.872755499788208,51.950940406195876],[4.875811797427211,51.943533253979275],[4.877792638293838,51.93803034590838],[4.872278159736276,51.9383540945584],[4.863280779547921,51.940025637773736],[4.859195312626983,51.94083089572446],[4.84670090758618,51.941376288032636],[4.837195614519147,51.940420642263376],[4.832303861627453,51.93863837922061],[4.814194808212509,51.92623098992285],[4.811283011405724,51.92455413000645],[4.80123267196817,51.92163176340569],[4.790704467616616,51.9196584993227],[4.777609658539901,51.91706476236744],[4.767193029025156,51.915902897530536],[4.761761786677546,51.914216424620975],[4.7438692463640475,51.90524845460256],[4.723972086824737,51.89809024977964],[4.715811905871285,51.89594872440115],[4.705601213722947,51.89721799912107],[4.690955860158864,51.89483733321893],[4.680676157943403,51.89300476922513],[4.675994609452674,51.89114203412311],[4.673367569946847,51.89022725785497],[4.668166991912379,51.88958501740783],[4.654652180234939,51.88968165920806],[4.639301371938155,51.89073290955092],[4.6332174714981536,51.89048325480501],[4.625423882931351,51.88938279234093],[4.621066294122008,51.889401168789504],[4.61957288434124,51.88952232367044],[4.595029543088747,51.89417239669147],[4.590797964417802,51.895848186210024],[4.583021079011741,51.90121241698073],[4.576329070816476,51.9030314707402],[4.5820354242605905,51.90408621705699],[4.584191741208185,51.903905135044326],[4.589099219032209,51.902367183206785],[4.588748353696851,51.90418711792163],[4.592213625671617,51.905600854194134],[4.592520693877543,51.90440606206151],[4.593084199910896,51.904679529507426],[4.593511560063785,51.90410126208814],[4.5967336408202515,51.90575724850096],[4.595173943264994,51.90708179188685],[4.596769625276709,51.90780468459476],[4.59682691787153,51.90781111723485],[4.601464364749495,51.90699734403518],[4.6232183544786745,51.90853578270905],[4.635152207755046,51.91007002376596],[4.642783424231772,51.91245736359821],[4.643019320748993,51.912569018709945],[4.630587492994375,51.92143337950083],[4.623665213296402,51.92628496640346],[4.617704237663643,51.931049894051995],[4.619488886274293,51.93349203849048],[4.6214638470379885,51.935249560773414],[4.623776962502687,51.93619155594166],[4.630971093673433,51.93629056226131],[4.633350618820844,51.93693954087215],[4.634735083695258,51.93797553277967],[4.636127965370068,51.941343369782345],[4.639684378478545,51.9511297903812],[4.6460056477394085,51.954181830910684],[4.645708843561815,51.95610718085648],[4.64206047736548,51.95987057011875],[4.639773292510914,51.96217681786714],[4.632921045789862,51.96632009225238],[4.630838399112608,51.968189582467936],[4.632678126040662,51.970245408244615],[4.648577092632458,51.97300747087858],[4.649834618210846,51.97342905142766],[4.655922773448374,51.97655332207634],[4.667850471343452,51.97885076696108],[4.670679400404669,51.9804221011201],[4.671822561593307,51.98447259829328],[4.674288870142177,51.98701726019025],[4.6769439921250875,51.98828612884271],[4.68250839621279,51.99269531811012],[4.688683952636637,51.99625842027634],[4.690641115015737,51.996672346043106],[4.696829180412323,51.99694430647914],[4.701070985304946,51.99756100383057],[4.707216650436906,52.00176267515173],[4.712909230275557,51.999141725229876],[4.714411191229787,52.00040322229561],[4.718860972052383,51.99836993768103],[4.72670210389743,52.00126383753283],[4.726736258187962,52.00127641613931],[4.727569580313897,52.001583264834174],[4.725279439408431,52.00257558317501],[4.724200717071416,52.003385136089655],[4.722792359589384,52.00548247528158],[4.728327530638071,52.00734412955961],[4.730773946665746,52.00735136280575],[4.737291745738711,52.00593552443977],[4.737733325505001,52.00684184031064],[4.739321535340775,52.00625249825335],[4.742056376152136,52.00458679235198],[4.74391778294525,52.003448442872795],[4.745970166287482,52.002795978485075],[4.752262087719218,52.002348554648215],[4.757327396434524,52.00143880594852],[4.757247584741764,52.0029265139998],[4.756961100310982,52.00294871047109],[4.752763189774819,52.010536957848885],[4.750991459097498,52.01389922803527],[4.750879952740499,52.01408879353768],[4.766206384267417,52.01324240690714],[4.775944750448087,52.01406456311175],[4.785078243446273,52.01645453298531],[4.798700971667406,52.022272143534515],[4.803410908583744,52.01414489615963],[4.805395563744079,52.014133271520976],[4.8082858971595295,52.014143578933826]]]]},"properties":{"type":"boundary","gemeente":"Krimpenerwaard","code":"GM1931"}}]}