{"type":"FeatureCollection","metadata":{"gemeente":"Krimpen aan den IJssel","slug":"krimpen-aan-den-ijssel","code":"GM0542","generated_at":"2026-07-06T16:26:11.361Z","total_passenger":154,"total_freight":0,"bounds":[4.549238886915969,51.902367183206785,4.643019320748993,51.931049894051995],"operators":["Alva Charging Services","DAEN Mobility","E-Flux by Road","EQUANS","Eneco","PowerGo","Shell Recharge"]},"features":[{"type":"Feature","geometry":{"type":"Point","coordinates":[4.61946,51.91445]},"properties":{"type":"charge","layer":"passenger","locationId":"90883001","name":"EQUANS SGZH 2.0 Lijsterbes 24","address":"Lijsterbes 24","city":"Krimpen aan den IJssel","operatorName":"EQUANS","maxPowerKw":11,"isMegawatt":false,"status":"AVAILABLE","source":"ndw"}},{"type":"Feature","geometry":{"type":"Point","coordinates":[4.602096,51.91301]},"properties":{"type":"charge","layer":"passenger","locationId":"90883003","name":"EQUANS SGZH 2.0 Rubenslaan 20","address":"Rubenslaan 20","city":"Krimpen aan den IJssel","operatorName":"EQUANS","maxPowerKw":11,"isMegawatt":false,"status":"CHARGING","source":"ndw"}},{"type":"Feature","geometry":{"type":"Point","coordinates":[4.619261,51.92497]},"properties":{"type":"charge","layer":"passenger","locationId":"91046437","name":"EQUANS SGZH 2.0 Zevenster 45","address":"Zevenster 45","city":"Krimpen aan den IJssel","operatorName":"EQUANS","maxPowerKw":11,"isMegawatt":false,"status":"AVAILABLE","source":"ndw"}},{"type":"Feature","geometry":{"type":"Point","coordinates":[4.621118,51.917357]},"properties":{"type":"charge","layer":"passenger","locationId":"89942984","name":"EQUANS SGZH 2.0 89942984","address":"Zomereik 76 A","city":"Krimpen aan den IJssel","operatorName":"EQUANS","maxPowerKw":11,"isMegawatt":false,"status":"AVAILABLE","source":"ndw"}},{"type":"Feature","geometry":{"type":"Point","coordinates":[4.588947,51.907599]},"properties":{"type":"charge","layer":"passenger","locationId":"89210079","name":"EQUANS SGZH 2.0 89210079","address":"Griendstraat 1","city":"Krimpen aan den Ijssel","operatorName":"EQUANS","maxPowerKw":11,"isMegawatt":false,"status":"AVAILABLE","source":"ndw"}},{"type":"Feature","geometry":{"type":"Point","coordinates":[4.589014,51.913746]},"properties":{"type":"charge","layer":"passenger","locationId":"89264143","name":"EQUANS SGZH 1.0 89264143","address":"Raadhuisplein 6","city":"Krimpen aan den IJssel","operatorName":"EQUANS","maxPowerKw":11,"isMegawatt":false,"status":"AVAILABLE","source":"ndw"}},{"type":"Feature","geometry":{"type":"Point","coordinates":[4.601297,51.91365]},"properties":{"type":"charge","layer":"passenger","locationId":"89262272","name":"EQUANS SGZH 1.0 89262272","address":"Rubenslaan 10","city":"Krimpen aan den IJssel","operatorName":"EQUANS","maxPowerKw":11,"isMegawatt":false,"status":"AVAILABLE","source":"ndw"}},{"type":"Feature","geometry":{"type":"Point","coordinates":[4.614061,51.918942]},"properties":{"type":"charge","layer":"passenger","locationId":"89942980","name":"EQUANS SGZH 2.0 89942980","address":"Staccato 48","city":"Krimpen aan den IJssel","operatorName":"EQUANS","maxPowerKw":11,"isMegawatt":false,"status":"AVAILABLE","source":"ndw"}},{"type":"Feature","geometry":{"type":"Point","coordinates":[4.588679,51.916109]},"properties":{"type":"charge","layer":"passenger","locationId":"89628494","name":"EQUANS SGZH 2.0 89628494","address":"Hoogstade 6","city":"Krimpen aan den IJssel","operatorName":"EQUANS","maxPowerKw":11,"isMegawatt":false,"status":"AVAILABLE","source":"ndw"}},{"type":"Feature","geometry":{"type":"Point","coordinates":[4.62831,51.91945]},"properties":{"type":"charge","layer":"passenger","locationId":"90888904","name":"EQUANS SGZH 2.0 Aster 2","address":"Aster 2","city":"Krimpen aan den IJssel","operatorName":"EQUANS","maxPowerKw":11,"isMegawatt":false,"status":"AVAILABLE","source":"ndw"}},{"type":"Feature","geometry":{"type":"Point","coordinates":[4.598612,51.922363]},"properties":{"type":"charge","layer":"passenger","locationId":"89262262","name":"EQUANS SGZH 2.0 Plantage 1","address":"Plantage 1","city":"Krimpen aan de Ijssel","operatorName":"EQUANS","maxPowerKw":11,"isMegawatt":false,"status":"AVAILABLE","source":"ndw"}},{"type":"Feature","geometry":{"type":"Point","coordinates":[4.581249,51.909305]},"properties":{"type":"charge","layer":"passenger","locationId":"5C458202-3672-4CFA-A8D3-33D08FA06FF0","name":"Eneco eMobility Stormpolderdijk 38 Krimpen aan den IJssel","address":"Stormpolderdijk 38","city":"Krimpen aan den IJssel","operatorName":"Eneco","maxPowerKw":22,"isMegawatt":false,"status":"UNAVAILABLE","source":"ndw","priceKwh":0.32}},{"type":"Feature","geometry":{"type":"Point","coordinates":[4.607851,51.912981]},"properties":{"type":"charge","layer":"passenger","locationId":"89828104","name":"EQUANS SGZH 2.0 89828104","address":"Rode Klaver 47","city":"Krimpen aan den IJssel","operatorName":"EQUANS","maxPowerKw":11,"isMegawatt":false,"status":"AVAILABLE","source":"ndw"}},{"type":"Feature","geometry":{"type":"Point","coordinates":[4.6229,51.92194]},"properties":{"type":"charge","layer":"passenger","locationId":"91011886","name":"EQUANS SGZH 2.0 Narcis 7","address":"Narcis 7","city":"Krimpen aan den IJssel","operatorName":"EQUANS","maxPowerKw":11,"isMegawatt":false,"status":"AVAILABLE","source":"ndw"}},{"type":"Feature","geometry":{"type":"Point","coordinates":[4.599836,51.910681]},"properties":{"type":"charge","layer":"passenger","locationId":"89143001","name":"EQUANS SGZH 1.0 89143001","address":"Hobbemalaan 46","city":"Krimpen aan den IJssel","operatorName":"EQUANS","maxPowerKw":22,"isMegawatt":false,"status":"CHARGING","source":"ndw"}},{"type":"Feature","geometry":{"type":"Point","coordinates":[4.583002,51.915597]},"properties":{"type":"charge","layer":"passenger","locationId":"89307368","name":"EQUANS SGZH 2.0 89307368","address":"Rotterdamseweg 31","city":"Krimpen aan den IJssel","operatorName":"EQUANS","maxPowerKw":11,"isMegawatt":false,"status":"AVAILABLE","source":"ndw"}},{"type":"Feature","geometry":{"type":"Point","coordinates":[4.590289,51.909936]},"properties":{"type":"charge","layer":"passenger","locationId":"89954365","name":"EQUANS SGZH 2.0 89954365","address":"Bassano 22","city":"Krimpen aan den IJssel","operatorName":"EQUANS","maxPowerKw":11,"isMegawatt":false,"status":"AVAILABLE","source":"ndw"}},{"type":"Feature","geometry":{"type":"Point","coordinates":[4.579358,51.90943]},"properties":{"type":"charge","layer":"passenger","locationId":"695a65b051dd11a3d00d5712","name":"Paracord.eu","address":"van der Giessenweg 19","city":"Krimpen aan den IJssel","operatorName":"E-Flux by Road","maxPowerKw":22,"isMegawatt":false,"status":"UNAVAILABLE","source":"ndw","priceKwh":0.42}},{"type":"Feature","geometry":{"type":"Point","coordinates":[4.61801,51.92145]},"properties":{"type":"charge","layer":"passenger","locationId":"89035164","name":"EQUANS SGZH 2.0 89035164","address":"Schouw 19","city":"Krimpen aan den IJssel","operatorName":"EQUANS","maxPowerKw":11,"isMegawatt":false,"status":"AVAILABLE","source":"ndw"}},{"type":"Feature","geometry":{"type":"Point","coordinates":[4.579344,51.913097]},"properties":{"type":"charge","layer":"passenger","locationId":"0847F325-6180-45FA-99BD-BBC524458D07","name":"Eneco eMobility FLW_0091","address":"Haven 1","city":"Krimpen aan den IJssel","operatorName":"Eneco","maxPowerKw":22,"isMegawatt":false,"status":"AVAILABLE","source":"ndw","priceKwh":0.25}},{"type":"Feature","geometry":{"type":"Point","coordinates":[4.600583,51.921545]},"properties":{"type":"charge","layer":"passenger","locationId":"89150561","name":"EQUANS SGZH 1.0 89150561","address":"Groene Wetering 1A","city":"Krimpen aan den IJssel","operatorName":"EQUANS","maxPowerKw":17,"isMegawatt":false,"status":"AVAILABLE","source":"ndw"}},{"type":"Feature","geometry":{"type":"Point","coordinates":[4.618637,51.922898]},"properties":{"type":"charge","layer":"passenger","locationId":"90256899","name":"EQUANS SGZH 2.0 IJsselaak 10","address":"IJsselaak 10","city":"Krimpen aan den IJssel","operatorName":"EQUANS","maxPowerKw":11,"isMegawatt":false,"status":"AVAILABLE","source":"ndw"}},{"type":"Feature","geometry":{"type":"Point","coordinates":[4.626713,51.919394]},"properties":{"type":"charge","layer":"passenger","locationId":"89035169","name":"EQUANS SGZH 2.0 89328225","address":"Fresia 47","city":"Krimpen aan den IJssel","operatorName":"EQUANS","maxPowerKw":11,"isMegawatt":false,"status":"AVAILABLE","source":"ndw"}},{"type":"Feature","geometry":{"type":"Point","coordinates":[4.622289,51.92356]},"properties":{"type":"charge","layer":"passenger","locationId":"89262293","name":"EQUANS SGZH 1.0 89262293","address":"Brinkweg 28","city":"Krimpen aan den IJssel","operatorName":"EQUANS","maxPowerKw":11,"isMegawatt":false,"status":"AVAILABLE","source":"ndw"}},{"type":"Feature","geometry":{"type":"Point","coordinates":[4.618864,51.91085]},"properties":{"type":"charge","layer":"passenger","locationId":"90322311","name":"EQUANS SGZH 2.0 Krimpenerbosweg 2 C","address":"Krimpenerbosweg 2 C","city":"Krimpen aan den IJssel","operatorName":"EQUANS","maxPowerKw":11,"isMegawatt":false,"status":"AVAILABLE","source":"ndw"}},{"type":"Feature","geometry":{"type":"Point","coordinates":[4.6176782,51.914875]},"properties":{"type":"charge","layer":"passenger","locationId":"29436","name":"Jumbo 3753 Krimpen aan den IJssel De Olm (PowerGo)","address":"De Olm 8","city":"Krimpen aan den IJssel","operatorName":"PowerGo","maxPowerKw":150,"isMegawatt":false,"status":"AVAILABLE","source":"ndw","priceKwh":0.7}},{"type":"Feature","geometry":{"type":"Point","coordinates":[4.622586,51.92085]},"properties":{"type":"charge","layer":"passenger","locationId":"90099921","name":"EQUANS SGZH 2.0 Lelie 25","address":"Lelie 25","city":"Krimpen aan den IJssel","operatorName":"EQUANS","maxPowerKw":11,"isMegawatt":false,"status":"AVAILABLE","source":"ndw"}},{"type":"Feature","geometry":{"type":"Point","coordinates":[4.611802,51.911834]},"properties":{"type":"charge","layer":"passenger","locationId":"90357140","name":"EQUANS SGZH 1.0 Landgoed Nederhoven 2","address":"Landgoed Nederhoven 2","city":"Krimpen aan den IJssel","operatorName":"EQUANS","maxPowerKw":11,"isMegawatt":false,"status":"AVAILABLE","source":"ndw"}},{"type":"Feature","geometry":{"type":"Point","coordinates":[4.596337,51.914802]},"properties":{"type":"charge","layer":"passenger","locationId":"90159921","name":"EQUANS SGZH 2.0 Meerkoetstraat 83 b","address":"Meerkoetstraat 83 b","city":"Krimpen aan den IJssel","operatorName":"EQUANS","maxPowerKw":11,"isMegawatt":false,"status":"AVAILABLE","source":"ndw"}},{"type":"Feature","geometry":{"type":"Point","coordinates":[4.603771,51.91567]},"properties":{"type":"charge","layer":"passenger","locationId":"90239038","name":"EQUANS SGZH 2.0 Veld en Beemd 31","address":"Veld en Beemd 31","city":"Krimpen a/d IJssel","operatorName":"EQUANS","maxPowerKw":11,"isMegawatt":false,"status":"UNAVAILABLE","source":"ndw"}},{"type":"Feature","geometry":{"type":"Point","coordinates":[4.614016,51.91823]},"properties":{"type":"charge","layer":"passenger","locationId":"89179066","name":"EQUANS SGZH 2.0 89179066","address":"Toccata 120","city":"Krimpen aan den IJssel","operatorName":"EQUANS","maxPowerKw":17,"isMegawatt":false,"status":"AVAILABLE","source":"ndw"}},{"type":"Feature","geometry":{"type":"Point","coordinates":[4.594869,51.922866]},"properties":{"type":"charge","layer":"passenger","locationId":"89828151","name":"EQUANS SGZH 2.0 89828151","address":"Kerkdreef 36 b","city":"Krimpen aan den IJssel","operatorName":"EQUANS","maxPowerKw":11,"isMegawatt":false,"status":"AVAILABLE","source":"ndw"}},{"type":"Feature","geometry":{"type":"Point","coordinates":[4.597396,51.909759]},"properties":{"type":"charge","layer":"passenger","locationId":"89262275","name":"EQUANS SGZH 1.0 89262275","address":"Jan Steenstraat 10","city":"Krimpen aan den IJssel","operatorName":"EQUANS","maxPowerKw":11,"isMegawatt":false,"status":"AVAILABLE","source":"ndw"}},{"type":"Feature","geometry":{"type":"Point","coordinates":[4.617732,51.914874]},"properties":{"type":"charge","layer":"passenger","locationId":"90961346","name":"EQUANS SGZH 2.0 Olm t.h.v. Linde 1","address":"Olm t.h.v. Linde 1","city":"Krimpen aan den IJssel","operatorName":"EQUANS","maxPowerKw":11,"isMegawatt":false,"status":"AVAILABLE","source":"ndw"}},{"type":"Feature","geometry":{"type":"Point","coordinates":[4.610853,51.909215]},"properties":{"type":"charge","layer":"passenger","locationId":"89124612","name":"EQUANS SGZH 1.0 89124612","address":"Hoflaan 79","city":"Krimpen aan den IJssel","operatorName":"EQUANS","maxPowerKw":11,"isMegawatt":false,"status":"AVAILABLE","source":"ndw"}},{"type":"Feature","geometry":{"type":"Point","coordinates":[4.577108,51.908319]},"properties":{"type":"charge","layer":"passenger","locationId":"923346","name":"Autobedrijf de Pee (63)","address":"Van Utrechtweg 63","city":"Krimpen aan den IJssel","operatorName":"DAEN Mobility","maxPowerKw":22,"isMegawatt":false,"status":"AVAILABLE","source":"ndw","priceKwh":0.69}},{"type":"Feature","geometry":{"type":"Point","coordinates":[4.596129,51.915315]},"properties":{"type":"charge","layer":"passenger","locationId":"90255652","name":"EQUANS SGZH 2.0 Meerkoetstraat 81","address":"Meerkoetstraat 81","city":"Krimpen aan den IJssel","operatorName":"EQUANS","maxPowerKw":11,"isMegawatt":false,"status":"AVAILABLE","source":"ndw"}},{"type":"Feature","geometry":{"type":"Point","coordinates":[4.62463,51.918303]},"properties":{"type":"charge","layer":"passenger","locationId":"89200928","name":"EQUANS SGZH 2.0 Fresia 1","address":"Fresia 1","city":"Krimpen aan den IJssel","operatorName":"EQUANS","maxPowerKw":11,"isMegawatt":false,"status":"AVAILABLE","source":"ndw"}},{"type":"Feature","geometry":{"type":"Point","coordinates":[4.586557,51.920251]},"properties":{"type":"charge","layer":"passenger","locationId":"5192","name":"Shell Recharge NL9283 - Karwei Krimpen aan den Ijssel","address":"IJsseldijk 361","city":"Krimpen aan den Ijssel","operatorName":"Shell Recharge","maxPowerKw":150,"isMegawatt":false,"status":"AVAILABLE","source":"ndw","priceKwh":0.7025}},{"type":"Feature","geometry":{"type":"Point","coordinates":[4.616409,51.919661]},"properties":{"type":"charge","layer":"passenger","locationId":"89262290","name":"EQUANS SGZH 1.0 89262290","address":"Allegro 68","city":"Krimpen aan den IJssel","operatorName":"EQUANS","maxPowerKw":11,"isMegawatt":false,"status":"AVAILABLE","source":"ndw"}},{"type":"Feature","geometry":{"type":"Point","coordinates":[4.59922,51.91121]},"properties":{"type":"charge","layer":"passenger","locationId":"90961342","name":"EQUANS SGZH 2.0 Hobbemalaan 71","address":"Hobbemalaan 71","city":"Krimpen aan den IJssel","operatorName":"EQUANS","maxPowerKw":11,"isMegawatt":false,"status":"CHARGING","source":"ndw"}},{"type":"Feature","geometry":{"type":"Point","coordinates":[4.600094,51.918681]},"properties":{"type":"charge","layer":"passenger","locationId":"89307462","name":"EQUANS SGZH 2.0 89307462","address":"Rondweg - Wilgenhof 1","city":"Krimpen aan den IJssel","operatorName":"EQUANS","maxPowerKw":17,"isMegawatt":false,"status":"AVAILABLE","source":"ndw"}},{"type":"Feature","geometry":{"type":"Point","coordinates":[4.581211,51.908537]},"properties":{"type":"charge","layer":"passenger","locationId":"654e32f869726b001ca9203e","name":"DC snellader, Krimpen (50kWh)","address":"Industrieweg 17a","city":"Krimpen aan den IJsel","operatorName":"Alva Charging Services","maxPowerKw":50,"isMegawatt":false,"status":"AVAILABLE","source":"ndw","priceKwh":0.59}},{"type":"Feature","geometry":{"type":"Point","coordinates":[4.592379,51.912116]},"properties":{"type":"charge","layer":"passenger","locationId":"89490587","name":"EQUANS SGZH 2.0 89490587","address":"Cascade 90 A","city":"Krimpen aan den IJssel","operatorName":"EQUANS","maxPowerKw":11,"isMegawatt":false,"status":"AVAILABLE","source":"ndw"}},{"type":"Feature","geometry":{"type":"Point","coordinates":[4.616632,51.919889]},"properties":{"type":"charge","layer":"passenger","locationId":"90202784","name":"EQUANS SGZH 2.0 Allegro 119","address":"Allegro 119","city":"Krimpen aan den IJssel","operatorName":"EQUANS","maxPowerKw":11,"isMegawatt":false,"status":"AVAILABLE","source":"ndw"}},{"type":"Feature","geometry":{"type":"Point","coordinates":[4.604544,51.924044]},"properties":{"type":"charge","layer":"passenger","locationId":"89262280","name":"EQUANS SGZH 1.0 89262280","address":"Olympiade 36","city":"Krimpen aan den IJssel","operatorName":"EQUANS","maxPowerKw":11,"isMegawatt":false,"status":"AVAILABLE","source":"ndw"}},{"type":"Feature","geometry":{"type":"Point","coordinates":[4.59259,51.91171]},"properties":{"type":"charge","layer":"passenger","locationId":"91042801","name":"EQUANS SGZH 2.0 Cascade 88","address":"Cascade 88","city":"Krimpen aan den IJssel","operatorName":"EQUANS","maxPowerKw":11,"isMegawatt":false,"status":"AVAILABLE","source":"ndw"}},{"type":"Feature","geometry":{"type":"Point","coordinates":[4.597573,51.912988]},"properties":{"type":"charge","layer":"passenger","locationId":"89262269","name":"EQUANS SGZH 1.0 89262269","address":"Jan van Goyenstraat 35","city":"Krimpen aan den IJssel","operatorName":"EQUANS","maxPowerKw":11,"isMegawatt":false,"status":"AVAILABLE","source":"ndw"}},{"type":"Feature","geometry":{"type":"Point","coordinates":[4.609328,51.922575]},"properties":{"type":"charge","layer":"passenger","locationId":"90961345","name":"EQUANS SGZH 2.0 de Korf 1 T.O. Olympiade 98","address":"de Korf 1","city":"Krimpen aan den IJssel","operatorName":"EQUANS","maxPowerKw":11,"isMegawatt":false,"status":"AVAILABLE","source":"ndw"}},{"type":"Feature","geometry":{"type":"Point","coordinates":[4.624623,51.923556]},"properties":{"type":"charge","layer":"passenger","locationId":"90935942","name":"EQUANS SGZH 2.0 Amaniet 1","address":"Amaniet 1","city":"Krimpen aan den IJssel","operatorName":"EQUANS","maxPowerKw":11,"isMegawatt":false,"status":"AVAILABLE","source":"ndw"}},{"type":"Feature","geometry":{"type":"Point","coordinates":[4.585735,51.913303]},"properties":{"type":"charge","layer":"passenger","locationId":"89142979","name":"EQUANS SGZH 1.0 89142979","address":"Rotterdamseweg 30 B","city":"Krimpen aan den IJssel","operatorName":"EQUANS","maxPowerKw":17,"isMegawatt":false,"status":"AVAILABLE","source":"ndw"}},{"type":"Feature","geometry":{"type":"Point","coordinates":[4.589308,51.910981]},"properties":{"type":"charge","layer":"passenger","locationId":"89490589","name":"EQUANS SGZH 2.0 89490589","address":"Treviso 37","city":"Krimpen aan den ijssel","operatorName":"EQUANS","maxPowerKw":11,"isMegawatt":false,"status":"AVAILABLE","source":"ndw"}},{"type":"Feature","geometry":{"type":"Point","coordinates":[4.611926,51.912639]},"properties":{"type":"charge","layer":"passenger","locationId":"89262303","name":"EQUANS SGZH 1.0 89262303","address":"Landgoed Eikenrode 11","city":"Krimpen aan den IJssel","operatorName":"EQUANS","maxPowerKw":11,"isMegawatt":false,"status":"CHARGING","source":"ndw"}},{"type":"Feature","geometry":{"type":"Point","coordinates":[4.590687,51.916732]},"properties":{"type":"charge","layer":"passenger","locationId":"90112033","name":"EQUANS SGZH 2.0 Nachtegaalstraat 5","address":"Nachtegaalstraat 5","city":"Krimpen aan den IJssel","operatorName":"EQUANS","maxPowerKw":11,"isMegawatt":false,"status":"AVAILABLE","source":"ndw"}},{"type":"Feature","geometry":{"type":"Point","coordinates":[4.580889,51.913438]},"properties":{"type":"charge","layer":"passenger","locationId":"89262255","name":"EQUANS SGZH 1.0 89262255","address":"Lekdijk 28","city":"Krimpen aan den IJssel","operatorName":"EQUANS","maxPowerKw":11,"isMegawatt":false,"status":"AVAILABLE","source":"ndw"}},{"type":"Feature","geometry":{"type":"Point","coordinates":[4.621997,51.916926]},"properties":{"type":"charge","layer":"passenger","locationId":"90096531","name":"EQUANS SGZH 2.0 Els 15","address":"Els 15","city":"Krimpen aan den IJssel","operatorName":"EQUANS","maxPowerKw":11,"isMegawatt":false,"status":"AVAILABLE","source":"ndw"}},{"type":"Feature","geometry":{"type":"Point","coordinates":[4.59167,51.91923]},"properties":{"type":"charge","layer":"passenger","locationId":"89035161","name":"EQUANS SGZH 2.0 89035161","address":"Schepenstraat 1","city":"Krimpen aan den IJssel","operatorName":"EQUANS","maxPowerKw":11,"isMegawatt":false,"status":"AVAILABLE","source":"ndw"}},{"type":"Feature","geometry":{"type":"Point","coordinates":[4.597837,51.914454]},"properties":{"type":"charge","layer":"passenger","locationId":"89262273","name":"EQUANS SGZH 1.0 89262273","address":"Jozef Israëlsstraat 8","city":"Krimpen aan den IJssel","operatorName":"EQUANS","maxPowerKw":11,"isMegawatt":false,"status":"AVAILABLE","source":"ndw"}},{"type":"Feature","geometry":{"type":"Point","coordinates":[4.602725,51.909561]},"properties":{"type":"charge","layer":"passenger","locationId":"89954675","name":"EQUANS SGZH 2.0 Ouverturelaan 6","address":"Ouverturelaan 6","city":"Krimpen aan den IJssel","operatorName":"EQUANS","maxPowerKw":11,"isMegawatt":false,"status":"AVAILABLE","source":"ndw"}},{"type":"Feature","geometry":{"type":"Point","coordinates":[4.613134,51.920034]},"properties":{"type":"charge","layer":"passenger","locationId":"89314529","name":"EQUANS SGZH 2.0 89314529","address":"Allegro 49 A","city":"Krimpen aan den IJssel","operatorName":"EQUANS","maxPowerKw":17,"isMegawatt":false,"status":"AVAILABLE","source":"ndw"}},{"type":"Feature","geometry":{"type":"Point","coordinates":[4.588493,51.911631]},"properties":{"type":"charge","layer":"passenger","locationId":"89356864","name":"EQUANS SGZH 2.0 89356864","address":"Rotterdamseweg 64","city":"Krimpen aan den IJssel","operatorName":"EQUANS","maxPowerKw":17,"isMegawatt":false,"status":"CHARGING","source":"ndw"}},{"type":"Feature","geometry":{"type":"Point","coordinates":[4.61499,51.92377]},"properties":{"type":"charge","layer":"passenger","locationId":"91321751","name":"EQUANS SGZH 2.0 Boveneindselaan 2","address":"Boveneindselaan 2","city":"Krimpen aan den IJssel","operatorName":"EQUANS","maxPowerKw":11,"isMegawatt":false,"status":"AVAILABLE","source":"ndw"}},{"type":"Feature","geometry":{"type":"Point","coordinates":[4.613575,51.917181]},"properties":{"type":"charge","layer":"passenger","locationId":"89262289","name":"EQUANS SGZH 1.0 89262289","address":"Rondo 116","city":"Krimpen aan den IJssel","operatorName":"EQUANS","maxPowerKw":11,"isMegawatt":false,"status":"AVAILABLE","source":"ndw"}},{"type":"Feature","geometry":{"type":"Point","coordinates":[4.609142,51.910291]},"properties":{"type":"charge","layer":"passenger","locationId":"90973584","name":"EQUANS SGZH 2.0 De Landerijen 1","address":"De Landerijen 1","city":"Krimpen aan den IJssel","operatorName":"EQUANS","maxPowerKw":11,"isMegawatt":false,"status":"AVAILABLE","source":"ndw"}},{"type":"Feature","geometry":{"type":"Point","coordinates":[4.59606,51.91497]},"properties":{"type":"charge","layer":"passenger","locationId":"89035159","name":"EQUANS SGZH 2.0 Nieuwe Tiendweg 11 ACHTER","address":"Nieuwe Tiendweg 11 ACHTER","city":"Krimpen aan den IJssel","operatorName":"EQUANS","maxPowerKw":11,"isMegawatt":false,"status":"AVAILABLE","source":"ndw"}},{"type":"Feature","geometry":{"type":"Point","coordinates":[4.593553,51.919827]},"properties":{"type":"charge","layer":"passenger","locationId":"90099087","name":"EQUANS SGZH 2.0 Heemraadhof 11","address":"Heemraadhof 11","city":"Krimpen aan den IJssel","operatorName":"EQUANS","maxPowerKw":11,"isMegawatt":false,"status":"AVAILABLE","source":"ndw"}},{"type":"Feature","geometry":{"type":"Point","coordinates":[4.58889,51.91871]},"properties":{"type":"charge","layer":"passenger","locationId":"89035162","name":"EQUANS SGZH 2.0 89035162","address":"Elckerlyc 1","city":"Krimpen aan den IJssel","operatorName":"EQUANS","maxPowerKw":11,"isMegawatt":false,"status":"AVAILABLE","source":"ndw"}},{"type":"Feature","geometry":{"type":"Point","coordinates":[4.58732,51.911652]},"properties":{"type":"charge","layer":"passenger","locationId":"89262257","name":"EQUANS SGZH 1.0 89262257","address":"Blijdendijkstraat 18","city":"Krimpen aan den IJssel","operatorName":"EQUANS","maxPowerKw":11,"isMegawatt":false,"status":"AVAILABLE","source":"ndw"}},{"type":"Feature","geometry":{"type":"Point","coordinates":[4.612802,51.92142]},"properties":{"type":"charge","layer":"passenger","locationId":"89052322","name":"EQUANS SGZH 1.0 89052322","address":"Marathon 46A","city":"Krimpen aan den IJssel","operatorName":"EQUANS","maxPowerKw":22,"isMegawatt":false,"status":"AVAILABLE","source":"ndw"}},{"type":"Feature","geometry":{"type":"Point","coordinates":[4.622274,51.920276]},"properties":{"type":"charge","layer":"passenger","locationId":"89211765","name":"EQUANS SGZH 2.0 Vijverlaan 566A","address":"Vijverlaan 566A","city":"Krimpen aan den IJssel","operatorName":"EQUANS","maxPowerKw":17,"isMegawatt":false,"status":"AVAILABLE","source":"ndw"}},{"type":"Feature","geometry":{"type":"Point","coordinates":[4.611087,51.918591]},"properties":{"type":"charge","layer":"passenger","locationId":"90096527","name":"EQUANS SGZH 2.0 Rondo 14","address":"Rondo 14","city":"Krimpen aan den IJssel","operatorName":"EQUANS","maxPowerKw":11,"isMegawatt":false,"status":"AVAILABLE","source":"ndw"}},{"type":"Feature","geometry":{"type":"Point","coordinates":[4.619784,51.923169]},"properties":{"type":"charge","layer":"passenger","locationId":"89262283","name":"EQUANS SGZH 1.0 89262283","address":"Bezaanzeil 14","city":"Krimpen aan den IJssel","operatorName":"EQUANS","maxPowerKw":11,"isMegawatt":false,"status":"CHARGING","source":"ndw"}},{"type":"Feature","geometry":{"type":"Point","coordinates":[4.61554,51.92141]},"properties":{"type":"charge","layer":"passenger","locationId":"90928478","name":"EQUANS SGZH 2.0 Marathon 142","address":"Marathon 142","city":"Krimpen aan den IJssel","operatorName":"EQUANS","maxPowerKw":11,"isMegawatt":false,"status":"CHARGING","source":"ndw"}},{"type":"Feature","geometry":{"type":"Point","coordinates":[4.607594,51.921837]},"properties":{"type":"charge","layer":"passenger","locationId":"89262286","name":"EQUANS SGZH 1.0 89262286","address":"Tournooi 109","city":"Krimpen aan den IJssel","operatorName":"EQUANS","maxPowerKw":11,"isMegawatt":false,"status":"AVAILABLE","source":"ndw"}},{"type":"Feature","geometry":{"type":"Point","coordinates":[4.579422,51.909186]},"properties":{"type":"charge","layer":"passenger","locationId":"90294298","name":"EQUANS SGZH 2.0 Van der Giessenweg 19","address":"Van der Giessenweg 19","city":"Krimpen aan den IJssel","operatorName":"EQUANS","maxPowerKw":11,"isMegawatt":false,"status":"AVAILABLE","source":"ndw"}},{"type":"Feature","geometry":{"type":"Point","coordinates":[4.59575,51.920238]},"properties":{"type":"charge","layer":"passenger","locationId":"89124617","name":"EQUANS SGZH 1.0 89124617","address":"Gaarderhof 7","city":"Krimpen aan den IJssel","operatorName":"EQUANS","maxPowerKw":17,"isMegawatt":false,"status":"AVAILABLE","source":"ndw"}},{"type":"Feature","geometry":{"type":"Point","coordinates":[4.6114511,51.921936]},"properties":{"type":"charge","layer":"passenger","locationId":"15054","name":"Jumbo 6344 Krimpen ad IJssel Korf (PowerGo)","address":"De Korf 8b","city":"Krimpen aan den IJssel","operatorName":"PowerGo","maxPowerKw":90,"isMegawatt":false,"status":"AVAILABLE","source":"ndw","priceKwh":0.7}},{"type":"Feature","geometry":{"type":"Point","coordinates":[4.610055,51.914779]},"properties":{"type":"charge","layer":"passenger","locationId":"89052278","name":"EQUANS SGZH 1.0 89052278","address":"Weegbree 121","city":"Krimpen aan den IJssel","operatorName":"EQUANS","maxPowerKw":22,"isMegawatt":false,"status":"CHARGING","source":"ndw"}},{"type":"Feature","geometry":{"type":"Point","coordinates":[4.579618,51.914081]},"properties":{"type":"charge","layer":"passenger","locationId":"89628491","name":"EQUANS SGZH 2.0 89628491","address":"Poldersedijk 1 a","city":"Krimpen aan den IJssel","operatorName":"EQUANS","maxPowerKw":11,"isMegawatt":false,"status":"AVAILABLE","source":"ndw"}},{"type":"Feature","geometry":{"type":"Point","coordinates":[4.59992,51.913549]},"properties":{"type":"charge","layer":"passenger","locationId":"89262274","name":"EQUANS SGZH 1.0 89262274","address":"Jacob Jordaensstraat 2","city":"Krimpen aan den IJssel","operatorName":"EQUANS","maxPowerKw":11,"isMegawatt":false,"status":"AVAILABLE","source":"ndw"}},{"type":"Feature","geometry":{"type":"Point","coordinates":[4.6016,51.915447]},"properties":{"type":"charge","layer":"passenger","locationId":"89307461","name":"EQUANS SGZH 2.0 89307461","address":"Stad en Landschap 23","city":"Krimpen aan den IJssel","operatorName":"EQUANS","maxPowerKw":17,"isMegawatt":false,"status":"AVAILABLE","source":"ndw"}},{"type":"Feature","geometry":{"type":"Point","coordinates":[4.61884,51.91786]},"properties":{"type":"charge","layer":"passenger","locationId":"91204053","name":"EQUANS SGZH 2.0 Vijverlaan 520","address":"Vijverlaan 520","city":"Krimpen aan den IJssel","operatorName":"EQUANS","maxPowerKw":11,"isMegawatt":false,"status":"CHARGING","source":"ndw"}},{"type":"Feature","geometry":{"type":"Point","coordinates":[4.621981,51.922057]},"properties":{"type":"charge","layer":"passenger","locationId":"89262296","name":"EQUANS SGZH 1.0 89262296","address":"Vijverlaan 543","city":"Krimpen aan den IJssel","operatorName":"EQUANS","maxPowerKw":11,"isMegawatt":false,"status":"AVAILABLE","source":"ndw"}},{"type":"Feature","geometry":{"type":"Point","coordinates":[4.601553,51.908898]},"properties":{"type":"charge","layer":"passenger","locationId":"89262298","name":"EQUANS SGZH 1.0 89262298","address":"Rigoletto 1","city":"Krimpen aan den IJssel","operatorName":"EQUANS","maxPowerKw":11,"isMegawatt":false,"status":"CHARGING","source":"ndw"}},{"type":"Feature","geometry":{"type":"Point","coordinates":[4.598129,51.918632]},"properties":{"type":"charge","layer":"passenger","locationId":"89439474","name":"EQUANS SGZH 2.0 89439474","address":"Middenwetering 108","city":"Krimpen aan den IJssel","operatorName":"EQUANS","maxPowerKw":11,"isMegawatt":false,"status":"AVAILABLE","source":"ndw"}},{"type":"Feature","geometry":{"type":"Point","coordinates":[4.6019,51.92428]},"properties":{"type":"charge","layer":"passenger","locationId":"89035163","name":"EQUANS SGZH 2.0 89035163","address":"Trimbaan 19","city":"Krimpen aan den IJssel","operatorName":"EQUANS","maxPowerKw":22,"isMegawatt":false,"status":"AVAILABLE","source":"ndw"}},{"type":"Feature","geometry":{"type":"Point","coordinates":[4.589501,51.912857]},"properties":{"type":"charge","layer":"passenger","locationId":"89942977","name":"EQUANS SGZH 2.0 Equans","address":"Albert Schweitzerlaan 10","city":"Krimpen aan den IJssel","operatorName":"EQUANS","maxPowerKw":11,"isMegawatt":false,"status":"CHARGING","source":"ndw"}},{"type":"Feature","geometry":{"type":"Point","coordinates":[4.607412,51.918824]},"properties":{"type":"charge","layer":"passenger","locationId":"89396934","name":"EQUANS SGZH 2.0 89396934","address":"Landszoom 30","city":"Krimpen aan den IJssel","operatorName":"EQUANS","maxPowerKw":17,"isMegawatt":false,"status":"AVAILABLE","source":"ndw"}},{"type":"Feature","geometry":{"type":"Point","coordinates":[4.614006,51.913038]},"properties":{"type":"charge","layer":"passenger","locationId":"89262278","name":"EQUANS SGZH 1.0 89262278","address":"Vijverlaan 32","city":"Krimpen aan den IJssel","operatorName":"EQUANS","maxPowerKw":11,"isMegawatt":false,"status":"AVAILABLE","source":"ndw"}},{"type":"Feature","geometry":{"type":"Point","coordinates":[4.625416,51.921352]},"properties":{"type":"charge","layer":"passenger","locationId":"89828106","name":"EQUANS SGZH 2.0 89828106","address":"Zonnebloem 79","city":"Krimpen aan den IJssel","operatorName":"EQUANS","maxPowerKw":11,"isMegawatt":false,"status":"AVAILABLE","source":"ndw"}},{"type":"Feature","geometry":{"type":"Point","coordinates":[4.626041,51.922551]},"properties":{"type":"charge","layer":"passenger","locationId":"89350573","name":"EQUANS SGZH 2.0 89350573","address":"Waterkers 2","city":"Krimpen aan den IJssel","operatorName":"EQUANS","maxPowerKw":17,"isMegawatt":false,"status":"AVAILABLE","source":"ndw"}},{"type":"Feature","geometry":{"type":"Point","coordinates":[4.606352,51.921251]},"properties":{"type":"charge","layer":"passenger","locationId":"89262285","name":"EQUANS SGZH 2.0 Arena 28","address":"Arena 28","city":"Krimpen aan den IJssel","operatorName":"EQUANS","maxPowerKw":11,"isMegawatt":false,"status":"AVAILABLE","source":"ndw"}},{"type":"Feature","geometry":{"type":"Point","coordinates":[4.596119,51.912936]},"properties":{"type":"charge","layer":"passenger","locationId":"90294203","name":"EQUANS SGZH 2.0 Memlingstraat 5","address":"Memlingstraat 5","city":"Krimpen aan den IJssel","operatorName":"EQUANS","maxPowerKw":11,"isMegawatt":false,"status":"AVAILABLE","source":"ndw"}},{"type":"Feature","geometry":{"type":"Point","coordinates":[4.604599,51.918712]},"properties":{"type":"charge","layer":"passenger","locationId":"89307464","name":"EQUANS SGZH 2.0 89307464","address":"Gouden Regen 21","city":"Krimpen aan den IJssel","operatorName":"EQUANS","maxPowerKw":17,"isMegawatt":false,"status":"AVAILABLE","source":"ndw"}},{"type":"Feature","geometry":{"type":"Point","coordinates":[4.576573,51.908485]},"properties":{"type":"charge","layer":"passenger","locationId":"923555","name":"Autobedrijf de Pee (77)","address":"Van Utrechtweg 77","city":"Krimpen aan den IJssel","operatorName":"DAEN Mobility","maxPowerKw":22,"isMegawatt":false,"status":"AVAILABLE","source":"ndw","priceKwh":0.69}},{"type":"Feature","geometry":{"type":"Point","coordinates":[4.619923,51.916974]},"properties":{"type":"charge","layer":"passenger","locationId":"90159922","name":"EQUANS SGZH 2.0 Zomereik 67","address":"Zomereik 67","city":"Krimpen aan den IJssel","operatorName":"EQUANS","maxPowerKw":11,"isMegawatt":false,"status":"AVAILABLE","source":"ndw"}},{"type":"Feature","geometry":{"type":"Point","coordinates":[4.605084,51.908908]},"properties":{"type":"charge","layer":"passenger","locationId":"89942979","name":"EQUANS SGZH 2.0 89942979","address":"Carmen 2","city":"Krimpen aan den IJssel","operatorName":"EQUANS","maxPowerKw":17,"isMegawatt":false,"status":"AVAILABLE","source":"ndw"}},{"type":"Feature","geometry":{"type":"Point","coordinates":[4.587601,51.917926]},"properties":{"type":"charge","layer":"passenger","locationId":"90186837","name":"EQUANS SGZH 2.0 Lijsterstraat 4","address":"Lijsterstraat 4","city":"Krimpen aan den IJssel","operatorName":"EQUANS","maxPowerKw":11,"isMegawatt":false,"status":"AVAILABLE","source":"ndw"}},{"type":"Feature","geometry":{"type":"Point","coordinates":[4.62813,51.921162]},"properties":{"type":"charge","layer":"passenger","locationId":"89099788","name":"EQUANS SGZH 1.0 89099788","address":"Fresia 111","city":"Krimpen aan den IJssel","operatorName":"EQUANS","maxPowerKw":17,"isMegawatt":false,"status":"AVAILABLE","source":"ndw"}},{"type":"Feature","geometry":{"type":"Point","coordinates":[4.603374,51.909871]},"properties":{"type":"charge","layer":"passenger","locationId":"89262299","name":"EQUANS SGZH 1.0 89262299","address":"Ouverturelaan 12","city":"Krimpen aan den IJssel","operatorName":"EQUANS","maxPowerKw":11,"isMegawatt":false,"status":"AVAILABLE","source":"ndw"}},{"type":"Feature","geometry":{"type":"Point","coordinates":[4.594137,51.914935]},"properties":{"type":"charge","layer":"passenger","locationId":"89262267","name":"EQUANS SGZH 1.0 89262267","address":"Wulpstraat 24","city":"Krimpen aan den IJssel","operatorName":"EQUANS","maxPowerKw":11,"isMegawatt":false,"status":"AVAILABLE","source":"ndw"}},{"type":"Feature","geometry":{"type":"Point","coordinates":[4.599049,51.919092]},"properties":{"type":"charge","layer":"passenger","locationId":"89262265","name":"EQUANS SGZH 2.0 Middenwetering 173","address":"Middenwetering 173","city":"Krimpen aan den IJssel","operatorName":"EQUANS","maxPowerKw":11,"isMegawatt":false,"status":"AVAILABLE","source":"ndw"}},{"type":"Feature","geometry":{"type":"Point","coordinates":[4.610923,51.922233]},"properties":{"type":"charge","layer":"passenger","locationId":"89942975","name":"EQUANS SGZH 2.0 89942975","address":"De Korf 47","city":"Krimpen aan den IJssel","operatorName":"EQUANS","maxPowerKw":11,"isMegawatt":false,"status":"AVAILABLE","source":"ndw"}},{"type":"Feature","geometry":{"type":"Point","coordinates":[4.59251,51.91354]},"properties":{"type":"charge","layer":"passenger","locationId":"90167050","name":"EQUANS SGZH 2.0 Dr. Thijsselaan 20","address":"Dr. Thijsselaan 20","city":"Krimpen aan den IJssel","operatorName":"EQUANS","maxPowerKw":11,"isMegawatt":false,"status":"AVAILABLE","source":"ndw"}},{"type":"Feature","geometry":{"type":"Point","coordinates":[4.617178,51.924399]},"properties":{"type":"charge","layer":"passenger","locationId":"89124611","name":"EQUANS SGZH 1.0 89124611","address":"Zaagmolen 11","city":"Krimpen aan den IJssel","operatorName":"EQUANS","maxPowerKw":22,"isMegawatt":false,"status":"AVAILABLE","source":"ndw"}},{"type":"Feature","geometry":{"type":"Point","coordinates":[4.622423,51.910767]},"properties":{"type":"charge","layer":"passenger","locationId":"922875","name":"DAE_NL_2000524","address":"Krimpenerbosweg 1","city":"Krimpen aan den IJssel","operatorName":"DAEN Mobility","maxPowerKw":11,"isMegawatt":false,"status":"AVAILABLE","source":"ndw","priceKwh":0.75}},{"type":"Feature","geometry":{"type":"Point","coordinates":[4.617846,51.913922]},"properties":{"type":"charge","layer":"passenger","locationId":"89262292","name":"EQUANS SGZH 1.0 89262292","address":"Lijsterbes 48","city":"Krimpen aan den IJssel","operatorName":"EQUANS","maxPowerKw":11,"isMegawatt":false,"status":"CHARGING","source":"ndw"}},{"type":"Feature","geometry":{"type":"Point","coordinates":[4.611095,51.92117]},"properties":{"type":"charge","layer":"passenger","locationId":"89143002","name":"EQUANS SGZH 1.0 89143002","address":"Omnium 7","city":"Krimpen aan den IJssel","operatorName":"EQUANS","maxPowerKw":17,"isMegawatt":false,"status":"AVAILABLE","source":"ndw"}},{"type":"Feature","geometry":{"type":"Point","coordinates":[4.62583,51.91937]},"properties":{"type":"charge","layer":"passenger","locationId":"91459931","name":"EQUANS SGZH 2.0 Tulp 2","address":"Tulp 2","city":"Krimpen aan den IJssel","operatorName":"EQUANS","maxPowerKw":11,"isMegawatt":false,"status":"CHARGING","source":"ndw"}},{"type":"Feature","geometry":{"type":"Point","coordinates":[4.583145,51.913013]},"properties":{"type":"charge","layer":"passenger","locationId":"89952700","name":"EQUANS SGZH 2.0 89952700","address":"Tuinstraat 43","city":"Krimpen aan den IJssel","operatorName":"EQUANS","maxPowerKw":11,"isMegawatt":false,"status":"AVAILABLE","source":"ndw"}},{"type":"Feature","geometry":{"type":"Point","coordinates":[4.596416,51.908983]},"properties":{"type":"charge","layer":"passenger","locationId":"90167051","name":"EQUANS SGZH 2.0 van Ostadelaan 101","address":"van Ostadelaan 101","city":"Krimpen aan den IJssel","operatorName":"EQUANS","maxPowerKw":11,"isMegawatt":false,"status":"CHARGING","source":"ndw"}},{"type":"Feature","geometry":{"type":"Point","coordinates":[4.61488,51.913777]},"properties":{"type":"charge","layer":"passenger","locationId":"89332352","name":"EQUANS SGZH 1.0 89332352","address":"Vijverlaan 257","city":"Krimpen aan den IJssel","operatorName":"EQUANS","maxPowerKw":11,"isMegawatt":false,"status":"CHARGING","source":"ndw"}},{"type":"Feature","geometry":{"type":"Point","coordinates":[4.60817,51.91178]},"properties":{"type":"charge","layer":"passenger","locationId":"90883000","name":"EQUANS SGZH 2.0 Ouverturelaan 107","address":"Ouverturelaan 107","city":"Krimpen aan den IJssel","operatorName":"EQUANS","maxPowerKw":11,"isMegawatt":false,"status":"AVAILABLE","source":"ndw"}},{"type":"Feature","geometry":{"type":"Point","coordinates":[4.602477,51.915097]},"properties":{"type":"charge","layer":"passenger","locationId":"89262277","name":"EQUANS SGZH 1.0 89262277","address":"Veld en Beemd 1","city":"Krimpen aan den IJssel","operatorName":"EQUANS","maxPowerKw":11,"isMegawatt":false,"status":"AVAILABLE","source":"ndw"}},{"type":"Feature","geometry":{"type":"Point","coordinates":[4.59139,51.91629]},"properties":{"type":"charge","layer":"passenger","locationId":"89035160","name":"EQUANS SGZH 2.0 89035160","address":"Elckerlyc 1","city":"Krimpen aan den IJssel","operatorName":"EQUANS","maxPowerKw":11,"isMegawatt":false,"status":"AVAILABLE","source":"ndw"}},{"type":"Feature","geometry":{"type":"Point","coordinates":[4.607412,51.910002]},"properties":{"type":"charge","layer":"passenger","locationId":"89262297","name":"EQUANS SGZH 1.0 89262297","address":"Belcantodreef 75","city":"Krimpen aan den IJssel","operatorName":"EQUANS","maxPowerKw":11,"isMegawatt":false,"status":"AVAILABLE","source":"ndw"}},{"type":"Feature","geometry":{"type":"Point","coordinates":[4.61865,51.92128]},"properties":{"type":"charge","layer":"passenger","locationId":"89035168","name":"EQUANS SGZH 2.0 89035168","address":"Gipskruid 13","city":"Krimpen aan den IJssel","operatorName":"EQUANS","maxPowerKw":11,"isMegawatt":false,"status":"AVAILABLE","source":"ndw"}},{"type":"Feature","geometry":{"type":"Point","coordinates":[4.607825,51.919839]},"properties":{"type":"charge","layer":"passenger","locationId":"89262287","name":"EQUANS SGZH 1.0 89262287","address":"Andante 2","city":"Krimpen aan den IJssel","operatorName":"EQUANS","maxPowerKw":11,"isMegawatt":false,"status":"CHARGING","source":"ndw"}},{"type":"Feature","geometry":{"type":"Point","coordinates":[4.621415,51.924865]},"properties":{"type":"charge","layer":"passenger","locationId":"89568251","name":"EQUANS SGZH 2.0 89568251","address":"Drijvermast 32","city":"Krimpen aan den IJssel","operatorName":"EQUANS","maxPowerKw":11,"isMegawatt":false,"status":"AVAILABLE","source":"ndw"}},{"type":"Feature","geometry":{"type":"Point","coordinates":[4.626867,51.921478]},"properties":{"type":"charge","layer":"passenger","locationId":"89262294","name":"EQUANS SGZH 2.0 Fresia 129","address":"Fresia 129","city":"Krimpen aan den IJssel","operatorName":"EQUANS","maxPowerKw":11,"isMegawatt":false,"status":"AVAILABLE","source":"ndw"}},{"type":"Feature","geometry":{"type":"Point","coordinates":[4.596345,51.915537]},"properties":{"type":"charge","layer":"passenger","locationId":"89262266","name":"EQUANS SGZH 1.0 89262266","address":"Fazantstraat 31","city":"Krimpen aan den IJssel","operatorName":"EQUANS","maxPowerKw":11,"isMegawatt":false,"status":"CHARGING","source":"ndw"}},{"type":"Feature","geometry":{"type":"Point","coordinates":[4.611996,51.910433]},"properties":{"type":"charge","layer":"passenger","locationId":"89262300","name":"EQUANS SGZH 1.0 89262300","address":"Hoflaan 32","city":"Krimpen aan den IJssel","operatorName":"EQUANS","maxPowerKw":11,"isMegawatt":false,"status":"AVAILABLE","source":"ndw"}},{"type":"Feature","geometry":{"type":"Point","coordinates":[4.609238,51.922226]},"properties":{"type":"charge","layer":"passenger","locationId":"89262281","name":"EQUANS SGZH 1.0 89262281","address":"Olympiade 100","city":"Krimpen aan den IJssel","operatorName":"EQUANS","maxPowerKw":11,"isMegawatt":false,"status":"AVAILABLE","source":"ndw"}},{"type":"Feature","geometry":{"type":"Point","coordinates":[4.614808,51.914001]},"properties":{"type":"charge","layer":"passenger","locationId":"90112032","name":"EQUANS SGZH 2.0 Lage Vijver 2","address":"Lage Vijver 2","city":"Krimpen aan den IJssel","operatorName":"EQUANS","maxPowerKw":11,"isMegawatt":false,"status":"AVAILABLE","source":"ndw"}},{"type":"Feature","geometry":{"type":"Point","coordinates":[4.583126,51.91381]},"properties":{"type":"charge","layer":"passenger","locationId":"89262256","name":"EQUANS SGZH 1.0 89262256","address":"Weteringsingel 8","city":"Krimpen aan den IJssel","operatorName":"EQUANS","maxPowerKw":11,"isMegawatt":false,"status":"AVAILABLE","source":"ndw"}},{"type":"Feature","geometry":{"type":"Point","coordinates":[4.58173,51.9176]},"properties":{"type":"charge","layer":"passenger","locationId":"90994590","name":"EQUANS SGZH 2.0 IJsselstraat 32","address":"IJsselstraat 32","city":"Krimpen aan den IJssel","operatorName":"EQUANS","maxPowerKw":11,"isMegawatt":false,"status":"AVAILABLE","source":"ndw"}},{"type":"Feature","geometry":{"type":"Point","coordinates":[4.582754,51.918654]},"properties":{"type":"charge","layer":"passenger","locationId":"89262260","name":"EQUANS SGZH 1.0 89262260","address":"IJsselstraat 73","city":"Krimpen aan den IJssel","operatorName":"EQUANS","maxPowerKw":11,"isMegawatt":false,"status":"AVAILABLE","source":"ndw"}},{"type":"Feature","geometry":{"type":"Point","coordinates":[4.603275,51.91686]},"properties":{"type":"charge","layer":"passenger","locationId":"89262271","name":"EQUANS SGZH 1.0 89262271","address":"Meidoornstraat 27","city":"Krimpen aan den Ijssel","operatorName":"EQUANS","maxPowerKw":11,"isMegawatt":false,"status":"CHARGING","source":"ndw"}},{"type":"Feature","geometry":{"type":"Point","coordinates":[4.5995,51.924915]},"properties":{"type":"charge","layer":"passenger","locationId":"89262282","name":"EQUANS SGZH 1.0 89262282","address":"IJsseldijk 277","city":"Krimpen aan den IJssel","operatorName":"EQUANS","maxPowerKw":11,"isMegawatt":false,"status":"AVAILABLE","source":"ndw"}},{"type":"Feature","geometry":{"type":"Point","coordinates":[4.624803,51.922612]},"properties":{"type":"charge","layer":"passenger","locationId":"90327282","name":"EQUANS SGZH 2.0 Zonnebloem 27","address":"Zonnebloem 27","city":"Krimpen aan den IJssel","operatorName":"EQUANS","maxPowerKw":11,"isMegawatt":false,"status":"AVAILABLE","source":"ndw"}},{"type":"Feature","geometry":{"type":"Point","coordinates":[4.619771,51.923723]},"properties":{"type":"charge","layer":"passenger","locationId":"89262284","name":"EQUANS SGZH 1.0 89262284","address":"Vliegerzeil 9","city":"Krimpen aan den IJssel","operatorName":"EQUANS","maxPowerKw":11,"isMegawatt":false,"status":"AVAILABLE","source":"ndw"}},{"type":"Feature","geometry":{"type":"Point","coordinates":[4.61221,51.92191]},"properties":{"type":"charge","layer":"passenger","locationId":"89035166","name":"EQUANS SGZH 2.0 89035166","address":"Marathon 11","city":"Krimpen aan den IJssel","operatorName":"EQUANS","maxPowerKw":11,"isMegawatt":false,"status":"AVAILABLE","source":"ndw"}},{"type":"Feature","geometry":{"type":"Point","coordinates":[4.622157,51.918257]},"properties":{"type":"charge","layer":"passenger","locationId":"90099922","name":"EQUANS SGZH 2.0 Zomereik 89","address":"Zomereik 89","city":"Krimpen aan den IJssel","operatorName":"EQUANS","maxPowerKw":11,"isMegawatt":false,"status":"AVAILABLE","source":"ndw"}},{"type":"Feature","geometry":{"type":"Point","coordinates":[4.62329,51.92302]},"properties":{"type":"charge","layer":"passenger","locationId":"89035170","name":"EQUANS SGZH 2.0 89035170","address":"Brinkweg 47TO","city":"Krimpen aan den IJssel","operatorName":"EQUANS","maxPowerKw":11,"isMegawatt":false,"status":"CHARGING","source":"ndw"}},{"type":"Feature","geometry":{"type":"Point","coordinates":[4.617935,51.922067]},"properties":{"type":"charge","layer":"passenger","locationId":"89954679","name":"EQUANS SGZH 2.0 Praam 9","address":"Praam 9","city":"Krimpen aan den IJssel","operatorName":"EQUANS","maxPowerKw":11,"isMegawatt":false,"status":"AVAILABLE","source":"ndw"}},{"type":"Feature","geometry":{"type":"Point","coordinates":[4.59158,51.91366]},"properties":{"type":"charge","layer":"passenger","locationId":"90953823","name":"EQUANS SGZH 2.0 Boerhaavelaan 37 T.O.","address":"Boerhaavelaan 37 T.O.","city":"Krimpen aan den IJssel","operatorName":"EQUANS","maxPowerKw":11,"isMegawatt":false,"status":"AVAILABLE","source":"ndw"}},{"type":"Feature","geometry":{"type":"Point","coordinates":[4.60897,51.911193]},"properties":{"type":"charge","layer":"passenger","locationId":"89307491","name":"EQUANS SGZH 2.0 89307491","address":"De Landerijen 60","city":"Krimpen aan den IJssel","operatorName":"EQUANS","maxPowerKw":17,"isMegawatt":false,"status":"AVAILABLE","source":"ndw"}},{"type":"Feature","geometry":{"type":"Point","coordinates":[4.62001,51.92084]},"properties":{"type":"charge","layer":"passenger","locationId":"90878419","name":"EQUANS SGZH 2.0 Sluierkruid 20","address":"Sluierkruid 20","city":"Krimpen aan den IJssel","operatorName":"EQUANS","maxPowerKw":11,"isMegawatt":false,"status":"AVAILABLE","source":"ndw"}},{"type":"Feature","geometry":{"type":"Point","coordinates":[4.605313,51.917489]},"properties":{"type":"charge","layer":"passenger","locationId":"89262276","name":"EQUANS SGZH 1.0 89262276","address":"Duindoorn 13","city":"Krimpen aan den IJssel","operatorName":"EQUANS","maxPowerKw":11,"isMegawatt":false,"status":"AVAILABLE","source":"ndw"}},{"type":"Feature","geometry":{"type":"Point","coordinates":[4.618175,51.926542]},"properties":{"type":"charge","layer":"passenger","locationId":"90310800","name":"EQUANS SGZH 2.0 Boveneindselaan 25","address":"Boveneindselaan 25","city":"Krimpen aan den IJssel","operatorName":"EQUANS","maxPowerKw":11,"isMegawatt":false,"status":"AVAILABLE","source":"ndw"}},{"type":"Feature","geometry":{"type":"Point","coordinates":[4.580439,51.914407]},"properties":{"type":"charge","layer":"passenger","locationId":"89262258","name":"EQUANS SGZH 1.0 89262258","address":"Tuinstraat 10","city":"Krimpen aan den IJssel","operatorName":"EQUANS","maxPowerKw":11,"isMegawatt":false,"status":"AVAILABLE","source":"ndw"}},{"type":"Feature","geometry":{"type":"Point","coordinates":[4.60718,51.92037]},"properties":{"type":"charge","layer":"passenger","locationId":"89035167","name":"EQUANS SGZH 2.0 89035167","address":"Zwanenkade 5ST","city":"Krimpen aan den IJssel","operatorName":"EQUANS","maxPowerKw":11,"isMegawatt":false,"status":"AVAILABLE","source":"ndw"}},{"type":"Feature","geometry":{"type":"Point","coordinates":[4.597151,51.920141]},"properties":{"type":"charge","layer":"passenger","locationId":"90832023","name":"EQUANS SGZH 2.0 Parkzoom 30","address":"Parkzoom 30","city":"Krimpen aan den IJssel","operatorName":"EQUANS","maxPowerKw":11,"isMegawatt":false,"status":"AVAILABLE","source":"ndw"}},{"type":"Feature","geometry":{"type":"Point","coordinates":[4.61021,51.92304]},"properties":{"type":"charge","layer":"passenger","locationId":"89035165","name":"EQUANS SGZH 2.0 89035165","address":"Atletiek 13TO","city":"Krimpen aan den IJssel","operatorName":"EQUANS","maxPowerKw":11,"isMegawatt":false,"status":"UNAVAILABLE","source":"ndw"}},{"type":"Feature","geometry":{"type":"Point","coordinates":[4.597252,51.921273]},"properties":{"type":"charge","layer":"passenger","locationId":"89262264","name":"EQUANS SGZH 1.0 89262264","address":"Morgental 14","city":"Krimpen aan den IJssel","operatorName":"EQUANS","maxPowerKw":11,"isMegawatt":false,"status":"CHARGING","source":"ndw"}},{"type":"Feature","geometry":{"type":"Point","coordinates":[4.605638,51.910579]},"properties":{"type":"charge","layer":"passenger","locationId":"89355358","name":"EQUANS SGZH 2.0 89355358","address":"Traviata 1","city":"Krimpen aan den IJssel","operatorName":"EQUANS","maxPowerKw":17,"isMegawatt":false,"status":"AVAILABLE","source":"ndw"}},{"type":"Feature","geometry":{"type":"Point","coordinates":[4.592487,51.918528]},"properties":{"type":"charge","layer":"passenger","locationId":"90346665","name":"EQUANS SGZH 2.0 De Vroedschap 36","address":"De Vroedschap 36","city":"Krimpen aan den IJssel","operatorName":"EQUANS","maxPowerKw":11,"isMegawatt":false,"status":"AVAILABLE","source":"ndw"}},{"type":"Feature","geometry":{"type":"Point","coordinates":[4.594971,51.920838]},"properties":{"type":"charge","layer":"passenger","locationId":"89885267","name":"EQUANS SGZH 2.0 89885267","address":"Poldermeesterhof 17","city":"Krimpen aan den IJssel","operatorName":"EQUANS","maxPowerKw":11,"isMegawatt":false,"status":"AVAILABLE","source":"ndw"}},{"type":"Feature","geometry":{"type":"Point","coordinates":[4.60704,51.924846]},"properties":{"type":"charge","layer":"passenger","locationId":"68e14a28e11efa96a5d3bd09","name":"IJsseldijk 150TO","address":"IJsseldijk 150","city":"Krimpen aan den IJssel","operatorName":"E-Flux by Road","maxPowerKw":4,"isMegawatt":false,"status":"AVAILABLE","source":"ndw","priceKwh":0.48}},{"type":"Feature","geometry":{"type":"Point","coordinates":[4.59695,51.91086]},"properties":{"type":"charge","layer":"passenger","locationId":"90961344","name":"EQUANS SGZH 2.0 Rembrandtlaan 23","address":"Rembrandtlaan 23","city":"Krimpen aan den IJssel","operatorName":"EQUANS","maxPowerKw":11,"isMegawatt":false,"status":"AVAILABLE","source":"ndw"}},{"type":"Feature","geometry":{"type":"Point","coordinates":[4.583413,51.909778]},"properties":{"type":"charge","layer":"passenger","locationId":"89490577","name":"EQUANS SGZH 2.0 89490577","address":"Parallelweg 1 a","city":"Krimpen aan den IJssel","operatorName":"EQUANS","maxPowerKw":11,"isMegawatt":false,"status":"AVAILABLE","source":"ndw"}},{"type":"Feature","geometry":{"type":"Point","coordinates":[4.596646,51.916508]},"properties":{"type":"charge","layer":"passenger","locationId":"90377611","name":"EQUANS SGZH 2.0 Zwaluwhof 110","address":"Zwaluwhof 110","city":"Krimpen aan den IJssel","operatorName":"EQUANS","maxPowerKw":11,"isMegawatt":false,"status":"AVAILABLE","source":"ndw"}},{"type":"Feature","geometry":{"type":"Point","coordinates":[4.586997,51.914812]},"properties":{"type":"charge","layer":"passenger","locationId":"91114235","name":"EQUANS SGZH 2.0 Prins Bernhardstraat 55","address":"Prins Bernhardstraat 55","city":"Krimpen aan den IJssel","operatorName":"EQUANS","maxPowerKw":11,"isMegawatt":false,"status":"CHARGING","source":"ndw"}},{"type":"Feature","geometry":{"type":"Point","coordinates":[4.61585,51.916966]},"properties":{"type":"charge","layer":"passenger","locationId":"89344647","name":"EQUANS SGZH 2.0 Zwanenkade 101","address":"Zwanenkade 101","city":"Krimpen aan den IJssel","operatorName":"EQUANS","maxPowerKw":17,"isMegawatt":false,"status":"AVAILABLE","source":"ndw"}},{"type":"Feature","geometry":{"type":"MultiPolygon","coordinates":[[[[4.623665213296402,51.92628496640346],[4.630587492994375,51.92143337950083],[4.643019320748993,51.912569018709945],[4.642783424231772,51.91245736359821],[4.635152207755046,51.91007002376596],[4.6232183544786745,51.90853578270905],[4.601464364749495,51.90699734403518],[4.59682691787153,51.90781111723485],[4.596769625276709,51.90780468459476],[4.595173943264994,51.90708179188685],[4.5967336408202515,51.90575724850096],[4.593511560063785,51.90410126208814],[4.593084199910896,51.904679529507426],[4.592520693877543,51.90440606206151],[4.592213625671617,51.905600854194134],[4.588748353696851,51.90418711792163],[4.589099219032209,51.902367183206785],[4.584191741208185,51.903905135044326],[4.5820354242605905,51.90408621705699],[4.576329070816476,51.9030314707402],[4.569463546800038,51.904350720189925],[4.555088042460745,51.90564634509613],[4.549238886915969,51.90488205091534],[4.549901701739876,51.90672841055461],[4.558685601557827,51.908238752972565],[4.566061467733793,51.90924629198523],[4.571183785273329,51.91186537413485],[4.577152022237058,51.914551417807154],[4.579455080926434,51.91675356273798],[4.579491459730572,51.91682911882285],[4.581280844964339,51.91986795479535],[4.582840229533253,51.9207767076269],[4.588137149858964,51.92179583628889],[4.59395977898258,51.924475910141986],[4.598155922369752,51.92608268554317],[4.601683661958514,51.92665077386742],[4.607054322704516,51.925682117175505],[4.610724797719123,51.92534081213057],[4.613236091041473,51.926076956162944],[4.615068225341988,51.92735336512155],[4.617704237663643,51.931049894051995],[4.623665213296402,51.92628496640346]]]]},"properties":{"type":"boundary","gemeente":"Krimpen aan den IJssel","code":"GM0542"}}]}