{"type":"FeatureCollection","metadata":{"gemeente":"Landsmeer","slug":"landsmeer","code":"GM0415","generated_at":"2026-07-06T16:26:11.361Z","total_passenger":51,"total_freight":0,"bounds":[4.89307676734055,52.411607709407676,4.950860428833681,52.49043489059258],"operators":["Allego","E-Flux by Road","TotalEnergies","Ubitricity","Vattenfall InCharge","bp pulse"]},"features":[{"type":"Feature","geometry":{"type":"Point","coordinates":[4.917473,52.433273]},"properties":{"type":"charge","layer":"passenger","locationId":"NLLOC002324","name":"NLD, Landsmeer, Wederikstraat 20, 1121 XJ","address":"Wederikstraat 20","city":"Landsmeer","operatorName":"Allego","maxPowerKw":11,"isMegawatt":false,"status":"CHARGING","source":"ndw","priceKwh":0.511}},{"type":"Feature","geometry":{"type":"Point","coordinates":[4.900397,52.429146]},"properties":{"type":"charge","layer":"passenger","locationId":"2f02f3e4-443d-4978-9c6b-f70223665f06","name":"TNLP008207 - Paterspoel 21, Landsmeer","address":"21 Paterspoel","city":"Landsmeer","operatorName":"TotalEnergies","maxPowerKw":17,"isMegawatt":false,"status":"UNAVAILABLE","source":"ndw"}},{"type":"Feature","geometry":{"type":"Point","coordinates":[4.911945,52.419984]},"properties":{"type":"charge","layer":"passenger","locationId":"5959563c-f92a-4fff-849d-ca3a92541430","name":"bp pulse charging hub Kadoelen #07","address":"IJdoornlaan 11","city":"Landsmeer","operatorName":"bp pulse","maxPowerKw":150,"isMegawatt":false,"status":"AVAILABLE","source":"ndw","priceKwh":0.7}},{"type":"Feature","geometry":{"type":"Point","coordinates":[4.925168,52.428474]},"properties":{"type":"charge","layer":"passenger","locationId":"7c2e5805-716f-4ca9-8f84-f2186028b3c7","name":"TNLP008064 - Kistenmakerseiland 7, Landsmeer","address":"7 Kistenmakerseiland","city":"Landsmeer","operatorName":"TotalEnergies","maxPowerKw":15,"isMegawatt":false,"status":"AVAILABLE","source":"ndw"}},{"type":"Feature","geometry":{"type":"Point","coordinates":[4.9024518,52.428963]},"properties":{"type":"charge","layer":"passenger","locationId":"1913","name":"Shell Recharge NL Schuttebreek 1","address":"Schuttebreek 1","city":"Landsmeer","operatorName":"Ubitricity","maxPowerKw":22,"isMegawatt":false,"status":"AVAILABLE","source":"ndw","priceKwh":0.266}},{"type":"Feature","geometry":{"type":"Point","coordinates":[4.9120122,52.4315475]},"properties":{"type":"charge","layer":"passenger","locationId":"1768","name":"Shell Recharge NL Optimist 6","address":"Optimist 6","city":"Landsmeer","operatorName":"Ubitricity","maxPowerKw":22,"isMegawatt":false,"status":"AVAILABLE","source":"ndw","priceKwh":0.266}},{"type":"Feature","geometry":{"type":"Point","coordinates":[4.906379,52.426523]},"properties":{"type":"charge","layer":"passenger","locationId":"NLLOC004857","name":"NLD, Buitenhuislaan 11 1121RM Landsmeer","address":"Buitenhuislaan 11","city":"Landsmeer","operatorName":"Allego","maxPowerKw":11,"isMegawatt":false,"status":"AVAILABLE","source":"ndw","priceKwh":0.511}},{"type":"Feature","geometry":{"type":"Point","coordinates":[4.916635,52.426114]},"properties":{"type":"charge","layer":"passenger","locationId":"318103fae5257c8ac7b604ab2730c384","name":"Doctor Martin Luther Kingstraat 39","address":"Doctor Martin Luther Kingstraat 39","city":"Landsmeer","operatorName":"Vattenfall InCharge","maxPowerKw":11,"isMegawatt":false,"status":"CHARGING","source":"ndw"}},{"type":"Feature","geometry":{"type":"Point","coordinates":[4.9185221,52.428584]},"properties":{"type":"charge","layer":"passenger","locationId":"1788","name":"Shell Recharge NL Stoutenburg 65","address":"Stoutenburg 65","city":"Landsmeer","operatorName":"Ubitricity","maxPowerKw":22,"isMegawatt":false,"status":"CHARGING","source":"ndw","priceKwh":0.266}},{"type":"Feature","geometry":{"type":"Point","coordinates":[4.914868,52.431974]},"properties":{"type":"charge","layer":"passenger","locationId":"NLLOC002864","name":"NLD, Landsmeer, Raadhuisstraat 2","address":"Raadhuisstraat 2","city":"Landsmeer","operatorName":"Allego","maxPowerKw":11,"isMegawatt":false,"status":"AVAILABLE","source":"ndw","priceKwh":0.511}},{"type":"Feature","geometry":{"type":"Point","coordinates":[4.90255,52.427216]},"properties":{"type":"charge","layer":"passenger","locationId":"f2937a38-b2fc-401c-b397-17f05ebb9a15","name":"TNLP008819 - Langhuislaan 2, Landsmeer","address":"2 Langhuislaan","city":"Landsmeer","operatorName":"TotalEnergies","maxPowerKw":14,"isMegawatt":false,"status":"AVAILABLE","source":"ndw"}},{"type":"Feature","geometry":{"type":"Point","coordinates":[4.901142,52.429844]},"properties":{"type":"charge","layer":"passenger","locationId":"6442b2ab-a73b-4b0f-adc0-a66a717df0b5","name":"TNLP009885 - Turfsteker 2, Landsmeer","address":"2 Turfsteker","city":"Landsmeer","operatorName":"TotalEnergies","maxPowerKw":17,"isMegawatt":false,"status":"UNAVAILABLE","source":"ndw"}},{"type":"Feature","geometry":{"type":"Point","coordinates":[4.9031415,52.4277569]},"properties":{"type":"charge","layer":"passenger","locationId":"1784","name":"Shell Recharge NL Langhuislaan 25","address":"Langhuislaan 25","city":"Landsmeer","operatorName":"Ubitricity","maxPowerKw":22,"isMegawatt":false,"status":"CHARGING","source":"ndw","priceKwh":0.266}},{"type":"Feature","geometry":{"type":"Point","coordinates":[4.915472,52.43316]},"properties":{"type":"charge","layer":"passenger","locationId":"a585486e-2e2f-4174-b0e7-56a442107be9","name":"TNLP008574 - Tormentilstraat 2, Landsmeer","address":"2 Tormentilstraat","city":"Landsmeer","operatorName":"TotalEnergies","maxPowerKw":13,"isMegawatt":false,"status":"UNAVAILABLE","source":"ndw"}},{"type":"Feature","geometry":{"type":"Point","coordinates":[4.909719,52.426924]},"properties":{"type":"charge","layer":"passenger","locationId":"NLLOC002321","name":"NLD, Landsmeer,Geijenbreek 1, 1121 KK","address":"Geijenbreek 1","city":"Landsmeer","operatorName":"Allego","maxPowerKw":11,"isMegawatt":false,"status":"CHARGING","source":"ndw","priceKwh":0.511}},{"type":"Feature","geometry":{"type":"Point","coordinates":[4.916012,52.42819]},"properties":{"type":"charge","layer":"passenger","locationId":"NLLOC003483","name":"NLD, Landsmeer, Drakenstein 14","address":"Drakenstein 14","city":"Landsmeer","operatorName":"Allego","maxPowerKw":11,"isMegawatt":false,"status":"CHARGING","source":"ndw","priceKwh":0.511}},{"type":"Feature","geometry":{"type":"Point","coordinates":[4.905042,52.427397]},"properties":{"type":"charge","layer":"passenger","locationId":"NLLOC003700","name":"NLD, Landsmeer, Buitenhuislaan 41","address":"Buitenhuislaan 41","city":"Landsmeer","operatorName":"Allego","maxPowerKw":11,"isMegawatt":false,"status":"AVAILABLE","source":"ndw","priceKwh":0.511}},{"type":"Feature","geometry":{"type":"Point","coordinates":[4.918758,52.434713]},"properties":{"type":"charge","layer":"passenger","locationId":"NLLOC007724","name":"NL, Lisstraat 7, 1121 AN, Landsmeer","address":"Lisstraat 7","city":"Landsmeer","operatorName":"Allego","maxPowerKw":11,"isMegawatt":false,"status":"AVAILABLE","source":"ndw","priceKwh":0.511}},{"type":"Feature","geometry":{"type":"Point","coordinates":[4.9158011,52.4362454]},"properties":{"type":"charge","layer":"passenger","locationId":"836","name":"Shell Recharge NL Zonnehof 2","address":"Zonnehof 2","city":"Landsmeer","operatorName":"Ubitricity","maxPowerKw":22,"isMegawatt":false,"status":"AVAILABLE","source":"ndw","priceKwh":0.266}},{"type":"Feature","geometry":{"type":"Point","coordinates":[4.914378,52.426098]},"properties":{"type":"charge","layer":"passenger","locationId":"aa36379d-ecbe-4313-aa98-220feb84b933","name":"TNLP008066 - Assumburg 1, Landsmeer","address":"1 Assumburg","city":"Landsmeer","operatorName":"TotalEnergies","maxPowerKw":17,"isMegawatt":false,"status":"UNAVAILABLE","source":"ndw"}},{"type":"Feature","geometry":{"type":"Point","coordinates":[4.924389,52.432164]},"properties":{"type":"charge","layer":"passenger","locationId":"NLLOC004328","name":"NLD Goudpluvier 36 1121 ES Landsmeer","address":"Goudpluvier 36","city":"Landsmeer","operatorName":"Allego","maxPowerKw":11,"isMegawatt":false,"status":"AVAILABLE","source":"ndw","priceKwh":0.511}},{"type":"Feature","geometry":{"type":"Point","coordinates":[4.912277,52.43089]},"properties":{"type":"charge","layer":"passenger","locationId":"NLLOC003591","name":"NLD, Landsmeer, Cassandrahof 16","address":"Cassandrahof 16","city":"Landsmeer","operatorName":"Allego","maxPowerKw":11,"isMegawatt":false,"status":"AVAILABLE","source":"ndw","priceKwh":0.511}},{"type":"Feature","geometry":{"type":"Point","coordinates":[4.919077,52.431744]},"properties":{"type":"charge","layer":"passenger","locationId":"acd8b227-d596-4ad7-817f-bb97217c1632","name":"TNLP008386 - Ooievaarslaan 1, Landsmeer","address":"1 Ooievaarslaan","city":"Landsmeer","operatorName":"TotalEnergies","maxPowerKw":13,"isMegawatt":false,"status":"UNAVAILABLE","source":"ndw"}},{"type":"Feature","geometry":{"type":"Point","coordinates":[4.912999,52.428678]},"properties":{"type":"charge","layer":"passenger","locationId":"NLLOC002862","name":"NLD, Landsmeer, Zuideinde 10","address":"Zuideinde 10","city":"Landsmeer","operatorName":"Allego","maxPowerKw":11,"isMegawatt":false,"status":"AVAILABLE","source":"ndw","priceKwh":0.511}},{"type":"Feature","geometry":{"type":"Point","coordinates":[4.91651,52.42549]},"properties":{"type":"charge","layer":"passenger","locationId":"afd9509a-1644-4720-bff7-c0638b9cab61","name":"TNLP008094 - Nijenrode 17, Landsmeer","address":"17 Nijenrode","city":"Landsmeer","operatorName":"TotalEnergies","maxPowerKw":17,"isMegawatt":false,"status":"UNAVAILABLE","source":"ndw"}},{"type":"Feature","geometry":{"type":"Point","coordinates":[4.9277,52.484441]},"properties":{"type":"charge","layer":"passenger","locationId":"68779fb2d0c6f408e08a6c02","name":"Poelier Slagerij J.Tromp","address":"purmerland 32","city":"Purmerland","operatorName":"E-Flux by Road","maxPowerKw":117,"isMegawatt":false,"status":"AVAILABLE","source":"ndw","priceKwh":0.42}},{"type":"Feature","geometry":{"type":"Point","coordinates":[4.9082634,52.4298103]},"properties":{"type":"charge","layer":"passenger","locationId":"1349","name":"Shell Recharge NL Schaepeboet 10","address":"Schaepeboet 10","city":"Landsmeer","operatorName":"Ubitricity","maxPowerKw":22,"isMegawatt":false,"status":"AVAILABLE","source":"ndw","priceKwh":0.266}},{"type":"Feature","geometry":{"type":"Point","coordinates":[4.928643,52.428947]},"properties":{"type":"charge","layer":"passenger","locationId":"254dd61a-acb4-498a-a0a5-494e57f127bb","name":"TNLP008921 - Dobberhof 2, Landsmeer","address":"2 Dobberhof","city":"Landsmeer","operatorName":"TotalEnergies","maxPowerKw":14,"isMegawatt":false,"status":"AVAILABLE","source":"ndw"}},{"type":"Feature","geometry":{"type":"Point","coordinates":[4.902016,52.43046]},"properties":{"type":"charge","layer":"passenger","locationId":"10dad4a7-3435-48a3-bf96-432d6944fe3b","name":"TNLP008853 - Zeilmaker 46, Landsmeer","address":"46 Zeilmaker","city":"Landsmeer","operatorName":"TotalEnergies","maxPowerKw":13,"isMegawatt":false,"status":"UNAVAILABLE","source":"ndw"}},{"type":"Feature","geometry":{"type":"Point","coordinates":[4.921289,52.428093]},"properties":{"type":"charge","layer":"passenger","locationId":"NLLOC008777","name":"Stoutenburg 24 1121GH Landsmeer","address":"Stoutenburg 24","city":"Landsmeer","operatorName":"Allego","maxPowerKw":11,"isMegawatt":false,"status":"AVAILABLE","source":"ndw","priceKwh":0.511}},{"type":"Feature","geometry":{"type":"Point","coordinates":[4.924061,52.430739]},"properties":{"type":"charge","layer":"passenger","locationId":"f1284867-6abc-4b5c-bb9b-cd2485ddd92e","name":"TNLP034682","address":"Talingweg 25","city":"Landsmeer","operatorName":"TotalEnergies","maxPowerKw":14,"isMegawatt":false,"status":"AVAILABLE","source":"ndw"}},{"type":"Feature","geometry":{"type":"Point","coordinates":[4.915431,52.432778]},"properties":{"type":"charge","layer":"passenger","locationId":"6f7d00115af011919cbcaafca6e8721e","name":"Zonnedauwstraat 1A","address":"Zonnedauwstraat 1A","city":"Landsmeer","operatorName":"Vattenfall InCharge","maxPowerKw":11,"isMegawatt":false,"status":"AVAILABLE","source":"ndw"}},{"type":"Feature","geometry":{"type":"Point","coordinates":[4.9021346,52.4282804]},"properties":{"type":"charge","layer":"passenger","locationId":"1100","name":"Shell Recharge NL Snoekstraat 2","address":"Snoekstraat 2","city":"Landsmeer","operatorName":"Ubitricity","maxPowerKw":22,"isMegawatt":false,"status":"CHARGING","source":"ndw","priceKwh":0.266}},{"type":"Feature","geometry":{"type":"Point","coordinates":[4.918223,52.430454]},"properties":{"type":"charge","layer":"passenger","locationId":"NLLOC003474","name":"NLD, Landsmeer, Roerdompstraat 32","address":"Roerdompstraat 32","city":"Landsmeer","operatorName":"Allego","maxPowerKw":11,"isMegawatt":false,"status":"CHARGING","source":"ndw","priceKwh":0.511}},{"type":"Feature","geometry":{"type":"Point","coordinates":[4.913576,52.425928]},"properties":{"type":"charge","layer":"passenger","locationId":"NLLOC002274","name":"NLD, Landsmeer, Assumburg 50, 1121 EC","address":"Assumburg 50","city":"Landsmeer","operatorName":"Allego","maxPowerKw":11,"isMegawatt":false,"status":"AVAILABLE","source":"ndw","priceKwh":0.511}},{"type":"Feature","geometry":{"type":"Point","coordinates":[4.915488,52.429849]},"properties":{"type":"charge","layer":"passenger","locationId":"NLLOC002516","name":"NLD, Landsmeer, Calkoenstraat 14","address":"Calkoenstraat 14","city":"Landsmeer","operatorName":"Allego","maxPowerKw":11,"isMegawatt":false,"status":"CHARGING","source":"ndw","priceKwh":0.511}},{"type":"Feature","geometry":{"type":"Point","coordinates":[4.9107709,52.4273483]},"properties":{"type":"charge","layer":"passenger","locationId":"1280","name":"Shell Recharge NL Kerkebreek 47","address":"Kerkebreek 47","city":"Landsmeer","operatorName":"Ubitricity","maxPowerKw":22,"isMegawatt":false,"status":"AVAILABLE","source":"ndw","priceKwh":0.266}},{"type":"Feature","geometry":{"type":"Point","coordinates":[4.922405,52.432327]},"properties":{"type":"charge","layer":"passenger","locationId":"b2311e3d-e12f-4e74-98a7-81eecb2b8a58","name":"TNLP009335 - Goudpluvier 69, Landsmeer","address":"69 Goudpluvier","city":"Landsmeer","operatorName":"TotalEnergies","maxPowerKw":17,"isMegawatt":false,"status":"UNAVAILABLE","source":"ndw"}},{"type":"Feature","geometry":{"type":"Point","coordinates":[4.92733,52.48124]},"properties":{"type":"charge","layer":"passenger","locationId":"NLLOC012100","name":"NL, Rembrandthof 10, 1451MP, Pumerland","address":"Rembrandthof 10","city":"Purmerland","operatorName":"Allego","maxPowerKw":11,"isMegawatt":false,"status":"AVAILABLE","source":"ndw","priceKwh":0.511}},{"type":"Feature","geometry":{"type":"Point","coordinates":[4.920469,52.435078]},"properties":{"type":"charge","layer":"passenger","locationId":"e724c2bc-fde0-4626-ba7b-ccee517a4fa9","name":"TNLP008577 - Zwanebloemweg 15, Landsmeer","address":"15 Zwanebloemweg","city":"Landsmeer","operatorName":"TotalEnergies","maxPowerKw":14,"isMegawatt":false,"status":"CHARGING","source":"ndw"}},{"type":"Feature","geometry":{"type":"Point","coordinates":[4.922187,52.430042]},"properties":{"type":"charge","layer":"passenger","locationId":"194603ca-1094-45d3-bf45-f09fe057dbab","name":"TNLP009145 - Talingweg 16, Landsmeer","address":"16 Talingweg","city":"Landsmeer","operatorName":"TotalEnergies","maxPowerKw":15,"isMegawatt":false,"status":"AVAILABLE","source":"ndw"}},{"type":"Feature","geometry":{"type":"Point","coordinates":[4.90423,52.428775]},"properties":{"type":"charge","layer":"passenger","locationId":"NLLOC002718","name":"NLD, Landsmeer, Meervalweg 67","address":"Meervalweg 67","city":"Landsmeer","operatorName":"Allego","maxPowerKw":11,"isMegawatt":false,"status":"CHARGING","source":"ndw","priceKwh":0.511}},{"type":"Feature","geometry":{"type":"Point","coordinates":[4.904311,52.426827]},"properties":{"type":"charge","layer":"passenger","locationId":"NLLOC002302","name":"NLD, Zuiderzeelaan 62, 1121 RA , Landsmeer","address":"Zuiderzeelaan 62","city":"Landsmeer","operatorName":"Allego","maxPowerKw":11,"isMegawatt":false,"status":"AVAILABLE","source":"ndw","priceKwh":0.511}},{"type":"Feature","geometry":{"type":"Point","coordinates":[4.903195,52.430547]},"properties":{"type":"charge","layer":"passenger","locationId":"NLLOC002694","name":"NLD, Landsmeer, Roopkoper 13","address":"Roopkoper 13","city":"Landsmeer","operatorName":"Allego","maxPowerKw":11,"isMegawatt":false,"status":"AVAILABLE","source":"ndw","priceKwh":0.511}},{"type":"Feature","geometry":{"type":"Point","coordinates":[4.920779,52.432751]},"properties":{"type":"charge","layer":"passenger","locationId":"9257666d-cd17-4007-8494-428cf09c3ece","name":"TNLP034634","address":"Leverkruidstraat 3","city":"Landsmeer","operatorName":"TotalEnergies","maxPowerKw":14,"isMegawatt":false,"status":"AVAILABLE","source":"ndw"}},{"type":"Feature","geometry":{"type":"Point","coordinates":[4.906924,52.42905]},"properties":{"type":"charge","layer":"passenger","locationId":"22ee7120-cb96-4d07-8a15-dd064898f780","name":"TNLP009495 - Meervalweg 68, Landsmeer","address":"68 Meervalweg","city":"Landsmeer","operatorName":"TotalEnergies","maxPowerKw":17,"isMegawatt":false,"status":"UNAVAILABLE","source":"ndw"}},{"type":"Feature","geometry":{"type":"Point","coordinates":[4.918546,52.427839]},"properties":{"type":"charge","layer":"passenger","locationId":"NLLOC004297","name":"NLD Loevestein 7 1121 HE Landsmeer","address":"Loevestein 7","city":"Landsmeer","operatorName":"Allego","maxPowerKw":11,"isMegawatt":false,"status":"CHARGING","source":"ndw","priceKwh":0.511}},{"type":"Feature","geometry":{"type":"Point","coordinates":[4.910836,52.431614]},"properties":{"type":"charge","layer":"passenger","locationId":"df940700-ae42-4251-897e-3327b18dc76b","name":"TNLP008471 - Hermessingel 1, Landsmeer","address":"1 Hermessingel","city":"Landsmeer","operatorName":"TotalEnergies","maxPowerKw":14,"isMegawatt":false,"status":"AVAILABLE","source":"ndw"}},{"type":"Feature","geometry":{"type":"Point","coordinates":[4.900702,52.427338]},"properties":{"type":"charge","layer":"passenger","locationId":"NLLOC004851","name":"NLD, Zaanse Hof 1 1121RK Landsmeer","address":"Zaanse Hof 1","city":"Landsmeer","operatorName":"Allego","maxPowerKw":11,"isMegawatt":false,"status":"AVAILABLE","source":"ndw","priceKwh":0.511}},{"type":"Feature","geometry":{"type":"Point","coordinates":[4.916373,52.431039]},"properties":{"type":"charge","layer":"passenger","locationId":"a78d3efc-a030-4aad-94c6-59a3171b7bf4","name":"TNLP034295","address":"Kievitslaan 1","city":"Landsmeer","operatorName":"TotalEnergies","maxPowerKw":14,"isMegawatt":false,"status":"AVAILABLE","source":"ndw"}},{"type":"Feature","geometry":{"type":"Point","coordinates":[4.908562,52.427586]},"properties":{"type":"charge","layer":"passenger","locationId":"bf19e908-57ce-46ba-ae0f-aff454be4f78","name":"TNLP009772 - Geijenbreek 61, Landsmeer","address":"61 Geijenbreek","city":"Landsmeer","operatorName":"TotalEnergies","maxPowerKw":17,"isMegawatt":false,"status":"UNAVAILABLE","source":"ndw"}},{"type":"Feature","geometry":{"type":"MultiPolygon","coordinates":[[[[4.93208563399875,52.487548656355486],[4.941445782793143,52.48540785865877],[4.943447181412226,52.48769145960472],[4.948752017569518,52.486617706557375],[4.948315551215007,52.484005142215494],[4.947168212065712,52.47906349027169],[4.946876453209988,52.468883365431594],[4.950675423622916,52.458220008389446],[4.948000793956959,52.452388892553785],[4.9487853056232725,52.44797418079042],[4.950860428833681,52.437140878012904],[4.950688743994707,52.42359625635454],[4.947787666041382,52.421562367297405],[4.944778962918252,52.41501829757923],[4.942645885919704,52.4138600988103],[4.9351414144885855,52.41203989526141],[4.9307150129136765,52.411607709407676],[4.922744899063687,52.415529830493604],[4.9204494968488905,52.416607183865985],[4.9156618982438385,52.41857074358201],[4.9142998647346365,52.41849709010695],[4.90965954067273,52.42024943003019],[4.9086760396189,52.42071521834535],[4.907961432117143,52.42087385692225],[4.90807338951081,52.421102271877295],[4.907452364431148,52.421256820589775],[4.905690754341815,52.422130063731395],[4.898740285909736,52.42448995854876],[4.8988806459959955,52.428764815860944],[4.89928069115587,52.43130421015852],[4.898094492663291,52.43416913032703],[4.897004761975497,52.43473789275382],[4.894455030602015,52.43711989791691],[4.896544619110475,52.439853771259386],[4.896488543335236,52.446184408844964],[4.895075712216998,52.449809107019476],[4.89307676734055,52.454114888827675],[4.893318308953665,52.45727638013581],[4.903100366415021,52.47195423261192],[4.906468949908379,52.47982686467045],[4.908220201098396,52.48309727559574],[4.916126238566777,52.48654561180424],[4.9206501585399565,52.49043489059258],[4.92239421030284,52.4902804048818],[4.930280827837294,52.488653738351424],[4.930015665415714,52.487942389571174],[4.93208563399875,52.487548656355486]]]]},"properties":{"type":"boundary","gemeente":"Landsmeer","code":"GM0415"}}]}