{"type":"FeatureCollection","metadata":{"gemeente":"Laren (NH.)","slug":"laren-nh","code":"GM0417","generated_at":"2026-07-06T16:26:11.361Z","total_passenger":44,"total_freight":0,"bounds":[5.188852754251138,52.21212940747323,5.24509310340458,52.27290932469974],"operators":["Allego","DAEN Mobility","E-Flux by Road","Laadnet","Lanova Laadpalen","Tesla","TotalEnergies","Ubitricity","Vattenfall","Vattenfall InCharge"]},"features":[{"type":"Feature","geometry":{"type":"Point","coordinates":[5.231836,52.246006]},"properties":{"type":"charge","layer":"passenger","locationId":"fb7560e5-831c-4de6-a59e-a2d34d405c1f","name":"TNLP007065 - Postiljon 46, Laren","address":"46 Postiljon","city":"Laren","operatorName":"TotalEnergies","maxPowerKw":17,"isMegawatt":false,"status":"UNAVAILABLE","source":"ndw"}},{"type":"Feature","geometry":{"type":"Point","coordinates":[5.22518,52.256344]},"properties":{"type":"charge","layer":"passenger","locationId":"e696f612-cfca-4ac6-a8b1-8bae9e8abfcb","name":"TNLP005985 - Brink 8, Laren","address":"8 Brink","city":"Laren","operatorName":"TotalEnergies","maxPowerKw":15,"isMegawatt":false,"status":"AVAILABLE","source":"ndw"}},{"type":"Feature","geometry":{"type":"Point","coordinates":[5.230061,52.23554]},"properties":{"type":"charge","layer":"passenger","locationId":"6618f501-9f0a-4437-9423-898f59634d4e","name":"Eemnes, Netherlands","address":"2, Rijksweg","city":"Eemnes","operatorName":"Tesla","maxPowerKw":250,"isMegawatt":false,"status":"AVAILABLE","source":"ndw","priceKwh":0.55}},{"type":"Feature","geometry":{"type":"Point","coordinates":[5.22847,52.25355]},"properties":{"type":"charge","layer":"passenger","locationId":"07a383b8-f212-4540-b253-37d90c8518c6","name":"TNLP003599 - Jordaan 3, Laren","address":"3 Jordaan","city":"Laren","operatorName":"TotalEnergies","maxPowerKw":17,"isMegawatt":false,"status":"AVAILABLE","source":"ndw"}},{"type":"Feature","geometry":{"type":"Point","coordinates":[5.230287,52.235811]},"properties":{"type":"charge","layer":"passenger","locationId":"NLLOC008664","name":"Allego - Van der Valk Witte Bergen A1 / A27 Rijksweg 2A","address":"Rijksweg 2A","city":"Eemnes","operatorName":"Allego","maxPowerKw":300,"isMegawatt":false,"status":"AVAILABLE","source":"ndw","priceKwh":0.511}},{"type":"Feature","geometry":{"type":"Point","coordinates":[5.22178,52.25602]},"properties":{"type":"charge","layer":"passenger","locationId":"2c685aee-3b92-4fa8-82f0-5402cb325c42","name":"TNLP003597 - Stationsweg 1, Laren","address":"1 Stationsweg","city":"Laren","operatorName":"TotalEnergies","maxPowerKw":17,"isMegawatt":false,"status":"AVAILABLE","source":"ndw"}},{"type":"Feature","geometry":{"type":"Point","coordinates":[5.22675,52.25629]},"properties":{"type":"charge","layer":"passenger","locationId":"00337b08-5ab4-4d32-8b6d-b127d287a6ad","name":"PP001226 - Brink 31, Laren","address":"31 Brink","city":"Laren","operatorName":"TotalEnergies","maxPowerKw":11,"isMegawatt":false,"status":"AVAILABLE","source":"ndw"}},{"type":"Feature","geometry":{"type":"Point","coordinates":[5.226449,52.260085]},"properties":{"type":"charge","layer":"passenger","locationId":"4757594","name":"Laadnet Dolderseweg","address":"Dolderseweg 2","city":"Huis Ter Heide","operatorName":"Laadnet","maxPowerKw":22,"isMegawatt":false,"status":"AVAILABLE","source":"ndw"}},{"type":"Feature","geometry":{"type":"Point","coordinates":[5.221694,52.220478]},"properties":{"type":"charge","layer":"passenger","locationId":"6697ce2d5e384f001cada38e","name":"Crematorium Laren 03","address":"Weg over Anna's Hoeve 1","city":"LAREN","operatorName":"Lanova Laadpalen","maxPowerKw":11,"isMegawatt":false,"status":"UNAVAILABLE","source":"ndw","priceKwh":0.43}},{"type":"Feature","geometry":{"type":"Point","coordinates":[5.23225,52.25149]},"properties":{"type":"charge","layer":"passenger","locationId":"696","name":"Shell Recharge NL Heideveldweg 23","address":"Heideveldweg 23","city":"Laren","operatorName":"Ubitricity","maxPowerKw":11,"isMegawatt":false,"status":"AVAILABLE","source":"ndw","priceKwh":0.388}},{"type":"Feature","geometry":{"type":"Point","coordinates":[5.241622,52.249954]},"properties":{"type":"charge","layer":"passenger","locationId":"b1932933-01dc-4977-b3d4-8262397b4d74","name":"TNLP008488 - Gooiergracht 117, Laren","address":"117 Gooiergracht","city":"Laren","operatorName":"TotalEnergies","maxPowerKw":14,"isMegawatt":false,"status":"AVAILABLE","source":"ndw"}},{"type":"Feature","geometry":{"type":"Point","coordinates":[5.225217,52.25494]},"properties":{"type":"charge","layer":"passenger","locationId":"bb10bc14-afee-48be-91a1-e5dcc79dd16b","name":"PP004062 - PC Van den Brinkweg 16, Laren","address":"16 PC Van den Brinkweg","city":"Laren","operatorName":"TotalEnergies","maxPowerKw":11,"isMegawatt":false,"status":"UNAVAILABLE","source":"ndw"}},{"type":"Feature","geometry":{"type":"Point","coordinates":[5.232936,52.247375]},"properties":{"type":"charge","layer":"passenger","locationId":"f78157e9-6633-4eb3-853a-ec421b970033","name":"TNLP008923 - Engelsjan 8, Laren","address":"8 Engelsjan","city":"Laren","operatorName":"TotalEnergies","maxPowerKw":14,"isMegawatt":false,"status":"AVAILABLE","source":"ndw"}},{"type":"Feature","geometry":{"type":"Point","coordinates":[5.236978,52.251757]},"properties":{"type":"charge","layer":"passenger","locationId":"5eefb24f-9709-4d91-85bd-228529e8a0a4","name":"TNLP034650","address":"Schapendrift 35","city":"Laren","operatorName":"TotalEnergies","maxPowerKw":14,"isMegawatt":false,"status":"AVAILABLE","source":"ndw"}},{"type":"Feature","geometry":{"type":"Point","coordinates":[5.221694,52.220478]},"properties":{"type":"charge","layer":"passenger","locationId":"6697ceff6d9ddc001cee0f7b","name":"Crematorium Laren 02","address":"Weg over Anna's Hoeve 1","city":"LAREN","operatorName":"Lanova Laadpalen","maxPowerKw":11,"isMegawatt":false,"status":"AVAILABLE","source":"ndw","priceKwh":0.43}},{"type":"Feature","geometry":{"type":"Point","coordinates":[5.236785,52.250652]},"properties":{"type":"charge","layer":"passenger","locationId":"fad8d20f-ab63-4dca-b0d1-5c626f6b5db9","name":"TNLP007322 - Schapendrift 22, Laren","address":"22 Schapendrift","city":"Laren","operatorName":"TotalEnergies","maxPowerKw":13,"isMegawatt":false,"status":"CHARGING","source":"ndw"}},{"type":"Feature","geometry":{"type":"Point","coordinates":[5.22111,52.259242]},"properties":{"type":"charge","layer":"passenger","locationId":"6617f258b066dc001c7a1420","name":"Singer Laren 3","address":"Hein Keverweg 1","city":"Laren","operatorName":"E-Flux by Road","maxPowerKw":22,"isMegawatt":false,"status":"AVAILABLE","source":"ndw","priceKwh":0.5}},{"type":"Feature","geometry":{"type":"Point","coordinates":[5.227843,52.254196]},"properties":{"type":"charge","layer":"passenger","locationId":"1a1de1e4-0958-42af-8324-ebd27df3563a","name":"TNLP009042 - Zevenend 21, Laren","address":"21 Zevenend","city":"Laren","operatorName":"TotalEnergies","maxPowerKw":15,"isMegawatt":false,"status":"CHARGING","source":"ndw"}},{"type":"Feature","geometry":{"type":"Point","coordinates":[5.239779,52.254974]},"properties":{"type":"charge","layer":"passenger","locationId":"18e38cc5-c2de-49d0-946c-279f0478014e","name":"TNLP015327 - s-Gravenwaarde 20, Laren","address":"20 s-Gravenwaarde","city":"Laren","operatorName":"TotalEnergies","maxPowerKw":17,"isMegawatt":false,"status":"UNAVAILABLE","source":"ndw"}},{"type":"Feature","geometry":{"type":"Point","coordinates":[5.2296,52.25584]},"properties":{"type":"charge","layer":"passenger","locationId":"3308a777-33d3-43d4-be54-60b25c46dae5","name":"Laadplein - PP004053 - Eemnesserweg 19, Laren","address":"19 Eemnesserweg","city":"Laren","operatorName":"TotalEnergies","maxPowerKw":15,"isMegawatt":false,"status":"AVAILABLE","source":"ndw"}},{"type":"Feature","geometry":{"type":"Point","coordinates":[5.227796,52.257399]},"properties":{"type":"charge","layer":"passenger","locationId":"67c082a5f63891ff8847df78","name":"Stichting Gooise ScholenfederatieI/Z Gooise Praktijkschool","address":"Laapersboog 5","city":"Hilversum","operatorName":"E-Flux by Road","maxPowerKw":11,"isMegawatt":false,"status":"AVAILABLE","source":"ndw","priceKwh":0.29}},{"type":"Feature","geometry":{"type":"Point","coordinates":[5.235319,52.25018]},"properties":{"type":"charge","layer":"passenger","locationId":"643c41f9-f59a-4b4a-8bdf-45798e4a9979","name":"PP001751 - Kloosterweg 28, Laren","address":"28 Kloosterweg","city":"Laren","operatorName":"TotalEnergies","maxPowerKw":11,"isMegawatt":false,"status":"AVAILABLE","source":"ndw"}},{"type":"Feature","geometry":{"type":"Point","coordinates":[5.221694,52.220478]},"properties":{"type":"charge","layer":"passenger","locationId":"6697cfff8e4b89001c6b5a1c","name":"Crematorium Laren 01","address":"Weg over Anna's Hoeve 1","city":"LAREN","operatorName":"Lanova Laadpalen","maxPowerKw":11,"isMegawatt":false,"status":"AVAILABLE","source":"ndw","priceKwh":0.43}},{"type":"Feature","geometry":{"type":"Point","coordinates":[5.23117,52.24712]},"properties":{"type":"charge","layer":"passenger","locationId":"f06fb32c-ec21-48f0-b8c1-7a6a5cff0867","name":"PP004217 - Kostverloren 13, Laren","address":"13 Kostverloren","city":"Laren","operatorName":"TotalEnergies","maxPowerKw":11,"isMegawatt":false,"status":"UNAVAILABLE","source":"ndw"}},{"type":"Feature","geometry":{"type":"Point","coordinates":[5.2385921,52.255652]},"properties":{"type":"charge","layer":"passenger","locationId":"2135","name":"Shell Recharge NL Schapendrift 62","address":"Schapendrift 62","city":"Laren","operatorName":"Ubitricity","maxPowerKw":22,"isMegawatt":false,"status":"AVAILABLE","source":"ndw","priceKwh":0.266}},{"type":"Feature","geometry":{"type":"Point","coordinates":[5.221072,52.259319]},"properties":{"type":"charge","layer":"passenger","locationId":"65d74622a3effd001cf4f20f","name":"Singer Laren 1","address":"Hein Keverweg 1","city":"Laren","operatorName":"E-Flux by Road","maxPowerKw":11,"isMegawatt":false,"status":"AVAILABLE","source":"ndw","priceKwh":0.5}},{"type":"Feature","geometry":{"type":"Point","coordinates":[5.238978,52.246414]},"properties":{"type":"charge","layer":"passenger","locationId":"e89cf753-5204-4e28-adaf-d3cd80b92fe2","name":"TNLP007589 - Gooiergracht 17, Laren","address":"17 Gooiergracht","city":"Laren","operatorName":"TotalEnergies","maxPowerKw":17,"isMegawatt":false,"status":"UNAVAILABLE","source":"ndw"}},{"type":"Feature","geometry":{"type":"Point","coordinates":[5.221694,52.220478]},"properties":{"type":"charge","layer":"passenger","locationId":"6697ccca89c4ff001c8490b8","name":"Crematorium Laren 04","address":"Weg over Anna's Hoeve 1","city":"LAREN","operatorName":"Lanova Laadpalen","maxPowerKw":11,"isMegawatt":false,"status":"AVAILABLE","source":"ndw","priceKwh":0.43}},{"type":"Feature","geometry":{"type":"Point","coordinates":[5.2322416,52.2583876]},"properties":{"type":"charge","layer":"passenger","locationId":"799","name":"Shell Recharge NL Ruiterweg 21","address":"Ruiterweg 21","city":"Laren","operatorName":"Ubitricity","maxPowerKw":22,"isMegawatt":false,"status":"AVAILABLE","source":"ndw","priceKwh":0.266}},{"type":"Feature","geometry":{"type":"Point","coordinates":[5.22826,52.258517]},"properties":{"type":"charge","layer":"passenger","locationId":"4208927","name":"Laadnet Veiligheidsregio Laadpalen Laren","address":"Groene Gerritsweg 2","city":"Laren","operatorName":"Laadnet","maxPowerKw":22,"isMegawatt":false,"status":"AVAILABLE","source":"ndw"}},{"type":"Feature","geometry":{"type":"Point","coordinates":[5.235221,52.25671]},"properties":{"type":"charge","layer":"passenger","locationId":"39792580-1b44-48aa-a8ae-f87b6834f310","name":"TNLP015436 - Henriëtte Roland Holsthof 9, Laren","address":"9 Henriëtte Roland Holsthof","city":"Laren","operatorName":"TotalEnergies","maxPowerKw":17,"isMegawatt":false,"status":"AVAILABLE","source":"ndw"}},{"type":"Feature","geometry":{"type":"Point","coordinates":[5.222107,52.255979]},"properties":{"type":"charge","layer":"passenger","locationId":"cd79011b127e0e7497b5021a995d6aae","name":"Burgemeester van Nispen van Sevenaerstraat 23","address":"Burgemeester van Nispen van Sevenaerstraat 23","city":"Laren","operatorName":"Vattenfall InCharge","maxPowerKw":11,"isMegawatt":false,"status":"AVAILABLE","source":"ndw"}},{"type":"Feature","geometry":{"type":"Point","coordinates":[5.235807,52.24562]},"properties":{"type":"charge","layer":"passenger","locationId":"458e4d42-50b1-4b06-840f-38738da32ff2","name":"TNLP006565 - Van Erven Dorenspark 8, Laren","address":"8 Van Erven Dorenspark","city":"Laren","operatorName":"TotalEnergies","maxPowerKw":17,"isMegawatt":false,"status":"UNAVAILABLE","source":"ndw"}},{"type":"Feature","geometry":{"type":"Point","coordinates":[5.22421,52.25371]},"properties":{"type":"charge","layer":"passenger","locationId":"88762583-2e38-499d-8016-2282bc99c6a2","name":"PP001232 - Molenweg 39, Laren","address":"39 Molenweg","city":"Laren","operatorName":"TotalEnergies","maxPowerKw":11,"isMegawatt":false,"status":"AVAILABLE","source":"ndw"}},{"type":"Feature","geometry":{"type":"Point","coordinates":[5.23136,52.26012]},"properties":{"type":"charge","layer":"passenger","locationId":"647","name":"Shell Recharge NL Ferry-Oversteegenhof 13","address":"Ferry-Oversteegenhof 13","city":"Laren","operatorName":"Ubitricity","maxPowerKw":11,"isMegawatt":false,"status":"AVAILABLE","source":"ndw","priceKwh":0.388}},{"type":"Feature","geometry":{"type":"Point","coordinates":[5.226823,52.2586]},"properties":{"type":"charge","layer":"passenger","locationId":"709c6746-63d6-4f96-b677-c368d651b8a1","name":"TNLP007780 - Torenlaan 7, Laren","address":"7 Torenlaan","city":"Laren","operatorName":"TotalEnergies","maxPowerKw":17,"isMegawatt":false,"status":"UNAVAILABLE","source":"ndw"}},{"type":"Feature","geometry":{"type":"Point","coordinates":[5.229154,52.261223]},"properties":{"type":"charge","layer":"passenger","locationId":"bcb7d64b-c240-408f-b4c4-1867c0c0db33","name":"TNLP008826 - Remiseweg 16, Laren","address":"16 Remiseweg","city":"Laren","operatorName":"TotalEnergies","maxPowerKw":14,"isMegawatt":false,"status":"CHARGING","source":"ndw"}},{"type":"Feature","geometry":{"type":"Point","coordinates":[5.221087,52.259277]},"properties":{"type":"charge","layer":"passenger","locationId":"65d748b4f86301001c7e8e50","name":"Singer Laren 2","address":"Hein Keverweg 1","city":"Laren","operatorName":"E-Flux by Road","maxPowerKw":11,"isMegawatt":false,"status":"AVAILABLE","source":"ndw","priceKwh":0.5}},{"type":"Feature","geometry":{"type":"Point","coordinates":[5.241466,52.253624]},"properties":{"type":"charge","layer":"passenger","locationId":"564e1020-25e4-43af-9a33-640418f48a0c","name":"TNLP007069 - Evertas 8, Laren","address":"8 Evertas","city":"Laren","operatorName":"TotalEnergies","maxPowerKw":17,"isMegawatt":false,"status":"UNAVAILABLE","source":"ndw"}},{"type":"Feature","geometry":{"type":"Point","coordinates":[5.238213,52.248695]},"properties":{"type":"charge","layer":"passenger","locationId":"6243653e-6e26-4cf2-9e0a-42c63ea16334","name":"TNLP006322 - Schietspoel 1, Laren","address":"1 Schietspoel","city":"Laren","operatorName":"TotalEnergies","maxPowerKw":17,"isMegawatt":false,"status":"UNAVAILABLE","source":"ndw"}},{"type":"Feature","geometry":{"type":"Point","coordinates":[5.228091,52.24844]},"properties":{"type":"charge","layer":"passenger","locationId":"923040","name":"DAE_NL_2000837","address":"Zevenenderdrift","city":"Laren","operatorName":"DAEN Mobility","maxPowerKw":11,"isMegawatt":false,"status":"AVAILABLE","source":"ndw","priceKwh":0.49}},{"type":"Feature","geometry":{"type":"Point","coordinates":[5.237496,52.249879]},"properties":{"type":"charge","layer":"passenger","locationId":"68dfbf7c86c1bc4a6ec89d8e","name":"Jeanine de Schouwer 's station","address":"Schering 6","city":"Laren","operatorName":"Vattenfall","maxPowerKw":12,"isMegawatt":false,"status":"AVAILABLE","source":"ndw","priceKwh":0.33}},{"type":"Feature","geometry":{"type":"Point","coordinates":[5.230189,52.2573]},"properties":{"type":"charge","layer":"passenger","locationId":"0ef55c3b-1782-4a69-9e9e-58e259a37095","name":"TNLP007696 - Kerklaan 28, Laren","address":"28 Kerklaan","city":"Laren","operatorName":"TotalEnergies","maxPowerKw":17,"isMegawatt":false,"status":"UNAVAILABLE","source":"ndw"}},{"type":"Feature","geometry":{"type":"Point","coordinates":[5.232596,52.26141]},"properties":{"type":"charge","layer":"passenger","locationId":"efa20dba-fd73-4a7a-9634-cb28bebded7e","name":"TNLP007089 - Mauvezand 52, Laren","address":"52 Mauvezand","city":"Laren","operatorName":"TotalEnergies","maxPowerKw":17,"isMegawatt":false,"status":"UNAVAILABLE","source":"ndw"}},{"type":"Feature","geometry":{"type":"MultiPolygon","coordinates":[[[[5.225980566665005,52.26819816487686],[5.229580745404504,52.265464198852456],[5.2301348160498975,52.26561884066089],[5.230592943813491,52.26469545770921],[5.232048254472451,52.264467687928864],[5.244064289425816,52.25466472051191],[5.244081106572214,52.25466336576721],[5.24509310340458,52.25443165253913],[5.2384077015797335,52.24566093324625],[5.237368782698727,52.244277176679304],[5.2318796208365494,52.23707830251419],[5.222901202129095,52.22526162122147],[5.22473020042936,52.22519776730182],[5.2205774393353135,52.21597205799896],[5.218960254256933,52.21212940747323],[5.215799238280117,52.21667451330696],[5.199809469396265,52.23961708141806],[5.199398098592643,52.240204498727564],[5.188852754251138,52.247651095524155],[5.1995902697928145,52.261618984451005],[5.203821879220298,52.2671155363467],[5.207692380278646,52.26626867084581],[5.209244353434796,52.26593497775216],[5.211643631292525,52.267344147368014],[5.216867581545471,52.268993957266716],[5.2255078069162515,52.27290932469974],[5.225980566665005,52.26819816487686]]]]},"properties":{"type":"boundary","gemeente":"Laren (NH.)","code":"GM0417"}}]}