{"type":"FeatureCollection","metadata":{"gemeente":"Leusden","slug":"leusden","code":"GM0327","generated_at":"2026-07-06T16:26:11.361Z","total_passenger":127,"total_freight":0,"bounds":[5.310919545927075,52.08933380252247,5.514079533020569,52.16144866486507],"operators":["Allego","DAEN Mobility","E-Flux by Road","Eneco","Laadnet","Lanova Laadpalen","NRG Accounting","NXT50Five","Pluq","Porsche Sales & Marketplace","Shell Recharge","Smappee","Spirii","Tesla","TotalEnergies","Ubitricity","Vattenfall InCharge","e-VOLTT"]},"features":[{"type":"Feature","geometry":{"type":"Point","coordinates":[5.425924,52.130608]},"properties":{"type":"charge","layer":"passenger","locationId":"a878418a-6ec9-4a24-a455-e41f4f027e06","name":"TNLP003681 - Landweg 347, Leusden","address":"347 Landweg","city":"Leusden","operatorName":"TotalEnergies","maxPowerKw":17,"isMegawatt":false,"status":"UNAVAILABLE","source":"ndw"}},{"type":"Feature","geometry":{"type":"Point","coordinates":[5.41278,52.14315]},"properties":{"type":"charge","layer":"passenger","locationId":"be96333c-acad-4d43-be2b-27c39ab35220","name":"TNLP003554 - Spieghelweg 2, Leusden","address":"2 Spieghelweg","city":"Leusden","operatorName":"TotalEnergies","maxPowerKw":17,"isMegawatt":false,"status":"AVAILABLE","source":"ndw"}},{"type":"Feature","geometry":{"type":"Point","coordinates":[5.408422,52.111627]},"properties":{"type":"charge","layer":"passenger","locationId":"ACE0261517","name":"ACE0261517","address":"Arnhemseweg 87","city":"Leusden","operatorName":"e-VOLTT","maxPowerKw":4,"isMegawatt":false,"status":"AVAILABLE","source":"ndw","priceKwh":0.6}},{"type":"Feature","geometry":{"type":"Point","coordinates":[5.408422,52.111627]},"properties":{"type":"charge","layer":"passenger","locationId":"ACE0261535","name":"ACE0261535","address":"Arnhemseweg 87","city":"Leusden","operatorName":"e-VOLTT","maxPowerKw":4,"isMegawatt":false,"status":"AVAILABLE","source":"ndw","priceKwh":0.6}},{"type":"Feature","geometry":{"type":"Point","coordinates":[5.420036,52.137096]},"properties":{"type":"charge","layer":"passenger","locationId":"425","name":"Shell Recharge NL Madelagehof 8","address":"Madelagehof 8","city":"Leusden","operatorName":"Ubitricity","maxPowerKw":11,"isMegawatt":false,"status":"AVAILABLE","source":"ndw","priceKwh":0.388}},{"type":"Feature","geometry":{"type":"Point","coordinates":[5.427876,52.137897]},"properties":{"type":"charge","layer":"passenger","locationId":"e3918411-7ace-49b2-b8d3-fe1f75aa5832","name":"TNLP008949 - Lijsterbeslaan 16, Leusden","address":"16 Lijsterbeslaan","city":"Leusden","operatorName":"TotalEnergies","maxPowerKw":13,"isMegawatt":false,"status":"AVAILABLE","source":"ndw"}},{"type":"Feature","geometry":{"type":"Point","coordinates":[5.426021,52.126637]},"properties":{"type":"charge","layer":"passenger","locationId":"fa5c4b42-24eb-4896-a859-5f3d227e5e11","name":"TNLP009862 - De Zeilmakerij 48, Leusden","address":"48 De Zeilmakerij","city":"Leusden","operatorName":"TotalEnergies","maxPowerKw":17,"isMegawatt":false,"status":"CHARGING","source":"ndw"}},{"type":"Feature","geometry":{"type":"Point","coordinates":[5.493886,52.134163]},"properties":{"type":"charge","layer":"passenger","locationId":"a840a3dc-d5e4-4912-a196-baaf7e6be9f4","name":"TNLP005697 - Groot Agteveldlaan 91, Achterveld","address":"91 Groot Agteveldlaan","city":"Achterveld","operatorName":"TotalEnergies","maxPowerKw":11,"isMegawatt":false,"status":"AVAILABLE","source":"ndw"}},{"type":"Feature","geometry":{"type":"Point","coordinates":[5.405416,52.123158]},"properties":{"type":"charge","layer":"passenger","locationId":"01f024b7-9fca-4e64-9d31-c59e1fa13358","name":"TNLP008513 - Apollolaan 4, Leusden","address":"4 Apollolaan","city":"Leusden","operatorName":"TotalEnergies","maxPowerKw":13,"isMegawatt":false,"status":"AVAILABLE","source":"ndw"}},{"type":"Feature","geometry":{"type":"Point","coordinates":[5.43089,52.1441]},"properties":{"type":"charge","layer":"passenger","locationId":"1554","name":"Shell Recharge NL Lambalgerkom 63","address":"Lambalgerkom 63","city":"Leusden","operatorName":"Ubitricity","maxPowerKw":11,"isMegawatt":false,"status":"AVAILABLE","source":"ndw","priceKwh":0.388}},{"type":"Feature","geometry":{"type":"Point","coordinates":[5.37336,52.13119]},"properties":{"type":"charge","layer":"passenger","locationId":"CD0CD3E0-E99A-4FC1-86A0-36EF9992DE31","name":"Eneco eMobility Brothers Horeca Groep - Zuiver Amersfoort","address":"Vlooswijkseweg 1","city":"Leusden","operatorName":"Eneco","maxPowerKw":22,"isMegawatt":false,"status":"AVAILABLE","source":"ndw","priceKwh":0.3}},{"type":"Feature","geometry":{"type":"Point","coordinates":[5.42572,52.13426]},"properties":{"type":"charge","layer":"passenger","locationId":"687","name":"Shell Recharge NL Lisidunalaan 4","address":"Lisidunalaan 4","city":"Leusden","operatorName":"Ubitricity","maxPowerKw":11,"isMegawatt":false,"status":"AVAILABLE","source":"ndw","priceKwh":0.388}},{"type":"Feature","geometry":{"type":"Point","coordinates":[5.408422,52.111627]},"properties":{"type":"charge","layer":"passenger","locationId":"ACE0261599","name":"ACE0261599","address":"Arnhemseweg 87","city":"Leusden","operatorName":"e-VOLTT","maxPowerKw":4,"isMegawatt":false,"status":"UNAVAILABLE","source":"ndw","priceKwh":0.6}},{"type":"Feature","geometry":{"type":"Point","coordinates":[5.409985,52.141708]},"properties":{"type":"charge","layer":"passenger","locationId":"928059","name":"Eurofleur Leusden","address":"ursulineweg 44","city":"leusden","operatorName":"Smappee","maxPowerKw":120,"isMegawatt":false,"status":"AVAILABLE","source":"ndw","priceKwh":0.407}},{"type":"Feature","geometry":{"type":"Point","coordinates":[5.43363,52.12809]},"properties":{"type":"charge","layer":"passenger","locationId":"453","name":"Shell Recharge NL Zuylenburg 2","address":"Zuylenburg 2","city":"Leusden","operatorName":"Ubitricity","maxPowerKw":11,"isMegawatt":false,"status":"CHARGING","source":"ndw","priceKwh":0.388}},{"type":"Feature","geometry":{"type":"Point","coordinates":[5.428298,52.136192]},"properties":{"type":"charge","layer":"passenger","locationId":"67a6484e-28bc-4644-9bca-e7da3d3ddf73","name":"PP001175 - Tolplaats 3, Leusden","address":"3 Tolplaats","city":"Leusden","operatorName":"TotalEnergies","maxPowerKw":11,"isMegawatt":false,"status":"CHARGING","source":"ndw"}},{"type":"Feature","geometry":{"type":"Point","coordinates":[5.44344,52.13096]},"properties":{"type":"charge","layer":"passenger","locationId":"84169aac5392c5a44bfc8d311d73686c","name":"Barbeel 2","address":"Barbeel 2","city":"Leusden","operatorName":"Vattenfall InCharge","maxPowerKw":11,"isMegawatt":false,"status":"AVAILABLE","source":"ndw"}},{"type":"Feature","geometry":{"type":"Point","coordinates":[5.4198069,52.1340091]},"properties":{"type":"charge","layer":"passenger","locationId":"1287","name":"Shell Recharge NL Ravenhorst 11","address":"Ravenhorst 11","city":"Leusden","operatorName":"Ubitricity","maxPowerKw":22,"isMegawatt":false,"status":"AVAILABLE","source":"ndw","priceKwh":0.266}},{"type":"Feature","geometry":{"type":"Point","coordinates":[5.420515,52.121462]},"properties":{"type":"charge","layer":"passenger","locationId":"5D5FD08A-AA59-4721-8D61-8AA4B265E14E","name":"Eneco eMobility Zuiderinslag 12 Leusden","address":"Zuiderinslag 12","city":"Leusden","operatorName":"Eneco","maxPowerKw":22,"isMegawatt":false,"status":"UNAVAILABLE","source":"ndw","priceKwh":0.32}},{"type":"Feature","geometry":{"type":"Point","coordinates":[5.416908,52.143955]},"properties":{"type":"charge","layer":"passenger","locationId":"NLLOC025306","name":"Allego - Van der Valk Leusden","address":"Philipsstraat 18","city":"Leusden","operatorName":"Allego","maxPowerKw":300,"isMegawatt":false,"status":"AVAILABLE","source":"ndw","priceKwh":0.655}},{"type":"Feature","geometry":{"type":"Point","coordinates":[5.42056,52.13826]},"properties":{"type":"charge","layer":"passenger","locationId":"7013e4457a1da7c6ab976094639db742","name":"Kastanjelaan 43","address":"Kastanjelaan 43","city":"Leusden","operatorName":"Vattenfall InCharge","maxPowerKw":11,"isMegawatt":false,"status":"AVAILABLE","source":"ndw"}},{"type":"Feature","geometry":{"type":"Point","coordinates":[5.419099,52.140975]},"properties":{"type":"charge","layer":"passenger","locationId":"67af09eaf4e1bc9c98e6e470","name":"DK 's station 2","address":"Plantageweg 4","city":"Leusden","operatorName":"E-Flux by Road","maxPowerKw":11,"isMegawatt":false,"status":"AVAILABLE","source":"ndw","priceKwh":0.53}},{"type":"Feature","geometry":{"type":"Point","coordinates":[5.424856,52.131966]},"properties":{"type":"charge","layer":"passenger","locationId":"35808085-3319-406f-ab3e-e4959294d74b","name":"TNLP007246 - Zaaier 168, Leusden","address":"168 Zaaier","city":"Leusden","operatorName":"TotalEnergies","maxPowerKw":17,"isMegawatt":false,"status":"CHARGING","source":"ndw"}},{"type":"Feature","geometry":{"type":"Point","coordinates":[5.4375578,52.1406024]},"properties":{"type":"charge","layer":"passenger","locationId":"1216","name":"Shell Recharge NL De Start 10","address":"De Start 10","city":"Leusden","operatorName":"Ubitricity","maxPowerKw":22,"isMegawatt":false,"status":"AVAILABLE","source":"ndw","priceKwh":0.266}},{"type":"Feature","geometry":{"type":"Point","coordinates":[5.420472,52.13055]},"properties":{"type":"charge","layer":"passenger","locationId":"a58e75ea-2891-4f13-a213-135b8268a547","name":"TNLP009545 - Vlasland 48, Leusden","address":"48 Vlasland","city":"Leusden","operatorName":"TotalEnergies","maxPowerKw":17,"isMegawatt":false,"status":"AVAILABLE","source":"ndw"}},{"type":"Feature","geometry":{"type":"Point","coordinates":[5.41414,52.122752]},"properties":{"type":"charge","layer":"passenger","locationId":"F0008A25-C6E9-438C-B4AD-29BF305ACF71","name":"Eneco eMobility Zuiderinslag 2 Leusden","address":"Zuiderinslag 2","city":"Leusden","operatorName":"Eneco","maxPowerKw":22,"isMegawatt":false,"status":"UNAVAILABLE","source":"ndw","priceKwh":0.32}},{"type":"Feature","geometry":{"type":"Point","coordinates":[5.43827,52.13661]},"properties":{"type":"charge","layer":"passenger","locationId":"195","name":"Shell Recharge NL Asschatterweg 36","address":"Asschatterweg 36","city":"Leusden","operatorName":"Ubitricity","maxPowerKw":11,"isMegawatt":false,"status":"AVAILABLE","source":"ndw","priceKwh":0.388}},{"type":"Feature","geometry":{"type":"Point","coordinates":[5.4270563,52.1301574]},"properties":{"type":"charge","layer":"passenger","locationId":"860","name":"Shell Recharge NL De Kevershilt 25a","address":"De Kevershilt 25a","city":"Leusden","operatorName":"Ubitricity","maxPowerKw":22,"isMegawatt":false,"status":"AVAILABLE","source":"ndw","priceKwh":0.266}},{"type":"Feature","geometry":{"type":"Point","coordinates":[5.41734,52.14364]},"properties":{"type":"charge","layer":"passenger","locationId":"23080764-74A4-433E-B504-1D00AD96837E","name":"Eneco eMobility Van der Valk Leusden","address":"Philipsstraat 18","city":"Leusden","operatorName":"Eneco","maxPowerKw":22,"isMegawatt":false,"status":"AVAILABLE","source":"ndw","priceKwh":0.49}},{"type":"Feature","geometry":{"type":"Point","coordinates":[5.4077,52.11933]},"properties":{"type":"charge","layer":"passenger","locationId":"1483","name":"Shell Recharge NL De Roo van Alderwereltlaan 7","address":"De Roo van Alderwereltlaan 7","city":"Leusden","operatorName":"Ubitricity","maxPowerKw":11,"isMegawatt":false,"status":"AVAILABLE","source":"ndw","priceKwh":0.388}},{"type":"Feature","geometry":{"type":"Point","coordinates":[5.428261,52.14297]},"properties":{"type":"charge","layer":"passenger","locationId":"16a0e59d-82a2-41d5-a769-64495b9ca5ac","name":"TNLP007904 - Waterlinie 17, Leusden","address":"17 Waterlinie","city":"Leusden","operatorName":"TotalEnergies","maxPowerKw":17,"isMegawatt":false,"status":"AVAILABLE","source":"ndw"}},{"type":"Feature","geometry":{"type":"Point","coordinates":[5.40494,52.11758]},"properties":{"type":"charge","layer":"passenger","locationId":"77","name":"Shell Recharge NL Maria Stuartlaan 2a","address":"Maria Stuartlaan 2a","city":"Leusden","operatorName":"Ubitricity","maxPowerKw":11,"isMegawatt":false,"status":"AVAILABLE","source":"ndw","priceKwh":0.388}},{"type":"Feature","geometry":{"type":"Point","coordinates":[5.498888,52.137977]},"properties":{"type":"charge","layer":"passenger","locationId":"e329b215e7da410d930af79c42eeb3d9","name":"Koopmans Bouw B.V. Mastenbroek II","address":"Ruurd Visserstraat 49 tegen over","city":"Achterveld","operatorName":"","maxPowerKw":11,"isMegawatt":false,"status":"AVAILABLE","source":"ndw","priceKwh":0.53}},{"type":"Feature","geometry":{"type":"Point","coordinates":[5.4461,52.13858]},"properties":{"type":"charge","layer":"passenger","locationId":"0ea95ea5-5b1f-4c19-8b9e-51411525204f","name":"TNLP003574 - Walstro 35, Leusden","address":"35 Walstro","city":"Leusden","operatorName":"TotalEnergies","maxPowerKw":17,"isMegawatt":false,"status":"AVAILABLE","source":"ndw"}},{"type":"Feature","geometry":{"type":"Point","coordinates":[5.416907,52.144054]},"properties":{"type":"charge","layer":"passenger","locationId":"b1ac2ec8-b855-4efe-9651-9f1e6fc894d2","name":"Leusden, Netherlands","address":"18, Philipsstraat","city":"Leusden","operatorName":"Tesla","maxPowerKw":250,"isMegawatt":false,"status":"AVAILABLE","source":"ndw","priceKwh":0.54}},{"type":"Feature","geometry":{"type":"Point","coordinates":[5.430237,52.129172]},"properties":{"type":"charge","layer":"passenger","locationId":"9bc2eb93-1514-4395-9e4c-b5f38e4c7a76","name":"TNLP034372","address":"Gildenburg 50","city":"Leusden","operatorName":"TotalEnergies","maxPowerKw":14,"isMegawatt":false,"status":"AVAILABLE","source":"ndw"}},{"type":"Feature","geometry":{"type":"Point","coordinates":[5.41729,52.1232]},"properties":{"type":"charge","layer":"passenger","locationId":"NL9110000314_CPN02","name":"Porsche Sales & Marketplace PC Leusden Charge Point 2","address":"Zuiderinslag 8","city":"Leusden","operatorName":"Porsche Sales & Marketplace","maxPowerKw":320,"isMegawatt":false,"status":"AVAILABLE","source":"ndw","priceKwh":0.82}},{"type":"Feature","geometry":{"type":"Point","coordinates":[5.425447,52.143833]},"properties":{"type":"charge","layer":"passenger","locationId":"c0b54666-b774-4d3b-b6ea-fe48834d5c9d","name":"TNLP008029 - Keerkade 22, Leusden","address":"22 Keerkade","city":"Leusden","operatorName":"TotalEnergies","maxPowerKw":17,"isMegawatt":false,"status":"AVAILABLE","source":"ndw"}},{"type":"Feature","geometry":{"type":"Point","coordinates":[5.409513,52.12268]},"properties":{"type":"charge","layer":"passenger","locationId":"f91bf176-c7a1-486f-b6a4-1e74499a7a78","name":"TNLP006936 - Hof van Galileo 9, Leusden","address":"9 Hof van Galileo","city":"Leusden","operatorName":"TotalEnergies","maxPowerKw":17,"isMegawatt":false,"status":"AVAILABLE","source":"ndw"}},{"type":"Feature","geometry":{"type":"Point","coordinates":[5.44122,52.134778]},"properties":{"type":"charge","layer":"passenger","locationId":"923482","name":"EVB-P20252110","address":"Krooneend 22","city":"LEUSDEN","operatorName":"DAEN Mobility","maxPowerKw":11,"isMegawatt":false,"status":"AVAILABLE","source":"ndw","priceKwh":0.25}},{"type":"Feature","geometry":{"type":"Point","coordinates":[5.427139,52.141629]},"properties":{"type":"charge","layer":"passenger","locationId":"e69ceb9a0de6ba3a3f0d739271ed1def","name":"Speelkamp 55","address":"Speelkamp 55","city":"Leusden","operatorName":"Vattenfall InCharge","maxPowerKw":11,"isMegawatt":false,"status":"CHARGING","source":"ndw"}},{"type":"Feature","geometry":{"type":"Point","coordinates":[5.441113,52.13185]},"properties":{"type":"charge","layer":"passenger","locationId":"2a4ce714-7108-45a7-8197-81a5f563ea73","name":"TNLP006759 - Lepelaar 6, Leusden","address":"6 Lepelaar","city":"Leusden","operatorName":"TotalEnergies","maxPowerKw":17,"isMegawatt":false,"status":"CHARGING","source":"ndw"}},{"type":"Feature","geometry":{"type":"Point","coordinates":[5.492091,52.13482]},"properties":{"type":"charge","layer":"passenger","locationId":"3e703829-f809-4f10-a2fa-f72dfd8a2c42","name":"TNLP007262 - Groot Agteveldlaan 99, Achterveld","address":"99 Groot Agteveldlaan","city":"Achterveld","operatorName":"TotalEnergies","maxPowerKw":17,"isMegawatt":false,"status":"AVAILABLE","source":"ndw"}},{"type":"Feature","geometry":{"type":"Point","coordinates":[5.41439,52.11842]},"properties":{"type":"charge","layer":"passenger","locationId":"0b56560b-1273-4ea9-94d3-c81663aa3dd8","name":"TNLP005663 - Genthoek 31, Leusden","address":"31 Genthoek","city":"Leusden","operatorName":"TotalEnergies","maxPowerKw":11,"isMegawatt":false,"status":"AVAILABLE","source":"ndw"}},{"type":"Feature","geometry":{"type":"Point","coordinates":[5.426306,52.1284]},"properties":{"type":"charge","layer":"passenger","locationId":"68ce8e9a-cbdc-4ad3-b761-931ebe2becea","name":"PP005180 - De Smidse 27, Leusden","address":"27 De Smidse","city":"Leusden","operatorName":"TotalEnergies","maxPowerKw":11,"isMegawatt":false,"status":"AVAILABLE","source":"ndw"}},{"type":"Feature","geometry":{"type":"Point","coordinates":[5.417745,52.127956]},"properties":{"type":"charge","layer":"passenger","locationId":"33eded3b-a351-403d-a383-c8ec38705dde","name":"TNLP009400 - Van den Hengelplein 12, Leusden","address":"12 Van den Hengelplein","city":"Leusden","operatorName":"TotalEnergies","maxPowerKw":17,"isMegawatt":false,"status":"AVAILABLE","source":"ndw"}},{"type":"Feature","geometry":{"type":"Point","coordinates":[5.410665,52.121872]},"properties":{"type":"charge","layer":"passenger","locationId":"cecfd8fe-a18b-4580-920c-140a88e35fb3","name":"TNLP006184 - Hekkerdreef 62, Leusden","address":"62 Hekkerdreef","city":"Leusden","operatorName":"TotalEnergies","maxPowerKw":17,"isMegawatt":false,"status":"CHARGING","source":"ndw"}},{"type":"Feature","geometry":{"type":"Point","coordinates":[5.421509,52.125065]},"properties":{"type":"charge","layer":"passenger","locationId":"07aed1ae-7139-44fb-ac60-f058e4f61e78","name":"TNLP006323 - Kuperssingel 158, Leusden","address":"158 Kuperssingel","city":"Leusden","operatorName":"TotalEnergies","maxPowerKw":17,"isMegawatt":false,"status":"AVAILABLE","source":"ndw"}},{"type":"Feature","geometry":{"type":"Point","coordinates":[5.435365,52.130962]},"properties":{"type":"charge","layer":"passenger","locationId":"b6e852b9-fe92-4c93-8db4-ab94fcdbc40e","name":"TNLP006296 - Wierickewijk 16, Leusden","address":"16 Wierickewijk","city":"Leusden","operatorName":"TotalEnergies","maxPowerKw":17,"isMegawatt":false,"status":"AVAILABLE","source":"ndw"}},{"type":"Feature","geometry":{"type":"Point","coordinates":[5.438402,52.12667]},"properties":{"type":"charge","layer":"passenger","locationId":"5c672d45-6d0d-42be-b553-1c2e92f69310","name":"TNLP007902 - Benedictijnenhove 58, Leusden","address":"58 Benedictijnenhove","city":"Leusden","operatorName":"TotalEnergies","maxPowerKw":17,"isMegawatt":false,"status":"CHARGING","source":"ndw"}},{"type":"Feature","geometry":{"type":"Point","coordinates":[5.42213,52.119572]},"properties":{"type":"charge","layer":"passenger","locationId":"5194","name":"Shell Recharge NL9289 - Karwei Leusden","address":"Storkstraat 2","city":"Leusden","operatorName":"Shell Recharge","maxPowerKw":150,"isMegawatt":false,"status":"AVAILABLE","source":"ndw","priceKwh":0.7025}},{"type":"Feature","geometry":{"type":"Point","coordinates":[5.366753,52.1266]},"properties":{"type":"charge","layer":"passenger","locationId":"4251418","name":"Laadnet Doornseweg 12","address":"Doornseweg 12","city":"Leusden","operatorName":"Laadnet","maxPowerKw":22,"isMegawatt":false,"status":"AVAILABLE","source":"ndw"}},{"type":"Feature","geometry":{"type":"Point","coordinates":[5.44138,52.13172]},"properties":{"type":"charge","layer":"passenger","locationId":"1558","name":"Shell Recharge NL Lepelaar 6","address":"Lepelaar 6","city":"Leusden","operatorName":"Ubitricity","maxPowerKw":11,"isMegawatt":false,"status":"AVAILABLE","source":"ndw","priceKwh":0.388}},{"type":"Feature","geometry":{"type":"Point","coordinates":[5.423848,52.141228]},"properties":{"type":"charge","layer":"passenger","locationId":"7333C782-CA2D-4A84-B6DC-E8299AAC1496","name":"Eneco eMobility SamenThuis Investment B.V. - Olmenlaan 28 - Leusden","address":"Olmenlaan 28","city":"Leusden","operatorName":"Eneco","maxPowerKw":11,"isMegawatt":false,"status":"AVAILABLE","source":"ndw","priceKwh":0.5}},{"type":"Feature","geometry":{"type":"Point","coordinates":[5.50886,52.13581]},"properties":{"type":"charge","layer":"passenger","locationId":"222b8b31-dd4f-427e-9b32-35c8280f215c","name":"TNLP007003 - De Fliert 3, Achterveld","address":"3 De Fliert","city":"Achterveld","operatorName":"TotalEnergies","maxPowerKw":17,"isMegawatt":false,"status":"AVAILABLE","source":"ndw"}},{"type":"Feature","geometry":{"type":"Point","coordinates":[5.438937,52.134148]},"properties":{"type":"charge","layer":"passenger","locationId":"94db85d6-26bb-4852-b502-465cf1455643","name":"TNLP008306 - Amiant 2, Leusden","address":"2 Amiant","city":"Leusden","operatorName":"TotalEnergies","maxPowerKw":13,"isMegawatt":false,"status":"AVAILABLE","source":"ndw"}},{"type":"Feature","geometry":{"type":"Point","coordinates":[5.44317,52.12647]},"properties":{"type":"charge","layer":"passenger","locationId":"6f5eb265-0d43-4900-95c4-4e60165527e6","name":"PP005644 - Landjonker 38, Leusden","address":"38 Landjonker","city":"Leusden","operatorName":"TotalEnergies","maxPowerKw":11,"isMegawatt":false,"status":"AVAILABLE","source":"ndw"}},{"type":"Feature","geometry":{"type":"Point","coordinates":[5.40578,52.11579]},"properties":{"type":"charge","layer":"passenger","locationId":"78","name":"Shell Recharge NL Prinses Irenelaan 27","address":"Prinses Irenelaan 27","city":"Leusden","operatorName":"Ubitricity","maxPowerKw":11,"isMegawatt":false,"status":"AVAILABLE","source":"ndw","priceKwh":0.388}},{"type":"Feature","geometry":{"type":"Point","coordinates":[5.407819,52.118932]},"properties":{"type":"charge","layer":"passenger","locationId":"45fd001f-c4aa-490c-b533-abb4397d9257","name":"TNLP034378","address":"Charlotte van Bourbonlaan 13","city":"Leusden","operatorName":"TotalEnergies","maxPowerKw":14,"isMegawatt":false,"status":"AVAILABLE","source":"ndw"}},{"type":"Feature","geometry":{"type":"Point","coordinates":[5.430827,52.133495]},"properties":{"type":"charge","layer":"passenger","locationId":"7580ce1d-f546-47c2-a3fa-ea4f7916fff1","name":"TNLP006664 - Viltroos 2, Leusden","address":"2 Viltroos","city":"Leusden","operatorName":"TotalEnergies","maxPowerKw":17,"isMegawatt":false,"status":"AVAILABLE","source":"ndw"}},{"type":"Feature","geometry":{"type":"Point","coordinates":[5.443087,52.13762]},"properties":{"type":"charge","layer":"passenger","locationId":"86db2f56-7ec0-40b8-ad71-dfc525d75e19","name":"TNLP006902 - Gagelhof 35, Leusden","address":"35 Gagelhof","city":"Leusden","operatorName":"TotalEnergies","maxPowerKw":17,"isMegawatt":false,"status":"CHARGING","source":"ndw"}},{"type":"Feature","geometry":{"type":"Point","coordinates":[5.409334,52.11646]},"properties":{"type":"charge","layer":"passenger","locationId":"2f4f6df5-3cd5-471f-89e5-9b94aef8c233","name":"TNLP006850 - Zuster Prinsstraat 1, Leusden","address":"1 Zuster Prinsstraat","city":"Leusden","operatorName":"TotalEnergies","maxPowerKw":17,"isMegawatt":false,"status":"AVAILABLE","source":"ndw"}},{"type":"Feature","geometry":{"type":"Point","coordinates":[5.418365,52.125923]},"properties":{"type":"charge","layer":"passenger","locationId":"ad40e9e3-2cff-42b8-ae8a-fbc23c0daed8","name":"PP005538 - Kuperssingel 93, Leusden","address":"93 Kuperssingel","city":"Leusden","operatorName":"TotalEnergies","maxPowerKw":11,"isMegawatt":false,"status":"AVAILABLE","source":"ndw"}},{"type":"Feature","geometry":{"type":"Point","coordinates":[5.429042,52.129658]},"properties":{"type":"charge","layer":"passenger","locationId":"c5779d68-44db-4fe3-bc0e-bd67c12d15df","name":"TNLP007341 - Kooikersgracht 11, Leusden","address":"11 Kooikersgracht","city":"Leusden","operatorName":"TotalEnergies","maxPowerKw":13,"isMegawatt":false,"status":"AVAILABLE","source":"ndw"}},{"type":"Feature","geometry":{"type":"Point","coordinates":[5.409602,52.117954]},"properties":{"type":"charge","layer":"passenger","locationId":"31707050-8be4-45e7-81cb-44aae3cc4c6e","name":"PP005116 - Pieter van Vollenhovenstraat 33, Leusden","address":"33 Pieter van Vollenhovenstraat","city":"Leusden","operatorName":"TotalEnergies","maxPowerKw":11,"isMegawatt":false,"status":"AVAILABLE","source":"ndw"}},{"type":"Feature","geometry":{"type":"Point","coordinates":[5.494676,52.136337]},"properties":{"type":"charge","layer":"passenger","locationId":"f94bac8d-09c9-4601-bad1-5dcb482e945f","name":"TNLP009710 - Walter van Amersfoortstraat 40, Achterveld","address":"40 Walter van Amersfoortstraat","city":"Achterveld","operatorName":"TotalEnergies","maxPowerKw":17,"isMegawatt":false,"status":"AVAILABLE","source":"ndw"}},{"type":"Feature","geometry":{"type":"Point","coordinates":[5.444413,52.131824]},"properties":{"type":"charge","layer":"passenger","locationId":"8418c749-f398-4f34-aefd-31e2a91134f0","name":"TNLP007514 - Snoekbaars 6, Leusden","address":"6 Snoekbaars","city":"Leusden","operatorName":"TotalEnergies","maxPowerKw":17,"isMegawatt":false,"status":"AVAILABLE","source":"ndw"}},{"type":"Feature","geometry":{"type":"Point","coordinates":[5.44842,52.13873]},"properties":{"type":"charge","layer":"passenger","locationId":"98d1a4f8-accf-428f-9572-454047992ebd","name":"TNLP005781 - Breckelenkamp 1, Leusden","address":"1 Breckelenkamp","city":"Leusden","operatorName":"TotalEnergies","maxPowerKw":11,"isMegawatt":false,"status":"AVAILABLE","source":"ndw"}},{"type":"Feature","geometry":{"type":"Point","coordinates":[5.4219474,52.1269784]},"properties":{"type":"charge","layer":"passenger","locationId":"777","name":"Shell Recharge NL Hoefijzer 42","address":"Hoefijzer 42","city":"Leusden","operatorName":"Ubitricity","maxPowerKw":22,"isMegawatt":false,"status":"AVAILABLE","source":"ndw","priceKwh":0.266}},{"type":"Feature","geometry":{"type":"Point","coordinates":[5.416183,52.12482]},"properties":{"type":"charge","layer":"passenger","locationId":"89052e81-1b15-4d44-907e-76d982d65521","name":"TNLP007611 - Wildenburgstraat 63a, Leusden","address":"63a Wildenburgstraat","city":"Leusden","operatorName":"TotalEnergies","maxPowerKw":17,"isMegawatt":false,"status":"AVAILABLE","source":"ndw"}},{"type":"Feature","geometry":{"type":"Point","coordinates":[5.42113,52.15006]},"properties":{"type":"charge","layer":"passenger","locationId":"79","name":"Shell Recharge NL Schammersteeg 2","address":"Schammersteeg 2","city":"Stoutenburg","operatorName":"Ubitricity","maxPowerKw":11,"isMegawatt":false,"status":"AVAILABLE","source":"ndw","priceKwh":0.388}},{"type":"Feature","geometry":{"type":"Point","coordinates":[5.384264,52.131316]},"properties":{"type":"charge","layer":"passenger","locationId":"666af8e8e4a25a001c827bb5","name":"Instituut voor Wijsbegeerte B.V","address":"Dodeweg 8","city":"Leusden","operatorName":"Pluq","maxPowerKw":22,"isMegawatt":false,"status":"AVAILABLE","source":"ndw","priceKwh":0.34}},{"type":"Feature","geometry":{"type":"Point","coordinates":[5.428365,52.13499]},"properties":{"type":"charge","layer":"passenger","locationId":"702dea10-e824-4061-a228-d70a77ee48a2","name":"TNLP005750 - Rozengaarde 22, Leusden","address":"22 Rozengaarde","city":"Leusden","operatorName":"TotalEnergies","maxPowerKw":17,"isMegawatt":false,"status":"AVAILABLE","source":"ndw"}},{"type":"Feature","geometry":{"type":"Point","coordinates":[5.42487,52.13997]},"properties":{"type":"charge","layer":"passenger","locationId":"B2EF9428-DD3E-410F-945E-13EFD74359AE","name":"Eneco eMobility SamenThuis Investment B.V. - Larikslaan 1 F - Leusden","address":"Larikslaan 1","city":"Leusden","operatorName":"Eneco","maxPowerKw":11,"isMegawatt":false,"status":"AVAILABLE","source":"ndw","priceKwh":0.5}},{"type":"Feature","geometry":{"type":"Point","coordinates":[5.440476,52.1406814]},"properties":{"type":"charge","layer":"passenger","locationId":"1998","name":"Shell Recharge NL Valleilaan 3","address":"Valleilaan 3","city":"Leusden","operatorName":"Ubitricity","maxPowerKw":22,"isMegawatt":false,"status":"AVAILABLE","source":"ndw","priceKwh":0.266}},{"type":"Feature","geometry":{"type":"Point","coordinates":[5.41437,52.11559]},"properties":{"type":"charge","layer":"passenger","locationId":"dde26001-71c7-429f-adee-aa35d82f17f4","name":"TNLP009924 - Reinier Roeststraat 12, Leusden","address":"12 Reinier Roeststraat","city":"Leusden","operatorName":"TotalEnergies","maxPowerKw":17,"isMegawatt":false,"status":"AVAILABLE","source":"ndw"}},{"type":"Feature","geometry":{"type":"Point","coordinates":[5.442067,52.13859]},"properties":{"type":"charge","layer":"passenger","locationId":"0b6aceef-0567-4c3c-8e4e-bb3ae915a996","name":"TNLP005812 - Kornoelje 69, Leusden","address":"69 Kornoelje","city":"Leusden","operatorName":"TotalEnergies","maxPowerKw":11,"isMegawatt":false,"status":"AVAILABLE","source":"ndw"}},{"type":"Feature","geometry":{"type":"Point","coordinates":[5.419099,52.140975]},"properties":{"type":"charge","layer":"passenger","locationId":"67af0905fd5f0a97069b8cc4","name":"DK 's station 1","address":"Plantageweg 4","city":"Leusden","operatorName":"E-Flux by Road","maxPowerKw":11,"isMegawatt":false,"status":"AVAILABLE","source":"ndw","priceKwh":0.53}},{"type":"Feature","geometry":{"type":"Point","coordinates":[5.4148,52.11525]},"properties":{"type":"charge","layer":"passenger","locationId":"c249bd9625a00a5959bc020c8c48cb15","name":"Rita de Voogdstraat 1","address":"Rita de Voogdstraat 1","city":"Leusden","operatorName":"Vattenfall InCharge","maxPowerKw":11,"isMegawatt":false,"status":"AVAILABLE","source":"ndw"}},{"type":"Feature","geometry":{"type":"Point","coordinates":[5.494708,52.138571]},"properties":{"type":"charge","layer":"passenger","locationId":"552b1bf336d4cc2cc4dff2644cbd1d40","name":"Van Oldenbarneveltstraat 13","address":"Van Oldenbarneveltstraat 13","city":"Achterveld","operatorName":"Vattenfall InCharge","maxPowerKw":11,"isMegawatt":false,"status":"AVAILABLE","source":"ndw"}},{"type":"Feature","geometry":{"type":"Point","coordinates":[5.411858,52.1175]},"properties":{"type":"charge","layer":"passenger","locationId":"e78a1940-b275-48c4-8746-fc11d0f4792e","name":"TNLP009318 - Damreesche spoor 27, Leusden","address":"27 Damreesche spoor","city":"Leusden","operatorName":"TotalEnergies","maxPowerKw":17,"isMegawatt":false,"status":"AVAILABLE","source":"ndw"}},{"type":"Feature","geometry":{"type":"Point","coordinates":[5.41517,52.114902]},"properties":{"type":"charge","layer":"passenger","locationId":"68bacf22c865eb011ac58301","name":"RdV8","address":"Rita de Voogdstraat 8","city":"Leusden","operatorName":"E-Flux by Road","maxPowerKw":14,"isMegawatt":false,"status":"AVAILABLE","source":"ndw","priceKwh":0.28}},{"type":"Feature","geometry":{"type":"Point","coordinates":[5.419786,52.137123]},"properties":{"type":"charge","layer":"passenger","locationId":"88eda813-0687-4cda-9221-83a8b719098e","name":"TNLP008559 - Madelagehof 14, Leusden","address":"14 Madelagehof","city":"Leusden","operatorName":"TotalEnergies","maxPowerKw":13,"isMegawatt":false,"status":"AVAILABLE","source":"ndw"}},{"type":"Feature","geometry":{"type":"Point","coordinates":[5.49742,52.13599]},"properties":{"type":"charge","layer":"passenger","locationId":"1617","name":"Shell Recharge NL Rentinckstraat 18","address":"Rentinckstraat 18","city":"Leusden","operatorName":"Ubitricity","maxPowerKw":11,"isMegawatt":false,"status":"AVAILABLE","source":"ndw","priceKwh":0.388}},{"type":"Feature","geometry":{"type":"Point","coordinates":[5.42069,52.14068]},"properties":{"type":"charge","layer":"passenger","locationId":"E4B29E31-4050-4B61-9C98-65088B51D307","name":"Eneco eMobility Larikslaan 14, Leusden","address":"Larikslaan 14","city":"Leusden","operatorName":"Eneco","maxPowerKw":22,"isMegawatt":false,"status":"AVAILABLE","source":"ndw","priceKwh":0.51}},{"type":"Feature","geometry":{"type":"Point","coordinates":[5.440021,52.134953]},"properties":{"type":"charge","layer":"passenger","locationId":"923155","name":"DAE_NL_2001002","address":"Azuriet 12","city":"Leusden","operatorName":"DAEN Mobility","maxPowerKw":11,"isMegawatt":false,"status":"AVAILABLE","source":"ndw","priceKwh":0.28}},{"type":"Feature","geometry":{"type":"Point","coordinates":[5.436194,52.13984]},"properties":{"type":"charge","layer":"passenger","locationId":"5d5b7ee9-bcdf-4799-aa75-f6af85b8ae1e","name":"TNLP006607 - Ruige Velddreef 37, Leusden","address":"37 Ruige Velddreef","city":"Leusden","operatorName":"TotalEnergies","maxPowerKw":17,"isMegawatt":false,"status":"AVAILABLE","source":"ndw"}},{"type":"Feature","geometry":{"type":"Point","coordinates":[5.498416,52.136646]},"properties":{"type":"charge","layer":"passenger","locationId":"e33be748-13a5-460b-aaf4-7aff94d27fdd","name":"PP005532 - Van Geijnstraat 20, Achterveld","address":"20 Van Geijnstraat","city":"Achterveld","operatorName":"TotalEnergies","maxPowerKw":11,"isMegawatt":false,"status":"AVAILABLE","source":"ndw"}},{"type":"Feature","geometry":{"type":"Point","coordinates":[5.437977,52.141556]},"properties":{"type":"charge","layer":"passenger","locationId":"f057b99c-2487-4ac3-ac9b-ae7d7ae46379","name":"TNLP006912 - Linieweg 1, Leusden","address":"1 Linieweg","city":"Leusden","operatorName":"TotalEnergies","maxPowerKw":17,"isMegawatt":false,"status":"AVAILABLE","source":"ndw"}},{"type":"Feature","geometry":{"type":"Point","coordinates":[5.413056,52.126758]},"properties":{"type":"charge","layer":"passenger","locationId":"685955469da2e63930e730ec","name":"NXT 50five - Leusden - Bavoortseweg 9 - DC","address":"Bavoortseweg 9","city":"Leusden","operatorName":"NXT50Five","maxPowerKw":50,"isMegawatt":false,"status":"AVAILABLE","source":"ndw","priceKwh":0.6}},{"type":"Feature","geometry":{"type":"Point","coordinates":[5.41255,52.11571]},"properties":{"type":"charge","layer":"passenger","locationId":"58f68294-c7d5-40ee-a451-287c8f2302f6","name":"PP004152 - Petri Markensteinstraat 3, Leusden","address":"3 Petri Markensteinstraat","city":"Leusden","operatorName":"TotalEnergies","maxPowerKw":11,"isMegawatt":false,"status":"AVAILABLE","source":"ndw"}},{"type":"Feature","geometry":{"type":"Point","coordinates":[5.44464,52.1371]},"properties":{"type":"charge","layer":"passenger","locationId":"40dbf0f4-9b12-40cb-b410-b9dbb87340a5","name":"TNLP003519 - Ereprijshof 35, Leusden","address":"35 Ereprijshof","city":"Leusden","operatorName":"TotalEnergies","maxPowerKw":17,"isMegawatt":false,"status":"AVAILABLE","source":"ndw"}},{"type":"Feature","geometry":{"type":"Point","coordinates":[5.499501,52.138503]},"properties":{"type":"charge","layer":"passenger","locationId":"b73f2ddbcd9ab5effd2eb164e151dc30","name":"Lange Streek 72","address":"Lange Streek 72","city":"Achterveld","operatorName":"Vattenfall InCharge","maxPowerKw":11,"isMegawatt":false,"status":"AVAILABLE","source":"ndw"}},{"type":"Feature","geometry":{"type":"Point","coordinates":[5.406236,52.11887]},"properties":{"type":"charge","layer":"passenger","locationId":"f3e37a25-9edf-4e00-affa-6bf3e4eec955","name":"TNLP006560 - Willem de Zwijgerlaan 43, Leusden","address":"43 Willem de Zwijgerlaan","city":"Leusden","operatorName":"TotalEnergies","maxPowerKw":17,"isMegawatt":false,"status":"AVAILABLE","source":"ndw"}},{"type":"Feature","geometry":{"type":"Point","coordinates":[5.423596,52.140293]},"properties":{"type":"charge","layer":"passenger","locationId":"f7928e81-35e6-4aaa-b06f-fda686bbe902","name":"TNLP008025 - Larikslaan 3, Leusden","address":"3 Larikslaan","city":"Leusden","operatorName":"TotalEnergies","maxPowerKw":17,"isMegawatt":false,"status":"AVAILABLE","source":"ndw"}},{"type":"Feature","geometry":{"type":"Point","coordinates":[5.435485,52.137573]},"properties":{"type":"charge","layer":"passenger","locationId":"114d0de5-8266-41c9-b4ce-99f9ecb26746","name":"PP005433 - Esdoornhof 13, Leusden","address":"13 Esdoornhof","city":"Leusden","operatorName":"TotalEnergies","maxPowerKw":11,"isMegawatt":false,"status":"AVAILABLE","source":"ndw"}},{"type":"Feature","geometry":{"type":"Point","coordinates":[5.500449,52.135863]},"properties":{"type":"charge","layer":"passenger","locationId":"12122d94bf91aec9f63f57646289286a","name":"Ruurd Visserstraat 24","address":"Ruurd Visserstraat 24","city":"Achterveld","operatorName":"Vattenfall InCharge","maxPowerKw":11,"isMegawatt":false,"status":"AVAILABLE","source":"ndw"}},{"type":"Feature","geometry":{"type":"Point","coordinates":[5.424559,52.140915]},"properties":{"type":"charge","layer":"passenger","locationId":"0B89648E-6289-4B41-8005-9BD2E51664F3","name":"Eneco eMobility SamenThuis Investment B.V. - Olmenlaan 6 - Leusden","address":"Olmenlaan 6","city":"Leusden","operatorName":"Eneco","maxPowerKw":11,"isMegawatt":false,"status":"AVAILABLE","source":"ndw","priceKwh":0.5}},{"type":"Feature","geometry":{"type":"Point","coordinates":[5.42956,52.14617]},"properties":{"type":"charge","layer":"passenger","locationId":"620984f275b6e66e13bdcac0e9b121b8","name":"Arsenaal 26","address":"Arsenaal 26","city":"Leusden","operatorName":"Vattenfall InCharge","maxPowerKw":11,"isMegawatt":false,"status":"AVAILABLE","source":"ndw"}},{"type":"Feature","geometry":{"type":"Point","coordinates":[5.418342,52.143146]},"properties":{"type":"charge","layer":"passenger","locationId":"32376","name":"Circle K Leusden inz De Horst","address":"Randweg 4","city":"Leusden","operatorName":"Spirii","maxPowerKw":175,"isMegawatt":false,"status":"AVAILABLE","source":"ndw","priceKwh":0.65}},{"type":"Feature","geometry":{"type":"Point","coordinates":[5.44766,52.138345]},"properties":{"type":"charge","layer":"passenger","locationId":"e803cb5443f91267e0349c1d302998ef","name":"Weldamhof 1","address":"Weldamhof 1","city":"Leusden","operatorName":"Vattenfall InCharge","maxPowerKw":11,"isMegawatt":false,"status":"AVAILABLE","source":"ndw"}},{"type":"Feature","geometry":{"type":"Point","coordinates":[5.405505,52.120987]},"properties":{"type":"charge","layer":"passenger","locationId":"84d11611-07ea-4423-b164-2a9d9366ec66","name":"TNLP006934 - Van Hardenbroeklaan 66, Leusden","address":"66 Van Hardenbroeklaan","city":"Leusden","operatorName":"TotalEnergies","maxPowerKw":17,"isMegawatt":false,"status":"AVAILABLE","source":"ndw"}},{"type":"Feature","geometry":{"type":"Point","coordinates":[5.443001,52.130566]},"properties":{"type":"charge","layer":"passenger","locationId":"c28aac4b-d9f0-43b8-a450-fe74bd3a06f4","name":"TNLP007167 - Grondel 2, Leusden","address":"2 Grondel","city":"Leusden","operatorName":"TotalEnergies","maxPowerKw":17,"isMegawatt":false,"status":"AVAILABLE","source":"ndw"}},{"type":"Feature","geometry":{"type":"Point","coordinates":[5.43693,52.12932]},"properties":{"type":"charge","layer":"passenger","locationId":"681","name":"Shell Recharge NL Geulwijk 5","address":"Geulwijk 5","city":"Leusden","operatorName":"Ubitricity","maxPowerKw":11,"isMegawatt":false,"status":"AVAILABLE","source":"ndw","priceKwh":0.388}},{"type":"Feature","geometry":{"type":"Point","coordinates":[5.44122,52.134778]},"properties":{"type":"charge","layer":"passenger","locationId":"923483","name":"EVB-P20252289","address":"Krooneend 22","city":"LEUSDEN","operatorName":"DAEN Mobility","maxPowerKw":11,"isMegawatt":false,"status":"AVAILABLE","source":"ndw","priceKwh":0.36}},{"type":"Feature","geometry":{"type":"Point","coordinates":[5.425407,52.145361]},"properties":{"type":"charge","layer":"passenger","locationId":"80","name":"Shell Recharge NL Vlietsingel 8","address":"Vlietsingel 8","city":"Leusden","operatorName":"Ubitricity","maxPowerKw":11,"isMegawatt":false,"status":"AVAILABLE","source":"ndw","priceKwh":0.388}},{"type":"Feature","geometry":{"type":"Point","coordinates":[5.435036,52.127598]},"properties":{"type":"charge","layer":"passenger","locationId":"7d5ee60c-91d3-414a-848b-51a9d563641c","name":"TNLP005813 - Benedictijnenhove 8, Leusden","address":"8 Benedictijnenhove","city":"Leusden","operatorName":"TotalEnergies","maxPowerKw":17,"isMegawatt":false,"status":"AVAILABLE","source":"ndw"}},{"type":"Feature","geometry":{"type":"Point","coordinates":[5.421031,52.12339]},"properties":{"type":"charge","layer":"passenger","locationId":"6f60b8e6-4f20-4827-a8c8-0005aa97486e","name":"TNLP007327 - Rosmolenstraat 71, Leusden","address":"71 Rosmolenstraat","city":"Leusden","operatorName":"TotalEnergies","maxPowerKw":17,"isMegawatt":false,"status":"AVAILABLE","source":"ndw"}},{"type":"Feature","geometry":{"type":"Point","coordinates":[5.41117,52.12002]},"properties":{"type":"charge","layer":"passenger","locationId":"b1de1f68-4148-4341-afb6-f3e255523b30","name":"TNLP003529 - Het Spul 20, Leusden","address":"20 Het Spul","city":"Leusden","operatorName":"TotalEnergies","maxPowerKw":17,"isMegawatt":false,"status":"AVAILABLE","source":"ndw"}},{"type":"Feature","geometry":{"type":"Point","coordinates":[5.407472,52.122395]},"properties":{"type":"charge","layer":"passenger","locationId":"89242dde-7b4d-404b-8ca0-fffb4ae9eaa9","name":"TNLP009805 - Van Diepenheim Scheltuslaan 5, Leusden","address":"5 Van Diepenheim Scheltuslaan","city":"Leusden","operatorName":"TotalEnergies","maxPowerKw":17,"isMegawatt":false,"status":"AVAILABLE","source":"ndw"}},{"type":"Feature","geometry":{"type":"Point","coordinates":[5.419701,52.145647]},"properties":{"type":"charge","layer":"passenger","locationId":"6231ef71d034e653f6e23948","name":"CareConnections B.V. 1","address":"Fokkerstraat 2","city":"Leusden","operatorName":"E-Flux by Road","maxPowerKw":11,"isMegawatt":false,"status":"AVAILABLE","source":"ndw","priceKwh":0.38}},{"type":"Feature","geometry":{"type":"Point","coordinates":[5.428479,52.141193]},"properties":{"type":"charge","layer":"passenger","locationId":"7be07bf9-8e1e-4f87-88f9-b770dd598701","name":"TNLP007336 - Ruige Velddreef 103, Leusden","address":"103 Ruige Velddreef","city":"Leusden","operatorName":"TotalEnergies","maxPowerKw":17,"isMegawatt":false,"status":"AVAILABLE","source":"ndw"}},{"type":"Feature","geometry":{"type":"Point","coordinates":[5.42562,52.14573]},"properties":{"type":"charge","layer":"passenger","locationId":"6d91269b-d21b-4084-aa46-81b523e7788a","name":"TNLP007120 - Vlietsingel 15, Leusden","address":"15 Vlietsingel","city":"Leusden","operatorName":"TotalEnergies","maxPowerKw":17,"isMegawatt":false,"status":"AVAILABLE","source":"ndw"}},{"type":"Feature","geometry":{"type":"Point","coordinates":[5.416856,52.11487]},"properties":{"type":"charge","layer":"passenger","locationId":"76491624-8fb9-4230-bd4d-97c3c59aa364","name":"TNLP007077 - Rita de Voogdstraat 33, Leusden","address":"33 Rita de Voogdstraat","city":"Leusden","operatorName":"TotalEnergies","maxPowerKw":17,"isMegawatt":false,"status":"AVAILABLE","source":"ndw"}},{"type":"Feature","geometry":{"type":"Point","coordinates":[5.43054,52.13061]},"properties":{"type":"charge","layer":"passenger","locationId":"bd211b4a-859b-48e5-9aa8-e5c230457e00","name":"PP001715 - Hertenhoeve 3, Leusden","address":"3 Hertenhoeve","city":"Leusden","operatorName":"TotalEnergies","maxPowerKw":11,"isMegawatt":false,"status":"AVAILABLE","source":"ndw"}},{"type":"Feature","geometry":{"type":"Point","coordinates":[5.431635,52.137157]},"properties":{"type":"charge","layer":"passenger","locationId":"e73c26dd-a813-4da7-87cf-cc7b73f78907","name":"TNLP005780 - Asschatterweg 21, Leusden","address":"21 Asschatterweg","city":"Leusden","operatorName":"TotalEnergies","maxPowerKw":11,"isMegawatt":false,"status":"CHARGING","source":"ndw"}},{"type":"Feature","geometry":{"type":"Point","coordinates":[5.41803,52.14601]},"properties":{"type":"charge","layer":"passenger","locationId":"97","name":"Shell Recharge NL Fokkerstraat 16","address":"Fokkerstraat 16","city":"Leusden","operatorName":"Ubitricity","maxPowerKw":11,"isMegawatt":false,"status":"AVAILABLE","source":"ndw","priceKwh":0.388}},{"type":"Feature","geometry":{"type":"Point","coordinates":[5.43107,52.12715]},"properties":{"type":"charge","layer":"passenger","locationId":"8b147aff-9fc8-4138-89c6-b5ba92414832","name":"PP005099 - Leeuwenburg 4, Leusden","address":"4 Leeuwenburg","city":"Leusden","operatorName":"TotalEnergies","maxPowerKw":11,"isMegawatt":false,"status":"AVAILABLE","source":"ndw"}},{"type":"Feature","geometry":{"type":"Point","coordinates":[5.427912,52.13102]},"properties":{"type":"charge","layer":"passenger","locationId":"129f76e081ea963e6fb48906661345b8","name":"'t Erf 9","address":"'t Erf 9","city":"Leusden","operatorName":"Vattenfall InCharge","maxPowerKw":11,"isMegawatt":false,"status":"AVAILABLE","source":"ndw"}},{"type":"Feature","geometry":{"type":"Point","coordinates":[5.498888,52.137977]},"properties":{"type":"charge","layer":"passenger","locationId":"4e2ad05075ec417992a66c41ab9c03ab","name":"Koopmans Bouw B.V. Mastenbroek II","address":"Ruurd Visserstraat 49 tegen over","city":"Achterveld","operatorName":"NRG Accounting","maxPowerKw":11,"isMegawatt":false,"status":"UNAVAILABLE","source":"ndw","priceKwh":0.53}},{"type":"Feature","geometry":{"type":"Point","coordinates":[5.427948,52.131413]},"properties":{"type":"charge","layer":"passenger","locationId":"4db8c9cb-427a-4fdc-a390-6e1b43dee0da","name":"TNLP006752 - De Mulderij 12, Leusden","address":"12 De Mulderij","city":"Leusden","operatorName":"TotalEnergies","maxPowerKw":17,"isMegawatt":false,"status":"AVAILABLE","source":"ndw"}},{"type":"Feature","geometry":{"type":"Point","coordinates":[5.415638,52.126495]},"properties":{"type":"charge","layer":"passenger","locationId":"cb7951e9-3210-4d96-ac16-734bbe6303d5","name":"TNLP006087 - Kuperssingel 1, Leusden","address":"1 Kuperssingel","city":"Leusden","operatorName":"TotalEnergies","maxPowerKw":17,"isMegawatt":false,"status":"CHARGING","source":"ndw"}},{"type":"Feature","geometry":{"type":"Point","coordinates":[5.443176,52.127687]},"properties":{"type":"charge","layer":"passenger","locationId":"7f2290a8-e1dd-4882-8d41-9dd2be2c80a2","name":"TNLP034116","address":"Pachter 13","city":"Leusden","operatorName":"TotalEnergies","maxPowerKw":14,"isMegawatt":false,"status":"AVAILABLE","source":"ndw"}},{"type":"Feature","geometry":{"type":"Point","coordinates":[5.433238,52.130116]},"properties":{"type":"charge","layer":"passenger","locationId":"c328327e-ebe9-4dbd-a225-d3ed720402b0","name":"TNLP006545 - Pauwenhoeve 41, Leusden","address":"41 Pauwenhoeve","city":"Leusden","operatorName":"TotalEnergies","maxPowerKw":17,"isMegawatt":false,"status":"AVAILABLE","source":"ndw"}},{"type":"Feature","geometry":{"type":"Point","coordinates":[5.421748,52.118721]},"properties":{"type":"charge","layer":"passenger","locationId":"653a50c2018b95001b3b2275","name":"Osinga Brilmode","address":"Kapelhoek  10-12","city":"Leusden","operatorName":"Lanova Laadpalen","maxPowerKw":6,"isMegawatt":false,"status":"AVAILABLE","source":"ndw","priceKwh":0.73}},{"type":"Feature","geometry":{"type":"Point","coordinates":[5.414306,52.117243]},"properties":{"type":"charge","layer":"passenger","locationId":"dae36aa4972e61e73a4227ce6eec1612","name":"Genthoek 2","address":"Genthoek 2","city":"Leusden","operatorName":"Vattenfall InCharge","maxPowerKw":11,"isMegawatt":false,"status":"AVAILABLE","source":"ndw"}},{"type":"Feature","geometry":{"type":"Point","coordinates":[5.430646,52.137314]},"properties":{"type":"charge","layer":"passenger","locationId":"21f258bdeb042a27811801c9a435f6a8","name":"Asschatterweg 3","address":"Asschatterweg 3","city":"Leusden","operatorName":"Vattenfall InCharge","maxPowerKw":11,"isMegawatt":false,"status":"AVAILABLE","source":"ndw"}},{"type":"Feature","geometry":{"type":"MultiPolygon","coordinates":[[[[5.500002657536093,52.14104340280572],[5.502603248230138,52.13953602830474],[5.507592024712466,52.13886620567069],[5.5074503955706176,52.13853204140047],[5.51169037496942,52.13749397571213],[5.514079533020569,52.13592344729774],[5.512444000936229,52.134330111758565],[5.512366811070428,52.134224217944066],[5.511881025792466,52.13411538534044],[5.511998861083008,52.13399843148145],[5.512039579334745,52.13363714991269],[5.511667706637336,52.132050874104664],[5.5092032124208945,52.13194563454698],[5.507676974515847,52.131125171460354],[5.504988480385323,52.13108796849264],[5.501488444792106,52.12993925449162],[5.499098031175177,52.13054193415322],[5.497913163819817,52.130283256510445],[5.496759151242772,52.1248146199379],[5.494704774903013,52.124717970940324],[5.495060099212273,52.121993786759354],[5.496917730391166,52.11955779384936],[5.5000423479460965,52.119200313227786],[5.503371697214758,52.11965949436096],[5.5053540014752995,52.11975074763375],[5.50375603100909,52.11658591796284],[5.507551463440748,52.11561628580865],[5.507702095646344,52.113897230655056],[5.506301570556734,52.11431073202146],[5.50386782741284,52.11374560289883],[5.502610325291005,52.11509269548169],[5.49891655122315,52.11601792289468],[5.4956259465158865,52.11558608059392],[5.4880822474406905,52.116101419351516],[5.486447107643111,52.115360030389645],[5.482161128681832,52.116162499699364],[5.479089174164497,52.11742301059913],[5.47680160221962,52.114152567209715],[5.475825480142564,52.11207139090646],[5.475130629226098,52.1068911845419],[5.4760370911043506,52.10501240405504],[5.4735628209051095,52.10456322864899],[5.47198725412109,52.10145592021187],[5.468412197147759,52.10059864022893],[5.46751642205643,52.10040049440247],[5.457865908379407,52.10536952663092],[5.445789132975528,52.10685063127523],[5.443806612695269,52.10707486105677],[5.44213462057007,52.104214886474146],[5.439180713779847,52.1018762664597],[5.437983142635096,52.099791437050534],[5.4357263402095795,52.098912705702894],[5.434097976735669,52.09778020019557],[5.43220660927742,52.09787377126917],[5.432406206821704,52.096897977090315],[5.429652273136061,52.09591432741435],[5.428660851973836,52.09643499712537],[5.4260366060089655,52.09639685397909],[5.424769297258983,52.09704395873302],[5.4244602263938,52.09663593705467],[5.421980755052603,52.096655046074886],[5.4205783303637745,52.09714744344945],[5.420258646898756,52.09810954371103],[5.415001074516321,52.10011638270559],[5.410158408418434,52.10326357873462],[5.407384572409194,52.1030171195809],[5.40452076077213,52.10410672677592],[5.400781241359348,52.09187931435947],[5.401331917279094,52.08933380252247],[5.401207110956837,52.089337891141845],[5.40120662508028,52.08933791007581],[5.378009715716927,52.090471901793244],[5.340567484547771,52.09503185649791],[5.334297215147231,52.09633355442377],[5.32246213276577,52.10190123079748],[5.310919545927075,52.1083846963651],[5.325000785071667,52.11680600848991],[5.334036312502822,52.12041525714749],[5.355635189916803,52.136830073614185],[5.370457636442151,52.13157057895324],[5.372222128937177,52.13236475141708],[5.374388774552413,52.13099328103961],[5.384335040253296,52.131739005213134],[5.397127457955648,52.1339474553135],[5.398074738541999,52.13354828468715],[5.400082197443322,52.13571260282919],[5.40009692154133,52.13572092677398],[5.405404941371494,52.13981197368976],[5.407563346442978,52.141960322724294],[5.409391068248621,52.14038792621795],[5.408339629905056,52.14264669626059],[5.413771963336865,52.14802737249733],[5.414011050833438,52.14831134174946],[5.416208627635398,52.15091706252339],[5.417843757168308,52.15478524957594],[5.4235475727298,52.157620697220466],[5.431941401777051,52.158756515568435],[5.438951900376297,52.1613892195116],[5.442464395702753,52.16144866486507],[5.444963524608925,52.15989836813712],[5.4469847281397605,52.159537289635594],[5.4559506009002385,52.154347993331236],[5.459582255249188,52.15287683782285],[5.469863327842298,52.15284979872209],[5.476747689862079,52.15221806156254],[5.481341966940463,52.150501462842],[5.483794871580782,52.1494656219523],[5.489475826267696,52.14821968661295],[5.498984856887718,52.14736188719654],[5.497306403233095,52.14144392768265],[5.500002657536093,52.14104340280572]]]]},"properties":{"type":"boundary","gemeente":"Leusden","code":"GM0327"}}]}