{"type":"FeatureCollection","metadata":{"gemeente":"Lopik","slug":"lopik","code":"GM0331","generated_at":"2026-07-06T16:26:11.361Z","total_passenger":32,"total_freight":0,"bounds":[4.834114747259953,51.93803034590838,5.06263785006036,52.02556571408812],"operators":["DAEN Mobility","E-Flux by Road","Laadnet","TotalEnergies","Ubitricity","Vattenfall InCharge"]},"features":[{"type":"Feature","geometry":{"type":"Point","coordinates":[4.938093,51.97328]},"properties":{"type":"charge","layer":"passenger","locationId":"731384ca-8a3b-4aca-834c-8221c2af121b","name":"PP005365 - Jeroen Boschlaan 50, Lopik","address":"50 Jeroen Boschlaan","city":"Lopik","operatorName":"TotalEnergies","maxPowerKw":11,"isMegawatt":false,"status":"CHARGING","source":"ndw"}},{"type":"Feature","geometry":{"type":"Point","coordinates":[4.944258,51.97319]},"properties":{"type":"charge","layer":"passenger","locationId":"b3c67afa-6d1c-47c6-917a-92c71d123654","name":"PP005568 - M.A.A. Schakelplein 4, Lopik","address":"4 M.A.A. Schakelplein","city":"Lopik","operatorName":"TotalEnergies","maxPowerKw":11,"isMegawatt":false,"status":"AVAILABLE","source":"ndw"}},{"type":"Feature","geometry":{"type":"Point","coordinates":[4.936056,51.973363]},"properties":{"type":"charge","layer":"passenger","locationId":"50b6d33807e3d182b7ec0083b4f20a31","name":"Moerasbos 20","address":"Moerasbos 20","city":"Lopik","operatorName":"Vattenfall InCharge","maxPowerKw":11,"isMegawatt":false,"status":"CHARGING","source":"ndw"}},{"type":"Feature","geometry":{"type":"Point","coordinates":[4.958676,51.97384]},"properties":{"type":"charge","layer":"passenger","locationId":"a589e22e-89cb-4aec-9474-06dd96048bcb","name":"TNLP009966 - het Veld 4, Lopik","address":"4 het Veld","city":"Lopik","operatorName":"TotalEnergies","maxPowerKw":17,"isMegawatt":false,"status":"AVAILABLE","source":"ndw"}},{"type":"Feature","geometry":{"type":"Point","coordinates":[4.84825,51.97628]},"properties":{"type":"charge","layer":"passenger","locationId":"551","name":"Shell Recharge NL Dorp 39","address":"Dorp 39","city":"Polsbroek","operatorName":"Ubitricity","maxPowerKw":11,"isMegawatt":false,"status":"AVAILABLE","source":"ndw","priceKwh":0.388}},{"type":"Feature","geometry":{"type":"Point","coordinates":[4.97006,51.98902]},"properties":{"type":"charge","layer":"passenger","locationId":"2104384","name":"Laadnet Arbo Advies","address":"Copenweg 9","city":"Lopik","operatorName":"Laadnet","maxPowerKw":11,"isMegawatt":false,"status":"AVAILABLE","source":"ndw"}},{"type":"Feature","geometry":{"type":"Point","coordinates":[4.9004554,51.9647055]},"properties":{"type":"charge","layer":"passenger","locationId":"2298","name":"Shell Recharge NL Kerklaan 1","address":"Kerklaan 1","city":"Lopik","operatorName":"Ubitricity","maxPowerKw":22,"isMegawatt":false,"status":"AVAILABLE","source":"ndw","priceKwh":0.266}},{"type":"Feature","geometry":{"type":"Point","coordinates":[4.972356,51.97925]},"properties":{"type":"charge","layer":"passenger","locationId":"4266601","name":"Laadnet Thuis","address":"Lopikerweg Oost 56","city":"Lopik","operatorName":"Laadnet","maxPowerKw":22,"isMegawatt":false,"status":"AVAILABLE","source":"ndw"}},{"type":"Feature","geometry":{"type":"Point","coordinates":[4.962058,52.005215]},"properties":{"type":"charge","layer":"passenger","locationId":"64df8b111cc0dc001b19c2e6","name":"VOLLEZON BV","address":"Benedeneind Zuidzijde 243","city":"Benschop","operatorName":"E-Flux by Road","maxPowerKw":11,"isMegawatt":false,"status":"AVAILABLE","source":"ndw","priceKwh":0.49}},{"type":"Feature","geometry":{"type":"Point","coordinates":[4.941202,51.97147]},"properties":{"type":"charge","layer":"passenger","locationId":"dd57df76-c59a-4de6-bfc9-26a3ad685d6c","name":"TNLP008260 - Jan de Braylaan 1, Lopik","address":"1 Jan de Braylaan","city":"Lopik","operatorName":"TotalEnergies","maxPowerKw":17,"isMegawatt":false,"status":"AVAILABLE","source":"ndw"}},{"type":"Feature","geometry":{"type":"Point","coordinates":[4.946772,51.972267]},"properties":{"type":"charge","layer":"passenger","locationId":"5d91ab47-e52e-4bc1-a7ad-8d927e00953a","name":"TNLP007720 - Juliana van Stolberglaan 10, Lopik","address":"10 Juliana van Stolberglaan","city":"Lopik","operatorName":"TotalEnergies","maxPowerKw":13,"isMegawatt":false,"status":"CHARGING","source":"ndw"}},{"type":"Feature","geometry":{"type":"Point","coordinates":[4.924515,51.975518]},"properties":{"type":"charge","layer":"passenger","locationId":"4175079","name":"Laadnet HOB Aggregaten","address":"Lopikerweg West 34A","city":"Lopik","operatorName":"Laadnet","maxPowerKw":22,"isMegawatt":false,"status":"AVAILABLE","source":"ndw"}},{"type":"Feature","geometry":{"type":"Point","coordinates":[5.04392,52.002847]},"properties":{"type":"charge","layer":"passenger","locationId":"6475bbfdd87a64001c5204cd","name":"Amobi Holding BV","address":"Biezendijk 3","city":"Lopikerkapel","operatorName":"E-Flux by Road","maxPowerKw":22,"isMegawatt":false,"status":"AVAILABLE","source":"ndw","priceKwh":0.48}},{"type":"Feature","geometry":{"type":"Point","coordinates":[4.852876,51.97899]},"properties":{"type":"charge","layer":"passenger","locationId":"8554c12e-2c9d-476f-8107-75d98ca9ad8e","name":"TNLP009096 - Baronieweg 27, Polsbroek","address":"27 Baronieweg","city":"Polsbroek","operatorName":"TotalEnergies","maxPowerKw":17,"isMegawatt":false,"status":"CHARGING","source":"ndw"}},{"type":"Feature","geometry":{"type":"Point","coordinates":[4.985568,52.008606]},"properties":{"type":"charge","layer":"passenger","locationId":"d35538c7-67d0-41a1-8469-d7876635b5bc","name":"TNLP005756 - De Lansing 19, Benschop","address":"19 De Lansing","city":"Benschop","operatorName":"TotalEnergies","maxPowerKw":11,"isMegawatt":false,"status":"AVAILABLE","source":"ndw"}},{"type":"Feature","geometry":{"type":"Point","coordinates":[4.97966,52.004463]},"properties":{"type":"charge","layer":"passenger","locationId":"18610c0b-223f-4d27-8483-dd3ed7870f0b","name":"PP005531 - Koningin Wilhelminastraat 26, Benschop","address":"26 Koningin Wilhelminastraat","city":"Benschop","operatorName":"TotalEnergies","maxPowerKw":11,"isMegawatt":false,"status":"AVAILABLE","source":"ndw"}},{"type":"Feature","geometry":{"type":"Point","coordinates":[4.898538,51.96344]},"properties":{"type":"charge","layer":"passenger","locationId":"490d8a74-3956-4561-8c79-e9564d015b79","name":"TNLP006892 - de Nobelaerweg 53, Lopik","address":"53 de Nobelaerweg","city":"Lopik","operatorName":"TotalEnergies","maxPowerKw":17,"isMegawatt":false,"status":"CHARGING","source":"ndw"}},{"type":"Feature","geometry":{"type":"Point","coordinates":[4.9532587,51.974968]},"properties":{"type":"charge","layer":"passenger","locationId":"1015","name":"Shell Recharge NL Churchill-laan 21","address":"Churchill-laan 21","city":"Lopik","operatorName":"Ubitricity","maxPowerKw":22,"isMegawatt":false,"status":"CHARGING","source":"ndw","priceKwh":0.266}},{"type":"Feature","geometry":{"type":"Point","coordinates":[4.949961,51.97466]},"properties":{"type":"charge","layer":"passenger","locationId":"852e066e-902a-40d5-9145-fd7607e1fb1a","name":"TNLP007609 - Kon Willem-Alexanderpln 20, Lopik","address":"20 Kon Willem-Alexanderpln","city":"Lopik","operatorName":"TotalEnergies","maxPowerKw":17,"isMegawatt":false,"status":"AVAILABLE","source":"ndw"}},{"type":"Feature","geometry":{"type":"Point","coordinates":[4.977129,52.0054]},"properties":{"type":"charge","layer":"passenger","locationId":"9c0b0bc1-761f-4880-bfe9-3e9e032731be","name":"TNLP008230 - Eksterstraat 13, Benschop","address":"13 Eksterstraat","city":"Benschop","operatorName":"TotalEnergies","maxPowerKw":17,"isMegawatt":false,"status":"CHARGING","source":"ndw"}},{"type":"Feature","geometry":{"type":"Point","coordinates":[4.97983,52.006985]},"properties":{"type":"charge","layer":"passenger","locationId":"c95f76ba-22a0-4379-bd61-83aedcd2fb1d","name":"TNLP006925 - Theo Kleverstraat 19, Benschop","address":"19 Theo Kleverstraat","city":"Benschop","operatorName":"TotalEnergies","maxPowerKw":17,"isMegawatt":false,"status":"CHARGING","source":"ndw"}},{"type":"Feature","geometry":{"type":"Point","coordinates":[4.950593,51.97192]},"properties":{"type":"charge","layer":"passenger","locationId":"4b43e7dc-3ace-4195-80e3-729e33eb6bf0","name":"TNLP008515 - Raadhuisplein 1a, Lopik","address":"1a Raadhuisplein","city":"Lopik","operatorName":"TotalEnergies","maxPowerKw":13,"isMegawatt":false,"status":"AVAILABLE","source":"ndw"}},{"type":"Feature","geometry":{"type":"Point","coordinates":[4.975437,51.969284]},"properties":{"type":"charge","layer":"passenger","locationId":"2be55017-657e-41d7-b796-9d84b273f50e","name":"TNLP007173 - Adriaan Veerhof 22, Jaarsveld","address":"22 Adriaan Veerhof","city":"Jaarsveld","operatorName":"TotalEnergies","maxPowerKw":17,"isMegawatt":false,"status":"AVAILABLE","source":"ndw"}},{"type":"Feature","geometry":{"type":"Point","coordinates":[4.970695,51.9873]},"properties":{"type":"charge","layer":"passenger","locationId":"923418","name":"DAE_NL_2001250","address":"Bedrijfsweg 12","city":"Lopik","operatorName":"DAEN Mobility","maxPowerKw":11,"isMegawatt":false,"status":"UNAVAILABLE","source":"ndw","priceKwh":0.45}},{"type":"Feature","geometry":{"type":"Point","coordinates":[5.048123,51.99177]},"properties":{"type":"charge","layer":"passenger","locationId":"974aab3a-7518-4ea7-9638-2145e8e34aeb","name":"TNLP009089 - Sevenhovenstraat 17, Lopikerkapel","address":"17 Sevenhovenstraat","city":"Lopikerkapel","operatorName":"TotalEnergies","maxPowerKw":17,"isMegawatt":false,"status":"AVAILABLE","source":"ndw"}},{"type":"Feature","geometry":{"type":"Point","coordinates":[4.954049,51.9729885]},"properties":{"type":"charge","layer":"passenger","locationId":"786","name":"Shell Recharge NL Europasingel 20","address":"Europasingel 20","city":"Lopik","operatorName":"Ubitricity","maxPowerKw":22,"isMegawatt":false,"status":"AVAILABLE","source":"ndw","priceKwh":0.266}},{"type":"Feature","geometry":{"type":"Point","coordinates":[5.01563,51.984184]},"properties":{"type":"charge","layer":"passenger","locationId":"de426a37-ddba-4221-9e44-35ac82582955","name":"TNLP007464 - Hof van Batuwe 18, Lopikerkapel","address":"18 Hof van Batuwe","city":"Lopikerkapel","operatorName":"TotalEnergies","maxPowerKw":17,"isMegawatt":false,"status":"AVAILABLE","source":"ndw"}},{"type":"Feature","geometry":{"type":"Point","coordinates":[4.9863341,52.0063858]},"properties":{"type":"charge","layer":"passenger","locationId":"2222","name":"Shell Recharge NL Zeevliet 42","address":"Zeevliet 42","city":"Benschop","operatorName":"Ubitricity","maxPowerKw":22,"isMegawatt":false,"status":"AVAILABLE","source":"ndw","priceKwh":0.266}},{"type":"Feature","geometry":{"type":"Point","coordinates":[4.938363,51.971176]},"properties":{"type":"charge","layer":"passenger","locationId":"3fd1d580-e080-41ff-9e02-548942318468","name":"TNLP008612 - Teenschiller 6, Lopik","address":"6 Teenschiller","city":"Lopik","operatorName":"TotalEnergies","maxPowerKw":13,"isMegawatt":false,"status":"AVAILABLE","source":"ndw"}},{"type":"Feature","geometry":{"type":"Point","coordinates":[4.982478,52.008072]},"properties":{"type":"charge","layer":"passenger","locationId":"1625d3d1b671ad7b2bf833799e5c9bd4","name":"Herderstasje 5","address":"Herderstasje 5","city":"Benschop","operatorName":"Vattenfall InCharge","maxPowerKw":11,"isMegawatt":false,"status":"AVAILABLE","source":"ndw"}},{"type":"Feature","geometry":{"type":"Point","coordinates":[4.984508,52.0068]},"properties":{"type":"charge","layer":"passenger","locationId":"bf083c33a1a6abe209f6193bbfbfa15b","name":"Oeverzegge 22","address":"Oeverzegge 22","city":"Benschop","operatorName":"Vattenfall InCharge","maxPowerKw":11,"isMegawatt":false,"status":"AVAILABLE","source":"ndw"}},{"type":"Feature","geometry":{"type":"Point","coordinates":[4.85298,51.976965]},"properties":{"type":"charge","layer":"passenger","locationId":"9652797bc098c5101f7eabb55f98563a","name":"Vrijheer de Graeffweg 17","address":"Vrijheer de Graeffweg 17","city":"Polsbroek","operatorName":"Vattenfall InCharge","maxPowerKw":11,"isMegawatt":false,"status":"AVAILABLE","source":"ndw"}},{"type":"Feature","geometry":{"type":"MultiPolygon","coordinates":[[[[5.023913048994802,52.019932168852534],[5.027082431575816,52.014776994894945],[5.027316222786485,52.014779718524395],[5.029351557296188,52.011472023631256],[5.030141967654709,52.01016433558413],[5.031771977129605,52.007518950584924],[5.034001936290021,52.00393699368139],[5.036045368444086,52.004259003660536],[5.042469870462761,52.00566838525822],[5.052611583215514,51.99765435090302],[5.0538856736851825,51.99663113680382],[5.053082016016007,51.995384778083434],[5.055865870255645,51.99408070444221],[5.06263785006036,51.99123318293138],[5.044995062022009,51.9819590335835],[5.040401944915751,51.977443696923785],[5.038830022102007,51.97413625793152],[5.036127221686919,51.97132859990581],[5.032848629174753,51.969746270387674],[5.029672613581454,51.9692034040166],[5.022375409346532,51.969726697506],[5.01610302551571,51.972140225468095],[5.010077269134162,51.975544198308064],[5.002182176552923,51.978215579083916],[4.998073320003628,51.97787154215339],[4.991862056788845,51.97585294799997],[4.987002764204958,51.97330748512726],[4.983907872294797,51.97059370352561],[4.9788878182754415,51.96595785534848],[4.976143003229255,51.96344512646897],[4.96810153745156,51.95933641659082],[4.963851119257131,51.95943413721792],[4.957333334580425,51.96098395161772],[4.948691019270868,51.96347166167764],[4.943305189601699,51.96394270346267],[4.939820332745047,51.96343985645145],[4.93358335015426,51.95970714208776],[4.926301063977516,51.950927766941966],[4.9191873461111655,51.94472873932599],[4.914011076980242,51.942435708685025],[4.877792638293838,51.93803034590838],[4.875811797427211,51.943533253979275],[4.872755499788208,51.950940406195876],[4.871597820946089,51.953710432320115],[4.868956554110501,51.956706491320276],[4.865673936502275,51.960433120909165],[4.8643044946294225,51.96339715523331],[4.8603822887569965,51.9680133374836],[4.849766050608207,51.97385395843764],[4.847553358943579,51.97513679663627],[4.845546569363863,51.97520040101486],[4.8442971944960505,51.97635171839349],[4.834114747259953,51.98558026113813],[4.835218241018892,51.986143039045665],[4.853260740232245,51.991726845572614],[4.8778321769591795,52.000568950948285],[4.891584683483122,52.00485284807013],[4.896412261795234,52.00651656235311],[4.909734933078405,52.01104156122195],[4.9138884782826135,52.01107772695179],[4.916855706623324,52.01014489046521],[4.920045008175167,52.01001413350274],[4.9521032981624415,52.01676499121014],[4.977256377675919,52.02052678985798],[4.992162013840565,52.02103265992839],[4.995194549862604,52.02172055202113],[5.019721449093311,52.025533075099155],[5.020353528098904,52.02556571408812],[5.023913048994802,52.019932168852534]]]]},"properties":{"type":"boundary","gemeente":"Lopik","code":"GM0331"}}]}