{"type":"FeatureCollection","metadata":{"gemeente":"Maassluis","slug":"maassluis","code":"GM0556","generated_at":"2026-07-06T16:26:11.361Z","total_passenger":189,"total_freight":0,"bounds":[4.212717672623121,51.905335091012304,4.292610636796516,51.94799079452291],"operators":["Allego","E-Flux by Road","EQUANS","Eneco","Laadnet","Tango electric"]},"features":[{"type":"Feature","geometry":{"type":"Point","coordinates":[4.260347,51.918463]},"properties":{"type":"charge","layer":"passenger","locationId":"89153847","name":"EQUANS SGZH 2.0 89153847","address":"Vincent van Goghlaan 229","city":"Maassluis","operatorName":"EQUANS","maxPowerKw":17,"isMegawatt":false,"status":"AVAILABLE","source":"ndw"}},{"type":"Feature","geometry":{"type":"Point","coordinates":[4.254179,51.924563]},"properties":{"type":"charge","layer":"passenger","locationId":"89942877","name":"EQUANS SGZH 2.0 89942877","address":"Scheerderij 37","city":"Maassluis","operatorName":"EQUANS","maxPowerKw":11,"isMegawatt":false,"status":"AVAILABLE","source":"ndw"}},{"type":"Feature","geometry":{"type":"Point","coordinates":[4.228204,51.938931]},"properties":{"type":"charge","layer":"passenger","locationId":"89035930","name":"EQUANS SGZH 2.0 89035930","address":"Stadsmolen 30","city":"Maassluis","operatorName":"EQUANS","maxPowerKw":22,"isMegawatt":false,"status":"AVAILABLE","source":"ndw"}},{"type":"Feature","geometry":{"type":"Point","coordinates":[4.24867,51.91637]},"properties":{"type":"charge","layer":"passenger","locationId":"89035924","name":"EQUANS SGZH 2.0 89035924","address":"Joubertstraat 2","city":"Maassluis","operatorName":"EQUANS","maxPowerKw":11,"isMegawatt":false,"status":"AVAILABLE","source":"ndw"}},{"type":"Feature","geometry":{"type":"Point","coordinates":[4.22329,51.93439]},"properties":{"type":"charge","layer":"passenger","locationId":"91045950","name":"EQUANS SGZH 2.0 Asserdreef 1","address":"Asserdreef 1","city":"Maassluis","operatorName":"EQUANS","maxPowerKw":11,"isMegawatt":false,"status":"AVAILABLE","source":"ndw"}},{"type":"Feature","geometry":{"type":"Point","coordinates":[4.24395,51.9366]},"properties":{"type":"charge","layer":"passenger","locationId":"91115047","name":"EQUANS SGZH 2.0 Doorkijk 6","address":"Doorkijk 6","city":"Maassluis","operatorName":"EQUANS","maxPowerKw":11,"isMegawatt":false,"status":"CHARGING","source":"ndw"}},{"type":"Feature","geometry":{"type":"Point","coordinates":[4.257318,51.922838]},"properties":{"type":"charge","layer":"passenger","locationId":"NLLOC004178","name":"NLD, Groen van Prinstererkade 2 3142GD Maassluis","address":"Groen van Prinstererkade 2","city":"Maassluis","operatorName":"Allego","maxPowerKw":11,"isMegawatt":false,"status":"AVAILABLE","source":"ndw","priceKwh":0.511}},{"type":"Feature","geometry":{"type":"Point","coordinates":[4.248824,51.915385]},"properties":{"type":"charge","layer":"passenger","locationId":"89254171","name":"EQUANS SGZH 2.0 89254171","address":"De la Reystraat 29","city":"Maassluis","operatorName":"EQUANS","maxPowerKw":11,"isMegawatt":false,"status":"AVAILABLE","source":"ndw"}},{"type":"Feature","geometry":{"type":"Point","coordinates":[4.240381,51.926432]},"properties":{"type":"charge","layer":"passenger","locationId":"89188826","name":"EQUANS SGZH 2.0 89188826","address":"Van Beethovenlaan 651","city":"Maassluis","operatorName":"EQUANS","maxPowerKw":11,"isMegawatt":false,"status":"AVAILABLE","source":"ndw"}},{"type":"Feature","geometry":{"type":"Point","coordinates":[4.232005,51.930691]},"properties":{"type":"charge","layer":"passenger","locationId":"90822375","name":"EQUANS SGZH 2.0 Reigerstraat 39","address":"Reigerstraat 39","city":"Maassluis","operatorName":"EQUANS","maxPowerKw":11,"isMegawatt":false,"status":"AVAILABLE","source":"ndw"}},{"type":"Feature","geometry":{"type":"Point","coordinates":[4.23331,51.936047]},"properties":{"type":"charge","layer":"passenger","locationId":"90159912","name":"EQUANS SGZH 2.0 Burg. Overvoordelaan 34","address":"Burg. Overvoordelaan 34","city":"Maassluis","operatorName":"EQUANS","maxPowerKw":11,"isMegawatt":false,"status":"AVAILABLE","source":"ndw"}},{"type":"Feature","geometry":{"type":"Point","coordinates":[4.241404,51.92401]},"properties":{"type":"charge","layer":"passenger","locationId":"07d08b7d-2196-415c-8f12-88cf5c12e5ce","name":"Tango Maassluis 1-2","address":"Mozartlaan 332","city":"Maassluis","operatorName":"Tango electric","maxPowerKw":300,"isMegawatt":false,"status":"AVAILABLE","source":"ndw","priceKwh":0.6}},{"type":"Feature","geometry":{"type":"Point","coordinates":[4.256231,51.925751]},"properties":{"type":"charge","layer":"passenger","locationId":"89235334","name":"EQUANS SGZH 2.0 89235334","address":"Twijnerij 35","city":"Maassluis","operatorName":"EQUANS","maxPowerKw":11,"isMegawatt":false,"status":"CHARGING","source":"ndw"}},{"type":"Feature","geometry":{"type":"Point","coordinates":[4.230028,51.934656]},"properties":{"type":"charge","layer":"passenger","locationId":"89273919","name":"EQUANS SGZH 2.0 89273919","address":"Schwartzlaan 20","city":"Maassluis","operatorName":"EQUANS","maxPowerKw":11,"isMegawatt":false,"status":"CHARGING","source":"ndw"}},{"type":"Feature","geometry":{"type":"Point","coordinates":[4.238566,51.922089]},"properties":{"type":"charge","layer":"passenger","locationId":"NLLOC003528","name":"NLD, Maassluis, Vuurbaak 2","address":"Vuurbaak 2","city":"Maassluis","operatorName":"Allego","maxPowerKw":11,"isMegawatt":false,"status":"AVAILABLE","source":"ndw","priceKwh":0.511}},{"type":"Feature","geometry":{"type":"Point","coordinates":[4.227683,51.939454]},"properties":{"type":"charge","layer":"passenger","locationId":"626bcae61f1ec2a641098628","name":"DrieMaasHave - Maassluis","address":"Stadsmolen 101","city":"Maassluis","operatorName":"E-Flux by Road","maxPowerKw":10,"isMegawatt":false,"status":"CHARGING","source":"ndw","priceKwh":0.38}},{"type":"Feature","geometry":{"type":"Point","coordinates":[4.259552,51.922322]},"properties":{"type":"charge","layer":"passenger","locationId":"89641442","name":"EQUANS SGZH 2.0 89641442","address":"Guido Gezellestraat 2","city":"Maassluis","operatorName":"EQUANS","maxPowerKw":11,"isMegawatt":false,"status":"AVAILABLE","source":"ndw"}},{"type":"Feature","geometry":{"type":"Point","coordinates":[4.23896,51.92268]},"properties":{"type":"charge","layer":"passenger","locationId":"89035927","name":"EQUANS SGZH 2.0 89035927","address":"Bruinvisch 12TO","city":"Maassluis","operatorName":"EQUANS","maxPowerKw":11,"isMegawatt":false,"status":"AVAILABLE","source":"ndw"}},{"type":"Feature","geometry":{"type":"Point","coordinates":[4.24509,51.93494]},"properties":{"type":"charge","layer":"passenger","locationId":"90894920","name":"EQUANS SGZH 2.0 Twijg 22","address":"Twijg 22","city":"Maassluis","operatorName":"EQUANS","maxPowerKw":11,"isMegawatt":false,"status":"AVAILABLE","source":"ndw"}},{"type":"Feature","geometry":{"type":"Point","coordinates":[4.260809,51.91796]},"properties":{"type":"charge","layer":"passenger","locationId":"89914509","name":"EQUANS SGZH 2.0 89914509","address":"Mesdaglaan 2","city":"Maassluis","operatorName":"EQUANS","maxPowerKw":11,"isMegawatt":false,"status":"CHARGING","source":"ndw"}},{"type":"Feature","geometry":{"type":"Point","coordinates":[4.230989,51.934977]},"properties":{"type":"charge","layer":"passenger","locationId":"89188777","name":"EQUANS SGZH 2.0 89188777","address":"Burg. Dommisseplantsoen 2b","city":"Maassluis","operatorName":"EQUANS","maxPowerKw":17,"isMegawatt":false,"status":"AVAILABLE","source":"ndw"}},{"type":"Feature","geometry":{"type":"Point","coordinates":[4.247662,51.928451]},"properties":{"type":"charge","layer":"passenger","locationId":"89228304","name":"EQUANS SGZH 2.0 89228304","address":"Henriëtte Bosmanslaan 33","city":"Maassluis","operatorName":"EQUANS","maxPowerKw":11,"isMegawatt":false,"status":"AVAILABLE","source":"ndw"}},{"type":"Feature","geometry":{"type":"Point","coordinates":[4.266818,51.921293]},"properties":{"type":"charge","layer":"passenger","locationId":"89354074","name":"EQUANS SGZH 2.0 89604320","address":"Crabethstraat 1","city":"Maassluis","operatorName":"EQUANS","maxPowerKw":11,"isMegawatt":false,"status":"AVAILABLE","source":"ndw"}},{"type":"Feature","geometry":{"type":"Point","coordinates":[4.227316,51.941147]},"properties":{"type":"charge","layer":"passenger","locationId":"89462856","name":"EQUANS SGZH 2.0 89462856","address":"Kopermolen 43","city":"Maassluis","operatorName":"EQUANS","maxPowerKw":11,"isMegawatt":false,"status":"AVAILABLE","source":"ndw"}},{"type":"Feature","geometry":{"type":"Point","coordinates":[4.227313,51.93483]},"properties":{"type":"charge","layer":"passenger","locationId":"NLLOC003403","name":"NLD, Maassluis, Doctor Jan Schoutenlaan 256","address":"Doctor Jan Schoutenlaan 256","city":"Maassluis","operatorName":"Allego","maxPowerKw":11,"isMegawatt":false,"status":"AVAILABLE","source":"ndw","priceKwh":0.511}},{"type":"Feature","geometry":{"type":"Point","coordinates":[4.22907,51.933984]},"properties":{"type":"charge","layer":"passenger","locationId":"89254262","name":"EQUANS SGZH 2.0 89254262","address":"Dr. Jan Schoutenlaan 304","city":"Maassluis","operatorName":"EQUANS","maxPowerKw":11,"isMegawatt":false,"status":"CHARGING","source":"ndw"}},{"type":"Feature","geometry":{"type":"Point","coordinates":[4.234888,51.928357]},"properties":{"type":"charge","layer":"passenger","locationId":"2786767","name":"Laadnet P. de Bruijn (Agriko International B.V.)","address":"Goudvinkstraat 1","city":"Maassluis","operatorName":"Laadnet","maxPowerKw":22,"isMegawatt":false,"status":"AVAILABLE","source":"ndw"}},{"type":"Feature","geometry":{"type":"Point","coordinates":[4.235867,51.924353]},"properties":{"type":"charge","layer":"passenger","locationId":"NLLOC007676","name":"NL, Jacob van Heemskercklaan 120, 3144 DK, Maassluis","address":"Jacob van Heemskercklaan 120","city":"Maassluis","operatorName":"Allego","maxPowerKw":11,"isMegawatt":false,"status":"CHARGING","source":"ndw","priceKwh":0.511}},{"type":"Feature","geometry":{"type":"Point","coordinates":[4.223758,51.939468]},"properties":{"type":"charge","layer":"passenger","locationId":"89455026","name":"EQUANS SGZH 2.0 89455026","address":"Churchilldreef 19","city":"Maassluis","operatorName":"EQUANS","maxPowerKw":11,"isMegawatt":false,"status":"AVAILABLE","source":"ndw"}},{"type":"Feature","geometry":{"type":"Point","coordinates":[4.247673,51.916084]},"properties":{"type":"charge","layer":"passenger","locationId":"90357741","name":"EQUANS SGZH 2.0 Burg. De Jonghkade 30 A","address":"Burg. De Jonghkade 30 A","city":"maassluis","operatorName":"EQUANS","maxPowerKw":11,"isMegawatt":false,"status":"AVAILABLE","source":"ndw"}},{"type":"Feature","geometry":{"type":"Point","coordinates":[4.251587,51.928755]},"properties":{"type":"charge","layer":"passenger","locationId":"89200935","name":"EQUANS SGZH 2.0 89200935","address":"Berkendal 20","city":"Maassluis","operatorName":"EQUANS","maxPowerKw":11,"isMegawatt":false,"status":"AVAILABLE","source":"ndw"}},{"type":"Feature","geometry":{"type":"Point","coordinates":[4.25872,51.91842]},"properties":{"type":"charge","layer":"passenger","locationId":"90877347","name":"EQUANS SGZH 2.0 Vincent van Goghlaan 43","address":"Vincent van Goghlaan 43","city":"Maassluis","operatorName":"EQUANS","maxPowerKw":11,"isMegawatt":false,"status":"AVAILABLE","source":"ndw"}},{"type":"Feature","geometry":{"type":"Point","coordinates":[4.239097,51.925179]},"properties":{"type":"charge","layer":"passenger","locationId":"89200934","name":"EQUANS SGZH 2.0 89200934","address":"Berliozstraat 12","city":"Maassluis","operatorName":"EQUANS","maxPowerKw":11,"isMegawatt":false,"status":"AVAILABLE","source":"ndw"}},{"type":"Feature","geometry":{"type":"Point","coordinates":[4.257592,51.922387]},"properties":{"type":"charge","layer":"passenger","locationId":"89286232","name":"EQUANS SGZH 2.0 89286232","address":"P.C. Hooftlaan 38","city":"Maassluis","operatorName":"EQUANS","maxPowerKw":11,"isMegawatt":false,"status":"CHARGING","source":"ndw"}},{"type":"Feature","geometry":{"type":"Point","coordinates":[4.24131,51.939685]},"properties":{"type":"charge","layer":"passenger","locationId":"3781362","name":"Laadnet Maassluis","address":"Verreweg 226","city":"Maassluis","operatorName":"Laadnet","maxPowerKw":11,"isMegawatt":false,"status":"AVAILABLE","source":"ndw"}},{"type":"Feature","geometry":{"type":"Point","coordinates":[4.259246,51.920657]},"properties":{"type":"charge","layer":"passenger","locationId":"91283149","name":"EQUANS SGZH 2.0 G.A. Brederolaan 41 A","address":"G.A. Brederolaan 41 A","city":"Maassluis","operatorName":"EQUANS","maxPowerKw":11,"isMegawatt":false,"status":"AVAILABLE","source":"ndw"}},{"type":"Feature","geometry":{"type":"Point","coordinates":[4.266413,51.918181]},"properties":{"type":"charge","layer":"passenger","locationId":"89146523","name":"EQUANS SGZH 2.0 89146523","address":"Jan Steenstraat 30","city":"Maassluis","operatorName":"EQUANS","maxPowerKw":17,"isMegawatt":false,"status":"UNAVAILABLE","source":"ndw"}},{"type":"Feature","geometry":{"type":"Point","coordinates":[4.26789,51.908741]},"properties":{"type":"charge","layer":"passenger","locationId":"90226377","name":"EQUANS SGZH 2.0 Hooge Zeedijk 100","address":"Hooge Zeedijk 100","city":"Maassluis","operatorName":"EQUANS","maxPowerKw":11,"isMegawatt":false,"status":"AVAILABLE","source":"ndw"}},{"type":"Feature","geometry":{"type":"Point","coordinates":[4.260506,51.92389]},"properties":{"type":"charge","layer":"passenger","locationId":"89153840","name":"EQUANS SGZH 2.0 89153840","address":"Brouwerijstraat 2 K-1H","city":"Maassluis","operatorName":"EQUANS","maxPowerKw":17,"isMegawatt":false,"status":"CHARGING","source":"ndw"}},{"type":"Feature","geometry":{"type":"Point","coordinates":[4.262461,51.92562]},"properties":{"type":"charge","layer":"passenger","locationId":"NLLOC005095","name":"NLD Lijnbaan 122 3142 BM Maassluis","address":"Lijnbaan 124","city":"Maassluis","operatorName":"Allego","maxPowerKw":11,"isMegawatt":false,"status":"AVAILABLE","source":"ndw","priceKwh":0.511}},{"type":"Feature","geometry":{"type":"Point","coordinates":[4.251853,51.923787]},"properties":{"type":"charge","layer":"passenger","locationId":"NLLOC004883","name":"NLD Scheerderij 1 3142 JB Maassluis","address":"Scheerderij 1","city":"Maassluis","operatorName":"Allego","maxPowerKw":11,"isMegawatt":false,"status":"AVAILABLE","source":"ndw","priceKwh":0.511}},{"type":"Feature","geometry":{"type":"Point","coordinates":[4.246477,51.928577]},"properties":{"type":"charge","layer":"passenger","locationId":"NLLOC003906","name":"NLD, Willem Pijperplein 89 3144BP Maassluis","address":"Willem Pijperplein 89","city":"Maassluis","operatorName":"Allego","maxPowerKw":11,"isMegawatt":false,"status":"AVAILABLE","source":"ndw","priceKwh":0.511}},{"type":"Feature","geometry":{"type":"Point","coordinates":[4.238923,51.921999]},"properties":{"type":"charge","layer":"passenger","locationId":"NLLOC016579","name":"NL, Vuurbaak 1, 3144DP, Maassluis","address":"Vuurbaak 1","city":"Maassluis","operatorName":"Allego","maxPowerKw":11,"isMegawatt":false,"status":"AVAILABLE","source":"ndw","priceKwh":0.511}},{"type":"Feature","geometry":{"type":"Point","coordinates":[4.24297,51.938899]},"properties":{"type":"charge","layer":"passenger","locationId":"90365802","name":"EQUANS SGZH 2.0 Pluis 2","address":"Pluis 2","city":"Maassluis","operatorName":"EQUANS","maxPowerKw":11,"isMegawatt":false,"status":"AVAILABLE","source":"ndw"}},{"type":"Feature","geometry":{"type":"Point","coordinates":[4.24358,51.9198]},"properties":{"type":"charge","layer":"passenger","locationId":"756C6277-C636-45BD-AF26-8E46A75423C8","name":"Eneco eMobility Zwarte Zee 54 Maassluis","address":"Zwarte Zee 54","city":"Maassluis","operatorName":"Eneco","maxPowerKw":22,"isMegawatt":false,"status":"AVAILABLE","source":"ndw","priceKwh":0.32}},{"type":"Feature","geometry":{"type":"Point","coordinates":[4.22011,51.938008]},"properties":{"type":"charge","layer":"passenger","locationId":"89145574","name":"EQUANS SGZH 2.0 89145574","address":"Lorentzdreef 13","city":"Maassluis","operatorName":"EQUANS","maxPowerKw":11,"isMegawatt":false,"status":"AVAILABLE","source":"ndw"}},{"type":"Feature","geometry":{"type":"Point","coordinates":[4.26062,51.91596]},"properties":{"type":"charge","layer":"passenger","locationId":"89035921","name":"EQUANS SGZH 2.0 89035921","address":"Tooroplaan 15","city":"Maassluis","operatorName":"EQUANS","maxPowerKw":22,"isMegawatt":false,"status":"CHARGING","source":"ndw"}},{"type":"Feature","geometry":{"type":"Point","coordinates":[4.2268,51.93289]},"properties":{"type":"charge","layer":"passenger","locationId":"89035929","name":"EQUANS SGZH 2.0 89035929","address":"Willem Weltevredenlaan 58","city":"Maassluis","operatorName":"EQUANS","maxPowerKw":11,"isMegawatt":false,"status":"AVAILABLE","source":"ndw"}},{"type":"Feature","geometry":{"type":"Point","coordinates":[4.221813,51.938767]},"properties":{"type":"charge","layer":"passenger","locationId":"89641439","name":"EQUANS SGZH 2.0 89641439","address":"Kamerling Onnesdreef 37","city":"Maassluis","operatorName":"EQUANS","maxPowerKw":11,"isMegawatt":false,"status":"CHARGING","source":"ndw"}},{"type":"Feature","geometry":{"type":"Point","coordinates":[4.236137,51.922171]},"properties":{"type":"charge","layer":"passenger","locationId":"89477501","name":"EQUANS SGZH 2.0 SGZH","address":"Santplaet 210","city":"Maassluis","operatorName":"EQUANS","maxPowerKw":11,"isMegawatt":false,"status":"AVAILABLE","source":"ndw"}},{"type":"Feature","geometry":{"type":"Point","coordinates":[4.247819,51.928261]},"properties":{"type":"charge","layer":"passenger","locationId":"90925060","name":"EQUANS SGZH 2.0 Henriëtte Bosmanslaan 31","address":"Henriëtte Bosmanslaan 31","city":"Maassluis","operatorName":"EQUANS","maxPowerKw":11,"isMegawatt":false,"status":"AVAILABLE","source":"ndw"}},{"type":"Feature","geometry":{"type":"Point","coordinates":[4.240668,51.92471]},"properties":{"type":"charge","layer":"passenger","locationId":"NLLOC007688","name":"NL, Verdistraat 11, 3144KH, Maassluis","address":"Verdistraat 11","city":"Maassluis","operatorName":"Allego","maxPowerKw":11,"isMegawatt":false,"status":"AVAILABLE","source":"ndw","priceKwh":0.511}},{"type":"Feature","geometry":{"type":"Point","coordinates":[4.239092,51.921382]},"properties":{"type":"charge","layer":"passenger","locationId":"66e2d8b44f1df6001d97d77c","name":"Praepes Charge","address":"Het Hoge Licht 46","city":"Maassluis","operatorName":"E-Flux by Road","maxPowerKw":22,"isMegawatt":false,"status":"UNAVAILABLE","source":"ndw","priceKwh":0.325}},{"type":"Feature","geometry":{"type":"Point","coordinates":[4.22586,51.94111]},"properties":{"type":"charge","layer":"passenger","locationId":"91357952","name":"EQUANS SGZH 2.0 Stadsmolen 118","address":"Stadsmolen 118","city":"Maassluis","operatorName":"EQUANS","maxPowerKw":11,"isMegawatt":false,"status":"CHARGING","source":"ndw"}},{"type":"Feature","geometry":{"type":"Point","coordinates":[4.228114,51.933318]},"properties":{"type":"charge","layer":"passenger","locationId":"89254207","name":"EQUANS SGZH 2.0 89254207","address":"Arie Boumanstraat 3","city":"Maassluis","operatorName":"EQUANS","maxPowerKw":11,"isMegawatt":false,"status":"AVAILABLE","source":"ndw"}},{"type":"Feature","geometry":{"type":"Point","coordinates":[4.225088,51.937315]},"properties":{"type":"charge","layer":"passenger","locationId":"89362792","name":"EQUANS SGZH 2.0 89362792","address":"Dunantdreef 118","city":"Maassluis","operatorName":"EQUANS","maxPowerKw":11,"isMegawatt":false,"status":"AVAILABLE","source":"ndw"}},{"type":"Feature","geometry":{"type":"Point","coordinates":[4.242561,51.930244]},"properties":{"type":"charge","layer":"passenger","locationId":"90256902","name":"EQUANS SGZH 2.0 De Vloot 289","address":"De Vloot 289","city":"Maassluis","operatorName":"EQUANS","maxPowerKw":11,"isMegawatt":false,"status":"AVAILABLE","source":"ndw"}},{"type":"Feature","geometry":{"type":"Point","coordinates":[4.227419,51.940881]},"properties":{"type":"charge","layer":"passenger","locationId":"89221187","name":"EQUANS SGZH 2.0 Pelmolen 11","address":"Pelmolen 11","city":"Maassluis","operatorName":"EQUANS","maxPowerKw":11,"isMegawatt":false,"status":"AVAILABLE","source":"ndw"}},{"type":"Feature","geometry":{"type":"Point","coordinates":[4.262369,51.923269]},"properties":{"type":"charge","layer":"passenger","locationId":"90167038","name":"EQUANS SGZH 2.0 Mgr. W.M. Bekkerslaan 98","address":"Mgr. W.M. Bekkerslaan 98","city":"Maassluis","operatorName":"EQUANS","maxPowerKw":11,"isMegawatt":false,"status":"CHARGING","source":"ndw"}},{"type":"Feature","geometry":{"type":"Point","coordinates":[4.252433,51.920005]},"properties":{"type":"charge","layer":"passenger","locationId":"NLLOC004581","name":"NLD Zandpad 26 3143 BL, Maassluis","address":"Zandpad 26","city":"Maassluis","operatorName":"Allego","maxPowerKw":11,"isMegawatt":false,"status":"AVAILABLE","source":"ndw","priceKwh":0.511}},{"type":"Feature","geometry":{"type":"Point","coordinates":[4.24616,51.9221]},"properties":{"type":"charge","layer":"passenger","locationId":"90891564","name":"EQUANS SGZH 2.0 P.J. Troelstraweg 101","address":"P.J. Troelstraweg 101","city":"Maassluis","operatorName":"EQUANS","maxPowerKw":11,"isMegawatt":false,"status":"AVAILABLE","source":"ndw"}},{"type":"Feature","geometry":{"type":"Point","coordinates":[4.255306,51.924095]},"properties":{"type":"charge","layer":"passenger","locationId":"NLLOC002594","name":"NLD, Maassluis, Marelstraat 69","address":"Marelstraat 69","city":"Maassluis","operatorName":"Allego","maxPowerKw":11,"isMegawatt":false,"status":"AVAILABLE","source":"ndw","priceKwh":0.511}},{"type":"Feature","geometry":{"type":"Point","coordinates":[4.241707,51.936988]},"properties":{"type":"charge","layer":"passenger","locationId":"89217230","name":"EQUANS SGZH 2.0 89217230","address":"Ritseling 20","city":"Maassluis","operatorName":"EQUANS","maxPowerKw":11,"isMegawatt":false,"status":"AVAILABLE","source":"ndw"}},{"type":"Feature","geometry":{"type":"Point","coordinates":[4.262196,51.916348]},"properties":{"type":"charge","layer":"passenger","locationId":"89188824","name":"EQUANS SGZH 2.0 Blommerslaan 19","address":"Blommerslaan 19","city":"Maassluis","operatorName":"EQUANS","maxPowerKw":17,"isMegawatt":false,"status":"AVAILABLE","source":"ndw"}},{"type":"Feature","geometry":{"type":"Point","coordinates":[4.249008,51.917296]},"properties":{"type":"charge","layer":"passenger","locationId":"89370471","name":"EQUANS SGZH 2.0 89370471","address":"Burg. De Jonghkade 9","city":"Maassluis","operatorName":"EQUANS","maxPowerKw":11,"isMegawatt":false,"status":"CHARGING","source":"ndw"}},{"type":"Feature","geometry":{"type":"Point","coordinates":[4.249769,51.929917]},"properties":{"type":"charge","layer":"passenger","locationId":"89332798","name":"EQUANS SGZH 2.0 89332798","address":"Iependal 44","city":"Maassluis","operatorName":"EQUANS","maxPowerKw":11,"isMegawatt":false,"status":"CHARGING","source":"ndw"}},{"type":"Feature","geometry":{"type":"Point","coordinates":[4.250019,51.919898]},"properties":{"type":"charge","layer":"passenger","locationId":"NLLOC004522","name":"NLD Keucheniusstraat 2 3144 EN Maassluis","address":"Keucheniusstraat 5","city":"Maassluis","operatorName":"Allego","maxPowerKw":11,"isMegawatt":false,"status":"AVAILABLE","source":"ndw","priceKwh":0.511}},{"type":"Feature","geometry":{"type":"Point","coordinates":[4.26731,51.91936]},"properties":{"type":"charge","layer":"passenger","locationId":"89035922","name":"EQUANS SGZH 2.0 89035922","address":"Vermeerlaan 32","city":"Maassluis","operatorName":"EQUANS","maxPowerKw":11,"isMegawatt":false,"status":"CHARGING","source":"ndw"}},{"type":"Feature","geometry":{"type":"Point","coordinates":[4.261619,51.920362]},"properties":{"type":"charge","layer":"passenger","locationId":"90172060","name":"EQUANS SGZH 2.0 Vondellaan 39","address":"Vondellaan 39","city":"Maassluis","operatorName":"EQUANS","maxPowerKw":11,"isMegawatt":false,"status":"CHARGING","source":"ndw"}},{"type":"Feature","geometry":{"type":"Point","coordinates":[4.249289,51.915763]},"properties":{"type":"charge","layer":"passenger","locationId":"89362791","name":"EQUANS SGZH 2.0 89362791","address":"De la Reystraat 5","city":"Maassluis","operatorName":"EQUANS","maxPowerKw":11,"isMegawatt":false,"status":"AVAILABLE","source":"ndw"}},{"type":"Feature","geometry":{"type":"Point","coordinates":[4.2506,51.92116]},"properties":{"type":"charge","layer":"passenger","locationId":"91321598","name":"EQUANS SGZH 2.0 Hellingkade 2","address":"Hellingkade 2","city":"Maassluis","operatorName":"EQUANS","maxPowerKw":11,"isMegawatt":false,"status":"AVAILABLE","source":"ndw"}},{"type":"Feature","geometry":{"type":"Point","coordinates":[4.249782,51.919494]},"properties":{"type":"charge","layer":"passenger","locationId":"90244059","name":"EQUANS SGZH 2.0 Govert van Wijnkade 18 C","address":"Govert van Wijnkade 18 C","city":"Maassluis","operatorName":"EQUANS","maxPowerKw":11,"isMegawatt":false,"status":"AVAILABLE","source":"ndw"}},{"type":"Feature","geometry":{"type":"Point","coordinates":[4.25397,51.92831]},"properties":{"type":"charge","layer":"passenger","locationId":"90928474","name":"EQUANS SGZH 2.0 Elzendal 1","address":"Elzendal 1","city":"Maassluis","operatorName":"EQUANS","maxPowerKw":11,"isMegawatt":false,"status":"AVAILABLE","source":"ndw"}},{"type":"Feature","geometry":{"type":"Point","coordinates":[4.253369,51.918615]},"properties":{"type":"charge","layer":"passenger","locationId":"90172033","name":"EQUANS SGZH 2.0 Michiel de Ruyterplein 1","address":"Michiel de Ruyterplein 1","city":"Maassluis","operatorName":"EQUANS","maxPowerKw":11,"isMegawatt":false,"status":"AVAILABLE","source":"ndw"}},{"type":"Feature","geometry":{"type":"Point","coordinates":[4.265412,51.917585]},"properties":{"type":"charge","layer":"passenger","locationId":"90891559","name":"EQUANS SGZH 2.0 Rembrandtlaan 45","address":"Rembrandtlaan 45","city":"Maassluis","operatorName":"EQUANS","maxPowerKw":22,"isMegawatt":false,"status":"AVAILABLE","source":"ndw"}},{"type":"Feature","geometry":{"type":"Point","coordinates":[4.244462,51.926008]},"properties":{"type":"charge","layer":"passenger","locationId":"90965717","name":"EQUANS SGZH 2.0 Mozartlaan 110","address":"Mozartlaan 110","city":"Maassluis","operatorName":"EQUANS","maxPowerKw":11,"isMegawatt":false,"status":"AVAILABLE","source":"ndw"}},{"type":"Feature","geometry":{"type":"Point","coordinates":[4.24253,51.93777]},"properties":{"type":"charge","layer":"passenger","locationId":"90980710","name":"EQUANS SGZH 2.0 Verreweg 123 (t.h.v. Gazon 1)","address":"Verreweg 123","city":"Maassluis","operatorName":"EQUANS","maxPowerKw":11,"isMegawatt":false,"status":"AVAILABLE","source":"ndw"}},{"type":"Feature","geometry":{"type":"Point","coordinates":[4.260794,51.925829]},"properties":{"type":"charge","layer":"passenger","locationId":"NLLOC007723","name":"NL, Carderie 9, 3142 BA, Maassluis","address":"Carderie 9","city":"Maassluis","operatorName":"Allego","maxPowerKw":11,"isMegawatt":false,"status":"AVAILABLE","source":"ndw","priceKwh":0.511}},{"type":"Feature","geometry":{"type":"Point","coordinates":[4.24187,51.934571]},"properties":{"type":"charge","layer":"passenger","locationId":"89942873","name":"EQUANS SGZH 2.0 89942873","address":"Eiland 17","city":"Maassluis","operatorName":"EQUANS","maxPowerKw":11,"isMegawatt":false,"status":"CHARGING","source":"ndw"}},{"type":"Feature","geometry":{"type":"Point","coordinates":[4.243,51.91863]},"properties":{"type":"charge","layer":"passenger","locationId":"EC0B1152-9DFC-416F-91DF-BEA59A06B6D4","name":"Eneco eMobility Noordzee 10 Maassluis","address":"Noordzee 10","city":"Maassluis","operatorName":"Eneco","maxPowerKw":22,"isMegawatt":false,"status":"AVAILABLE","source":"ndw","priceKwh":0.8}},{"type":"Feature","geometry":{"type":"Point","coordinates":[4.251503,51.921632]},"properties":{"type":"charge","layer":"passenger","locationId":"NLLOC001420","name":"NLD, Maassluis, Ankerstraat 2","address":"Ankerstraat 2","city":"Maassluis","operatorName":"Allego","maxPowerKw":11,"isMegawatt":false,"status":"AVAILABLE","source":"ndw","priceKwh":0.511}},{"type":"Feature","geometry":{"type":"Point","coordinates":[4.229017,51.941283]},"properties":{"type":"charge","layer":"passenger","locationId":"90122376","name":"EQUANS SGZH 2.0 Oliemolen 7","address":"Oliemolen 7","city":"Maassluis","operatorName":"EQUANS","maxPowerKw":11,"isMegawatt":false,"status":"AVAILABLE","source":"ndw"}},{"type":"Feature","geometry":{"type":"Point","coordinates":[4.230755,51.939648]},"properties":{"type":"charge","layer":"passenger","locationId":"89307336","name":"EQUANS SGZH 2.0 89307336","address":"Stellingmolen 50","city":"Maassluis","operatorName":"EQUANS","maxPowerKw":22,"isMegawatt":false,"status":"AVAILABLE","source":"ndw"}},{"type":"Feature","geometry":{"type":"Point","coordinates":[4.23694,51.927907]},"properties":{"type":"charge","layer":"passenger","locationId":"89239858","name":"EQUANS SGZH 2.0 Uiverlaan 26","address":"Uiverlaan 26","city":"Maassluis","operatorName":"EQUANS","maxPowerKw":11,"isMegawatt":false,"status":"AVAILABLE","source":"ndw"}},{"type":"Feature","geometry":{"type":"Point","coordinates":[4.230901,51.941828]},"properties":{"type":"charge","layer":"passenger","locationId":"NLLOC008841","name":"Kalandermolen 52, 3146 SL Maassluis","address":"Kalandermolen 52","city":"Maassluis","operatorName":"Allego","maxPowerKw":11,"isMegawatt":false,"status":"AVAILABLE","source":"ndw","priceKwh":0.511}},{"type":"Feature","geometry":{"type":"Point","coordinates":[4.24254,51.9228]},"properties":{"type":"charge","layer":"passenger","locationId":"89185502","name":"EQUANS SGZH 2.0 Cornelis van der Kolffstraat 169","address":"Cornelis van der Kolffstraat 169","city":"Maassluis","operatorName":"EQUANS","maxPowerKw":17,"isMegawatt":false,"status":"AVAILABLE","source":"ndw"}},{"type":"Feature","geometry":{"type":"Point","coordinates":[4.268925,51.91856]},"properties":{"type":"charge","layer":"passenger","locationId":"89273879","name":"EQUANS SGZH 2.0 89273879","address":"Van Scorelstraat 86","city":"Maassluis","operatorName":"EQUANS","maxPowerKw":11,"isMegawatt":false,"status":"CHARGING","source":"ndw"}},{"type":"Feature","geometry":{"type":"Point","coordinates":[4.253799,51.916723]},"properties":{"type":"charge","layer":"passenger","locationId":"89329918","name":"EQUANS SGZH 2.0 89329918","address":"Stationsweg 7","city":"Maassluis","operatorName":"EQUANS","maxPowerKw":11,"isMegawatt":false,"status":"AVAILABLE","source":"ndw"}},{"type":"Feature","geometry":{"type":"Point","coordinates":[4.251386,51.920903]},"properties":{"type":"charge","layer":"passenger","locationId":"NLLOC010184","name":"NL, De Schans 29, 3144 ET Maassluis","address":"De Schans 29","city":"Maassluis","operatorName":"Allego","maxPowerKw":11,"isMegawatt":false,"status":"AVAILABLE","source":"ndw","priceKwh":0.511}},{"type":"Feature","geometry":{"type":"Point","coordinates":[4.25618,51.916523]},"properties":{"type":"charge","layer":"passenger","locationId":"90122378","name":"EQUANS SGZH 2.0 Frederik Hendrikstraat 47","address":"Frederik Hendrikstraat 47","city":"Maassluis","operatorName":"EQUANS","maxPowerKw":11,"isMegawatt":false,"status":"AVAILABLE","source":"ndw"}},{"type":"Feature","geometry":{"type":"Point","coordinates":[4.221899,51.936875]},"properties":{"type":"charge","layer":"passenger","locationId":"89396944","name":"EQUANS SGZH 2.0 89396944","address":"Zeemandreef 60","city":"Maassluis","operatorName":"EQUANS","maxPowerKw":11,"isMegawatt":false,"status":"AVAILABLE","source":"ndw"}},{"type":"Feature","geometry":{"type":"Point","coordinates":[4.260832,51.918818]},"properties":{"type":"charge","layer":"passenger","locationId":"8372271F-7C7D-4019-8C9C-C8F02F330E36","name":"Eneco eMobility Albert Heijn - Mesdaglaan 199","address":"Mesdaglaan 199","city":"Maassluis","operatorName":"Eneco","maxPowerKw":150,"isMegawatt":false,"status":"AVAILABLE","source":"ndw","priceKwh":0.62}},{"type":"Feature","geometry":{"type":"Point","coordinates":[4.243081,51.936119]},"properties":{"type":"charge","layer":"passenger","locationId":"90116547","name":"EQUANS SGZH 2.0 Onderling 41","address":"Onderling 41","city":"Maassluis","operatorName":"EQUANS","maxPowerKw":11,"isMegawatt":false,"status":"AVAILABLE","source":"ndw"}},{"type":"Feature","geometry":{"type":"Point","coordinates":[4.264922,51.922392]},"properties":{"type":"charge","layer":"passenger","locationId":"NLLOC002249","name":"NLD, Maassluis, Wipperspark 70","address":"Wipperspark 70","city":"Maassluis","operatorName":"Allego","maxPowerKw":11,"isMegawatt":false,"status":"CHARGING","source":"ndw","priceKwh":0.511}},{"type":"Feature","geometry":{"type":"Point","coordinates":[4.251488,51.930745]},"properties":{"type":"charge","layer":"passenger","locationId":"90894876","name":"EQUANS SGZH 2.0 Olmendal 144 (t.h.v. Iependal","address":"Olmendal 144 (t.h.v. Iependal","city":"Maassluis","operatorName":"EQUANS","maxPowerKw":11,"isMegawatt":false,"status":"CHARGING","source":"ndw"}},{"type":"Feature","geometry":{"type":"Point","coordinates":[4.241931,51.922746]},"properties":{"type":"charge","layer":"passenger","locationId":"NLLOC002136","name":"NLD, Maassluis, Industrieweg 100","address":"Industrieweg 100","city":"Maassluis","operatorName":"Allego","maxPowerKw":11,"isMegawatt":false,"status":"AVAILABLE","source":"ndw","priceKwh":0.511}},{"type":"Feature","geometry":{"type":"Point","coordinates":[4.231515,51.930783]},"properties":{"type":"charge","layer":"passenger","locationId":"NLLOC002333","name":"NLD, Maassluis, Reigerstraat 63","address":"Reigerstraat 63","city":"Maassluis","operatorName":"Allego","maxPowerKw":11,"isMegawatt":false,"status":"AVAILABLE","source":"ndw","priceKwh":0.511}},{"type":"Feature","geometry":{"type":"Point","coordinates":[4.24817,51.92291]},"properties":{"type":"charge","layer":"passenger","locationId":"89035926","name":"EQUANS SGZH 2.0 89035926","address":"Heldringstraat 6","city":"Maassluis","operatorName":"EQUANS","maxPowerKw":11,"isMegawatt":false,"status":"AVAILABLE","source":"ndw"}},{"type":"Feature","geometry":{"type":"Point","coordinates":[4.22872,51.94299]},"properties":{"type":"charge","layer":"passenger","locationId":"89035931","name":"EQUANS SGZH 2.0 89035931","address":"Windmolen 1TH","city":"Maassluis","operatorName":"EQUANS","maxPowerKw":11,"isMegawatt":false,"status":"AVAILABLE","source":"ndw"}},{"type":"Feature","geometry":{"type":"Point","coordinates":[4.2463,51.92918]},"properties":{"type":"charge","layer":"passenger","locationId":"90937116","name":"EQUANS SGZH 2.0 Richard Hollaan 107","address":"Richard Hollaan 107","city":"Maassluis","operatorName":"EQUANS","maxPowerKw":11,"isMegawatt":false,"status":"AVAILABLE","source":"ndw"}},{"type":"Feature","geometry":{"type":"Point","coordinates":[4.250741,51.926695]},"properties":{"type":"charge","layer":"passenger","locationId":"89355425","name":"EQUANS SGZH 2.0 89355425","address":"Weverskade 43","city":"Maassluis","operatorName":"EQUANS","maxPowerKw":11,"isMegawatt":false,"status":"AVAILABLE","source":"ndw"}},{"type":"Feature","geometry":{"type":"Point","coordinates":[4.242851,51.92775]},"properties":{"type":"charge","layer":"passenger","locationId":"89315454","name":"EQUANS SGZH 2.0 Schubertlaan 814 Botter 2","address":"Schubertlaan 814","city":"Maassluis","operatorName":"EQUANS","maxPowerKw":11,"isMegawatt":false,"status":"AVAILABLE","source":"ndw"}},{"type":"Feature","geometry":{"type":"Point","coordinates":[4.251626,51.927678]},"properties":{"type":"charge","layer":"passenger","locationId":"NLLOC008147","name":"NL, Dennendal 48, 3142AC, Maassluis","address":"Dennendal 48","city":"Maassluis","operatorName":"Allego","maxPowerKw":11,"isMegawatt":false,"status":"AVAILABLE","source":"ndw","priceKwh":0.511}},{"type":"Feature","geometry":{"type":"Point","coordinates":[4.242426,51.928615]},"properties":{"type":"charge","layer":"passenger","locationId":"89153851","name":"EQUANS SGZH 2.0 Buis 13","address":"Buis 13","city":"Maassluis","operatorName":"EQUANS","maxPowerKw":11,"isMegawatt":false,"status":"AVAILABLE","source":"ndw"}},{"type":"Feature","geometry":{"type":"Point","coordinates":[4.247437,51.927077]},"properties":{"type":"charge","layer":"passenger","locationId":"NLLOC002518","name":"NLD, Maassluis, Peter van Anrooylaan 2","address":"Peter van Anrooylaan 2","city":"Maassluis","operatorName":"Allego","maxPowerKw":11,"isMegawatt":false,"status":"CHARGING","source":"ndw","priceKwh":0.511}},{"type":"Feature","geometry":{"type":"Point","coordinates":[4.231088,51.939909]},"properties":{"type":"charge","layer":"passenger","locationId":"90891571","name":"EQUANS SGZH 2.0 Schepradmolen 2","address":"Schepradmolen 2","city":"Maassluis","operatorName":"EQUANS","maxPowerKw":11,"isMegawatt":false,"status":"CHARGING","source":"ndw"}},{"type":"Feature","geometry":{"type":"Point","coordinates":[4.245937,51.922894]},"properties":{"type":"charge","layer":"passenger","locationId":"NLLOC007764","name":"NL, Talmastraat 50, 3144 CV, Maassluis","address":"Talmastraat 50","city":"Maassluis","operatorName":"Allego","maxPowerKw":11,"isMegawatt":false,"status":"AVAILABLE","source":"ndw","priceKwh":0.511}},{"type":"Feature","geometry":{"type":"Point","coordinates":[4.266716,51.918964]},"properties":{"type":"charge","layer":"passenger","locationId":"89828172","name":"EQUANS SGZH 2.0 89828172","address":"Ruysdaelstraat 5 B","city":"Maassluis","operatorName":"EQUANS","maxPowerKw":11,"isMegawatt":false,"status":"AVAILABLE","source":"ndw"}},{"type":"Feature","geometry":{"type":"Point","coordinates":[4.22579,51.939835]},"properties":{"type":"charge","layer":"passenger","locationId":"NLLOC004684","name":"NLD Trasmolen 15 3146 TE Maassluis","address":"Trasmolen 15","city":"Maassluis","operatorName":"Allego","maxPowerKw":11,"isMegawatt":false,"status":"AVAILABLE","source":"ndw","priceKwh":0.511}},{"type":"Feature","geometry":{"type":"Point","coordinates":[4.260515,51.925348]},"properties":{"type":"charge","layer":"passenger","locationId":"90123468","name":"EQUANS SGZH 2.0 Lijnbaan 69","address":"Lijnbaan 69","city":"Maassluis","operatorName":"EQUANS","maxPowerKw":11,"isMegawatt":false,"status":"AVAILABLE","source":"ndw"}},{"type":"Feature","geometry":{"type":"Point","coordinates":[4.222689,51.934454]},"properties":{"type":"charge","layer":"passenger","locationId":"89328019","name":"EQUANS SGZH 2.0 89328019","address":"Nobeldreef 55","city":"Maassluis","operatorName":"EQUANS","maxPowerKw":11,"isMegawatt":false,"status":"AVAILABLE","source":"ndw"}},{"type":"Feature","geometry":{"type":"Point","coordinates":[4.230118,51.932425]},"properties":{"type":"charge","layer":"passenger","locationId":"89145575","name":"EQUANS SGZH 2.0 89145575","address":"Korhoenstraat 25","city":"Maassluis","operatorName":"EQUANS","maxPowerKw":17,"isMegawatt":false,"status":"AVAILABLE","source":"ndw"}},{"type":"Feature","geometry":{"type":"Point","coordinates":[4.241805,51.921284]},"properties":{"type":"charge","layer":"passenger","locationId":"89914510","name":"EQUANS SGZH 2.0 89914510","address":"Houten Baak 1","city":"Maassluis","operatorName":"EQUANS","maxPowerKw":11,"isMegawatt":false,"status":"AVAILABLE","source":"ndw"}},{"type":"Feature","geometry":{"type":"Point","coordinates":[4.225247,51.935104]},"properties":{"type":"charge","layer":"passenger","locationId":"89215130","name":"EQUANS SGZH 2.0 89215130","address":"Asserdreef 61","city":"Maassluis","operatorName":"EQUANS","maxPowerKw":17,"isMegawatt":false,"status":"AVAILABLE","source":"ndw"}},{"type":"Feature","geometry":{"type":"Point","coordinates":[4.251007,51.923489]},"properties":{"type":"charge","layer":"passenger","locationId":"89942990","name":"EQUANS SGZH 2.0 89942990","address":"Noorddijk 53 b","city":"Maassluis","operatorName":"EQUANS","maxPowerKw":11,"isMegawatt":false,"status":"AVAILABLE","source":"ndw"}},{"type":"Feature","geometry":{"type":"Point","coordinates":[4.238369,51.931387]},"properties":{"type":"charge","layer":"passenger","locationId":"NLLOC003575","name":"NLD, Maassluis, Zwaluwstraat 15","address":"Zwaluwstraat 15","city":"Maassluis","operatorName":"Allego","maxPowerKw":11,"isMegawatt":false,"status":"AVAILABLE","source":"ndw","priceKwh":0.511}},{"type":"Feature","geometry":{"type":"Point","coordinates":[4.241351,51.920925]},"properties":{"type":"charge","layer":"passenger","locationId":"NLLOC012520","name":"NL, Jacob van Heemskercklaan 2, 3144DK, Maassluis","address":"Jacob van Heemskercklaan 2","city":"Maassluis","operatorName":"Allego","maxPowerKw":11,"isMegawatt":false,"status":"AVAILABLE","source":"ndw","priceKwh":0.511}},{"type":"Feature","geometry":{"type":"Point","coordinates":[4.224245,51.935658]},"properties":{"type":"charge","layer":"passenger","locationId":"90823774","name":"EQUANS SGZH 2.0 Einthovendreef 70","address":"Einthovendreef 70","city":"Maassluis","operatorName":"EQUANS","maxPowerKw":11,"isMegawatt":false,"status":"AVAILABLE","source":"ndw"}},{"type":"Feature","geometry":{"type":"Point","coordinates":[4.219875,51.935866]},"properties":{"type":"charge","layer":"passenger","locationId":"89355422","name":"EQUANS SGZH 2.0 89355422","address":"Dr. Albert Schweitzerdreef 5","city":"Maassluis","operatorName":"EQUANS","maxPowerKw":11,"isMegawatt":false,"status":"AVAILABLE","source":"ndw"}},{"type":"Feature","geometry":{"type":"Point","coordinates":[4.231683,51.929079]},"properties":{"type":"charge","layer":"passenger","locationId":"NLLOC013579","name":"NL, Merellaan 447, 3145 ER Maassluis","address":"Merellaan 447","city":"Maassluis","operatorName":"Allego","maxPowerKw":11,"isMegawatt":false,"status":"UNAVAILABLE","source":"ndw","priceKwh":0.511}},{"type":"Feature","geometry":{"type":"Point","coordinates":[4.244991,51.935724]},"properties":{"type":"charge","layer":"passenger","locationId":"89459871","name":"EQUANS SGZH 2.0 89459871","address":"Onderling 4","city":"Maassluis","operatorName":"EQUANS","maxPowerKw":11,"isMegawatt":false,"status":"AVAILABLE","source":"ndw"}},{"type":"Feature","geometry":{"type":"Point","coordinates":[4.246265,51.924021]},"properties":{"type":"charge","layer":"passenger","locationId":"90822378","name":"EQUANS SGZH 2.0 A.E. Maasstraat 25","address":"A.E. Maasstraat 25","city":"Maassluis","operatorName":"EQUANS","maxPowerKw":11,"isMegawatt":false,"status":"AVAILABLE","source":"ndw"}},{"type":"Feature","geometry":{"type":"Point","coordinates":[4.252717,51.926201]},"properties":{"type":"charge","layer":"passenger","locationId":"NLLOC004859","name":"NLD, Seringenstraat 2 3142NW Maassluis","address":"Seringenstraat 2","city":"Maassluis","operatorName":"Allego","maxPowerKw":11,"isMegawatt":false,"status":"CHARGING","source":"ndw","priceKwh":0.511}},{"type":"Feature","geometry":{"type":"Point","coordinates":[4.25741,51.91687]},"properties":{"type":"charge","layer":"passenger","locationId":"90925058","name":"EQUANS SGZH 2.0 Willem de Zwijgerstraat 43","address":"Willem de Zwijgerstraat 43","city":"Maassluis","operatorName":"EQUANS","maxPowerKw":11,"isMegawatt":false,"status":"AVAILABLE","source":"ndw"}},{"type":"Feature","geometry":{"type":"Point","coordinates":[4.25056,51.929009]},"properties":{"type":"charge","layer":"passenger","locationId":"90310804","name":"EQUANS SGZH 2.0 Berkendal 67","address":"Berkendal 67","city":"Maassluis","operatorName":"EQUANS","maxPowerKw":11,"isMegawatt":false,"status":"AVAILABLE","source":"ndw"}},{"type":"Feature","geometry":{"type":"Point","coordinates":[4.23963,51.92226]},"properties":{"type":"charge","layer":"passenger","locationId":"90909781","name":"EQUANS SGZH 2.0 Bruinvisch 11","address":"Bruinvisch 11","city":"Maassluis","operatorName":"EQUANS","maxPowerKw":11,"isMegawatt":false,"status":"AVAILABLE","source":"ndw"}},{"type":"Feature","geometry":{"type":"Point","coordinates":[4.2643,51.9224]},"properties":{"type":"charge","layer":"passenger","locationId":"91050032","name":"EQUANS SGZH 2.0 Staringstraat 23","address":"Staringstraat 23","city":"Maassluis","operatorName":"EQUANS","maxPowerKw":11,"isMegawatt":false,"status":"AVAILABLE","source":"ndw"}},{"type":"Feature","geometry":{"type":"Point","coordinates":[4.259838,51.921472]},"properties":{"type":"charge","layer":"passenger","locationId":"NLLOC013721","name":"NL, Guido Gezellestraat 12, 3141BG, Maassluis","address":"Guido Gezellestraat 12","city":"Maassluis","operatorName":"Allego","maxPowerKw":11,"isMegawatt":false,"status":"AVAILABLE","source":"ndw","priceKwh":0.511}},{"type":"Feature","geometry":{"type":"Point","coordinates":[4.255693,51.928935]},"properties":{"type":"charge","layer":"passenger","locationId":"NLLOC002607","name":"NLD, Maassluis, Rozenlaan 2","address":"Rozenlaan 2","city":"Maassluis","operatorName":"Allego","maxPowerKw":11,"isMegawatt":false,"status":"AVAILABLE","source":"ndw","priceKwh":0.511}},{"type":"Feature","geometry":{"type":"Point","coordinates":[4.238151,51.920508]},"properties":{"type":"charge","layer":"passenger","locationId":"NLLOC014754","name":"NL, Het Hoge Licht 135, 3144DN, Maassluis","address":"Het Hoge Licht 135","city":"Maassluis","operatorName":"Allego","maxPowerKw":11,"isMegawatt":false,"status":"AVAILABLE","source":"ndw","priceKwh":0.511}},{"type":"Feature","geometry":{"type":"Point","coordinates":[4.261465,51.917323]},"properties":{"type":"charge","layer":"passenger","locationId":"NLLOC001869","name":"NLD, Maassluis, Rembrandtlaan 2","address":"Rembrandtlaan 2","city":"Maassluis","operatorName":"Allego","maxPowerKw":11,"isMegawatt":false,"status":"AVAILABLE","source":"ndw","priceKwh":0.511}},{"type":"Feature","geometry":{"type":"Point","coordinates":[4.233935,51.931205]},"properties":{"type":"charge","layer":"passenger","locationId":"NLLOC004583","name":"NLD Nachtegaallaan 40 3145 CL Maassluis","address":"Nachtegaallaan 40","city":"Maassluis","operatorName":"Allego","maxPowerKw":11,"isMegawatt":false,"status":"AVAILABLE","source":"ndw","priceKwh":0.511}},{"type":"Feature","geometry":{"type":"Point","coordinates":[4.229082,51.931088]},"properties":{"type":"charge","layer":"passenger","locationId":"NLLOC005646","name":"NLD Merellaan 168 3145 XH Maassluis","address":"Merellaan 168","city":"Maassluis","operatorName":"Allego","maxPowerKw":11,"isMegawatt":false,"status":"CHARGING","source":"ndw","priceKwh":0.511}},{"type":"Feature","geometry":{"type":"Point","coordinates":[4.2371,51.92355]},"properties":{"type":"charge","layer":"passenger","locationId":"89488019","name":"EQUANS SGZH 2.0 Jacob van Heemskercklaan 76","address":"Jacob van Heemskercklaan 76","city":"Maassluis","operatorName":"EQUANS","maxPowerKw":11,"isMegawatt":false,"status":"CHARGING","source":"ndw"}},{"type":"Feature","geometry":{"type":"Point","coordinates":[4.25379,51.93014]},"properties":{"type":"charge","layer":"passenger","locationId":"91012725","name":"EQUANS SGZH 2.0 Wegedoorn 20","address":"Wegedoorn 20","city":"Maassluis","operatorName":"EQUANS","maxPowerKw":11,"isMegawatt":false,"status":"CHARGING","source":"ndw"}},{"type":"Feature","geometry":{"type":"Point","coordinates":[4.229834,51.935448]},"properties":{"type":"charge","layer":"passenger","locationId":"90122379","name":"EQUANS SGZH 2.0 Burg. van de Brandelerlaan 2 b","address":"Burg. van de Brandelerlaan 2 b","city":"Maassluis","operatorName":"EQUANS","maxPowerKw":11,"isMegawatt":false,"status":"CHARGING","source":"ndw"}},{"type":"Feature","geometry":{"type":"Point","coordinates":[4.21795,51.93779]},"properties":{"type":"charge","layer":"passenger","locationId":"90909799","name":"EQUANS SGZH 2.0 Dr. Albert Schweitzerdreef 351","address":"Dr. Albert Schweitzerdreef 351","city":"Maassluis","operatorName":"EQUANS","maxPowerKw":11,"isMegawatt":false,"status":"AVAILABLE","source":"ndw"}},{"type":"Feature","geometry":{"type":"Point","coordinates":[4.253505,51.926928]},"properties":{"type":"charge","layer":"passenger","locationId":"89329863","name":"EQUANS SGZH 2.0 89329863","address":"Jasmijnstraat 10","city":"Maassluis","operatorName":"EQUANS","maxPowerKw":11,"isMegawatt":false,"status":"AVAILABLE","source":"ndw"}},{"type":"Feature","geometry":{"type":"Point","coordinates":[4.23391,51.929586]},"properties":{"type":"charge","layer":"passenger","locationId":"90226385","name":"EQUANS SGZH 2.0 Eksterstraat 12","address":"Eksterstraat 12","city":"Maassluis","operatorName":"EQUANS","maxPowerKw":11,"isMegawatt":false,"status":"AVAILABLE","source":"ndw"}},{"type":"Feature","geometry":{"type":"Point","coordinates":[4.235868,51.932198]},"properties":{"type":"charge","layer":"passenger","locationId":"89202998","name":"EQUANS SGZH 2.0 89202998","address":"Nachtegaallaan 3","city":"Maassluis","operatorName":"EQUANS","maxPowerKw":17,"isMegawatt":false,"status":"AVAILABLE","source":"ndw"}},{"type":"Feature","geometry":{"type":"Point","coordinates":[4.22818,51.93719]},"properties":{"type":"charge","layer":"passenger","locationId":"89035928","name":"EQUANS SGZH 2.0 89035928","address":"Dokter Jan Schoutenlaan 12","city":"Maassluis","operatorName":"EQUANS","maxPowerKw":11,"isMegawatt":false,"status":"AVAILABLE","source":"ndw"}},{"type":"Feature","geometry":{"type":"Point","coordinates":[4.237194,51.931708]},"properties":{"type":"charge","layer":"passenger","locationId":"90095175","name":"EQUANS SGZH 2.0 Karekietstraat 30","address":"Karekietstraat 30","city":"Maassluis","operatorName":"EQUANS","maxPowerKw":11,"isMegawatt":false,"status":"AVAILABLE","source":"ndw"}},{"type":"Feature","geometry":{"type":"Point","coordinates":[4.25261,51.9186]},"properties":{"type":"charge","layer":"passenger","locationId":"90909801","name":"EQUANS SGZH 2.0 M.H. Trompstraat 28","address":"M.H. Trompstraat 28","city":"Maassluis","operatorName":"EQUANS","maxPowerKw":11,"isMegawatt":false,"status":"CHARGING","source":"ndw"}},{"type":"Feature","geometry":{"type":"Point","coordinates":[4.243909,51.923319]},"properties":{"type":"charge","layer":"passenger","locationId":"89238510","name":"EQUANS SGZH 2.0 89238510","address":"P.J. Troelstraweg 149","city":"Maassluis","operatorName":"EQUANS","maxPowerKw":11,"isMegawatt":false,"status":"CHARGING","source":"ndw"}},{"type":"Feature","geometry":{"type":"Point","coordinates":[4.251798,51.929005]},"properties":{"type":"charge","layer":"passenger","locationId":"NLLOC001871","name":"NLD, Maassluis, Berkendal 58","address":"Berkendal 58","city":"Maassluis","operatorName":"Allego","maxPowerKw":11,"isMegawatt":false,"status":"AVAILABLE","source":"ndw","priceKwh":0.511}},{"type":"Feature","geometry":{"type":"Point","coordinates":[4.24835,51.92517]},"properties":{"type":"charge","layer":"passenger","locationId":"89035925","name":"EQUANS SGZH 2.0 89035925","address":"Heldringstraat 101","city":"Maassluis","operatorName":"EQUANS","maxPowerKw":11,"isMegawatt":false,"status":"AVAILABLE","source":"ndw"}},{"type":"Feature","geometry":{"type":"Point","coordinates":[4.259995,51.917408]},"properties":{"type":"charge","layer":"passenger","locationId":"90172058","name":"EQUANS SGZH 2.0 Jozef Israëlslaan 7","address":"Jozef Israëlslaan 7","city":"Maassluis","operatorName":"EQUANS","maxPowerKw":11,"isMegawatt":false,"status":"CHARGING","source":"ndw"}},{"type":"Feature","geometry":{"type":"Point","coordinates":[4.223556,51.938104]},"properties":{"type":"charge","layer":"passenger","locationId":"90226395","name":"EQUANS SGZH 2.0 Echtpaar Curiedreef 20","address":"Echtpaar Curiedreef 20","city":"Maassluis","operatorName":"EQUANS","maxPowerKw":11,"isMegawatt":false,"status":"CHARGING","source":"ndw"}},{"type":"Feature","geometry":{"type":"Point","coordinates":[4.237069,51.923571]},"properties":{"type":"charge","layer":"passenger","locationId":"NLLOC012238","name":"NL, Jacob van Heemskercklaan 72, 3144 DK, Maassluis","address":"Jacob van Heemskercklaan 72","city":"Maassluis","operatorName":"Allego","maxPowerKw":11,"isMegawatt":false,"status":"AVAILABLE","source":"ndw","priceKwh":0.511}},{"type":"Feature","geometry":{"type":"Point","coordinates":[4.253425,51.919142]},"properties":{"type":"charge","layer":"passenger","locationId":"89254206","name":"EQUANS SGZH 2.0 89254206","address":"Witte de Withstraat 17","city":"Maassluis","operatorName":"EQUANS","maxPowerKw":11,"isMegawatt":false,"status":"AVAILABLE","source":"ndw"}},{"type":"Feature","geometry":{"type":"Point","coordinates":[4.22977,51.93366]},"properties":{"type":"charge","layer":"passenger","locationId":"91049966","name":"EQUANS SGZH 2.0 Dr. Jan Schoutenlaan 328","address":"Dr. Jan Schoutenlaan 328","city":"Maassluis","operatorName":"EQUANS","maxPowerKw":11,"isMegawatt":false,"status":"AVAILABLE","source":"ndw"}},{"type":"Feature","geometry":{"type":"Point","coordinates":[4.263585,51.920001]},"properties":{"type":"charge","layer":"passenger","locationId":"89329834","name":"EQUANS SGZH 2.0 89329834","address":"Govert Flinckplein 1","city":"Maassluis","operatorName":"EQUANS","maxPowerKw":11,"isMegawatt":false,"status":"AVAILABLE","source":"ndw"}},{"type":"Feature","geometry":{"type":"Point","coordinates":[4.2574,51.92476]},"properties":{"type":"charge","layer":"passenger","locationId":"91357948","name":"EQUANS SGZH 2.0 Glanzerij 21","address":"Glanzerij 21","city":"Maassluis","operatorName":"EQUANS","maxPowerKw":11,"isMegawatt":false,"status":"AVAILABLE","source":"ndw"}},{"type":"Feature","geometry":{"type":"Point","coordinates":[4.228079,51.937776]},"properties":{"type":"charge","layer":"passenger","locationId":"89602005","name":"EQUANS SGZH 2.0 Westeinde 17","address":"Westeinde 17","city":"Maassluis","operatorName":"EQUANS","maxPowerKw":11,"isMegawatt":false,"status":"AVAILABLE","source":"ndw"}},{"type":"Feature","geometry":{"type":"Point","coordinates":[4.242075,51.93061]},"properties":{"type":"charge","layer":"passenger","locationId":"89942986","name":"EQUANS SGZH 2.0 89942986","address":"De Vloot 211","city":"Maassluis","operatorName":"EQUANS","maxPowerKw":11,"isMegawatt":false,"status":"CHARGING","source":"ndw"}},{"type":"Feature","geometry":{"type":"Point","coordinates":[4.234451,51.926177]},"properties":{"type":"charge","layer":"passenger","locationId":"90167033","name":"EQUANS SGZH 2.0 Het Lage Licht 121","address":"Het Lage Licht 121","city":"Maassluis","operatorName":"EQUANS","maxPowerKw":11,"isMegawatt":false,"status":"AVAILABLE","source":"ndw"}},{"type":"Feature","geometry":{"type":"Point","coordinates":[4.262396,51.923723]},"properties":{"type":"charge","layer":"passenger","locationId":"89153846","name":"EQUANS SGZH 2.0 89153846","address":"Van Alphenstraat 1","city":"Maassluis","operatorName":"EQUANS","maxPowerKw":11,"isMegawatt":false,"status":"AVAILABLE","source":"ndw"}},{"type":"Feature","geometry":{"type":"Point","coordinates":[4.261594,51.917775]},"properties":{"type":"charge","layer":"passenger","locationId":"90987075","name":"EQUANS SGZH 2.0 Rembrandtlaan 7 A","address":"Rembrandtlaan 7 A","city":"Maassluis","operatorName":"EQUANS","maxPowerKw":11,"isMegawatt":false,"status":"AVAILABLE","source":"ndw"}},{"type":"Feature","geometry":{"type":"Point","coordinates":[4.2571,51.92287]},"properties":{"type":"charge","layer":"passenger","locationId":"90883829","name":"EQUANS SGZH 2.0 Groen van Prinstererkade 2","address":"Groen van Prinstererkade 2","city":"Maassluis","operatorName":"EQUANS","maxPowerKw":11,"isMegawatt":false,"status":"CHARGING","source":"ndw"}},{"type":"Feature","geometry":{"type":"Point","coordinates":[4.25285,51.9211]},"properties":{"type":"charge","layer":"passenger","locationId":"90925352","name":"EQUANS SGZH 2.0 Haven 7","address":"Haven 7","city":"Maassluis","operatorName":"EQUANS","maxPowerKw":11,"isMegawatt":false,"status":"AVAILABLE","source":"ndw"}},{"type":"Feature","geometry":{"type":"Point","coordinates":[4.24878,51.926507]},"properties":{"type":"charge","layer":"passenger","locationId":"89273911","name":"EQUANS SGZH 2.0 89273911","address":"Johan Wagenaarlaan 1","city":"Maassluis","operatorName":"EQUANS","maxPowerKw":11,"isMegawatt":false,"status":"AVAILABLE","source":"ndw"}},{"type":"Feature","geometry":{"type":"Point","coordinates":[4.257419,51.914007]},"properties":{"type":"charge","layer":"passenger","locationId":"89254233","name":"EQUANS SGZH 2.0 89254233","address":"Boonerhavenkade 37","city":"Maassluis","operatorName":"EQUANS","maxPowerKw":11,"isMegawatt":false,"status":"AVAILABLE","source":"ndw"}},{"type":"Feature","geometry":{"type":"Point","coordinates":[4.240479,51.929883]},"properties":{"type":"charge","layer":"passenger","locationId":"NLLOC007998","name":"NL, Boeier 21, 3144GA Maassluis","address":"Boeier 21","city":"Maassluis","operatorName":"Allego","maxPowerKw":11,"isMegawatt":false,"status":"AVAILABLE","source":"ndw","priceKwh":0.511}},{"type":"Feature","geometry":{"type":"Point","coordinates":[4.24737,51.93013]},"properties":{"type":"charge","layer":"passenger","locationId":"90883814","name":"EQUANS SGZH 2.0 Sparrendal 3","address":"Sparrendal 3","city":"Maassluis","operatorName":"EQUANS","maxPowerKw":11,"isMegawatt":false,"status":"AVAILABLE","source":"ndw"}},{"type":"Feature","geometry":{"type":"Point","coordinates":[4.258543,51.920819]},"properties":{"type":"charge","layer":"passenger","locationId":"90172059","name":"EQUANS SGZH 2.0 P.C. Hooftlaan 302","address":"P.C. Hooftlaan 302","city":"Maassluis","operatorName":"EQUANS","maxPowerKw":11,"isMegawatt":false,"status":"AVAILABLE","source":"ndw"}},{"type":"Feature","geometry":{"type":"Point","coordinates":[4.25606,51.920558]},"properties":{"type":"charge","layer":"passenger","locationId":"89354075","name":"EQUANS SGZH 2.0 89354075","address":"Patijnestraat 18","city":"Maassluis","operatorName":"EQUANS","maxPowerKw":11,"isMegawatt":false,"status":"AVAILABLE","source":"ndw"}},{"type":"Feature","geometry":{"type":"Point","coordinates":[4.233842,51.933124]},"properties":{"type":"charge","layer":"passenger","locationId":"NLLOC003686","name":"NLD, Maassluis, Bosuilstraat 8","address":"Bosuilstraat 8","city":"Maassluis","operatorName":"Allego","maxPowerKw":11,"isMegawatt":false,"status":"AVAILABLE","source":"ndw","priceKwh":0.511}},{"type":"Feature","geometry":{"type":"Point","coordinates":[4.252621,51.923323]},"properties":{"type":"charge","layer":"passenger","locationId":"91161396","name":"EQUANS SGZH 2.0 wagenstraat 9","address":"wagenstraat 9","city":"Maassluis","operatorName":"EQUANS","maxPowerKw":11,"isMegawatt":false,"status":"AVAILABLE","source":"ndw"}},{"type":"Feature","geometry":{"type":"Point","coordinates":[4.242455,51.938457]},"properties":{"type":"charge","layer":"passenger","locationId":"89488012","name":"EQUANS SGZH 2.0 89488012","address":"Verreweg 137","city":"Maassluis","operatorName":"EQUANS","maxPowerKw":11,"isMegawatt":false,"status":"AVAILABLE","source":"ndw"}},{"type":"Feature","geometry":{"type":"Point","coordinates":[4.26612,51.920771]},"properties":{"type":"charge","layer":"passenger","locationId":"NLLOC003731","name":"NLD, Maassluis, Vermeerlaan 2","address":"Vermeerlaan 2","city":"Maassluis","operatorName":"Allego","maxPowerKw":11,"isMegawatt":false,"status":"AVAILABLE","source":"ndw","priceKwh":0.511}},{"type":"Feature","geometry":{"type":"Point","coordinates":[4.25412,51.91988]},"properties":{"type":"charge","layer":"passenger","locationId":"89035923","name":"EQUANS SGZH 2.0 89035923","address":"Fenacoliuslaan 10","city":"Maassluis","operatorName":"EQUANS","maxPowerKw":11,"isMegawatt":false,"status":"AVAILABLE","source":"ndw"}},{"type":"Feature","geometry":{"type":"Point","coordinates":[4.25769,51.91421]},"properties":{"type":"charge","layer":"passenger","locationId":"91261616","name":"EQUANS SGZH 2.0 Boonerhavenkade 37","address":"Boonerhavenkade 37","city":"Maassluis","operatorName":"EQUANS","maxPowerKw":11,"isMegawatt":false,"status":"AVAILABLE","source":"ndw"}},{"type":"Feature","geometry":{"type":"Point","coordinates":[4.259989,51.916655]},"properties":{"type":"charge","layer":"passenger","locationId":"90189898","name":"EQUANS SGZH 2.0 Mauvelaan 16 (hoek Neuhuyslaan )","address":"Mauvelaan 16","city":"Maassluis","operatorName":"EQUANS","maxPowerKw":11,"isMegawatt":false,"status":"AVAILABLE","source":"ndw"}},{"type":"Feature","geometry":{"type":"Point","coordinates":[4.228891,51.938094]},"properties":{"type":"charge","layer":"passenger","locationId":"NLLOC002591","name":"NLD, Maassluis, Getijmolen 26","address":"Getijmolen 26","city":"Maassluis","operatorName":"Allego","maxPowerKw":11,"isMegawatt":false,"status":"AVAILABLE","source":"ndw","priceKwh":0.511}},{"type":"Feature","geometry":{"type":"Point","coordinates":[4.232651,51.934516]},"properties":{"type":"charge","layer":"passenger","locationId":"89273918","name":"EQUANS SGZH 2.0 89273918","address":"Buizerdstraat 115","city":"Maassluis","operatorName":"EQUANS","maxPowerKw":11,"isMegawatt":false,"status":"AVAILABLE","source":"ndw"}},{"type":"Feature","geometry":{"type":"Point","coordinates":[4.24158,51.9275]},"properties":{"type":"charge","layer":"passenger","locationId":"91487069","name":"EQUANS SGZH 2.0 Van Beethovenlaan 43","address":"Van Beethovenlaan 43","city":"Maassluis","operatorName":"EQUANS","maxPowerKw":22,"isMegawatt":false,"status":"AVAILABLE","source":"ndw"}},{"type":"Feature","geometry":{"type":"Point","coordinates":[4.232501,51.937509]},"properties":{"type":"charge","layer":"passenger","locationId":"89209928","name":"EQUANS SGZH 2.0 89209928","address":"Burg. Zaneveldstraat 16","city":"Maassluis","operatorName":"EQUANS","maxPowerKw":11,"isMegawatt":false,"status":"AVAILABLE","source":"ndw"}},{"type":"Feature","geometry":{"type":"Point","coordinates":[4.230211,51.940494]},"properties":{"type":"charge","layer":"passenger","locationId":"90244064","name":"EQUANS SGZH 2.0 stellingmolen 29","address":"stellingmolen 29","city":"Maassluis","operatorName":"EQUANS","maxPowerKw":11,"isMegawatt":false,"status":"AVAILABLE","source":"ndw"}},{"type":"Feature","geometry":{"type":"Point","coordinates":[4.25495,51.9202]},"properties":{"type":"charge","layer":"passenger","locationId":"91161399","name":"EQUANS SGZH 2.0 Fenacoliuslaan 1 A","address":"Fenacoliuslaan 1 A","city":"Maassluis","operatorName":"EQUANS","maxPowerKw":11,"isMegawatt":false,"status":"AVAILABLE","source":"ndw"}},{"type":"Feature","geometry":{"type":"Point","coordinates":[4.251933,51.929694]},"properties":{"type":"charge","layer":"passenger","locationId":"90123455","name":"EQUANS SGZH 2.0 Olmendal 60","address":"Olmendal 60","city":"Maassluis","operatorName":"EQUANS","maxPowerKw":11,"isMegawatt":false,"status":"UNAVAILABLE","source":"ndw"}},{"type":"Feature","geometry":{"type":"Point","coordinates":[4.265464,51.913073]},"properties":{"type":"charge","layer":"passenger","locationId":"89439567","name":"EQUANS SGZH 2.0 89439567","address":"Vlaardingsedijk 9","city":"Maassluis","operatorName":"EQUANS","maxPowerKw":11,"isMegawatt":false,"status":"AVAILABLE","source":"ndw"}},{"type":"Feature","geometry":{"type":"Point","coordinates":[4.239599,51.930754]},"properties":{"type":"charge","layer":"passenger","locationId":"89828167","name":"EQUANS SGZH 2.0 89828167","address":"Schollevaarstraat 48","city":"Maassluis","operatorName":"EQUANS","maxPowerKw":11,"isMegawatt":false,"status":"AVAILABLE","source":"ndw"}},{"type":"Feature","geometry":{"type":"Point","coordinates":[4.23373,51.9245]},"properties":{"type":"charge","layer":"passenger","locationId":"91261679","name":"EQUANS SGZH 2.0 Hoekwant 24","address":"Hoekwant 24","city":"Maassluis","operatorName":"EQUANS","maxPowerKw":11,"isMegawatt":false,"status":"AVAILABLE","source":"ndw"}},{"type":"Feature","geometry":{"type":"Point","coordinates":[4.24435,51.93885]},"properties":{"type":"charge","layer":"passenger","locationId":"91458544","name":"EQUANS SGZH 2.0 De Bleek 26","address":"De Bleek 26","city":"Maassluis","operatorName":"EQUANS","maxPowerKw":11,"isMegawatt":false,"status":"CHARGING","source":"ndw"}},{"type":"Feature","geometry":{"type":"Point","coordinates":[4.224907,51.933947]},"properties":{"type":"charge","layer":"passenger","locationId":"90123460","name":"EQUANS SGZH 2.0 Job van der Zeelaan 32","address":"Job van der Zeelaan 32","city":"Maassluis","operatorName":"EQUANS","maxPowerKw":11,"isMegawatt":false,"status":"AVAILABLE","source":"ndw"}},{"type":"Feature","geometry":{"type":"Point","coordinates":[4.22467,51.942175]},"properties":{"type":"charge","layer":"passenger","locationId":"90984129","name":"EQUANS SGZH 2.0 Dr Albert Schweitzerdreef 503","address":"Dr Albert Schweitzerdreef 503","city":"Maassluis","operatorName":"EQUANS","maxPowerKw":11,"isMegawatt":false,"status":"AVAILABLE","source":"ndw"}},{"type":"Feature","geometry":{"type":"Point","coordinates":[4.230268,51.934157]},"properties":{"type":"charge","layer":"passenger","locationId":"89462854","name":"EQUANS SGZH 2.0 89462854","address":"Burgemeester Schwartzlaan 7","city":"Maassluis","operatorName":"EQUANS","maxPowerKw":11,"isMegawatt":false,"status":"AVAILABLE","source":"ndw"}},{"type":"Feature","geometry":{"type":"Point","coordinates":[4.254566,51.922607]},"properties":{"type":"charge","layer":"passenger","locationId":"89914511","name":"EQUANS SGZH 2.0 89914511","address":"Cornelis van der Kolfstraat 105","city":"Maassluis","operatorName":"EQUANS","maxPowerKw":11,"isMegawatt":false,"status":"AVAILABLE","source":"ndw"}},{"type":"Feature","geometry":{"type":"Point","coordinates":[4.22762,51.93985]},"properties":{"type":"charge","layer":"passenger","locationId":"91261698","name":"EQUANS SGZH 2.0 Stadsmolen 103","address":"Stadsmolen 103","city":"Maassluis","operatorName":"EQUANS","maxPowerKw":11,"isMegawatt":false,"status":"AVAILABLE","source":"ndw"}},{"type":"Feature","geometry":{"type":"MultiPolygon","coordinates":[[[[4.228291163979707,51.94799079452291],[4.231766872918141,51.94292220517024],[4.2319195328515615,51.94295446576849],[4.236940861194598,51.94392952259624],[4.240316972343405,51.9428719699857],[4.241775123070154,51.94179587964055],[4.25309445744538,51.9327328809188],[4.259401787126688,51.92800387368342],[4.260521822675725,51.92730673812082],[4.261419805621255,51.92678067812356],[4.264272108320574,51.92546816582],[4.266128105145643,51.92530206338748],[4.270682548770266,51.92353312490446],[4.272695679512082,51.92354096898305],[4.292610636796516,51.92123636929449],[4.277121774329803,51.91128492172653],[4.277052689739485,51.91124027973714],[4.267571096943434,51.905335091012304],[4.266183296979632,51.90590408273476],[4.2554286968889965,51.91017059153848],[4.244198114353909,51.913742747500045],[4.236464798297042,51.91730319957821],[4.2321666400016555,51.9207093345952],[4.229389728605219,51.92330538330131],[4.222905221076261,51.928763959426306],[4.219932458373851,51.93046800272083],[4.212717672623121,51.933727317557384],[4.219528688476147,51.94139952601654],[4.2214533800512,51.94266846212473],[4.228291163979707,51.94799079452291]]]]},"properties":{"type":"boundary","gemeente":"Maassluis","code":"GM0556"}}]}