{"type":"FeatureCollection","metadata":{"gemeente":"Medemblik","slug":"medemblik","code":"GM0420","generated_at":"2026-07-06T16:26:11.361Z","total_passenger":111,"total_freight":0,"bounds":[4.971887219142093,52.66440935130915,5.271965993261265,52.77464341980276],"operators":["DAEN Mobility","E-Flux by Road","Eneco","Fastned","Laadnet","Lidl","Pluq","PowerGo","PureCharged","TotalEnergies","Ubitricity","Vattenfall InCharge","bp pulse","e-VOLTT"]},"features":[{"type":"Feature","geometry":{"type":"Point","coordinates":[5.10285,52.77159]},"properties":{"type":"charge","layer":"passenger","locationId":"48b16171-8b10-4530-8cb3-d73d61e8c97f","name":"PP004302 - Ridderstraat 8, Medemblik","address":"8 Ridderstraat","city":"Medemblik","operatorName":"TotalEnergies","maxPowerKw":13,"isMegawatt":false,"status":"AVAILABLE","source":"ndw"}},{"type":"Feature","geometry":{"type":"Point","coordinates":[5.014411,52.73236]},"properties":{"type":"charge","layer":"passenger","locationId":"5c1899c1-edcc-4336-858d-0ff9cf8989c1","name":"TNLP005700 - Parklaan 18, Abbekerk","address":"18 Parklaan","city":"Abbekerk","operatorName":"TotalEnergies","maxPowerKw":13,"isMegawatt":false,"status":"AVAILABLE","source":"ndw"}},{"type":"Feature","geometry":{"type":"Point","coordinates":[5.0758,52.75913]},"properties":{"type":"charge","layer":"passenger","locationId":"632","name":"Shell Recharge NL Kraaiebuurt 3","address":"Kraaiebuurt 3","city":"Opperdoes","operatorName":"Ubitricity","maxPowerKw":11,"isMegawatt":false,"status":"AVAILABLE","source":"ndw","priceKwh":0.388}},{"type":"Feature","geometry":{"type":"Point","coordinates":[5.103843,52.77271]},"properties":{"type":"charge","layer":"passenger","locationId":"7e51ffa7-6112-47fc-9117-cc789136c466","name":"TNLP009474 - Breedstraat 11, Medemblik","address":"11 Breedstraat","city":"Medemblik","operatorName":"TotalEnergies","maxPowerKw":13,"isMegawatt":false,"status":"CHARGING","source":"ndw"}},{"type":"Feature","geometry":{"type":"Point","coordinates":[5.223641,52.742652]},"properties":{"type":"charge","layer":"passenger","locationId":"923389","name":"Zwartgroen B.V. | DAE_NL_2001232","address":"Industrieweg 5","city":"Andijk","operatorName":"DAEN Mobility","maxPowerKw":22,"isMegawatt":false,"status":"AVAILABLE","source":"ndw","priceKwh":0.3}},{"type":"Feature","geometry":{"type":"Point","coordinates":[5.073638,52.715954]},"properties":{"type":"charge","layer":"passenger","locationId":"9680663f-5299-469e-984d-623fdd8e84b8","name":"TNLP008108 - Cornelis Haringhuizenlaan 93, Midwoud","address":"93 Cornelis Haringhuizenlaan","city":"Midwoud","operatorName":"TotalEnergies","maxPowerKw":15,"isMegawatt":false,"status":"AVAILABLE","source":"ndw"}},{"type":"Feature","geometry":{"type":"Point","coordinates":[5.023456,52.680714]},"properties":{"type":"charge","layer":"passenger","locationId":"f1a9870e-3abf-4a39-8da9-a1846c90755e","name":"TNLP007600 - Kaaspers 2, Wognum","address":"2 Kaaspers","city":"Wognum","operatorName":"TotalEnergies","maxPowerKw":15,"isMegawatt":false,"status":"AVAILABLE","source":"ndw"}},{"type":"Feature","geometry":{"type":"Point","coordinates":[5.223312,52.740176]},"properties":{"type":"charge","layer":"passenger","locationId":"70b837a7-2638-4281-b987-c5ff14139259","name":"Lidl ANDIJK-Dijkgraaf-Grootweg","address":"Dijkgraaf Grootweg 34","city":"Andijk","operatorName":"Lidl","maxPowerKw":50,"isMegawatt":false,"status":"UNAVAILABLE","source":"ndw"}},{"type":"Feature","geometry":{"type":"Point","coordinates":[5.074371,52.71944]},"properties":{"type":"charge","layer":"passenger","locationId":"bbcc5f23-ad7a-40ba-a03e-6821c4a9dd07","name":"TNLP006116 - De Garst 2, Midwoud","address":"2 De Garst","city":"Midwoud","operatorName":"TotalEnergies","maxPowerKw":13,"isMegawatt":false,"status":"AVAILABLE","source":"ndw"}},{"type":"Feature","geometry":{"type":"Point","coordinates":[5.150691,52.728645]},"properties":{"type":"charge","layer":"passenger","locationId":"d093cdd5-9af3-42ec-8cd0-3e705bf608bc","name":"PP005423 - Olympiaweg 2, Wervershoof","address":"2 Olympiaweg","city":"Wervershoof","operatorName":"TotalEnergies","maxPowerKw":15,"isMegawatt":false,"status":"AVAILABLE","source":"ndw"}},{"type":"Feature","geometry":{"type":"Point","coordinates":[5.10648,52.7634]},"properties":{"type":"charge","layer":"passenger","locationId":"60","name":"Shell Recharge NL Schuitevoerderslaan 14","address":"Schuitevoerderslaan 14","city":"Medemblik","operatorName":"Ubitricity","maxPowerKw":11,"isMegawatt":false,"status":"AVAILABLE","source":"ndw","priceKwh":0.388}},{"type":"Feature","geometry":{"type":"Point","coordinates":[5.026656,52.68592]},"properties":{"type":"charge","layer":"passenger","locationId":"6107fd956fcabecd180e3860","name":"Sweelinckhof","address":"Sweelinckhof 1","city":"Wognum","operatorName":"E-Flux by Road","maxPowerKw":22,"isMegawatt":false,"status":"AVAILABLE","source":"ndw","priceKwh":0.33}},{"type":"Feature","geometry":{"type":"Point","coordinates":[5.100655,52.766302]},"properties":{"type":"charge","layer":"passenger","locationId":"34D52208-BABA-4A21-8564-1151FD78ACA5","name":"Eneco eMobility Albert Heijn - Overleek 1","address":"Overleek 1","city":"Medemblik","operatorName":"Eneco","maxPowerKw":150,"isMegawatt":false,"status":"AVAILABLE","source":"ndw","priceKwh":0.62}},{"type":"Feature","geometry":{"type":"Point","coordinates":[5.151264,52.707333]},"properties":{"type":"charge","layer":"passenger","locationId":"ACE0261590","name":"ACE0261590","address":"Fustmarkt 2","city":"Zwaagdijk-Oost","operatorName":"e-VOLTT","maxPowerKw":11,"isMegawatt":false,"status":"AVAILABLE","source":"ndw","priceKwh":0.45}},{"type":"Feature","geometry":{"type":"Point","coordinates":[5.013952,52.68622]},"properties":{"type":"charge","layer":"passenger","locationId":"62a4edf3-5922-4dcd-a3f1-7980df7b332b","name":"TNLP005966 - Conferencelaan 9, Wognum","address":"9 Conferencelaan","city":"Wognum","operatorName":"TotalEnergies","maxPowerKw":15,"isMegawatt":false,"status":"AVAILABLE","source":"ndw"}},{"type":"Feature","geometry":{"type":"Point","coordinates":[5.109764,52.766389]},"properties":{"type":"charge","layer":"passenger","locationId":"ecfe020c-8289-463f-be67-4261291df4fa","name":"TNLP034328","address":"Geldelozepad 76","city":"Medemblik","operatorName":"TotalEnergies","maxPowerKw":14,"isMegawatt":false,"status":"AVAILABLE","source":"ndw"}},{"type":"Feature","geometry":{"type":"Point","coordinates":[5.062442,52.693287]},"properties":{"type":"charge","layer":"passenger","locationId":"204c207a-b88b-4227-b15b-9db59f23d3bb","name":"TNLP007802 - Kolgans 28, Nibbixwoud","address":"28 Kolgans","city":"Nibbixwoud","operatorName":"TotalEnergies","maxPowerKw":15,"isMegawatt":false,"status":"AVAILABLE","source":"ndw"}},{"type":"Feature","geometry":{"type":"Point","coordinates":[5.0247,52.73068]},"properties":{"type":"charge","layer":"passenger","locationId":"8114cd4e-ea22-460f-af98-186e798868eb","name":"PP004205 - Lindenstraat 52, Abbekerk","address":"52 Lindenstraat","city":"Abbekerk","operatorName":"TotalEnergies","maxPowerKw":15,"isMegawatt":false,"status":"AVAILABLE","source":"ndw"}},{"type":"Feature","geometry":{"type":"Point","coordinates":[5.151264,52.707333]},"properties":{"type":"charge","layer":"passenger","locationId":"ACE0261556","name":"ACE0261556","address":"Fustmarkt 2","city":"Zwaagdijk-Oost","operatorName":"e-VOLTT","maxPowerKw":11,"isMegawatt":false,"status":"AVAILABLE","source":"ndw","priceKwh":0.45}},{"type":"Feature","geometry":{"type":"Point","coordinates":[5.063566,52.746311]},"properties":{"type":"charge","layer":"passenger","locationId":"ce462533-5b91-4cad-a5f9-670b6428a5df","name":"TNLP015212","address":"Fostedina 2","city":"Twisk","operatorName":"TotalEnergies","maxPowerKw":17,"isMegawatt":false,"status":"AVAILABLE","source":"ndw"}},{"type":"Feature","geometry":{"type":"Point","coordinates":[5.220056,52.748834]},"properties":{"type":"charge","layer":"passenger","locationId":"eb46e6b3f9631e348084e1e4256873c4","name":"Piet Kistemakerstraat 21","address":"Piet Kistemakerstraat 21","city":"Andijk","operatorName":"Vattenfall InCharge","maxPowerKw":11,"isMegawatt":false,"status":"AVAILABLE","source":"ndw"}},{"type":"Feature","geometry":{"type":"Point","coordinates":[5.108971,52.76896]},"properties":{"type":"charge","layer":"passenger","locationId":"de92cfae-794e-4920-95e4-d8d158460431","name":"TNLP006950 - Hoogesteeg 4, Medemblik","address":"4 Hoogesteeg","city":"Medemblik","operatorName":"TotalEnergies","maxPowerKw":13,"isMegawatt":false,"status":"CHARGING","source":"ndw"}},{"type":"Feature","geometry":{"type":"Point","coordinates":[5.020328,52.67772]},"properties":{"type":"charge","layer":"passenger","locationId":"cba04f4c-babf-420e-b077-038c94a516e0","name":"Vossestaart","address":"Vossestaart 7","city":"Wognum","operatorName":"Vattenfall InCharge","maxPowerKw":11,"isMegawatt":false,"status":"AVAILABLE","source":"ndw"}},{"type":"Feature","geometry":{"type":"Point","coordinates":[5.145553,52.70947]},"properties":{"type":"charge","layer":"passenger","locationId":"F339F125-0077-4FA6-A944-C4759233973C","name":"Eneco eMobility Zwaagdijk 48 Zwaagdijk","address":"Zwaagdijk 48","city":"Zwaagdijk","operatorName":"Eneco","maxPowerKw":22,"isMegawatt":false,"status":"AVAILABLE","source":"ndw","priceKwh":0.32}},{"type":"Feature","geometry":{"type":"Point","coordinates":[5.03724,52.70232]},"properties":{"type":"charge","layer":"passenger","locationId":"247","name":"Shell Recharge NL Kerkelaan 3","address":"Kerkelaan 3","city":"Benningbroek","operatorName":"Ubitricity","maxPowerKw":11,"isMegawatt":false,"status":"AVAILABLE","source":"ndw","priceKwh":0.388}},{"type":"Feature","geometry":{"type":"Point","coordinates":[5.053868,52.6952]},"properties":{"type":"charge","layer":"passenger","locationId":"050776fc-83c3-4906-83a7-79ade7293bde","name":"TNLP009193 - De Onderneming 3, Nibbixwoud","address":"3 De Onderneming","city":"Nibbixwoud","operatorName":"TotalEnergies","maxPowerKw":15,"isMegawatt":false,"status":"AVAILABLE","source":"ndw"}},{"type":"Feature","geometry":{"type":"Point","coordinates":[5.153843,52.734356]},"properties":{"type":"charge","layer":"passenger","locationId":"ffa49e9f-f231-43e0-8e5e-ff7cbfcf72f7","name":"TNLP006865 - Dam 2, Wervershoof","address":"2 Dam","city":"Wervershoof","operatorName":"TotalEnergies","maxPowerKw":13,"isMegawatt":false,"status":"AVAILABLE","source":"ndw"}},{"type":"Feature","geometry":{"type":"Point","coordinates":[5.223625,52.742704]},"properties":{"type":"charge","layer":"passenger","locationId":"923388","name":"Zwartgroen B.V. | DAE_NL_2001233","address":"Industrieweg 5","city":"Andijk","operatorName":"DAEN Mobility","maxPowerKw":22,"isMegawatt":false,"status":"AVAILABLE","source":"ndw","priceKwh":0.3}},{"type":"Feature","geometry":{"type":"Point","coordinates":[5.152484,52.72995]},"properties":{"type":"charge","layer":"passenger","locationId":"7419372f-34d7-4784-81cb-19be99d9d288","name":"TNLP005940 - Dokter Pinxterplantsoen 26, Wervershoof","address":"26 Dokter Pinxterplantsoen","city":"Wervershoof","operatorName":"TotalEnergies","maxPowerKw":15,"isMegawatt":false,"status":"AVAILABLE","source":"ndw"}},{"type":"Feature","geometry":{"type":"Point","coordinates":[5.15118,52.72846]},"properties":{"type":"charge","layer":"passenger","locationId":"eeb8d876-3162-40ca-b6c0-68d6a56d895d","name":"TNLP003518 - Burgemeester Raatlaan 1, Wevershoof","address":"1 Burgemeester Raatlaan","city":"Wevershoof","operatorName":"TotalEnergies","maxPowerKw":17,"isMegawatt":false,"status":"AVAILABLE","source":"ndw"}},{"type":"Feature","geometry":{"type":"Point","coordinates":[5.0974774,52.7702917]},"properties":{"type":"charge","layer":"passenger","locationId":"1116","name":"Shell Recharge NL Uiverstraat 24","address":"Uiverstraat 24","city":"Medemblik","operatorName":"Ubitricity","maxPowerKw":22,"isMegawatt":false,"status":"AVAILABLE","source":"ndw","priceKwh":0.266}},{"type":"Feature","geometry":{"type":"Point","coordinates":[5.012817,52.703613]},"properties":{"type":"charge","layer":"passenger","locationId":"a8a167d0-fe40-42ce-a987-d0c79d77f263","name":"TNLP006291 - Molenstraat 40, Benningbroek","address":"40 Molenstraat","city":"Benningbroek","operatorName":"TotalEnergies","maxPowerKw":15,"isMegawatt":false,"status":"AVAILABLE","source":"ndw"}},{"type":"Feature","geometry":{"type":"Point","coordinates":[5.11009,52.76391]},"properties":{"type":"charge","layer":"passenger","locationId":"c753107d-c336-441f-a761-4a541a0ee96a","name":"TNLP005687 - Vouter 17, Medemblik","address":"17 Vouter","city":"Medemblik","operatorName":"TotalEnergies","maxPowerKw":13,"isMegawatt":false,"status":"AVAILABLE","source":"ndw"}},{"type":"Feature","geometry":{"type":"Point","coordinates":[5.148998,52.733234]},"properties":{"type":"charge","layer":"passenger","locationId":"1358b4ea-ffbb-4d1f-ac2f-c235ce36de76","name":"PP005282 - Bogertje 2, Wervershoof","address":"2 Bogertje","city":"Wervershoof","operatorName":"TotalEnergies","maxPowerKw":15,"isMegawatt":false,"status":"AVAILABLE","source":"ndw"}},{"type":"Feature","geometry":{"type":"Point","coordinates":[5.012004,52.73034]},"properties":{"type":"charge","layer":"passenger","locationId":"4586366c-3824-40a5-b390-a340c0a9f665","name":"TNLP006346 - Kronkelbaan 40, Abbekerk","address":"40 Kronkelbaan","city":"Abbekerk","operatorName":"TotalEnergies","maxPowerKw":13,"isMegawatt":false,"status":"AVAILABLE","source":"ndw"}},{"type":"Feature","geometry":{"type":"Point","coordinates":[5.183805,52.74512]},"properties":{"type":"charge","layer":"passenger","locationId":"67445b511adc6a3cfac3e280","name":"Jachthaven Andijk","address":"Nieuwe Haven 1","city":"Andijk","operatorName":"E-Flux by Road","maxPowerKw":11,"isMegawatt":false,"status":"AVAILABLE","source":"ndw","priceKwh":0.43}},{"type":"Feature","geometry":{"type":"Point","coordinates":[5.130376,52.749049]},"properties":{"type":"charge","layer":"passenger","locationId":"6880c983a94e78e783c97775","name":"Vakantiepark “De Groote Vliet”","address":"Onderdijk 245","city":"Wervershoof","operatorName":"PureCharged","maxPowerKw":11,"isMegawatt":false,"status":"AVAILABLE","source":"ndw","priceKwh":0.53}},{"type":"Feature","geometry":{"type":"Point","coordinates":[5.159802,52.730569]},"properties":{"type":"charge","layer":"passenger","locationId":"6107feee1d9c422c06a10caa","name":"Sint Jozef","address":"Gouw 2","city":"Wervershoof","operatorName":"E-Flux by Road","maxPowerKw":22,"isMegawatt":false,"status":"AVAILABLE","source":"ndw","priceKwh":0.33}},{"type":"Feature","geometry":{"type":"Point","coordinates":[5.221227,52.741844]},"properties":{"type":"charge","layer":"passenger","locationId":"73620959-a7cc-4dd3-b9f8-64e7a6f154b4","name":"TNLP005686 - La Reinestraat 18, Andijk","address":"18 La Reinestraat","city":"Andijk","operatorName":"TotalEnergies","maxPowerKw":13,"isMegawatt":false,"status":"AVAILABLE","source":"ndw"}},{"type":"Feature","geometry":{"type":"Point","coordinates":[5.088961,52.724916]},"properties":{"type":"charge","layer":"passenger","locationId":"6452456370ee140012a42c83","name":"Sauna de Bongerd station","address":"Oostwouderdorpsstraat  21","city":"Oostwoud","operatorName":"E-Flux by Road","maxPowerKw":11,"isMegawatt":false,"status":"AVAILABLE","source":"ndw","priceKwh":0.52}},{"type":"Feature","geometry":{"type":"Point","coordinates":[5.142512,52.73566]},"properties":{"type":"charge","layer":"passenger","locationId":"38ee2e44-7fc0-4d1d-aa1f-b3df102f66af","name":"TNLP009494 - Matjador 135, Wervershoof","address":"135 Matjador","city":"Wervershoof","operatorName":"TotalEnergies","maxPowerKw":15,"isMegawatt":false,"status":"AVAILABLE","source":"ndw"}},{"type":"Feature","geometry":{"type":"Point","coordinates":[5.15811,52.73313]},"properties":{"type":"charge","layer":"passenger","locationId":"531f06fcdde7d0515dd5276d3c5a3c33","name":"De Vooruitgang 43","address":"De Vooruitgang 43","city":"Wervershoof","operatorName":"Vattenfall InCharge","maxPowerKw":11,"isMegawatt":false,"status":"AVAILABLE","source":"ndw"}},{"type":"Feature","geometry":{"type":"Point","coordinates":[5.153469,52.702465]},"properties":{"type":"charge","layer":"passenger","locationId":"666c293603c459001cbf2303","name":"Jan van der Sluis Zwaagdijk B.V.","address":"Marktweg  11","city":"Zwaagdijk- Oost","operatorName":"E-Flux by Road","maxPowerKw":22,"isMegawatt":false,"status":"AVAILABLE","source":"ndw","priceKwh":0.41}},{"type":"Feature","geometry":{"type":"Point","coordinates":[5.08664,52.724726]},"properties":{"type":"charge","layer":"passenger","locationId":"4216701","name":"Laadnet Stoomzuivelfabriek Oostwoud","address":"Oostwouder Dorpsstraat 36","city":"Oostwoud","operatorName":"Laadnet","maxPowerKw":4,"isMegawatt":false,"status":"AVAILABLE","source":"ndw"}},{"type":"Feature","geometry":{"type":"Point","coordinates":[5.091853,52.7686]},"properties":{"type":"charge","layer":"passenger","locationId":"d0b2f2ac-8a5b-4b49-8051-d7665762587c","name":"bp pulse express Medemblik","address":"Westerzeedijk 1","city":"Medemblik","operatorName":"bp pulse","maxPowerKw":150,"isMegawatt":false,"status":"AVAILABLE","source":"ndw","priceKwh":0.7}},{"type":"Feature","geometry":{"type":"Point","coordinates":[5.151264,52.707333]},"properties":{"type":"charge","layer":"passenger","locationId":"ACE0261604","name":"ACE0261604","address":"Fustmarkt 2","city":"Zwaagdijk-Oost","operatorName":"e-VOLTT","maxPowerKw":11,"isMegawatt":false,"status":"AVAILABLE","source":"ndw","priceKwh":0.45}},{"type":"Feature","geometry":{"type":"Point","coordinates":[5.097639,52.759306]},"properties":{"type":"charge","layer":"passenger","locationId":"67f00f3cbcc93558310a4c58","name":"Jacobs energie","address":"Kajuit 11","city":"Medemblik","operatorName":"E-Flux by Road","maxPowerKw":22,"isMegawatt":false,"status":"AVAILABLE","source":"ndw","priceKwh":0.79}},{"type":"Feature","geometry":{"type":"Point","coordinates":[5.01875,52.728275]},"properties":{"type":"charge","layer":"passenger","locationId":"0015bcfe-ee86-4e55-a82c-02ff062f6523","name":"TNLP009660 - Wipmolenstraat 11, Abbekerk","address":"11 Wipmolenstraat","city":"Abbekerk","operatorName":"TotalEnergies","maxPowerKw":15,"isMegawatt":false,"status":"AVAILABLE","source":"ndw"}},{"type":"Feature","geometry":{"type":"Point","coordinates":[5.087771,52.764908]},"properties":{"type":"charge","layer":"passenger","locationId":"2701358","name":"Laadnet Compri Aluminium","address":"Aambeeld 20","city":"Medemblik","operatorName":"Laadnet","maxPowerKw":22,"isMegawatt":false,"status":"AVAILABLE","source":"ndw"}},{"type":"Feature","geometry":{"type":"Point","coordinates":[5.015083,52.685936]},"properties":{"type":"charge","layer":"passenger","locationId":"dbd20ee2-ce30-4e25-a74a-608b1c4d5708","name":"TNLP008037 - Conferencelaan 12, Wognum","address":"12 Conferencelaan","city":"Wognum","operatorName":"TotalEnergies","maxPowerKw":13,"isMegawatt":false,"status":"AVAILABLE","source":"ndw"}},{"type":"Feature","geometry":{"type":"Point","coordinates":[5.054861,52.693325]},"properties":{"type":"charge","layer":"passenger","locationId":"17b88601-47c0-4777-bb60-4324613648c4","name":"TNLP009470 - De Vriendschap 10, Nibbixwoud","address":"10 De Vriendschap","city":"Nibbixwoud","operatorName":"TotalEnergies","maxPowerKw":13,"isMegawatt":false,"status":"CHARGING","source":"ndw"}},{"type":"Feature","geometry":{"type":"Point","coordinates":[5.140018,52.743274]},"properties":{"type":"charge","layer":"passenger","locationId":"3aa5a3b7deb9d7b2b9b6758cb5e8357a","name":"Sportlaan 9","address":"Sportlaan 9","city":"Wervershoof","operatorName":"Vattenfall InCharge","maxPowerKw":11,"isMegawatt":false,"status":"CHARGING","source":"ndw"}},{"type":"Feature","geometry":{"type":"Point","coordinates":[5.10586,52.77163]},"properties":{"type":"charge","layer":"passenger","locationId":"1450","name":"Shell Recharge NL Achterom 22","address":"Achterom 22","city":"Medemblik","operatorName":"Ubitricity","maxPowerKw":11,"isMegawatt":false,"status":"AVAILABLE","source":"ndw","priceKwh":0.388}},{"type":"Feature","geometry":{"type":"Point","coordinates":[5.02846,52.686304]},"properties":{"type":"charge","layer":"passenger","locationId":"b2d1df961c949b8d7dcc064896faa060","name":"Dick Ketlaan 21","address":"Dick Ketlaan 21","city":"Wognum","operatorName":"Vattenfall InCharge","maxPowerKw":11,"isMegawatt":false,"status":"UNAVAILABLE","source":"ndw"}},{"type":"Feature","geometry":{"type":"Point","coordinates":[5.134128,52.746213]},"properties":{"type":"charge","layer":"passenger","locationId":"66742e4de7b519001cc5119e","name":"v.o.f. Hotel De Vooroever","address":"Onderdijk 189","city":"Wervershoof","operatorName":"Pluq","maxPowerKw":17,"isMegawatt":false,"status":"AVAILABLE","source":"ndw","priceKwh":0.33}},{"type":"Feature","geometry":{"type":"Point","coordinates":[5.028917,52.739217]},"properties":{"type":"charge","layer":"passenger","locationId":"31178","name":"Fastned De Horn","address":"De Horn A7","city":"Abbekerk","operatorName":"Fastned","maxPowerKw":150,"isMegawatt":false,"status":"AVAILABLE","source":"ndw","priceKwh":0.6364}},{"type":"Feature","geometry":{"type":"Point","coordinates":[5.20992,52.748394]},"properties":{"type":"charge","layer":"passenger","locationId":"ff1fbb41-9c15-4759-be2d-2d6cbd1e7e62","name":"PP004012 - Pietersbuur 38, Andijk","address":"38 Pietersbuur","city":"Andijk","operatorName":"TotalEnergies","maxPowerKw":13,"isMegawatt":false,"status":"AVAILABLE","source":"ndw"}},{"type":"Feature","geometry":{"type":"Point","coordinates":[5.155262,52.731243]},"properties":{"type":"charge","layer":"passenger","locationId":"d3e3e393-13af-4cc8-a4a5-3cfad864fa35","name":"TNLP007832 - Floralaan 10, Wervershoof","address":"10 Floralaan","city":"Wervershoof","operatorName":"TotalEnergies","maxPowerKw":13,"isMegawatt":false,"status":"CHARGING","source":"ndw"}},{"type":"Feature","geometry":{"type":"Point","coordinates":[5.079801,52.719944]},"properties":{"type":"charge","layer":"passenger","locationId":"92ff7df0-14fe-41bb-b82c-59d36f8e0158","name":"TNLP008580 - Burgemeester Grootstraat 1, Midwoud","address":"1 Burgemeester Grootstraat","city":"Midwoud","operatorName":"TotalEnergies","maxPowerKw":14,"isMegawatt":false,"status":"AVAILABLE","source":"ndw"}},{"type":"Feature","geometry":{"type":"Point","coordinates":[5.073256,52.717968]},"properties":{"type":"charge","layer":"passenger","locationId":"c2fb221d-dd0e-4c22-b0f3-59e33ea76c5a","name":"TNLP034265","address":"Harn 74","city":"Midwoud","operatorName":"TotalEnergies","maxPowerKw":14,"isMegawatt":false,"status":"AVAILABLE","source":"ndw"}},{"type":"Feature","geometry":{"type":"Point","coordinates":[5.05701,52.691387]},"properties":{"type":"charge","layer":"passenger","locationId":"6F845033-DA07-43CD-82BE-9EFA36DFBC21","name":"Eneco eMobility Albert Heijn - Ganker 3a","address":"Ganker 3a","city":"Nibbixwoud","operatorName":"Eneco","maxPowerKw":150,"isMegawatt":false,"status":"AVAILABLE","source":"ndw","priceKwh":0.62}},{"type":"Feature","geometry":{"type":"Point","coordinates":[5.219341,52.744053]},"properties":{"type":"charge","layer":"passenger","locationId":"d6714bf3-f2bf-4ed2-9165-b48e95d869bf","name":"TNLP008872 - Keizerskroon 27, Andijk","address":"27 Keizerskroon","city":"Andijk","operatorName":"TotalEnergies","maxPowerKw":14,"isMegawatt":false,"status":"AVAILABLE","source":"ndw"}},{"type":"Feature","geometry":{"type":"Point","coordinates":[5.21666,52.74307]},"properties":{"type":"charge","layer":"passenger","locationId":"239a1d1c-13e3-468c-ad6b-a8e06a32a8fa","name":"TNLP006535 - Meander 1, Andijk","address":"1 Meander","city":"Andijk","operatorName":"TotalEnergies","maxPowerKw":15,"isMegawatt":false,"status":"CHARGING","source":"ndw"}},{"type":"Feature","geometry":{"type":"Point","coordinates":[5.0748972,52.7194158]},"properties":{"type":"charge","layer":"passenger","locationId":"809","name":"Shell Recharge NL Korteling 18","address":"Korteling 18","city":"Midwoud","operatorName":"Ubitricity","maxPowerKw":22,"isMegawatt":false,"status":"AVAILABLE","source":"ndw","priceKwh":0.266}},{"type":"Feature","geometry":{"type":"Point","coordinates":[5.179439,52.738851]},"properties":{"type":"charge","layer":"passenger","locationId":"3437c6e1-c094-481b-99eb-9151a6612067","name":"TNLP015233","address":"Kees Veerstraat 2","city":"Andijk","operatorName":"TotalEnergies","maxPowerKw":17,"isMegawatt":false,"status":"AVAILABLE","source":"ndw"}},{"type":"Feature","geometry":{"type":"Point","coordinates":[5.055185,52.696278]},"properties":{"type":"charge","layer":"passenger","locationId":"6b271300-c3e3-4ba5-b901-fc492922be8e","name":"TNLP009172 - Wijzendhoek 2, Nibbixwoud","address":"2 Wijzendhoek","city":"Nibbixwoud","operatorName":"TotalEnergies","maxPowerKw":15,"isMegawatt":false,"status":"AVAILABLE","source":"ndw"}},{"type":"Feature","geometry":{"type":"Point","coordinates":[5.058832,52.67473]},"properties":{"type":"charge","layer":"passenger","locationId":"cdb32471-b717-424c-b3ab-6cac9f674f6c","name":"TNLP008203 - Balkweiterhoek 54, Zwaagdijk-West","address":"54 Balkweiterhoek","city":"Zwaagdijk-West","operatorName":"TotalEnergies","maxPowerKw":15,"isMegawatt":false,"status":"AVAILABLE","source":"ndw"}},{"type":"Feature","geometry":{"type":"Point","coordinates":[5.220147,52.753391]},"properties":{"type":"charge","layer":"passenger","locationId":"159","name":"Shell Recharge NL Dijkweg 168","address":"Dijkweg 168","city":"Andijk","operatorName":"Ubitricity","maxPowerKw":11,"isMegawatt":false,"status":"AVAILABLE","source":"ndw","priceKwh":0.388}},{"type":"Feature","geometry":{"type":"Point","coordinates":[5.157,52.7326]},"properties":{"type":"charge","layer":"passenger","locationId":"600","name":"Shell Recharge NL Olympiaweg 141","address":"Olympiaweg 141","city":"Wervershoof","operatorName":"Ubitricity","maxPowerKw":11,"isMegawatt":false,"status":"AVAILABLE","source":"ndw","priceKwh":0.388}},{"type":"Feature","geometry":{"type":"Point","coordinates":[5.078688,52.717926]},"properties":{"type":"charge","layer":"passenger","locationId":"8c139867-2180-4e13-b3b4-f4d2777aec03","name":"TNLP008160 - Minnewei 25, Midwoud","address":"25 Minnewei","city":"Midwoud","operatorName":"TotalEnergies","maxPowerKw":13,"isMegawatt":false,"status":"AVAILABLE","source":"ndw"}},{"type":"Feature","geometry":{"type":"Point","coordinates":[5.096425,52.759846]},"properties":{"type":"charge","layer":"passenger","locationId":"bf5c5e85-ae07-4595-996f-1560be205233","name":"TNLP008648 - Schepenlaan 115, Medemblik","address":"115 Schepenlaan","city":"Medemblik","operatorName":"TotalEnergies","maxPowerKw":14,"isMegawatt":false,"status":"AVAILABLE","source":"ndw"}},{"type":"Feature","geometry":{"type":"Point","coordinates":[5.1918526,52.7512627]},"properties":{"type":"charge","layer":"passenger","locationId":"16191","name":"Villavakantiepark IJsselhof (PowerGo)","address":"Proefpolder 4","city":"Andijk","operatorName":"PowerGo","maxPowerKw":22,"isMegawatt":false,"status":"AVAILABLE","source":"ndw","priceKwh":0.68}},{"type":"Feature","geometry":{"type":"Point","coordinates":[5.102962,52.76588]},"properties":{"type":"charge","layer":"passenger","locationId":"dec54b30-0edc-4dba-8dd6-5c034c02b8a7","name":"TNLP007778 - Oostvaardershof 7, Medemblik","address":"7 Oostvaardershof","city":"Medemblik","operatorName":"TotalEnergies","maxPowerKw":15,"isMegawatt":false,"status":"AVAILABLE","source":"ndw"}},{"type":"Feature","geometry":{"type":"Point","coordinates":[5.161499,52.732808]},"properties":{"type":"charge","layer":"passenger","locationId":"61c9e1c5bd28b43ef5b6c40c","name":"J.G. Goezinnen","address":"Zomerdijk 6","city":"Wervershoof","operatorName":"E-Flux by Road","maxPowerKw":22,"isMegawatt":false,"status":"AVAILABLE","source":"ndw"}},{"type":"Feature","geometry":{"type":"Point","coordinates":[5.105849,52.773808]},"properties":{"type":"charge","layer":"passenger","locationId":"50380c90-7971-46f2-8e5e-6b319ac94334","name":"TNLP006118 - Dam 2, Medemblik","address":"2 Dam","city":"Medemblik","operatorName":"TotalEnergies","maxPowerKw":13,"isMegawatt":false,"status":"CHARGING","source":"ndw"}},{"type":"Feature","geometry":{"type":"Point","coordinates":[5.11067,52.77272]},"properties":{"type":"charge","layer":"passenger","locationId":"234","name":"Shell Recharge NL Oosterhaven 33","address":"Oosterhaven 33","city":"Medemblik","operatorName":"Ubitricity","maxPowerKw":11,"isMegawatt":false,"status":"AVAILABLE","source":"ndw","priceKwh":0.388}},{"type":"Feature","geometry":{"type":"Point","coordinates":[5.061885,52.704799]},"properties":{"type":"charge","layer":"passenger","locationId":"67e5692f8c250afe432fdca2","name":"Naturistenvereniging De Vrije Vogel","address":"Gouwtje 9A","city":"Midwoud","operatorName":"PureCharged","maxPowerKw":11,"isMegawatt":false,"status":"AVAILABLE","source":"ndw","priceKwh":0.38}},{"type":"Feature","geometry":{"type":"Point","coordinates":[5.029021,52.685968]},"properties":{"type":"charge","layer":"passenger","locationId":"138d9c28-37cd-4bff-a41e-39dfd23d867f","name":"Dick Ketlaan 21","address":"Dick Ketlaan 21","city":"WOGNUM","operatorName":"Vattenfall InCharge","maxPowerKw":22,"isMegawatt":false,"status":"UNAVAILABLE","source":"ndw"}},{"type":"Feature","geometry":{"type":"Point","coordinates":[5.076742,52.755367]},"properties":{"type":"charge","layer":"passenger","locationId":"8ce424e6-2076-44e6-9c13-75fb37ba1985","name":"TNLP007997 - de Balk 46, Opperdoes","address":"46 de Balk","city":"Opperdoes","operatorName":"TotalEnergies","maxPowerKw":15,"isMegawatt":false,"status":"AVAILABLE","source":"ndw"}},{"type":"Feature","geometry":{"type":"Point","coordinates":[5.02207,52.68113]},"properties":{"type":"charge","layer":"passenger","locationId":"bf3df77d-bde6-45ed-b4a8-edc55b6e2b39","name":"TNLP003564 - Boogerd 1, Wognum","address":"1 Boogerd","city":"Wognum","operatorName":"TotalEnergies","maxPowerKw":17,"isMegawatt":false,"status":"CHARGING","source":"ndw"}},{"type":"Feature","geometry":{"type":"Point","coordinates":[5.02891,52.71172]},"properties":{"type":"charge","layer":"passenger","locationId":"31347","name":"Fastned Broerdijk","address":"Broerdijk A7","city":"Benningbroek","operatorName":"Fastned","maxPowerKw":300,"isMegawatt":false,"status":"AVAILABLE","source":"ndw","priceKwh":0.6364}},{"type":"Feature","geometry":{"type":"Point","coordinates":[5.15672,52.7296]},"properties":{"type":"charge","layer":"passenger","locationId":"23e24e56-e30c-4d82-a912-083225deca0c","name":"TNLP005941 - Kerkelaantje 1, Wervershoof","address":"1 Kerkelaantje","city":"Wervershoof","operatorName":"TotalEnergies","maxPowerKw":13,"isMegawatt":false,"status":"AVAILABLE","source":"ndw"}},{"type":"Feature","geometry":{"type":"Point","coordinates":[5.101287,52.77249]},"properties":{"type":"charge","layer":"passenger","locationId":"34ab00e4-71e2-4f13-aab8-bc75e2f4b3f7","name":"TNLP007999 - Ridderstraat 11, Medemblik","address":"11 Ridderstraat","city":"Medemblik","operatorName":"TotalEnergies","maxPowerKw":15,"isMegawatt":false,"status":"AVAILABLE","source":"ndw"}},{"type":"Feature","geometry":{"type":"Point","coordinates":[5.060284,52.743668]},"properties":{"type":"charge","layer":"passenger","locationId":"909a5070-f5e2-42db-b931-8c8c472c6b32","name":"TNLP005956 - Dorpsweg 121, Twisk","address":"121 Dorpsweg","city":"Twisk","operatorName":"TotalEnergies","maxPowerKw":13,"isMegawatt":false,"status":"AVAILABLE","source":"ndw"}},{"type":"Feature","geometry":{"type":"Point","coordinates":[5.106318,52.76712]},"properties":{"type":"charge","layer":"passenger","locationId":"44f891cd-ec53-45da-bad5-9390811736aa","name":"PP005275 - Wijmersplantsoen 12, Medemblik","address":"12 Wijmersplantsoen","city":"Medemblik","operatorName":"TotalEnergies","maxPowerKw":13,"isMegawatt":false,"status":"AVAILABLE","source":"ndw"}},{"type":"Feature","geometry":{"type":"Point","coordinates":[5.116759,52.76947]},"properties":{"type":"charge","layer":"passenger","locationId":"34316249-7b47-4787-b9f9-88796ec66d12","name":"TNLP006408 - Vooroever 2, Medemblik","address":"2 Vooroever","city":"Medemblik","operatorName":"TotalEnergies","maxPowerKw":15,"isMegawatt":false,"status":"AVAILABLE","source":"ndw"}},{"type":"Feature","geometry":{"type":"Point","coordinates":[5.09162,52.72375]},"properties":{"type":"charge","layer":"passenger","locationId":"286","name":"Shell Recharge NL De Zoutman 7","address":"De Zoutman 7","city":"Oostwoud","operatorName":"Ubitricity","maxPowerKw":11,"isMegawatt":false,"status":"AVAILABLE","source":"ndw","priceKwh":0.388}},{"type":"Feature","geometry":{"type":"Point","coordinates":[5.11105,52.76365]},"properties":{"type":"charge","layer":"passenger","locationId":"352","name":"Shell Recharge NL Egboet 47","address":"Egboet 47","city":"Medemblik","operatorName":"Ubitricity","maxPowerKw":11,"isMegawatt":false,"status":"AVAILABLE","source":"ndw","priceKwh":0.388}},{"type":"Feature","geometry":{"type":"Point","coordinates":[5.005789,52.702553]},"properties":{"type":"charge","layer":"passenger","locationId":"9e866bb3-2d51-466d-8c9c-32022ee8c47d","name":"PP005063 - Sneekerhof 5, Sijbekarspel","address":"5 Sneekerhof","city":"Sijbekarspel","operatorName":"TotalEnergies","maxPowerKw":13,"isMegawatt":false,"status":"AVAILABLE","source":"ndw"}},{"type":"Feature","geometry":{"type":"Point","coordinates":[5.152212,52.73215]},"properties":{"type":"charge","layer":"passenger","locationId":"f872ac5a-ea33-4508-8976-fe4182fb31a3","name":"TNLP007978 - Kaagweg 142, Wervershoof","address":"142 Kaagweg","city":"Wervershoof","operatorName":"TotalEnergies","maxPowerKw":15,"isMegawatt":false,"status":"AVAILABLE","source":"ndw"}},{"type":"Feature","geometry":{"type":"Point","coordinates":[5.014907,52.732215]},"properties":{"type":"charge","layer":"passenger","locationId":"b691d2df-9ef9-4db4-b783-8f31b0a6a0d6","name":"Parklaan","address":"Parklaan 1","city":"Abbekerk","operatorName":"Vattenfall InCharge","maxPowerKw":11,"isMegawatt":false,"status":"AVAILABLE","source":"ndw"}},{"type":"Feature","geometry":{"type":"Point","coordinates":[5.210427,52.746357]},"properties":{"type":"charge","layer":"passenger","locationId":"b30c9972-07f5-46b0-b5a4-39a89cd340d2","name":"TNLP006723 - Notarisappel 7, Andijk","address":"7 Notarisappel","city":"Andijk","operatorName":"TotalEnergies","maxPowerKw":15,"isMegawatt":false,"status":"AVAILABLE","source":"ndw"}},{"type":"Feature","geometry":{"type":"Point","coordinates":[5.100767,52.768154]},"properties":{"type":"charge","layer":"passenger","locationId":"4ad94fa3-d613-4761-a56a-c8e3a40c23af","name":"TNLP006503 - Kanaalstraat 40, Medemblik","address":"40 Kanaalstraat","city":"Medemblik","operatorName":"TotalEnergies","maxPowerKw":13,"isMegawatt":false,"status":"AVAILABLE","source":"ndw"}},{"type":"Feature","geometry":{"type":"Point","coordinates":[5.2227061,52.744965]},"properties":{"type":"charge","layer":"passenger","locationId":"1437","name":"Shell Recharge NL Middenweg 54","address":"Middenweg 54","city":"Andijk","operatorName":"Ubitricity","maxPowerKw":22,"isMegawatt":false,"status":"AVAILABLE","source":"ndw","priceKwh":0.266}},{"type":"Feature","geometry":{"type":"Point","coordinates":[5.053594,52.74017]},"properties":{"type":"charge","layer":"passenger","locationId":"29cbfb6d-4570-4171-90b4-a537123af5ea","name":"TNLP006675 - Rositastraat 36, Twisk","address":"36 Rositastraat","city":"Twisk","operatorName":"TotalEnergies","maxPowerKw":15,"isMegawatt":false,"status":"AVAILABLE","source":"ndw"}},{"type":"Feature","geometry":{"type":"Point","coordinates":[5.059078,52.691936]},"properties":{"type":"charge","layer":"passenger","locationId":"20b43614-2a54-44fa-b452-af0c22d6b878","name":"TNLP009798 - Cunerastraat 24, Nibbixwoud","address":"24 Cunerastraat","city":"Nibbixwoud","operatorName":"TotalEnergies","maxPowerKw":13,"isMegawatt":false,"status":"AVAILABLE","source":"ndw"}},{"type":"Feature","geometry":{"type":"Point","coordinates":[5.112864,52.771454]},"properties":{"type":"charge","layer":"passenger","locationId":"68f6395a-4723-4bda-979f-80a63dbe75f9","name":"TNLP003589 - Pekelharinghaven 50, Medemblik","address":"50 Pekelharinghaven","city":"Medemblik","operatorName":"TotalEnergies","maxPowerKw":17,"isMegawatt":false,"status":"AVAILABLE","source":"ndw"}},{"type":"Feature","geometry":{"type":"Point","coordinates":[5.1114,52.7715]},"properties":{"type":"charge","layer":"passenger","locationId":"07c47849-9745-4814-8cb7-d64580f3bc0c","name":"PP004128 - Vooreiland 17, Medemblik","address":"17 Vooreiland","city":"Medemblik","operatorName":"TotalEnergies","maxPowerKw":13,"isMegawatt":false,"status":"AVAILABLE","source":"ndw"}},{"type":"Feature","geometry":{"type":"Point","coordinates":[5.12692,52.702015]},"properties":{"type":"charge","layer":"passenger","locationId":"d1e12bce-506d-4685-aa18-8166decad2d1","name":"TNLP008002 - Volkersweg 19, Zwaagdijk-Oost","address":"19 Volkersweg","city":"Zwaagdijk-Oost","operatorName":"TotalEnergies","maxPowerKw":13,"isMegawatt":false,"status":"CHARGING","source":"ndw"}},{"type":"Feature","geometry":{"type":"Point","coordinates":[5.02516,52.67793]},"properties":{"type":"charge","layer":"passenger","locationId":"742","name":"Shell Recharge NL Kaaspers 27","address":"Kaaspers 27","city":"Wognum","operatorName":"Ubitricity","maxPowerKw":11,"isMegawatt":false,"status":"CHARGING","source":"ndw","priceKwh":0.388}},{"type":"Feature","geometry":{"type":"Point","coordinates":[5.02663,52.68376]},"properties":{"type":"charge","layer":"passenger","locationId":"04c785e6-1e27-420f-8d2a-39f651f6d944","name":"PP002092 - Sportlaan 50, Wognum","address":"50 Sportlaan","city":"Wognum","operatorName":"TotalEnergies","maxPowerKw":11,"isMegawatt":false,"status":"CHARGING","source":"ndw"}},{"type":"Feature","geometry":{"type":"Point","coordinates":[5.214393,52.74705]},"properties":{"type":"charge","layer":"passenger","locationId":"b52355ed-6732-4e27-9ebb-a68d8002743e","name":"PP005127 - Klamptweid 70, Andijk","address":"70 Klamptweid","city":"Andijk","operatorName":"TotalEnergies","maxPowerKw":15,"isMegawatt":false,"status":"AVAILABLE","source":"ndw"}},{"type":"Feature","geometry":{"type":"Point","coordinates":[5.11158,52.77418]},"properties":{"type":"charge","layer":"passenger","locationId":"21480056-13e3-4c49-97ea-9080e74c1e10","name":"TNLP007779 - Oude Haven 57, Medemblik","address":"57 Oude Haven","city":"Medemblik","operatorName":"TotalEnergies","maxPowerKw":13,"isMegawatt":false,"status":"CHARGING","source":"ndw"}},{"type":"Feature","geometry":{"type":"Point","coordinates":[5.109192,52.770293]},"properties":{"type":"charge","layer":"passenger","locationId":"55ac6660-3adf-45c3-883f-242b40d5a59e","name":"Vooreiland","address":"Vooreiland 1","city":"Medemblik","operatorName":"Vattenfall InCharge","maxPowerKw":11,"isMegawatt":false,"status":"AVAILABLE","source":"ndw"}},{"type":"Feature","geometry":{"type":"Point","coordinates":[5.13634,52.73854]},"properties":{"type":"charge","layer":"passenger","locationId":"e58b5798-88dd-43b7-ba01-4cf9af898a4d","name":"PP004206 - Koggeschuit 22, Wervershoof","address":"22 Koggeschuit","city":"Wervershoof","operatorName":"TotalEnergies","maxPowerKw":13,"isMegawatt":false,"status":"AVAILABLE","source":"ndw"}},{"type":"Feature","geometry":{"type":"Point","coordinates":[5.09849,52.76044]},"properties":{"type":"charge","layer":"passenger","locationId":"2d3d59bd-261d-4bcf-91e8-a7891cb2df2d","name":"PP004198 - Schepenlaan 81, Medemblik","address":"81 Schepenlaan","city":"Medemblik","operatorName":"TotalEnergies","maxPowerKw":13,"isMegawatt":false,"status":"AVAILABLE","source":"ndw"}},{"type":"Feature","geometry":{"type":"Point","coordinates":[5.151264,52.707333]},"properties":{"type":"charge","layer":"passenger","locationId":"ACE0261593","name":"ACE0261593","address":"Fustmarkt 2","city":"Zwaagdijk-Oost","operatorName":"e-VOLTT","maxPowerKw":11,"isMegawatt":false,"status":"AVAILABLE","source":"ndw","priceKwh":0.45}},{"type":"Feature","geometry":{"type":"Point","coordinates":[5.109734,52.76811]},"properties":{"type":"charge","layer":"passenger","locationId":"0ded7a3e-4213-4725-abb3-9fc87f4ad8d0","name":"TNLP008575","address":"Oostersingel 3","city":"Medemblik","operatorName":"TotalEnergies","maxPowerKw":17,"isMegawatt":false,"status":"UNAVAILABLE","source":"ndw"}},{"type":"Feature","geometry":{"type":"Point","coordinates":[5.144572,52.737107]},"properties":{"type":"charge","layer":"passenger","locationId":"64885826f9cd31001c879eca","name":"Ruud Bot 's station","address":"Simon Koopmanstraat  230","city":"Wervershoof","operatorName":"E-Flux by Road","maxPowerKw":11,"isMegawatt":false,"status":"CHARGING","source":"ndw","priceKwh":0.48}},{"type":"Feature","geometry":{"type":"Point","coordinates":[5.151264,52.707333]},"properties":{"type":"charge","layer":"passenger","locationId":"ACE0261567","name":"ACE0261567","address":"Fustmarkt 2","city":"Zwaagdijk-Oost","operatorName":"e-VOLTT","maxPowerKw":11,"isMegawatt":false,"status":"AVAILABLE","source":"ndw","priceKwh":0.45}},{"type":"Feature","geometry":{"type":"Point","coordinates":[5.016951,52.683515]},"properties":{"type":"charge","layer":"passenger","locationId":"3ba14d59-eecc-443f-aceb-e59c3665ecad","name":"Schoutsplaats","address":"Schoutsplaats 2","city":"Wognum","operatorName":"Vattenfall InCharge","maxPowerKw":11,"isMegawatt":false,"status":"AVAILABLE","source":"ndw"}},{"type":"Feature","geometry":{"type":"MultiPolygon","coordinates":[[[[5.108772625387455,52.77065458258734],[5.111737845346117,52.77233918597133],[5.112109282610306,52.77158269383864],[5.108991693666624,52.770060680418844],[5.109391050311327,52.76947975452234],[5.112918654483894,52.770924012962155],[5.1122402286578685,52.772670244477276],[5.112911099473683,52.77351931448255],[5.11364285721978,52.77410958345837],[5.116512974745558,52.770749617992195],[5.1153983739144815,52.77067372380459],[5.117704167061843,52.769675182563276],[5.118133241241036,52.76792308537949],[5.120401760718205,52.76802141564885],[5.118454469573459,52.7673022929102],[5.119665769229246,52.765536070134864],[5.119573199165042,52.76553075956821],[5.118513644273568,52.766160668058696],[5.117908812302552,52.76582567801934],[5.118462037636189,52.76456406211643],[5.119720465613651,52.764665228765736],[5.1201881069228365,52.76468866187346],[5.123496307242161,52.765174586430334],[5.123867101310583,52.76486798169084],[5.120485298492872,52.76412555159466],[5.120405253876159,52.7607922605516],[5.121137228716032,52.76123288203013],[5.121646219352339,52.761212442843785],[5.120111266631085,52.76013403364898],[5.1188508901253496,52.76006669996399],[5.118926667090983,52.759939201292056],[5.119122650055959,52.75993832130223],[5.119229603870808,52.75978689509349],[5.120087169681031,52.75977252030789],[5.121065971348169,52.75862481848747],[5.1235041652885664,52.75757647357348],[5.123177677456477,52.75730360379101],[5.123541366011463,52.755687165039845],[5.130001736986049,52.75168907291961],[5.1323904564991425,52.75086429697927],[5.145556556890773,52.741895818037044],[5.14892458448691,52.743107715532815],[5.147239292124771,52.73969862656575],[5.147668158196219,52.7392620991411],[5.149997348527216,52.74049153287851],[5.152849829946111,52.74101921052711],[5.151720565523108,52.74004456579278],[5.15440712345873,52.73850614641333],[5.155120400274122,52.73943666950162],[5.1617633984049744,52.740159343760034],[5.16306508333575,52.73890718190375],[5.165284232281653,52.73963496172184],[5.165130193262825,52.74110304423221],[5.169915941605149,52.740768012842764],[5.1684860388464715,52.73971031401885],[5.16988579164726,52.73863771427574],[5.171404660920584,52.73866353305347],[5.172901124383659,52.73947053229781],[5.172726011908882,52.740092955161536],[5.170742231479289,52.740458045775824],[5.170873892841486,52.74089649915854],[5.174787442018381,52.739542101049565],[5.176036950349042,52.7395831279389],[5.180282599762936,52.74137855513453],[5.1846304067243905,52.7465825246767],[5.182684001197712,52.74696065523316],[5.183629987948255,52.74719986423342],[5.185752823694376,52.746602725099144],[5.186507721795905,52.74755200397786],[5.192860444996436,52.75503033592879],[5.203798194812877,52.755010483869476],[5.213791938441003,52.75462107614849],[5.2228922762143535,52.75365993247415],[5.22571396239079,52.752457213083694],[5.229537378859107,52.752572990311],[5.258268528673328,52.75346359954911],[5.261129386562883,52.75263908898036],[5.269987735539652,52.747529912019836],[5.259078056963426,52.74648514593325],[5.25837194349853,52.745679193032906],[5.266558426869517,52.74541659726955],[5.271965993261265,52.74632705793746],[5.269903773808318,52.745171583054145],[5.259432399539283,52.74486174923212],[5.254315774453183,52.746976806752194],[5.2550666293682875,52.74215940480995],[5.257340247723582,52.719848994639214],[5.2575015871224995,52.716180698842685],[5.230251086423487,52.717369801142944],[5.220133451938406,52.71769631700166],[5.210385501060325,52.716776213851595],[5.1853730941733085,52.71022801200596],[5.1870227804555125,52.70745171884734],[5.160121315821058,52.70100758460173],[5.153173921243626,52.698914628448],[5.145794932619035,52.69667670819369],[5.14449701581835,52.6963247363736],[5.125179001159571,52.69107574400128],[5.091751583476005,52.67892371219081],[5.08938574217833,52.68056280100737],[5.086729731571024,52.68436548296817],[5.083001660422426,52.683200842981805],[5.082605987787954,52.68400321472371],[5.0622910272689845,52.67670768604585],[5.063345520203977,52.67579723545716],[5.062138633156509,52.67525113245007],[5.062359152136423,52.67507331500446],[5.062493427822124,52.6748815811303],[5.063454644855399,52.67313344213575],[5.051538554955818,52.672208063657],[5.048881957374843,52.67203030054475],[5.045458405777867,52.67174278588529],[5.038305575659712,52.67080621328628],[5.035539054965289,52.67045307611001],[5.034761683842946,52.66655647495979],[5.0213133231055025,52.66440935130915],[5.012652863044966,52.668277370625574],[5.00610288432109,52.67026908315754],[5.00341333980164,52.67048929696283],[5.003538073163053,52.67335656171702],[5.0014915627096395,52.67372081607437],[5.002351996741693,52.674926955103295],[4.983008209395062,52.67510017164709],[4.9792035816936195,52.67967934241497],[4.979320425202487,52.6822332705645],[4.979595959592318,52.68413355893935],[4.980374746754083,52.68939372848402],[4.980454641878405,52.69035030933744],[4.981513479659724,52.69034092659594],[4.981586519782289,52.69093705907536],[4.981581137034636,52.69093694188109],[4.981573795473487,52.691017710074874],[4.981156393663446,52.69275987446371],[4.984332377191954,52.6973263603218],[4.984468338722492,52.697523410670215],[4.983817883994591,52.6976452744959],[4.986105908535467,52.69892582130791],[4.985769627259868,52.699780986482565],[4.98444852080686,52.700951556484846],[4.977809645649766,52.705191715801895],[4.977650736677,52.706874371228274],[4.976587307267653,52.70821414214485],[4.971887219142093,52.71213832749063],[4.983804178409027,52.71664434298034],[4.984522636303921,52.71691822456781],[4.985564536920947,52.716349812532215],[4.988270492243981,52.713382417817755],[5.011162976639576,52.72290748901389],[5.011047822621861,52.72621706585111],[5.011046687370976,52.72624160103571],[5.007579301378554,52.72485492248398],[5.007492969902799,52.72558678819767],[5.004695969388254,52.72810939790846],[5.002843798222501,52.73154225116508],[5.001146320003828,52.73353519013777],[4.999021776446614,52.7348582503503],[4.998601873979515,52.73550436081761],[4.9969428595341325,52.73804145760392],[4.996385943325812,52.73861976330078],[4.99742019351802,52.73898568179131],[4.996557824130542,52.7396478608782],[4.998382032549054,52.740288714315234],[4.99521480282388,52.743695780849826],[4.998403395572567,52.74464321558108],[4.998392565514624,52.74506175297509],[4.99682113591799,52.746455917306875],[4.996143364883858,52.74715090587601],[4.996544994645385,52.74742983643191],[4.996859927046855,52.75206544854026],[5.025925991952867,52.751571181009545],[5.033301442371908,52.75193632013768],[5.040674214571141,52.75245873189672],[5.0449984953096445,52.75313309935937],[5.056920405951009,52.75749812809223],[5.061724582274578,52.760663418976584],[5.064292512959058,52.76258771484719],[5.0674607532404545,52.76667092107412],[5.069722951960068,52.7681032368983],[5.076211437657014,52.76924545489647],[5.0835824471096,52.769614873862274],[5.092107850382403,52.76928528255971],[5.093665892966881,52.76969195413911],[5.09867297658973,52.772354838313525],[5.099631787754227,52.77330961514843],[5.104148309230826,52.774452358417875],[5.11222390234744,52.77464341980276],[5.1126496065481,52.77389355077708],[5.108254956340279,52.77095741197448],[5.108772625387455,52.77065458258734]],[[5.107866913563536,52.77039664528545],[5.103204584399402,52.770977414556135],[5.103232335817454,52.76998166754957],[5.1087280813764675,52.76964491116355],[5.107866913563536,52.77039664528545]]],[[[5.14891142042889,52.7436457624287],[5.142562656635154,52.74585258592489],[5.141527142456011,52.74765459970885],[5.146568063791787,52.745594220743264],[5.14891142042889,52.7436457624287]]]]},"properties":{"type":"boundary","gemeente":"Medemblik","code":"GM0420"}}]}