{"type":"FeatureCollection","metadata":{"gemeente":"Montfoort","slug":"montfoort","code":"GM0335","generated_at":"2026-07-06T16:26:11.361Z","total_passenger":46,"total_freight":0,"bounds":[4.8682254154038,52.01001413350274,5.018010220740267,52.0798661217951],"operators":["Allego","DAEN Mobility","TotalEnergies","Ubitricity","Vattenfall InCharge"]},"features":[{"type":"Feature","geometry":{"type":"Point","coordinates":[4.918253,52.06616]},"properties":{"type":"charge","layer":"passenger","locationId":"NLLOC003860","name":"NLD, Linschoten, De Kolk 12","address":"De Kolk 12","city":"Linschoten","operatorName":"Allego","maxPowerKw":11,"isMegawatt":false,"status":"AVAILABLE","source":"ndw","priceKwh":0.511}},{"type":"Feature","geometry":{"type":"Point","coordinates":[4.954244,52.049595]},"properties":{"type":"charge","layer":"passenger","locationId":"5055f38c-d5d6-4e46-9cfc-2006ca45b73a","name":"TNLP009989 - Burggraaf Zwederlaan 25, Montfoort","address":"25 Burggraaf Zwederlaan","city":"Montfoort","operatorName":"TotalEnergies","maxPowerKw":17,"isMegawatt":false,"status":"AVAILABLE","source":"ndw"}},{"type":"Feature","geometry":{"type":"Point","coordinates":[4.955793,52.046133]},"properties":{"type":"charge","layer":"passenger","locationId":"311b060a-f4e3-49e8-bd95-72d661884580","name":"TNLP034169","address":"Joop Westerweelstraat 16","city":"Montfoort","operatorName":"TotalEnergies","maxPowerKw":14,"isMegawatt":false,"status":"AVAILABLE","source":"ndw"}},{"type":"Feature","geometry":{"type":"Point","coordinates":[4.95757,52.039671]},"properties":{"type":"charge","layer":"passenger","locationId":"NLLOC021751","name":"NL, Pinksterbloem 12, 3417LA, Montfoort","address":"Pinksterbloem 12","city":"Montfoort","operatorName":"Allego","maxPowerKw":11,"isMegawatt":false,"status":"AVAILABLE","source":"ndw","priceKwh":0.511}},{"type":"Feature","geometry":{"type":"Point","coordinates":[4.94133,52.04382]},"properties":{"type":"charge","layer":"passenger","locationId":"74611857-09f9-4576-8dfb-730518a3f97c","name":"PP002536 - Aardvletterweg 14, Montfoort","address":"14 Aardvletterweg","city":"Montfoort","operatorName":"TotalEnergies","maxPowerKw":13,"isMegawatt":false,"status":"AVAILABLE","source":"ndw"}},{"type":"Feature","geometry":{"type":"Point","coordinates":[4.949723,52.049646]},"properties":{"type":"charge","layer":"passenger","locationId":"NLLOC012703","name":"NL, Irenestraat 22, 3417 BJ Montfoort","address":"Irenestraat 22","city":"Montfoort","operatorName":"Allego","maxPowerKw":11,"isMegawatt":false,"status":"AVAILABLE","source":"ndw","priceKwh":0.511}},{"type":"Feature","geometry":{"type":"Point","coordinates":[4.953801,52.036639]},"properties":{"type":"charge","layer":"passenger","locationId":"923430","name":"PBLR-0018563","address":"Stadhouderslaan 110","city":"Montfoort","operatorName":"DAEN Mobility","maxPowerKw":11,"isMegawatt":false,"status":"AVAILABLE","source":"ndw","priceKwh":0.36}},{"type":"Feature","geometry":{"type":"Point","coordinates":[4.9463922,52.0446847]},"properties":{"type":"charge","layer":"passenger","locationId":"2365","name":"Shell Recharge NL Pastoor Spaanplein 2","address":"Pastoor Spaanplein 2","city":"Montfoort","operatorName":"Ubitricity","maxPowerKw":22,"isMegawatt":false,"status":"AVAILABLE","source":"ndw","priceKwh":0.266}},{"type":"Feature","geometry":{"type":"Point","coordinates":[4.949576,52.041634]},"properties":{"type":"charge","layer":"passenger","locationId":"NLLOC022313","name":"NL, Heulestein 18, 3417 TD Montfoort","address":"Heulestein 18","city":"Montfoort","operatorName":"Allego","maxPowerKw":11,"isMegawatt":false,"status":"AVAILABLE","source":"ndw","priceKwh":0.511}},{"type":"Feature","geometry":{"type":"Point","coordinates":[4.94988,52.04682]},"properties":{"type":"charge","layer":"passenger","locationId":"9753507b-c513-4e79-bcc8-6622bea2a975","name":"PP002537 - Waterpoort 10, Montfoort","address":"10 Waterpoort","city":"Montfoort","operatorName":"TotalEnergies","maxPowerKw":13,"isMegawatt":false,"status":"CHARGING","source":"ndw"}},{"type":"Feature","geometry":{"type":"Point","coordinates":[4.916949,52.065291]},"properties":{"type":"charge","layer":"passenger","locationId":"NLLOC021095","name":"NL, De Driesprong 45, 3461 HM Linschoten","address":"De Driesprong 45","city":"Linschoten","operatorName":"Allego","maxPowerKw":11,"isMegawatt":false,"status":"AVAILABLE","source":"ndw","priceKwh":0.511}},{"type":"Feature","geometry":{"type":"Point","coordinates":[4.952136,52.046795]},"properties":{"type":"charge","layer":"passenger","locationId":"NLLOC007592","name":"NL, Verlengde Hoogstraat 26, 3417EK, Montfoort","address":"Verlengde Hoogstraat 26","city":"Montfoort","operatorName":"Allego","maxPowerKw":11,"isMegawatt":false,"status":"AVAILABLE","source":"ndw","priceKwh":0.511}},{"type":"Feature","geometry":{"type":"Point","coordinates":[4.92117,52.065543]},"properties":{"type":"charge","layer":"passenger","locationId":"NLLOC002794","name":"NLD, Linschoten, Jacob Barneveldstraat 56","address":"Jacob Barneveldstraat 56","city":"Linschoten","operatorName":"Allego","maxPowerKw":11,"isMegawatt":false,"status":"AVAILABLE","source":"ndw","priceKwh":0.511}},{"type":"Feature","geometry":{"type":"Point","coordinates":[4.956821,52.04715]},"properties":{"type":"charge","layer":"passenger","locationId":"NLLOC009327","name":"NL, Hannie Schaftstraat 83, 3417 CS Montfoort","address":"Hannie Schaftstraat 83","city":"Montfoort","operatorName":"Allego","maxPowerKw":11,"isMegawatt":false,"status":"AVAILABLE","source":"ndw","priceKwh":0.511}},{"type":"Feature","geometry":{"type":"Point","coordinates":[4.948612,52.03976]},"properties":{"type":"charge","layer":"passenger","locationId":"NLLOC007580","name":"NL, Wulverhorst 58, 3417TM, Montfoort","address":"Wulverhorst 58","city":"Montfoort","operatorName":"Allego","maxPowerKw":11,"isMegawatt":false,"status":"AVAILABLE","source":"ndw","priceKwh":0.511}},{"type":"Feature","geometry":{"type":"Point","coordinates":[4.946891,52.040057]},"properties":{"type":"charge","layer":"passenger","locationId":"NLLOC014076","name":"NL, Wulverhorst 1, 3417 TG Montfoort","address":"Wulverhorst 1","city":"Montfoort","operatorName":"Allego","maxPowerKw":11,"isMegawatt":false,"status":"AVAILABLE","source":"ndw","priceKwh":0.511}},{"type":"Feature","geometry":{"type":"Point","coordinates":[4.921164,52.061353]},"properties":{"type":"charge","layer":"passenger","locationId":"NLLOC006899","name":"NL, Veldzichtlaan 25, 3461 GV, Linschoten","address":"Veldzichtlaan 25","city":"Linschoten","operatorName":"Allego","maxPowerKw":11,"isMegawatt":false,"status":"AVAILABLE","source":"ndw","priceKwh":0.511}},{"type":"Feature","geometry":{"type":"Point","coordinates":[4.92027,52.065129]},"properties":{"type":"charge","layer":"passenger","locationId":"NLLOC011046","name":"NL, Jacob Barneveldstraat 65, 3461 GA, Lintschoten","address":"Jacob Barneveldstraat 65","city":"Lintschoten","operatorName":"Allego","maxPowerKw":11,"isMegawatt":false,"status":"AVAILABLE","source":"ndw","priceKwh":0.511}},{"type":"Feature","geometry":{"type":"Point","coordinates":[4.951885,52.036516]},"properties":{"type":"charge","layer":"passenger","locationId":"NLLOC004903","name":"NLD, Montfoort, Schepenenstraat 36","address":"Schepenenstraat 36","city":"Montfoort","operatorName":"Allego","maxPowerKw":11,"isMegawatt":false,"status":"AVAILABLE","source":"ndw","priceKwh":0.511}},{"type":"Feature","geometry":{"type":"Point","coordinates":[4.91754,52.06036]},"properties":{"type":"charge","layer":"passenger","locationId":"19b54097-9d46-403c-bb98-a51bb312045a","name":"TNLP008561 - Nieuwe Zandweg 12, Linschoten","address":"12 Nieuwe Zandweg","city":"Linschoten","operatorName":"TotalEnergies","maxPowerKw":13,"isMegawatt":false,"status":"AVAILABLE","source":"ndw"}},{"type":"Feature","geometry":{"type":"Point","coordinates":[4.95397,52.037247]},"properties":{"type":"charge","layer":"passenger","locationId":"f267d86c-e71f-4f08-a9c1-6228deef1b95","name":"TNLP007935 - Stadhouderslaan 113, Montfoort","address":"113 Stadhouderslaan","city":"Montfoort","operatorName":"TotalEnergies","maxPowerKw":15,"isMegawatt":false,"status":"AVAILABLE","source":"ndw"}},{"type":"Feature","geometry":{"type":"Point","coordinates":[4.947468,52.0438]},"properties":{"type":"charge","layer":"passenger","locationId":"f19bdcc3-7479-4c91-b944-0a0dcaf72a5c","name":"TNLP008647 - Lieve Vrouwegracht 12, Montfoort","address":"12 Lieve Vrouwegracht","city":"Montfoort","operatorName":"TotalEnergies","maxPowerKw":13,"isMegawatt":false,"status":"CHARGING","source":"ndw"}},{"type":"Feature","geometry":{"type":"Point","coordinates":[4.911853,52.06196]},"properties":{"type":"charge","layer":"passenger","locationId":"e7aa6377-7d75-4e7a-ab27-3ef68bd9ef13","name":"TNLP009026 - Strick van Linschotenstraat 42, Linschoten","address":"42 Strick van Linschotenstraat","city":"Linschoten","operatorName":"TotalEnergies","maxPowerKw":17,"isMegawatt":false,"status":"AVAILABLE","source":"ndw"}},{"type":"Feature","geometry":{"type":"Point","coordinates":[4.949477,52.045497]},"properties":{"type":"charge","layer":"passenger","locationId":"NLLOC004388","name":"NLD, Montfoort, Peperstraat 4","address":"Peperstraat 4","city":"Montfoort","operatorName":"Allego","maxPowerKw":11,"isMegawatt":false,"status":"AVAILABLE","source":"ndw","priceKwh":0.511}},{"type":"Feature","geometry":{"type":"Point","coordinates":[4.914885,52.062666]},"properties":{"type":"charge","layer":"passenger","locationId":"NLLOC007302","name":"NL, Jacob Barneveldstraat 1, 3461 GA, Linschoten","address":"Jacob Barneveldstraat 1","city":"Linschoten","operatorName":"Allego","maxPowerKw":11,"isMegawatt":false,"status":"AVAILABLE","source":"ndw","priceKwh":0.511}},{"type":"Feature","geometry":{"type":"Point","coordinates":[4.955217,52.043777]},"properties":{"type":"charge","layer":"passenger","locationId":"020b82e8-affb-4de9-a2aa-2eb97a3e7497","name":"TNLP008979 - Lodewijkstraat 40, Montfoort","address":"40 Lodewijkstraat","city":"Montfoort","operatorName":"TotalEnergies","maxPowerKw":13,"isMegawatt":false,"status":"AVAILABLE","source":"ndw"}},{"type":"Feature","geometry":{"type":"Point","coordinates":[4.912172,52.061546]},"properties":{"type":"charge","layer":"passenger","locationId":"NLLOC017080","name":"NL, Strick van Linschotenstraat 21, 3461ED, Linschoten","address":"Strick van Linschotenstraat 21","city":"Linschoten","operatorName":"Allego","maxPowerKw":11,"isMegawatt":false,"status":"AVAILABLE","source":"ndw","priceKwh":0.511}},{"type":"Feature","geometry":{"type":"Point","coordinates":[4.957508,52.044848]},"properties":{"type":"charge","layer":"passenger","locationId":"NLLOC024645","name":"NL, Miep Giesstraat 87, 3417CX, Montfoort","address":"Miep Giesstraat 87","city":"Montfoort","operatorName":"Allego","maxPowerKw":11,"isMegawatt":false,"status":"AVAILABLE","source":"ndw","priceKwh":0.511}},{"type":"Feature","geometry":{"type":"Point","coordinates":[4.957073,52.04059]},"properties":{"type":"charge","layer":"passenger","locationId":"NLLOC003369","name":"NLD, Montfoort, Waterlelie 13","address":"Waterlelie 13","city":"Montfoort","operatorName":"Allego","maxPowerKw":11,"isMegawatt":false,"status":"AVAILABLE","source":"ndw","priceKwh":0.511}},{"type":"Feature","geometry":{"type":"Point","coordinates":[4.9514798,52.0419832]},"properties":{"type":"charge","layer":"passenger","locationId":"1326","name":"Shell Recharge NL Parklaan 6","address":"Parklaan 6","city":"Montfoort","operatorName":"Ubitricity","maxPowerKw":22,"isMegawatt":false,"status":"AVAILABLE","source":"ndw","priceKwh":0.266}},{"type":"Feature","geometry":{"type":"Point","coordinates":[4.956614,52.041862]},"properties":{"type":"charge","layer":"passenger","locationId":"2d292fb7-76a7-4afd-bff1-fde7961c3ac9","name":"TNLP009863 - Watermuntplein 32, Montfoort","address":"32 Watermuntplein","city":"Montfoort","operatorName":"TotalEnergies","maxPowerKw":17,"isMegawatt":false,"status":"AVAILABLE","source":"ndw"}},{"type":"Feature","geometry":{"type":"Point","coordinates":[4.957697,52.043031]},"properties":{"type":"charge","layer":"passenger","locationId":"NLLOC014744","name":"NL, Waterviolier 90, 3417RB Montfoort","address":"Waterviolier 90","city":"Montfoort","operatorName":"Allego","maxPowerKw":11,"isMegawatt":false,"status":"AVAILABLE","source":"ndw","priceKwh":0.511}},{"type":"Feature","geometry":{"type":"Point","coordinates":[4.954059,52.050858]},"properties":{"type":"charge","layer":"passenger","locationId":"9684b94f-f603-4e1c-88bd-01b7c619163b","name":"TNLP009524 - Brederodestraat 2, Montfoort","address":"2 Brederodestraat","city":"Montfoort","operatorName":"TotalEnergies","maxPowerKw":17,"isMegawatt":false,"status":"AVAILABLE","source":"ndw"}},{"type":"Feature","geometry":{"type":"Point","coordinates":[4.95059,52.04418]},"properties":{"type":"charge","layer":"passenger","locationId":"4dcad849-9af4-4adf-9134-ee5329b06719","name":"PP002598 - Kasteelplein 7, Montfoort","address":"7 Kasteelplein","city":"Montfoort","operatorName":"TotalEnergies","maxPowerKw":13,"isMegawatt":false,"status":"AVAILABLE","source":"ndw"}},{"type":"Feature","geometry":{"type":"Point","coordinates":[4.945275,52.044216]},"properties":{"type":"charge","layer":"passenger","locationId":"fa3e2a02-815d-4d1d-8712-856deef92b7c","name":"TNLP009954 - Pastoor Spaanplein 5, Montfoort","address":"5 Pastoor Spaanplein","city":"Montfoort","operatorName":"TotalEnergies","maxPowerKw":17,"isMegawatt":false,"status":"AVAILABLE","source":"ndw"}},{"type":"Feature","geometry":{"type":"Point","coordinates":[4.919681,52.06484]},"properties":{"type":"charge","layer":"passenger","locationId":"28f77bcc-7815-4f8f-86a1-483acd96ff64","name":"TNLP034185","address":"Jacob Barneveldstraat 25","city":"Linschoten","operatorName":"TotalEnergies","maxPowerKw":14,"isMegawatt":false,"status":"AVAILABLE","source":"ndw"}},{"type":"Feature","geometry":{"type":"Point","coordinates":[4.958178,52.03901]},"properties":{"type":"charge","layer":"passenger","locationId":"b4acdd8f-344f-47eb-9542-ef5cfac7d9c1","name":"TNLP009531 - Dotterbloem 1, Montfoort","address":"1 Dotterbloem","city":"Montfoort","operatorName":"TotalEnergies","maxPowerKw":17,"isMegawatt":false,"status":"CHARGING","source":"ndw"}},{"type":"Feature","geometry":{"type":"Point","coordinates":[4.953821,52.038379]},"properties":{"type":"charge","layer":"passenger","locationId":"NLLOC009998","name":"NL, F H van Kempenstraat, 17, 3417wt, Montfoort","address":"F H van Kempenstraat 17","city":"Montfoort","operatorName":"Allego","maxPowerKw":11,"isMegawatt":false,"status":"AVAILABLE","source":"ndw","priceKwh":0.511}},{"type":"Feature","geometry":{"type":"Point","coordinates":[4.9500442,52.0385389]},"properties":{"type":"charge","layer":"passenger","locationId":"1821","name":"Shell Recharge NL Stadhouderslaan 57","address":"Stadhouderslaan 57","city":"Montfoort","operatorName":"Ubitricity","maxPowerKw":22,"isMegawatt":false,"status":"AVAILABLE","source":"ndw","priceKwh":0.266}},{"type":"Feature","geometry":{"type":"Point","coordinates":[4.951037,52.038296]},"properties":{"type":"charge","layer":"passenger","locationId":"NLLOC024021","name":"NL, Stadhouderslaan 14, 3417 TW Montfoort","address":"Stadhouderslaan 14","city":"Montfoort","operatorName":"Allego","maxPowerKw":11,"isMegawatt":false,"status":"AVAILABLE","source":"ndw","priceKwh":0.511}},{"type":"Feature","geometry":{"type":"Point","coordinates":[4.94832,52.04765]},"properties":{"type":"charge","layer":"passenger","locationId":"b931eadaf431c3e753ed8e7cf8bd4a4f","name":"Hofdijk 55","address":"Hofdijk 55","city":"Montfoort","operatorName":"Vattenfall InCharge","maxPowerKw":11,"isMegawatt":false,"status":"AVAILABLE","source":"ndw"}},{"type":"Feature","geometry":{"type":"Point","coordinates":[4.956052,52.03667]},"properties":{"type":"charge","layer":"passenger","locationId":"NLLOC002571","name":"NLD, Montfoort, Maarschalklaan 56","address":"Maarschalklaan 56","city":"Montfoort","operatorName":"Allego","maxPowerKw":11,"isMegawatt":false,"status":"AVAILABLE","source":"ndw","priceKwh":0.511}},{"type":"Feature","geometry":{"type":"Point","coordinates":[4.913731,52.06434]},"properties":{"type":"charge","layer":"passenger","locationId":"5a13e208-ff77-4ea0-942b-3d6d75407c96","name":"TNLP009596 - Laan van Overvliet 62, Montfoort","address":"62 Laan van Overvliet","city":"Montfoort","operatorName":"TotalEnergies","maxPowerKw":17,"isMegawatt":false,"status":"AVAILABLE","source":"ndw"}},{"type":"Feature","geometry":{"type":"Point","coordinates":[4.955269,52.047879]},"properties":{"type":"charge","layer":"passenger","locationId":"NLLOC007563","name":"NL, Titus Brandsmastraat 31, 3417EV, Montfoort","address":"Titus Brandsmastraat 31","city":"Montfoort","operatorName":"Allego","maxPowerKw":11,"isMegawatt":false,"status":"AVAILABLE","source":"ndw","priceKwh":0.511}},{"type":"Feature","geometry":{"type":"Point","coordinates":[4.953056,52.045426]},"properties":{"type":"charge","layer":"passenger","locationId":"NLLOC021755","name":"NL, Achterbaan 13, 3417 EJ Montfoort","address":"Achterbaan 13","city":"Montfoort","operatorName":"Allego","maxPowerKw":11,"isMegawatt":false,"status":"AVAILABLE","source":"ndw","priceKwh":0.511}},{"type":"Feature","geometry":{"type":"Point","coordinates":[4.951048,52.044107]},"properties":{"type":"charge","layer":"passenger","locationId":"84eb0998-7eb0-468a-a5ec-10293a1073e3","name":"TNLP015298","address":"Kasteelplein 7","city":"Montfoort","operatorName":"TotalEnergies","maxPowerKw":17,"isMegawatt":false,"status":"AVAILABLE","source":"ndw"}},{"type":"Feature","geometry":{"type":"MultiPolygon","coordinates":[[[[4.945714001050582,52.075555707105785],[4.956333037277869,52.070299652045875],[4.957105384579905,52.06594796244297],[4.970500594782483,52.06756038847004],[4.982590772023577,52.064950705291984],[4.995844967895425,52.06733449113715],[4.9994979651761895,52.06613166771703],[5.018010220740267,52.06221916497611],[5.01707425726037,52.06114306357085],[5.0102834042931335,52.05374121945355],[5.004900937923043,52.055556130582715],[5.001125450629815,52.05402884217726],[4.997147406193667,52.05295231783571],[4.9953322344184645,52.0526078557763],[4.991074511830785,52.052864563459764],[4.9903029302557895,52.05243854167597],[4.983276465757504,52.04023687731737],[4.978392416352495,52.039686679077285],[4.978989596948677,52.03807157196513],[4.983138845411771,52.02778473814673],[4.99404609348215,52.02974025142749],[4.995194549862604,52.02172055202113],[4.992162013840565,52.02103265992839],[4.977256377675919,52.02052678985798],[4.9521032981624415,52.01676499121014],[4.920045008175167,52.01001413350274],[4.9166388610238405,52.01341328953618],[4.917747894653346,52.01321684529177],[4.908523484049198,52.02277704025055],[4.904974915881804,52.026477762693844],[4.912426144701696,52.02529124138402],[4.920059361911232,52.02555806271547],[4.924026217109725,52.026525497883085],[4.926435557788765,52.02847607351972],[4.9266811572822204,52.029987099736964],[4.911398246554493,52.04018191058781],[4.9148119255344485,52.04237809443105],[4.9171179528486215,52.043791145908266],[4.90650485108532,52.05347598043487],[4.900546749357796,52.05214017136767],[4.895739234963245,52.050479552628666],[4.895411647716923,52.04823426829564],[4.8813443800702085,52.05752298084256],[4.875506841441443,52.061580210235164],[4.871458308087479,52.05922502771872],[4.8682254154038,52.06344677401791],[4.87320071151265,52.068745835238566],[4.874516687758801,52.06819118558927],[4.8753349555863315,52.06888572050449],[4.888984736118573,52.0689079566695],[4.900250135666416,52.07020265408921],[4.901613465945209,52.07039682312625],[4.9054731141474255,52.07014858550713],[4.908202640783397,52.07189603283503],[4.914891238899619,52.0740929571332],[4.917981620499424,52.07476511698784],[4.9246609785635,52.07759093411636],[4.926608354167651,52.07781850793369],[4.9308465346551555,52.07928584926374],[4.936202232551886,52.0798661217951],[4.939366643364708,52.07792425187374],[4.945714001050582,52.075555707105785]]]]},"properties":{"type":"boundary","gemeente":"Montfoort","code":"GM0335"}}]}