{"type":"FeatureCollection","metadata":{"gemeente":"Noordoostpolder","slug":"noordoostpolder","code":"GM0171","generated_at":"2026-07-06T16:26:11.361Z","total_passenger":147,"total_freight":3,"bounds":[5.5933210224447905,52.61074444069204,6.013874469523464,52.843982677243154],"operators":["E-Flux by Road","EQUANS","Eneco","Fastned","Heijmans","Laadnet","Lanova Laadpalen","Opcharge","Pluq","Tesla","TotalEnergies","Ubitricity","Vattenfall InCharge"]},"features":[{"type":"Feature","geometry":{"type":"Point","coordinates":[5.734275,52.709377]},"properties":{"type":"charge","layer":"passenger","locationId":"814196bf-4705-404f-8076-07142299cb44","name":"TNLP009245 - Egeïschestraat 40, Emmeloord","address":"40 Egeïschestraat","city":"Emmeloord","operatorName":"TotalEnergies","maxPowerKw":15,"isMegawatt":false,"status":"AVAILABLE","source":"ndw"}},{"type":"Feature","geometry":{"type":"Point","coordinates":[5.824247,52.640694]},"properties":{"type":"charge","layer":"passenger","locationId":"13c2d7a3-9924-415f-ae71-6aebd986ab9e","name":"TNLP008200 - Noorderbocht 35, Ens","address":"35 Noorderbocht","city":"Ens","operatorName":"TotalEnergies","maxPowerKw":15,"isMegawatt":false,"status":"UNAVAILABLE","source":"ndw"}},{"type":"Feature","geometry":{"type":"Point","coordinates":[5.740142,52.72003]},"properties":{"type":"charge","layer":"passenger","locationId":"1c3f1cf1-0527-49aa-97e9-becce7225935","name":"TNLP005899 - Westerwolde 14, Emmeloord","address":"14 Westerwolde","city":"Emmeloord","operatorName":"TotalEnergies","maxPowerKw":13,"isMegawatt":false,"status":"UNAVAILABLE","source":"ndw"}},{"type":"Feature","geometry":{"type":"Point","coordinates":[5.675102,52.677834]},"properties":{"type":"charge","layer":"passenger","locationId":"bdd15d3e-27d5-4fbc-bdec-eb1aa37b4925","name":"TNLP009901 - Vossenburcht 1, Tollebeek","address":"1 Vossenburcht","city":"Tollebeek","operatorName":"TotalEnergies","maxPowerKw":13,"isMegawatt":false,"status":"UNAVAILABLE","source":"ndw"}},{"type":"Feature","geometry":{"type":"Point","coordinates":[5.666694,52.625897]},"properties":{"type":"charge","layer":"passenger","locationId":"50469","name":"Fastned De Abt","address":"De Abt A6","city":"Nagele","operatorName":"Fastned","maxPowerKw":150,"isMegawatt":false,"status":"AVAILABLE","source":"ndw","priceKwh":0.6364}},{"type":"Feature","geometry":{"type":"Point","coordinates":[5.738882,52.708035]},"properties":{"type":"charge","layer":"passenger","locationId":"c7a166af-be91-4f92-907e-b4b6f4b4e132","name":"TNLP009666 - Toutenburgh 3, Emmeloord","address":"3 Toutenburgh","city":"Emmeloord","operatorName":"TotalEnergies","maxPowerKw":15,"isMegawatt":false,"status":"AVAILABLE","source":"ndw"}},{"type":"Feature","geometry":{"type":"Point","coordinates":[5.746791,52.710182]},"properties":{"type":"charge","layer":"passenger","locationId":"e0801ae8-a362-404a-806f-68e77128cbcb","name":"TNLP006699 - Harmen Visserplein 3, Emmeloord","address":"3 Harmen Visserplein","city":"Emmeloord","operatorName":"TotalEnergies","maxPowerKw":13,"isMegawatt":false,"status":"UNAVAILABLE","source":"ndw"}},{"type":"Feature","geometry":{"type":"Point","coordinates":[5.740644,52.713093]},"properties":{"type":"charge","layer":"passenger","locationId":"3501a91f-ad54-45ed-a11e-de2c71b7f4ce","name":"TNLP008875 - Rijnstraat 8, Emmeloord","address":"8 Rijnstraat","city":"Emmeloord","operatorName":"TotalEnergies","maxPowerKw":14,"isMegawatt":false,"status":"AVAILABLE","source":"ndw"}},{"type":"Feature","geometry":{"type":"Point","coordinates":[5.637832,52.721535]},"properties":{"type":"charge","layer":"passenger","locationId":"baa3500f-770c-441a-9b29-1e570226c854","name":"TNLP006916 - Poldermolen 24, Espel","address":"24 Poldermolen","city":"Espel","operatorName":"TotalEnergies","maxPowerKw":15,"isMegawatt":false,"status":"AVAILABLE","source":"ndw"}},{"type":"Feature","geometry":{"type":"Point","coordinates":[5.660855,52.7649]},"properties":{"type":"charge","layer":"passenger","locationId":"9c32c98a-efa8-43b1-820e-640cac073bcb","name":"PP005499 - Bisschopstraat 5, Creil","address":"5 Bisschopstraat","city":"Creil","operatorName":"TotalEnergies","maxPowerKw":15,"isMegawatt":false,"status":"AVAILABLE","source":"ndw"}},{"type":"Feature","geometry":{"type":"Point","coordinates":[5.790245,52.716322]},"properties":{"type":"charge","layer":"passenger","locationId":"6440fca7b03f5a001278fc9b","name":"Franc 64 P1","address":"Franc 64","city":"Emmeloord","operatorName":"E-Flux by Road","maxPowerKw":22,"isMegawatt":false,"status":"AVAILABLE","source":"ndw","priceKwh":0.542}},{"type":"Feature","geometry":{"type":"Point","coordinates":[5.729759,52.7224]},"properties":{"type":"charge","layer":"passenger","locationId":"a36a40a3-358a-44cb-ae71-4e7b79140f20","name":"TNLP009985 - Schermer 1, Emmeloord","address":"1 Schermer","city":"Emmeloord","operatorName":"TotalEnergies","maxPowerKw":13,"isMegawatt":false,"status":"UNAVAILABLE","source":"ndw"}},{"type":"Feature","geometry":{"type":"Point","coordinates":[5.73176,52.720671]},"properties":{"type":"charge","layer":"passenger","locationId":"1780c50e6802b8b7728e422b72cc24d9","name":"Westfriesland 22","address":"Westfriesland 22","city":"Emmeloord","operatorName":"Vattenfall InCharge","maxPowerKw":11,"isMegawatt":false,"status":"AVAILABLE","source":"ndw"}},{"type":"Feature","geometry":{"type":"Point","coordinates":[5.743504,52.709457]},"properties":{"type":"charge","layer":"passenger","locationId":"881d4cfe-98e9-431c-9288-818f72011f3b","name":"TNLP009284 - de Jura 6, Emmeloord","address":"6 de Jura","city":"Emmeloord","operatorName":"TotalEnergies","maxPowerKw":13,"isMegawatt":false,"status":"UNAVAILABLE","source":"ndw"}},{"type":"Feature","geometry":{"type":"Point","coordinates":[5.745848,52.72647]},"properties":{"type":"charge","layer":"passenger","locationId":"ce7ee411-d49d-435d-a9f1-be1a5cc5908f","name":"TNLP009288 - Schweitzersingel 2, Emmeloord","address":"2 Schweitzersingel","city":"Emmeloord","operatorName":"TotalEnergies","maxPowerKw":15,"isMegawatt":false,"status":"AVAILABLE","source":"ndw"}},{"type":"Feature","geometry":{"type":"Point","coordinates":[5.733403,52.710953]},"properties":{"type":"charge","layer":"passenger","locationId":"c13a15b1-6fe3-41cb-8296-972cc5a1c347","name":"TNLP008796 - Europalaan 12, Emmeloord","address":"12 Europalaan","city":"Emmeloord","operatorName":"TotalEnergies","maxPowerKw":14,"isMegawatt":false,"status":"AVAILABLE","source":"ndw"}},{"type":"Feature","geometry":{"type":"Point","coordinates":[5.790245,52.716322]},"properties":{"type":"charge","layer":"passenger","locationId":"6440fc10444c470012db60cc","name":"Franc 64 P2","address":"Franc 64","city":"Emmeloord","operatorName":"E-Flux by Road","maxPowerKw":22,"isMegawatt":false,"status":"AVAILABLE","source":"ndw","priceKwh":0.542}},{"type":"Feature","geometry":{"type":"Point","coordinates":[5.639909,52.709858]},"properties":{"type":"charge","layer":"passenger","locationId":"660be6ba03b816001c5c2fff","name":"Triade Vitree Ankerpad","address":"Ankerpad  4","city":"Espel","operatorName":"E-Flux by Road","maxPowerKw":22,"isMegawatt":false,"status":"AVAILABLE","source":"ndw","priceKwh":0.38}},{"type":"Feature","geometry":{"type":"Point","coordinates":[5.7345556,52.7142826]},"properties":{"type":"charge","layer":"passenger","locationId":"1423","name":"Shell Recharge NL De Fjord 13","address":"De Fjord 13","city":"Emmeloord","operatorName":"Ubitricity","maxPowerKw":22,"isMegawatt":false,"status":"AVAILABLE","source":"ndw","priceKwh":0.266}},{"type":"Feature","geometry":{"type":"Point","coordinates":[5.7418926,52.7298074]},"properties":{"type":"charge","layer":"passenger","locationId":"1865","name":"Shell Recharge NL John Daltonhage 27","address":"John Daltonhage 27","city":"Emmeloord","operatorName":"Ubitricity","maxPowerKw":22,"isMegawatt":false,"status":"AVAILABLE","source":"ndw","priceKwh":0.266}},{"type":"Feature","geometry":{"type":"Point","coordinates":[5.647297,52.63579]},"properties":{"type":"charge","layer":"passenger","locationId":"3778818","name":"Laadnet Zuidermeerweg 43","address":"Zuidermeerweg 43","city":"Nagele","operatorName":"Laadnet","maxPowerKw":11,"isMegawatt":false,"status":"AVAILABLE","source":"ndw"}},{"type":"Feature","geometry":{"type":"Point","coordinates":[5.778118,52.709403]},"properties":{"type":"charge","layer":"passenger","locationId":"4175080","name":"Laadnet Haller Benelux","address":"Betonweg 8","city":"Emmeloord","operatorName":"Laadnet","maxPowerKw":22,"isMegawatt":false,"status":"AVAILABLE","source":"ndw"}},{"type":"Feature","geometry":{"type":"Point","coordinates":[5.7437095,52.7048285]},"properties":{"type":"charge","layer":"passenger","locationId":"1968","name":"Shell Recharge NL Capellastraat 2","address":"Capellastraat 2","city":"Emmeloord","operatorName":"Ubitricity","maxPowerKw":22,"isMegawatt":false,"status":"AVAILABLE","source":"ndw","priceKwh":0.266}},{"type":"Feature","geometry":{"type":"Point","coordinates":[5.7576395,52.7062571]},"properties":{"type":"charge","layer":"passenger","locationId":"2059","name":"Shell Recharge NL Andijkstraat 66","address":"Andijkstraat 66","city":"Emmeloord","operatorName":"Ubitricity","maxPowerKw":22,"isMegawatt":false,"status":"AVAILABLE","source":"ndw","priceKwh":0.266}},{"type":"Feature","geometry":{"type":"Point","coordinates":[5.7559,52.7151]},"properties":{"type":"charge","layer":"passenger","locationId":"3828177","name":"Laadnet Thuis","address":"Paltrokmolen 29","city":"Zwolle","operatorName":"Laadnet","maxPowerKw":22,"isMegawatt":false,"status":"AVAILABLE","source":"ndw"}},{"type":"Feature","geometry":{"type":"Point","coordinates":[5.764666,52.727427]},"properties":{"type":"charge","layer":"passenger","locationId":"84096472-03b7-4658-83c1-dded834e3066","name":"Emmeloord, Netherlands","address":"9, Het Hooiveld","city":"Emmeloord","operatorName":"Tesla","maxPowerKw":150,"isMegawatt":false,"status":"AVAILABLE","source":"ndw","priceKwh":0.53}},{"type":"Feature","geometry":{"type":"Point","coordinates":[5.7267139,52.7137817]},"properties":{"type":"charge","layer":"passenger","locationId":"1046","name":"Shell Recharge NL Oosterom 10","address":"Oosterom 10","city":"Emmeloord","operatorName":"Ubitricity","maxPowerKw":22,"isMegawatt":false,"status":"AVAILABLE","source":"ndw","priceKwh":0.266}},{"type":"Feature","geometry":{"type":"Point","coordinates":[5.8991495,52.6606956]},"properties":{"type":"charge","layer":"passenger","locationId":"1682","name":"Shell Recharge NL Jacob Bruintjesstraat 5","address":"Jacob Bruintjesstraat 5","city":"Kraggenburg","operatorName":"Ubitricity","maxPowerKw":22,"isMegawatt":false,"status":"AVAILABLE","source":"ndw","priceKwh":0.266}},{"type":"Feature","geometry":{"type":"Point","coordinates":[5.76047,52.7045]},"properties":{"type":"charge","layer":"passenger","locationId":"bc6cd1ff-d1e3-4e4b-9c48-1769be82dc69","name":"PP005199 - IJsselmeerlaan 45, Emmeloord","address":"45 IJsselmeerlaan","city":"Emmeloord","operatorName":"TotalEnergies","maxPowerKw":13,"isMegawatt":false,"status":"UNAVAILABLE","source":"ndw"}},{"type":"Feature","geometry":{"type":"Point","coordinates":[5.860779,52.706084]},"properties":{"type":"charge","layer":"passenger","locationId":"6723f16017564939aaec","name":"Markenesse - ZONL - Walcherselaan","address":"Markezijde 4","city":"Markenesse","operatorName":"Opcharge","maxPowerKw":22,"isMegawatt":false,"status":"AVAILABLE","source":"ndw","priceKwh":0.49}},{"type":"Feature","geometry":{"type":"Point","coordinates":[5.765982,52.703685]},"properties":{"type":"charge","layer":"passenger","locationId":"a9656390e2234982b495","name":"Emmeloord - ZONL - Genemuidenstraat","address":"Genemuidenstraat 19","city":"Emmeloord","operatorName":"Opcharge","maxPowerKw":22,"isMegawatt":false,"status":"AVAILABLE","source":"ndw","priceKwh":0.49}},{"type":"Feature","geometry":{"type":"Point","coordinates":[5.745429,52.697403]},"properties":{"type":"charge","layer":"passenger","locationId":"62fb7d552df6228d936bdb0c","name":"Parking bezoekers","address":"Randweg 14","city":"Emmeloord","operatorName":"Heijmans","maxPowerKw":22,"isMegawatt":false,"status":"AVAILABLE","source":"ndw","priceKwh":0.38}},{"type":"Feature","geometry":{"type":"Point","coordinates":[5.73981,52.729935]},"properties":{"type":"charge","layer":"passenger","locationId":"a8a66f52-f978-4b61-90fc-b1cdf7bcc96d","name":"TNLP008237 - Johanna Naberhage 2, Emmeloord","address":"2 Johanna Naberhage","city":"Emmeloord","operatorName":"TotalEnergies","maxPowerKw":13,"isMegawatt":false,"status":"UNAVAILABLE","source":"ndw"}},{"type":"Feature","geometry":{"type":"Point","coordinates":[5.722115,52.713661]},"properties":{"type":"charge","layer":"passenger","locationId":"e7f55390fbf4ff442215d5fcf4e7e752","name":"Waarden 2","address":"Waarden 2","city":"Emmeloord","operatorName":"Vattenfall InCharge","maxPowerKw":11,"isMegawatt":false,"status":"AVAILABLE","source":"ndw"}},{"type":"Feature","geometry":{"type":"Point","coordinates":[5.790172,52.710925]},"properties":{"type":"charge","layer":"passenger","locationId":"4237212","name":"Laadnet ENERCON Services Netherlands B.V.","address":"Escudo 32","city":"Emmeloord","operatorName":"Laadnet","maxPowerKw":22,"isMegawatt":false,"status":"AVAILABLE","source":"ndw"}},{"type":"Feature","geometry":{"type":"Point","coordinates":[5.773355,52.787231]},"properties":{"type":"charge","layer":"passenger","locationId":"3809261","name":"Laadnet Vakantiewoningen","address":"Schoterpad 1","city":"Bant","operatorName":"Laadnet","maxPowerKw":22,"isMegawatt":false,"status":"AVAILABLE","source":"ndw"}},{"type":"Feature","geometry":{"type":"Point","coordinates":[5.735951,52.70219]},"properties":{"type":"charge","layer":"passenger","locationId":"e7dea3ad-7fbb-4ca0-9b67-5cf684ea7ce5","name":"TNLP008172 - Noorderkroon 1, Emmeloord","address":"1 Noorderkroon","city":"Emmeloord","operatorName":"TotalEnergies","maxPowerKw":13,"isMegawatt":false,"status":"UNAVAILABLE","source":"ndw"}},{"type":"Feature","geometry":{"type":"Point","coordinates":[5.763516,52.700138]},"properties":{"type":"charge","layer":"passenger","locationId":"3705284","name":"Laadnet Emmeloord","address":"Spakenburgstraat 16","city":"Emmeloord","operatorName":"Laadnet","maxPowerKw":22,"isMegawatt":false,"status":"UNAVAILABLE","source":"ndw"}},{"type":"Feature","geometry":{"type":"Point","coordinates":[5.860183,52.708794]},"properties":{"type":"charge","layer":"passenger","locationId":"148bbf6b-0c66-406d-9c2a-44a51d3ad870","name":"TNLP034617","address":"Lange Voor 1","city":"Marknesse","operatorName":"TotalEnergies","maxPowerKw":14,"isMegawatt":false,"status":"AVAILABLE","source":"ndw"}},{"type":"Feature","geometry":{"type":"Point","coordinates":[5.915497,52.645025]},"properties":{"type":"charge","layer":"passenger","locationId":"67c844d0e37ae2bbf749e25a","name":"Frans van Egmond 's station","address":"Zwartemeerpad 6","city":"Kraggenburg","operatorName":"E-Flux by Road","maxPowerKw":22,"isMegawatt":false,"status":"CHARGING","source":"ndw","priceKwh":0.43}},{"type":"Feature","geometry":{"type":"Point","coordinates":[5.745614,52.711542]},"properties":{"type":"charge","layer":"passenger","locationId":"74aed1ee12b8ea375e5693a0992230cc","name":"Zeebiesstraat 14","address":"Zeebiesstraat 14","city":"Emmeloord","operatorName":"Vattenfall InCharge","maxPowerKw":11,"isMegawatt":false,"status":"CHARGING","source":"ndw"}},{"type":"Feature","geometry":{"type":"Point","coordinates":[5.737289,52.707195]},"properties":{"type":"charge","layer":"passenger","locationId":"de529f6f-2431-49ba-b9ae-c56f53c0326c","name":"TNLP009146 - Nijenbeek 24, Emmeloord","address":"24 Nijenbeek","city":"Emmeloord","operatorName":"TotalEnergies","maxPowerKw":15,"isMegawatt":false,"status":"AVAILABLE","source":"ndw"}},{"type":"Feature","geometry":{"type":"Point","coordinates":[5.749248,52.697585]},"properties":{"type":"charge","layer":"passenger","locationId":"63ca5b870c14040012a76526","name":"Vijvermeester","address":"Transportweg 2","city":"Emmeloord","operatorName":"E-Flux by Road","maxPowerKw":22,"isMegawatt":false,"status":"AVAILABLE","source":"ndw","priceKwh":1.03}},{"type":"Feature","geometry":{"type":"Point","coordinates":[5.751784,52.70365]},"properties":{"type":"charge","layer":"passenger","locationId":"694548b62be87a51003db5e8","name":"TRITEX - laadpaal buiten hek","address":"Havenstraat 19","city":"Emmeloord","operatorName":"E-Flux by Road","maxPowerKw":11,"isMegawatt":false,"status":"AVAILABLE","source":"ndw","priceKwh":0.38}},{"type":"Feature","geometry":{"type":"Point","coordinates":[5.760204,52.76702]},"properties":{"type":"charge","layer":"passenger","locationId":"67655bfc0a10825225ec05e4","name":"Slump","address":"Het Rister 11","city":"Bant","operatorName":"Lanova Laadpalen","maxPowerKw":22,"isMegawatt":false,"status":"AVAILABLE","source":"ndw","priceKwh":0.63}},{"type":"Feature","geometry":{"type":"Point","coordinates":[5.784273,52.713012]},"properties":{"type":"charge","layer":"passenger","locationId":"673cae467c66768866b80973","name":"TVK Instructie BV","address":"Drachme  2","city":"Emmeloord","operatorName":"E-Flux by Road","maxPowerKw":18,"isMegawatt":false,"status":"AVAILABLE","source":"ndw","priceKwh":0.53}},{"type":"Feature","geometry":{"type":"Point","coordinates":[5.862631,52.70782]},"properties":{"type":"charge","layer":"passenger","locationId":"be9ba620-444f-43a8-aab1-2f1093da89c8","name":"TNLP005702 - Breestraat 28, Marknesse","address":"28 Breestraat","city":"Marknesse","operatorName":"TotalEnergies","maxPowerKw":13,"isMegawatt":false,"status":"UNAVAILABLE","source":"ndw"}},{"type":"Feature","geometry":{"type":"Point","coordinates":[5.852527,52.744324]},"properties":{"type":"charge","layer":"passenger","locationId":"0cceaa89-5b43-4ef0-9ad4-75a63984b614","name":"TNLP008842 - Kamplaan 16, Luttelgeest","address":"16 Kamplaan","city":"Luttelgeest","operatorName":"TotalEnergies","maxPowerKw":14,"isMegawatt":false,"status":"AVAILABLE","source":"ndw"}},{"type":"Feature","geometry":{"type":"Point","coordinates":[5.764057,52.708588]},"properties":{"type":"charge","layer":"passenger","locationId":"3612b38b-dfe8-438e-925a-076d4192d91c","name":"TNLP009323 - Bossulaan 34, Emmeloord","address":"34 Bossulaan","city":"Emmeloord","operatorName":"TotalEnergies","maxPowerKw":13,"isMegawatt":false,"status":"UNAVAILABLE","source":"ndw"}},{"type":"Feature","geometry":{"type":"Point","coordinates":[5.74809,52.709225]},"properties":{"type":"charge","layer":"passenger","locationId":"861","name":"Shell Recharge NL Harmen Visserplein 1","address":"Harmen Visserplein 1","city":"Emmeloord","operatorName":"Ubitricity","maxPowerKw":22,"isMegawatt":false,"status":"CHARGING","source":"ndw","priceKwh":0.266}},{"type":"Feature","geometry":{"type":"Point","coordinates":[5.660201,52.768708]},"properties":{"type":"charge","layer":"passenger","locationId":"3289978","name":"Laadnet MK Administratie / Zilveruitjestheater","address":"Floraweg 5","city":"Creil","operatorName":"Laadnet","maxPowerKw":22,"isMegawatt":false,"status":"AVAILABLE","source":"ndw"}},{"type":"Feature","geometry":{"type":"Point","coordinates":[5.659831,52.751766]},"properties":{"type":"charge","layer":"passenger","locationId":"4351010","name":"Laadnet Fa van der Wal Holding Creil B.V.","address":"Noordermiddenweg 19","city":"Creil","operatorName":"Laadnet","maxPowerKw":22,"isMegawatt":false,"status":"AVAILABLE","source":"ndw"}},{"type":"Feature","geometry":{"type":"Point","coordinates":[5.750722,52.694367]},"properties":{"type":"charge","layer":"passenger","locationId":"6464b05e365e2400126dd5de","name":"Profyto EM-LP1","address":"Revisieweg 3","city":"Emmeloord","operatorName":"E-Flux by Road","maxPowerKw":22,"isMegawatt":false,"status":"AVAILABLE","source":"ndw","priceKwh":0.43}},{"type":"Feature","geometry":{"type":"Point","coordinates":[5.85012,52.7427]},"properties":{"type":"charge","layer":"passenger","locationId":"07204ee7-cc61-4b8c-aa12-001fde4da35a","name":"TNLP007159 - Sportstraat 26, Luttelgeest","address":"26 Sportstraat","city":"Luttelgeest","operatorName":"TotalEnergies","maxPowerKw":13,"isMegawatt":false,"status":"UNAVAILABLE","source":"ndw"}},{"type":"Feature","geometry":{"type":"Point","coordinates":[5.743454,52.711125]},"properties":{"type":"charge","layer":"passenger","locationId":"3641910","name":"Laadnet Stichting Speciaal en Voortgezet Speciaal Onderwijs voor de Noordoostpolder e.o.","address":"Europalaan 148","city":"Emmeloord","operatorName":"Laadnet","maxPowerKw":22,"isMegawatt":false,"status":"AVAILABLE","source":"ndw"}},{"type":"Feature","geometry":{"type":"Point","coordinates":[5.748429,52.711136]},"properties":{"type":"charge","layer":"passenger","locationId":"5071ce05-76c3-4ec8-8770-934562276cfb","name":"TNLP007849 - Duizendknoopstraat 6, Emmeloord","address":"6 Duizendknoopstraat","city":"Emmeloord","operatorName":"TotalEnergies","maxPowerKw":13,"isMegawatt":false,"status":"UNAVAILABLE","source":"ndw"}},{"type":"Feature","geometry":{"type":"Point","coordinates":[5.85451,52.70462]},"properties":{"type":"charge","layer":"passenger","locationId":"225fd73b-e321-48ca-9541-e15822398855","name":"TNLP007915 - Oeverkruid 10, Marknesse","address":"10 Oeverkruid","city":"Marknesse","operatorName":"TotalEnergies","maxPowerKw":15,"isMegawatt":false,"status":"AVAILABLE","source":"ndw"}},{"type":"Feature","geometry":{"type":"Point","coordinates":[5.86188,52.70587]},"properties":{"type":"charge","layer":"passenger","locationId":"56e1881b-203f-46aa-ac3d-95c9a523d976","name":"TNLP015431 - Walcherselaan 9, Marknesse","address":"9 Walcherselaan","city":"Marknesse","operatorName":"TotalEnergies","maxPowerKw":13,"isMegawatt":false,"status":"UNAVAILABLE","source":"ndw"}},{"type":"Feature","geometry":{"type":"Point","coordinates":[5.754563,52.689548]},"properties":{"type":"charge","layer":"passenger","locationId":"69a9569e9f60359022ab4bf5","name":"Willem de Boer - Emmeloord","address":"Distributieweg 12","city":"Emmeloord","operatorName":"Pluq","maxPowerKw":22,"isMegawatt":false,"status":"AVAILABLE","source":"ndw","priceKwh":0.4}},{"type":"Feature","geometry":{"type":"Point","coordinates":[5.7380903,52.7016764]},"properties":{"type":"charge","layer":"passenger","locationId":"1102","name":"Shell Recharge NL Zuiderkroon 12","address":"Zuiderkroon 12","city":"Emmeloord","operatorName":"Ubitricity","maxPowerKw":22,"isMegawatt":false,"status":"AVAILABLE","source":"ndw","priceKwh":0.266}},{"type":"Feature","geometry":{"type":"Point","coordinates":[5.757042,52.712357]},"properties":{"type":"charge","layer":"passenger","locationId":"64be3803c37d85001c15344d","name":"Triade Vitree Noordzijde","address":"Noordzijde  5","city":"Emmeloord","operatorName":"E-Flux by Road","maxPowerKw":22,"isMegawatt":false,"status":"AVAILABLE","source":"ndw","priceKwh":0.53}},{"type":"Feature","geometry":{"type":"Point","coordinates":[5.732387,52.707184]},"properties":{"type":"charge","layer":"passenger","locationId":"b0b3219e-930f-4541-8254-e505d2c47bb7","name":"TNLP008114 - Reijdersant 10, Emmeloord","address":"10 Reijdersant","city":"Emmeloord","operatorName":"TotalEnergies","maxPowerKw":15,"isMegawatt":false,"status":"AVAILABLE","source":"ndw"}},{"type":"Feature","geometry":{"type":"Point","coordinates":[5.724407,52.721573]},"properties":{"type":"charge","layer":"passenger","locationId":"a4ce4543-7014-4330-a8d7-6a67b7478d62","name":"TNLP015349 - Rozenburg 34 34, Emmeloord","address":"34 34 Rozenburg","city":"Emmeloord","operatorName":"TotalEnergies","maxPowerKw":13,"isMegawatt":false,"status":"UNAVAILABLE","source":"ndw"}},{"type":"Feature","geometry":{"type":"Point","coordinates":[5.836112,52.638493]},"properties":{"type":"charge","layer":"passenger","locationId":"06771959-e6e4-436f-a180-8ef189831354","name":"TNLP009627 - Anemoon 8, Ens","address":"8 Anemoon","city":"Ens","operatorName":"TotalEnergies","maxPowerKw":15,"isMegawatt":false,"status":"AVAILABLE","source":"ndw"}},{"type":"Feature","geometry":{"type":"Point","coordinates":[5.7646719,52.7098887]},"properties":{"type":"charge","layer":"passenger","locationId":"1066","name":"Shell Recharge NL Barkstraat 21","address":"Barkstraat 21","city":"Emmeloord","operatorName":"Ubitricity","maxPowerKw":22,"isMegawatt":false,"status":"CHARGING","source":"ndw","priceKwh":0.266}},{"type":"Feature","geometry":{"type":"Point","coordinates":[5.751793,52.710392]},"properties":{"type":"charge","layer":"passenger","locationId":"3e45c777-ae37-49a6-b744-3c0ed7c6d9e0","name":"Laadplein - TNLP005791 - de Deel 22, Emmeloord","address":"22 de Deel","city":"Emmeloord","operatorName":"TotalEnergies","maxPowerKw":15,"isMegawatt":false,"status":"AVAILABLE","source":"ndw"}},{"type":"Feature","geometry":{"type":"Point","coordinates":[5.735382,52.705517]},"properties":{"type":"charge","layer":"passenger","locationId":"093728e7-7329-419d-968f-282f86f09f23","name":"TNLP034089","address":"Old Putten 28","city":"Emmeloord","operatorName":"TotalEnergies","maxPowerKw":14,"isMegawatt":false,"status":"AVAILABLE","source":"ndw"}},{"type":"Feature","geometry":{"type":"Point","coordinates":[5.84915,52.739864]},"properties":{"type":"charge","layer":"passenger","locationId":"4cffda43-a0f6-4f7d-9b0a-c583964a331a","name":"TNLP034646","address":"Akkerwinde 1","city":"Luttelgeest","operatorName":"TotalEnergies","maxPowerKw":14,"isMegawatt":false,"status":"CHARGING","source":"ndw"}},{"type":"Feature","geometry":{"type":"Point","coordinates":[5.757855,52.712154]},"properties":{"type":"charge","layer":"passenger","locationId":"45253d9a-7c5f-407a-8a88-d04d5b92da69","name":"TNLP009157 - Van Diggelenstraat 2, Emmeloord","address":"2 Van Diggelenstraat","city":"Emmeloord","operatorName":"TotalEnergies","maxPowerKw":13,"isMegawatt":false,"status":"UNAVAILABLE","source":"ndw"}},{"type":"Feature","geometry":{"type":"Point","coordinates":[5.745693,52.729774]},"properties":{"type":"charge","layer":"passenger","locationId":"3d3fa68e-913d-4a20-9f21-74f4a72a12a3","name":"TNLP008116 - Niels Bohrhage 16, Emmeloord","address":"16 Niels Bohrhage","city":"Emmeloord","operatorName":"TotalEnergies","maxPowerKw":13,"isMegawatt":false,"status":"UNAVAILABLE","source":"ndw"}},{"type":"Feature","geometry":{"type":"Point","coordinates":[5.671591,52.67571]},"properties":{"type":"charge","layer":"passenger","locationId":"f63a7bb2-68c2-41dd-a0d2-a872584b6f0b","name":"TNLP006384 - Bosuil 9, Tollebeek","address":"9 Bosuil","city":"Tollebeek","operatorName":"TotalEnergies","maxPowerKw":13,"isMegawatt":false,"status":"UNAVAILABLE","source":"ndw"}},{"type":"Feature","geometry":{"type":"Point","coordinates":[5.7519043,52.7665814]},"properties":{"type":"charge","layer":"passenger","locationId":"1973","name":"Shell Recharge NL Zuidwend 10","address":"Zuidwend 10","city":"Bant","operatorName":"Ubitricity","maxPowerKw":22,"isMegawatt":false,"status":"AVAILABLE","source":"ndw","priceKwh":0.266}},{"type":"Feature","geometry":{"type":"Point","coordinates":[5.733489,52.712393]},"properties":{"type":"charge","layer":"passenger","locationId":"6e9f1202-953f-4caa-956c-1b9200c19a32","name":"TNLP034108","address":"Noordzeestraat 20","city":"Emmeloord","operatorName":"TotalEnergies","maxPowerKw":14,"isMegawatt":false,"status":"AVAILABLE","source":"ndw"}},{"type":"Feature","geometry":{"type":"Point","coordinates":[5.827835,52.638851]},"properties":{"type":"charge","layer":"passenger","locationId":"f0351be6c1545cbb70eff40f0db1bf63","name":"E.P. Seidelstraat 4","address":"E.P. Seidelstraat 4","city":"Ens","operatorName":"Vattenfall InCharge","maxPowerKw":11,"isMegawatt":false,"status":"AVAILABLE","source":"ndw"}},{"type":"Feature","geometry":{"type":"Point","coordinates":[5.826874,52.636173]},"properties":{"type":"charge","layer":"passenger","locationId":"32d7e51f-aea2-442c-b926-e7834421e17b","name":"TNLP006378 - Baan 36, Ens","address":"36 Baan","city":"Ens","operatorName":"TotalEnergies","maxPowerKw":15,"isMegawatt":false,"status":"AVAILABLE","source":"ndw"}},{"type":"Feature","geometry":{"type":"Point","coordinates":[5.854129,52.73965]},"properties":{"type":"charge","layer":"passenger","locationId":"faa039eb-bc6e-4cec-835e-cadf1ec70ebd","name":"PP005152 - Rozenstraat 13, Luttelgeest","address":"13 Rozenstraat","city":"Luttelgeest","operatorName":"TotalEnergies","maxPowerKw":13,"isMegawatt":false,"status":"UNAVAILABLE","source":"ndw"}},{"type":"Feature","geometry":{"type":"Point","coordinates":[5.643681,52.72498]},"properties":{"type":"charge","layer":"passenger","locationId":"161be810-0e85-4fc7-9601-9af6305ce16e","name":"TNLP005801 - Bredehof 2, Espel","address":"2 Bredehof","city":"Espel","operatorName":"TotalEnergies","maxPowerKw":15,"isMegawatt":false,"status":"AVAILABLE","source":"ndw"}},{"type":"Feature","geometry":{"type":"Point","coordinates":[5.822976,52.638657]},"properties":{"type":"charge","layer":"passenger","locationId":"96615a6e-74b6-4975-828f-c4a28c79978a","name":"PP005178 - Het Noord 20, Ens","address":"20 Het Noord","city":"Ens","operatorName":"TotalEnergies","maxPowerKw":15,"isMegawatt":false,"status":"AVAILABLE","source":"ndw"}},{"type":"Feature","geometry":{"type":"Point","coordinates":[5.914456,52.664568]},"properties":{"type":"charge","layer":"passenger","locationId":"672237276c264f2c8bbce956","name":"Flevoland 62105 - Parkeerplaats Kantoor","address":"Kraggenburgerweg 21","city":"Kraggenburg","operatorName":"E-Flux by Road","maxPowerKw":22,"isMegawatt":false,"status":"AVAILABLE","source":"ndw","priceKwh":0.43}},{"type":"Feature","geometry":{"type":"Point","coordinates":[5.85991,52.71184]},"properties":{"type":"charge","layer":"passenger","locationId":"179c4ae2543b2acce5e9a0334829f9d9","name":"Westervoor 23","address":"Westervoor 23","city":"Marknesse","operatorName":"Vattenfall InCharge","maxPowerKw":11,"isMegawatt":false,"status":"AVAILABLE","source":"ndw"}},{"type":"Feature","geometry":{"type":"Point","coordinates":[5.725237,52.709557]},"properties":{"type":"charge","layer":"passenger","locationId":"37697f13-6577-4642-95a7-17e56733c231","name":"PP005655 - Texelstroom 43, Emmeloord","address":"43 Texelstroom","city":"Emmeloord","operatorName":"TotalEnergies","maxPowerKw":13,"isMegawatt":false,"status":"UNAVAILABLE","source":"ndw"}},{"type":"Feature","geometry":{"type":"Point","coordinates":[5.774412,52.714882]},"properties":{"type":"charge","layer":"passenger","locationId":"65e9fe3309a01b001c203504","name":"Heftruckcentrum Post bv","address":"Schelling  1","city":"Emmeloord","operatorName":"E-Flux by Road","maxPowerKw":19,"isMegawatt":false,"status":"AVAILABLE","source":"ndw","priceKwh":0.48}},{"type":"Feature","geometry":{"type":"Point","coordinates":[5.73868,52.725153]},"properties":{"type":"charge","layer":"passenger","locationId":"66d8085ff8e74c001c26b219","name":"W Meints's station","address":"theodoor karel van lohuizensingel 1","city":"Emmeloord","operatorName":"E-Flux by Road","maxPowerKw":11,"isMegawatt":false,"status":"AVAILABLE","source":"ndw","priceKwh":0.48}},{"type":"Feature","geometry":{"type":"Point","coordinates":[5.734347,52.719433]},"properties":{"type":"charge","layer":"passenger","locationId":"fda6e0ee-7570-427e-b7dc-6dd2400a9579","name":"TNLP015342 - Veluwelaan 45, Emmeloord","address":"45 Veluwelaan","city":"Emmeloord","operatorName":"TotalEnergies","maxPowerKw":13,"isMegawatt":false,"status":"UNAVAILABLE","source":"ndw"}},{"type":"Feature","geometry":{"type":"Point","coordinates":[5.645087,52.720166]},"properties":{"type":"charge","layer":"passenger","locationId":"C8051B23-4665-4D6C-A11D-C7F510E637AD","name":"Eneco eMobility Vaartweg 44 Espel","address":"Vaartweg 44","city":"Espel","operatorName":"Eneco","maxPowerKw":22,"isMegawatt":false,"status":"AVAILABLE","source":"ndw","priceKwh":0.5}},{"type":"Feature","geometry":{"type":"Point","coordinates":[5.7409,52.70407]},"properties":{"type":"charge","layer":"passenger","locationId":"b95cffba-6f09-4c98-8cd4-e4c101f3b577","name":"TNLP007808 - Pallasstraat 159, Emmeloord","address":"159 Pallasstraat","city":"Emmeloord","operatorName":"TotalEnergies","maxPowerKw":15,"isMegawatt":false,"status":"AVAILABLE","source":"ndw"}},{"type":"Feature","geometry":{"type":"Point","coordinates":[5.738003,52.71233]},"properties":{"type":"charge","layer":"passenger","locationId":"c3467ba5-3c3b-405a-b4eb-0a5059bbb533","name":"TNLP009689 - Deltastraat 104, Emmeloord","address":"104 Deltastraat","city":"Emmeloord","operatorName":"TotalEnergies","maxPowerKw":13,"isMegawatt":false,"status":"UNAVAILABLE","source":"ndw"}},{"type":"Feature","geometry":{"type":"Point","coordinates":[5.934481,52.730717]},"properties":{"type":"charge","layer":"passenger","locationId":"c0e2290999074f328fb9","name":"Markenesse - Groepsaccommodatie SuyderZee","address":"Uiterdijkenweg 58","city":"Markenesse","operatorName":"Opcharge","maxPowerKw":22,"isMegawatt":false,"status":"AVAILABLE","source":"ndw","priceKwh":0.49}},{"type":"Feature","geometry":{"type":"Point","coordinates":[5.754906,52.710321]},"properties":{"type":"charge","layer":"passenger","locationId":"62bb0e0bdf06422c6bfe0628","name":"Shell Lange Dreef - Van Staveren","address":"Lange Dreef 1","city":"Emmeloord","operatorName":"E-Flux by Road","maxPowerKw":22,"isMegawatt":false,"status":"AVAILABLE","source":"ndw","priceKwh":0.68}},{"type":"Feature","geometry":{"type":"Point","coordinates":[5.73557,52.71977]},"properties":{"type":"charge","layer":"passenger","locationId":"a38dce33-4eb4-44ab-beb9-fc5f196c53c6","name":"TNLP006182 - Hooglandpad 10, Emmeloord","address":"10 Hooglandpad","city":"Emmeloord","operatorName":"TotalEnergies","maxPowerKw":13,"isMegawatt":false,"status":"UNAVAILABLE","source":"ndw"}},{"type":"Feature","geometry":{"type":"Point","coordinates":[5.760178,52.709164]},"properties":{"type":"charge","layer":"passenger","locationId":"7b373529-4bdf-4023-aa8b-6452999edc69","name":"TNLP015070 - Koggestraat 6, Emmeloord","address":"6 Koggestraat","city":"Emmeloord","operatorName":"TotalEnergies","maxPowerKw":13,"isMegawatt":false,"status":"UNAVAILABLE","source":"ndw"}},{"type":"Feature","geometry":{"type":"Point","coordinates":[5.751993,52.708578]},"properties":{"type":"charge","layer":"passenger","locationId":"047b1f15a7f641e69c35","name":"Emmeloord - ZONL - Smeden","address":"Smeden","city":"Emmeloord","operatorName":"Opcharge","maxPowerKw":22,"isMegawatt":false,"status":"AVAILABLE","source":"ndw","priceKwh":0.49}},{"type":"Feature","geometry":{"type":"Point","coordinates":[5.750604,52.694308]},"properties":{"type":"charge","layer":"passenger","locationId":"6698e83836cf41001cc58865","name":"Profyto EM-LP3","address":"Reviseweg 3","city":"Emmeloord","operatorName":"E-Flux by Road","maxPowerKw":11,"isMegawatt":false,"status":"AVAILABLE","source":"ndw","priceKwh":0.43}},{"type":"Feature","geometry":{"type":"Point","coordinates":[5.734393,52.70125]},"properties":{"type":"charge","layer":"passenger","locationId":"8b4d4ef5-ad6b-4470-8c6f-25c5ed078e2c","name":"TNLP008755 - Nasakonstraat 2, Emmeloord","address":"2 Nasakonstraat","city":"Emmeloord","operatorName":"TotalEnergies","maxPowerKw":14,"isMegawatt":false,"status":"AVAILABLE","source":"ndw"}},{"type":"Feature","geometry":{"type":"Point","coordinates":[5.726462,52.7209]},"properties":{"type":"charge","layer":"passenger","locationId":"2b12b68ee5ea8feb310b9d7b174827af","name":"Beijerland 39","address":"Beijerland 39","city":"Emmeloord","operatorName":"Vattenfall InCharge","maxPowerKw":11,"isMegawatt":false,"status":"AVAILABLE","source":"ndw"}},{"type":"Feature","geometry":{"type":"Point","coordinates":[5.778389,52.711476]},"properties":{"type":"charge","layer":"passenger","locationId":"4242706","name":"Laadnet Nominé Vastgoed Emmeloord B.V.","address":"Duit 14","city":"Emmeloord","operatorName":"Laadnet","maxPowerKw":22,"isMegawatt":false,"status":"AVAILABLE","source":"ndw"}},{"type":"Feature","geometry":{"type":"Point","coordinates":[5.74921,52.76837]},"properties":{"type":"charge","layer":"passenger","locationId":"2cffc005-4d3a-492f-82dc-2aa758c8b682","name":"TNLP005800 - Het Midden 21, Bant","address":"21 Het Midden","city":"Bant","operatorName":"TotalEnergies","maxPowerKw":13,"isMegawatt":false,"status":"UNAVAILABLE","source":"ndw"}},{"type":"Feature","geometry":{"type":"Point","coordinates":[5.748658,52.706563]},"properties":{"type":"charge","layer":"passenger","locationId":"4320581","name":"Laadnet Kazerne Emmeloord","address":"Nijverheidstraat 34","city":"Emmeloord","operatorName":"Laadnet","maxPowerKw":22,"isMegawatt":false,"status":"AVAILABLE","source":"ndw"}},{"type":"Feature","geometry":{"type":"Point","coordinates":[5.729117,52.709328]},"properties":{"type":"charge","layer":"passenger","locationId":"c6372e04-3025-4e57-b92e-87da9486afd8","name":"PP005185 - Krammer 14, Emmeloord","address":"14 Krammer","city":"Emmeloord","operatorName":"TotalEnergies","maxPowerKw":15,"isMegawatt":false,"status":"AVAILABLE","source":"ndw"}},{"type":"Feature","geometry":{"type":"Point","coordinates":[5.863811,52.703905]},"properties":{"type":"charge","layer":"passenger","locationId":"abb0331f-6c57-4cab-b476-5abc5055d716","name":"TNLP034600","address":"Moerasstraat 17","city":"Marknesse","operatorName":"TotalEnergies","maxPowerKw":14,"isMegawatt":false,"status":"AVAILABLE","source":"ndw"}},{"type":"Feature","geometry":{"type":"Point","coordinates":[5.756077,52.70615]},"properties":{"type":"charge","layer":"passenger","locationId":"37034e90-b713-4ed0-998c-5e70d88f8263","name":"TNLP008752 - Andijkstraat 25, Emmeloord","address":"25 Andijkstraat","city":"Emmeloord","operatorName":"TotalEnergies","maxPowerKw":14,"isMegawatt":false,"status":"AVAILABLE","source":"ndw"}},{"type":"Feature","geometry":{"type":"Point","coordinates":[5.762169,52.70367]},"properties":{"type":"charge","layer":"passenger","locationId":"40f7864d-38f6-4fc9-8d97-69ac96dd3c53","name":"TNLP006342 - Sondelstraat 23, Emmeloord","address":"23 Sondelstraat","city":"Emmeloord","operatorName":"TotalEnergies","maxPowerKw":13,"isMegawatt":false,"status":"UNAVAILABLE","source":"ndw"}},{"type":"Feature","geometry":{"type":"Point","coordinates":[5.853323,52.741147]},"properties":{"type":"charge","layer":"passenger","locationId":"9a17d31d-1434-436d-83b9-04d63b2b965c","name":"TNLP034618","address":"Zonnebloemstraat 1","city":"Luttelgeest","operatorName":"TotalEnergies","maxPowerKw":14,"isMegawatt":false,"status":"AVAILABLE","source":"ndw"}},{"type":"Feature","geometry":{"type":"Point","coordinates":[5.69767,52.80473]},"properties":{"type":"charge","layer":"passenger","locationId":"57e786d7bf5fea2ba4c2e69ef0d1c05c","name":"Plaats 1","address":"Plaats 1","city":"Rutten","operatorName":"Vattenfall InCharge","maxPowerKw":11,"isMegawatt":false,"status":"AVAILABLE","source":"ndw"}},{"type":"Feature","geometry":{"type":"Point","coordinates":[5.736791,52.718735]},"properties":{"type":"charge","layer":"passenger","locationId":"142c120b-a4fe-4bb9-90e8-aca7db037b4a","name":"TNLP006982 - Dr. W.M. Verhaarlaan 113, Emmeloord","address":"113 Dr. W.M. Verhaarlaan","city":"Emmeloord","operatorName":"TotalEnergies","maxPowerKw":13,"isMegawatt":false,"status":"UNAVAILABLE","source":"ndw"}},{"type":"Feature","geometry":{"type":"Point","coordinates":[5.783704,52.710474]},"properties":{"type":"charge","layer":"passenger","locationId":"3290418","name":"Laadnet Tranemo Workwear Benelux","address":"Ecopark 45","city":"Emmeloord","operatorName":"Laadnet","maxPowerKw":22,"isMegawatt":false,"status":"AVAILABLE","source":"ndw"}},{"type":"Feature","geometry":{"type":"Point","coordinates":[5.728949,52.718136]},"properties":{"type":"charge","layer":"passenger","locationId":"846d924b-e623-480c-870b-6006836d4bf8","name":"TNLP006963 - Meijerij 9, Emmeloord","address":"9 Meijerij","city":"Emmeloord","operatorName":"TotalEnergies","maxPowerKw":15,"isMegawatt":false,"status":"AVAILABLE","source":"ndw"}},{"type":"Feature","geometry":{"type":"Point","coordinates":[5.659139,52.767736]},"properties":{"type":"charge","layer":"passenger","locationId":"62593c2945eecf54f173f0e3","name":"Ten Brinke bv laadstation nr 1","address":"Floraweg  1","city":"CREIL","operatorName":"E-Flux by Road","maxPowerKw":22,"isMegawatt":false,"status":"AVAILABLE","source":"ndw","priceKwh":0.53}},{"type":"Feature","geometry":{"type":"Point","coordinates":[5.669961,52.677547]},"properties":{"type":"charge","layer":"passenger","locationId":"92260388-b7ac-4193-abca-9c047015cd81","name":"TNLP009137 - Kampplaats 9, Tollebeek","address":"9 Kampplaats","city":"Tollebeek","operatorName":"TotalEnergies","maxPowerKw":15,"isMegawatt":false,"status":"AVAILABLE","source":"ndw"}},{"type":"Feature","geometry":{"type":"Point","coordinates":[5.89965,52.66349]},"properties":{"type":"charge","layer":"passenger","locationId":"d4b1b649-d0a0-44ae-8c4c-7ac8fb1d5786","name":"TNLP005906 - Dam 2, Kraggenburg","address":"2 Dam","city":"Kraggenburg","operatorName":"TotalEnergies","maxPowerKw":15,"isMegawatt":false,"status":"AVAILABLE","source":"ndw"}},{"type":"Feature","geometry":{"type":"Point","coordinates":[5.749484,52.717448]},"properties":{"type":"charge","layer":"passenger","locationId":"6924658972574f53983d5fa2","name":"Firda Emmeloord","address":"Espelerlaan 74","city":"Emmeloord","operatorName":"E-Flux by Road","maxPowerKw":11,"isMegawatt":false,"status":"AVAILABLE","source":"ndw","priceKwh":0.3}},{"type":"Feature","geometry":{"type":"Point","coordinates":[5.757234,52.714123]},"properties":{"type":"charge","layer":"passenger","locationId":"810d48fa-7296-4e1c-bdd0-d5fe0daa1cf7","name":"TNLP034256","address":"Van Diggelenstraat 66","city":"Emmeloord","operatorName":"TotalEnergies","maxPowerKw":14,"isMegawatt":false,"status":"AVAILABLE","source":"ndw"}},{"type":"Feature","geometry":{"type":"Point","coordinates":[5.749854,52.726818]},"properties":{"type":"charge","layer":"passenger","locationId":"ab046bc6-514b-4b76-a504-839a0b548854","name":"TNLP008175 - Jeanne d'Arclaan 19, Emmeloord","address":"19 Jeanne d'Arclaan","city":"Emmeloord","operatorName":"TotalEnergies","maxPowerKw":15,"isMegawatt":false,"status":"AVAILABLE","source":"ndw"}},{"type":"Feature","geometry":{"type":"Point","coordinates":[5.727507,52.64276]},"properties":{"type":"charge","layer":"passenger","locationId":"c9cc9fe5-da3c-49ed-b74c-c648eb4dddda","name":"TNLP008886 - Koolzaadhof 6, Nagele","address":"6 Koolzaadhof","city":"Nagele","operatorName":"TotalEnergies","maxPowerKw":13,"isMegawatt":false,"status":"UNAVAILABLE","source":"ndw"}},{"type":"Feature","geometry":{"type":"Point","coordinates":[5.919688,52.676757]},"properties":{"type":"charge","layer":"passenger","locationId":"89900665","name":"EQUANS Fletcher Fletcher Marknesse","address":"Voorsterweg 28","city":"Marknesse","operatorName":"EQUANS","maxPowerKw":22,"isMegawatt":false,"status":"AVAILABLE","source":"ndw"}},{"type":"Feature","geometry":{"type":"Point","coordinates":[5.774412,52.714882]},"properties":{"type":"charge","layer":"passenger","locationId":"65ea0430deddd2001b72e784","name":"Heftruckcentrum Post b.v","address":"Schelling  1","city":"1","operatorName":"E-Flux by Road","maxPowerKw":19,"isMegawatt":false,"status":"AVAILABLE","source":"ndw","priceKwh":0.48}},{"type":"Feature","geometry":{"type":"Point","coordinates":[5.727791,52.720734]},"properties":{"type":"charge","layer":"passenger","locationId":"1992a8f3-4c13-4c77-82bd-21948b7afc3b","name":"TNLP008113 - Haarlemmermeer 1, Emmeloord","address":"1 Haarlemmermeer","city":"Emmeloord","operatorName":"TotalEnergies","maxPowerKw":13,"isMegawatt":false,"status":"UNAVAILABLE","source":"ndw"}},{"type":"Feature","geometry":{"type":"Point","coordinates":[5.737332,52.728692]},"properties":{"type":"charge","layer":"passenger","locationId":"d7d510efc80bf0b83a4af58d0ffd1447","name":"Van der Molenhage 14","address":"Van der Molenhage 14","city":"Emmeloord","operatorName":"Vattenfall InCharge","maxPowerKw":11,"isMegawatt":false,"status":"AVAILABLE","source":"ndw"}},{"type":"Feature","geometry":{"type":"Point","coordinates":[5.738225,52.705578]},"properties":{"type":"charge","layer":"passenger","locationId":"326f61d3-7388-4fef-b487-a3b3a7d8335d","name":"PP005101 - Saturnusstraat 75, Emmeloord","address":"75 Saturnusstraat","city":"Emmeloord","operatorName":"TotalEnergies","maxPowerKw":13,"isMegawatt":false,"status":"UNAVAILABLE","source":"ndw"}},{"type":"Feature","geometry":{"type":"Point","coordinates":[5.75485,52.692707]},"properties":{"type":"charge","layer":"passenger","locationId":"3964758","name":"Laadnet Suplacon","address":"Assemblageweg 11","city":"Emmeloord","operatorName":"Laadnet","maxPowerKw":22,"isMegawatt":false,"status":"AVAILABLE","source":"ndw"}},{"type":"Feature","geometry":{"type":"Point","coordinates":[5.72377,52.64348]},"properties":{"type":"charge","layer":"passenger","locationId":"95ffc1db-5ae5-47e7-bbbb-f8d59a89dd1b","name":"TNLP006988 - Ring 98, Nagele","address":"98 Ring","city":"Nagele","operatorName":"TotalEnergies","maxPowerKw":15,"isMegawatt":false,"status":"AVAILABLE","source":"ndw"}},{"type":"Feature","geometry":{"type":"Point","coordinates":[5.75054,52.694289]},"properties":{"type":"charge","layer":"passenger","locationId":"6464bc21365e240012709969","name":"Profyto EM-LP2","address":"Revisieweg 3","city":"Emmeloord","operatorName":"E-Flux by Road","maxPowerKw":22,"isMegawatt":false,"status":"AVAILABLE","source":"ndw","priceKwh":0.43}},{"type":"Feature","geometry":{"type":"Point","coordinates":[5.741945,52.719236]},"properties":{"type":"charge","layer":"passenger","locationId":"d803bb98-5e0d-4877-8276-d08aada5e727","name":"TNLP034604","address":"Oostermoer 30","city":"Emmeloord","operatorName":"TotalEnergies","maxPowerKw":14,"isMegawatt":false,"status":"AVAILABLE","source":"ndw"}},{"type":"Feature","geometry":{"type":"Point","coordinates":[5.74873,52.77007]},"properties":{"type":"charge","layer":"passenger","locationId":"aa86bac2169da5b271ea28f526c1538f","name":"Noordakker 44","address":"Noordakker 44","city":"Bant","operatorName":"Vattenfall InCharge","maxPowerKw":11,"isMegawatt":false,"status":"AVAILABLE","source":"ndw"}},{"type":"Feature","geometry":{"type":"Point","coordinates":[5.743304,52.72647]},"properties":{"type":"charge","layer":"passenger","locationId":"d487889a-d8ed-4f57-a476-28b29de197c0","name":"PP005315 - Jeanne d'Arclaan 117, Emmeloord","address":"117 Jeanne d'Arclaan","city":"Emmeloord","operatorName":"TotalEnergies","maxPowerKw":13,"isMegawatt":false,"status":"UNAVAILABLE","source":"ndw"}},{"type":"Feature","geometry":{"type":"Point","coordinates":[5.747854,52.72974]},"properties":{"type":"charge","layer":"passenger","locationId":"1086763d-6f02-40d3-bec7-2355a85c2c23","name":"TNLP015351 - Niels Bohrhage 52 52, Emmeloord","address":"52 52 Niels Bohrhage","city":"Emmeloord","operatorName":"TotalEnergies","maxPowerKw":13,"isMegawatt":false,"status":"UNAVAILABLE","source":"ndw"}},{"type":"Feature","geometry":{"type":"Point","coordinates":[5.743362,52.71016]},"properties":{"type":"charge","layer":"passenger","locationId":"3c8d31d7-02f3-403a-b669-b2f914246175","name":"TNLP008421 - De Kaukasus 46, Emmeloord","address":"46 De Kaukasus","city":"Emmeloord","operatorName":"TotalEnergies","maxPowerKw":14,"isMegawatt":false,"status":"AVAILABLE","source":"ndw"}},{"type":"Feature","geometry":{"type":"Point","coordinates":[5.731393,52.712322]},"properties":{"type":"charge","layer":"passenger","locationId":"742160d5-07e5-4f38-a280-06d7d33512e5","name":"TNLP006336 - Waalstraat 48, Emmeloord","address":"48 Waalstraat","city":"Emmeloord","operatorName":"TotalEnergies","maxPowerKw":13,"isMegawatt":false,"status":"UNAVAILABLE","source":"ndw"}},{"type":"Feature","geometry":{"type":"Point","coordinates":[5.760256,52.701156]},"properties":{"type":"charge","layer":"passenger","locationId":"815","name":"Shell Recharge NL Naardenstraat 1","address":"Naardenstraat 1","city":"Emmeloord","operatorName":"Ubitricity","maxPowerKw":22,"isMegawatt":false,"status":"AVAILABLE","source":"ndw","priceKwh":0.266}},{"type":"Feature","geometry":{"type":"Point","coordinates":[5.865127,52.709812]},"properties":{"type":"charge","layer":"passenger","locationId":"4446122e-9bda-47c0-b32e-748412acd350","name":"TNLP009391 - Groene Zoom 36, Marknesse","address":"36 Groene Zoom","city":"Marknesse","operatorName":"TotalEnergies","maxPowerKw":15,"isMegawatt":false,"status":"AVAILABLE","source":"ndw"}},{"type":"Feature","geometry":{"type":"Point","coordinates":[5.751148,52.71292]},"properties":{"type":"charge","layer":"passenger","locationId":"a0b5c0e2-502d-41a1-b5bd-117e8957a39f","name":"TNLP006331 - Lijsterbesstraat 24, Emmeloord","address":"24 Lijsterbesstraat","city":"Emmeloord","operatorName":"TotalEnergies","maxPowerKw":13,"isMegawatt":false,"status":"UNAVAILABLE","source":"ndw"}},{"type":"Feature","geometry":{"type":"Point","coordinates":[5.72497,52.7104]},"properties":{"type":"charge","layer":"passenger","locationId":"318f2cf0-7042-430d-bbd4-d633a25af201","name":"TNLP015068 - Texelstroom 12, Emmeloord","address":"12 Texelstroom","city":"Emmeloord","operatorName":"TotalEnergies","maxPowerKw":13,"isMegawatt":false,"status":"UNAVAILABLE","source":"ndw"}},{"type":"Feature","geometry":{"type":"Point","coordinates":[5.732621,52.705215]},"properties":{"type":"charge","layer":"passenger","locationId":"ffaf3780-6759-4020-a0ce-f9ee08a1182f","name":"TNLP006984 - Oude Vlie 98, Emmeloord","address":"98 Oude Vlie","city":"Emmeloord","operatorName":"TotalEnergies","maxPowerKw":13,"isMegawatt":false,"status":"UNAVAILABLE","source":"ndw"}},{"type":"Feature","geometry":{"type":"Point","coordinates":[5.758344,52.709873]},"properties":{"type":"charge","layer":"passenger","locationId":"10f25d22-7ebb-414f-a9b9-4a30bdd433dc","name":"TNLP034162","address":"Cornelis Dirkszplein 41","city":"Emmeloord","operatorName":"TotalEnergies","maxPowerKw":14,"isMegawatt":false,"status":"AVAILABLE","source":"ndw"}},{"type":"Feature","geometry":{"type":"Point","coordinates":[5.698979,52.80583]},"properties":{"type":"charge","layer":"passenger","locationId":"12aaa99c47cd885fb8d2b13acf904e3a","name":"Buitenom 31","address":"Buitenom 31","city":"Rutten","operatorName":"Vattenfall InCharge","maxPowerKw":11,"isMegawatt":false,"status":"AVAILABLE","source":"ndw"}},{"type":"Feature","geometry":{"type":"Point","coordinates":[5.747707,52.712595]},"properties":{"type":"charge","layer":"passenger","locationId":"6d261e8d-ff3e-4c69-a68f-073ceb542ab0","name":"TNLP034140","address":"Duizendknoopstraat 50","city":"Emmeloord","operatorName":"TotalEnergies","maxPowerKw":14,"isMegawatt":false,"status":"AVAILABLE","source":"ndw"}},{"type":"Feature","geometry":{"type":"Point","coordinates":[5.729743,52.714485]},"properties":{"type":"charge","layer":"passenger","locationId":"5317b634-29f0-4f4c-9e56-d98372e11041","name":"TNLP006343 - Reggestraat 2, Emmeloord","address":"2 Reggestraat","city":"Emmeloord","operatorName":"TotalEnergies","maxPowerKw":15,"isMegawatt":false,"status":"AVAILABLE","source":"ndw"}},{"type":"Feature","geometry":{"type":"Point","coordinates":[5.746982,52.726643]},"properties":{"type":"charge","layer":"passenger","locationId":"2127a5d0-788f-40eb-a6c4-b53ab46ce1b8","name":"PP005183 - Jeanne d'Arclaan 55, Emmeloord","address":"55 Jeanne d'Arclaan","city":"Emmeloord","operatorName":"TotalEnergies","maxPowerKw":13,"isMegawatt":false,"status":"UNAVAILABLE","source":"ndw"}},{"type":"Feature","geometry":{"type":"Point","coordinates":[5.754879,52.710439]},"properties":{"type":"charge","layer":"passenger","locationId":"62bb0f3ff7604f4d23e6fa28","name":"Shell Lange Dreef - Van Staveren","address":"Lange Dreef 1","city":"Emmeloord","operatorName":"E-Flux by Road","maxPowerKw":22,"isMegawatt":false,"status":"AVAILABLE","source":"ndw","priceKwh":0.68}},{"type":"Feature","geometry":{"type":"Point","coordinates":[5.729151,52.71157]},"properties":{"type":"charge","layer":"passenger","locationId":"da2d6a7c-b40b-43d4-a458-0a09fd97b492","name":"TNLP015076 - Merwede 16, Emmeloord","address":"16 Merwede","city":"Emmeloord","operatorName":"TotalEnergies","maxPowerKw":13,"isMegawatt":false,"status":"UNAVAILABLE","source":"ndw"}},{"type":"Feature","geometry":{"type":"Point","coordinates":[5.732633,52.713318]},"properties":{"type":"charge","layer":"passenger","locationId":"8cf03e48-da6e-4340-a433-be3bb1a5f769","name":"TNLP009202 - Atlantischestraat 18, Emmeloord","address":"18 Atlantischestraat","city":"Emmeloord","operatorName":"TotalEnergies","maxPowerKw":13,"isMegawatt":false,"status":"UNAVAILABLE","source":"ndw"}},{"type":"Feature","geometry":{"type":"Point","coordinates":[5.752772,52.703644]},"properties":{"type":"charge","layer":"passenger","locationId":"65b8ebf531ec41001c80529e","name":"Blade Havenstraat","address":"Havenstraat 21","city":"Emmeloord","operatorName":"E-Flux by Road","maxPowerKw":11,"isMegawatt":false,"status":"AVAILABLE","source":"ndw","priceKwh":0.31}},{"type":"Feature","geometry":{"type":"Point","coordinates":[5.739438,52.726249]},"properties":{"type":"charge","layer":"passenger","locationId":"d6d70f5a02b388af40773459ba96089c","name":"Gerrit van der Heidehage 3","address":"Gerrit van der Heidehage 3","city":"Emmeloord","operatorName":"Vattenfall InCharge","maxPowerKw":11,"isMegawatt":false,"status":"AVAILABLE","source":"ndw"}},{"type":"Feature","geometry":{"type":"Point","coordinates":[5.678512,52.679919]},"properties":{"type":"charge","layer":"passenger","locationId":"b8345597bac815037f5868a353db901e","name":"Hofjager 11","address":"Hofjager 11","city":"Tollebeek","operatorName":"Vattenfall InCharge","maxPowerKw":11,"isMegawatt":false,"status":"AVAILABLE","source":"ndw"}},{"type":"Feature","geometry":{"type":"Point","coordinates":[5.85316,52.70529]},"properties":{"type":"charge","layer":"passenger","locationId":"be4ea450858c93cb2bbb23bc241d57cf","name":"Gentiaan 12","address":"Gentiaan 12","city":"Marknesse","operatorName":"Vattenfall InCharge","maxPowerKw":11,"isMegawatt":false,"status":"CHARGING","source":"ndw"}},{"type":"Feature","geometry":{"type":"Point","coordinates":[5.755247,52.765452]},"properties":{"type":"charge","layer":"passenger","locationId":"64478778f1bed2001247dd17","name":"Bliksem Laadstation","address":"Oosterringweg 68","city":"Bant","operatorName":"E-Flux by Road","maxPowerKw":240,"isMegawatt":false,"status":"AVAILABLE","source":"ndw","priceKwh":0.46}},{"type":"Feature","geometry":{"type":"Point","coordinates":[5.764,52.70538]},"properties":{"type":"charge","layer":"passenger","locationId":"0537c7e37f9789152eb6516e5fb10ab9","name":"IJsselmeerlaan 185","address":"IJsselmeerlaan 185","city":"Emmeloord","operatorName":"Vattenfall InCharge","maxPowerKw":11,"isMegawatt":false,"status":"AVAILABLE","source":"ndw"}},{"type":"Feature","geometry":{"type":"Point","coordinates":[5.68918,52.66085]},"properties":{"type":"charge","layer":"freight","locationId":"50464","name":"Fastned Han Stijkel","address":"Han Stijkel A6","city":"Nagele","operatorName":"Fastned","maxPowerKw":400,"isMegawatt":false,"status":"AVAILABLE","source":"ndw","priceKwh":0.6364,"freightKind":"hpc","freightReason":"power"}},{"type":"Feature","geometry":{"type":"Point","coordinates":[5.759275,52.78436]},"properties":{"type":"charge","layer":"freight","locationId":"31145","name":"Fastned Wellerzand","address":"Wellerzand A6","city":"Bant","operatorName":"Fastned","maxPowerKw":400,"isMegawatt":false,"status":"AVAILABLE","source":"ndw","priceKwh":0.6364,"freightKind":"hpc","freightReason":"power"}},{"type":"Feature","geometry":{"type":"Point","coordinates":[5.74235,52.818501]},"properties":{"type":"charge","layer":"freight","locationId":"31219","name":"Fastned Lemsterhop","address":"Lemsterhop A6","city":"Rutten","operatorName":"Fastned","maxPowerKw":400,"isMegawatt":false,"status":"AVAILABLE","source":"ndw","priceKwh":0.6364,"freightKind":"hpc","freightReason":"power"}},{"type":"Feature","geometry":{"type":"MultiPolygon","coordinates":[[[[5.843010284635768,52.61075057893892],[5.864965213077127,52.615615410255],[5.867834904094372,52.6160699267714],[5.869965357252081,52.61562429886953],[5.870433043410373,52.616421379429426],[5.886482709166121,52.61983973609856],[5.88790908354676,52.62037130734907],[5.892889937521583,52.61968974387242],[5.893979350741152,52.618504804531774],[5.8963000214558745,52.61797460749212],[5.888086045574046,52.61686284170869],[5.843010284635768,52.61075057893892]]],[[[6.003913376085744,52.64353887176809],[5.999269568584293,52.6457012570715],[5.999152338269278,52.64777282637655],[6.002669691368864,52.648711626707154],[6.007987906564013,52.647970158314514],[6.012316762890987,52.646555893932835],[6.013874469523464,52.645685566525415],[6.010563857027036,52.64244015781465],[6.008764927745179,52.642274479028586],[6.003913376085744,52.64353887176809]]],[[[5.787376440938092,52.80896935439919],[5.789807612116147,52.80369180900809],[5.7951779748440355,52.80652216357268],[5.803475323616073,52.79685898638535],[5.8127263678473815,52.79118666480671],[5.81865736185522,52.787635964044526],[5.81879262610316,52.78469686665616],[5.8281473668277215,52.78554555342984],[5.8360551411589405,52.78563530335277],[5.837311402879043,52.785024092272],[5.8416192437105945,52.78513858262481],[5.843390759197985,52.78446381821401],[5.850297296841418,52.784530999423914],[5.862084077219453,52.78102274328877],[5.879939288214304,52.773091749150424],[5.885137308760179,52.769301036900764],[5.892551099056486,52.76595989213154],[5.894383588225555,52.76513390118101],[5.896086186527629,52.762822215591214],[5.8977626396547675,52.76213507205382],[5.900054902273369,52.7611954611106],[5.906010233348628,52.761325786348905],[5.921830342269252,52.75116997907598],[5.930151467013704,52.73958643242578],[5.9355604213486135,52.730252043732534],[5.94117084263705,52.71755097827726],[5.941886316725408,52.71594936331611],[5.942556137097061,52.71500233059238],[5.951162507305849,52.711919572428016],[5.952092881558459,52.71087657338843],[5.95531667708957,52.707262124335905],[5.954840193878023,52.7037679677289],[5.959012855891362,52.70386377533281],[5.964826243802291,52.69810476922117],[5.965156666254969,52.69357005278782],[5.962106052389956,52.69035098889481],[5.959401404791061,52.689950619397216],[5.952741557179863,52.685240305060844],[5.951510084256007,52.68495218299622],[5.9495203881891765,52.68571373932621],[5.946849162900491,52.68400304265421],[5.94470885643311,52.6827128372099],[5.945378262871438,52.68230168124117],[5.940161850100538,52.679223452006994],[5.93387162960321,52.675510677242464],[5.932751933941659,52.67318913041378],[5.933085370579875,52.67126371551407],[5.9345948292647295,52.6697818108257],[5.935149217870707,52.66923399651229],[5.939727232638657,52.66883544497538],[5.940102491069888,52.670426770181315],[5.941594876251098,52.670516884223744],[5.954018686155441,52.66767426437577],[5.95817386449606,52.667809685652855],[5.961796309594967,52.66729669738441],[5.96305564583147,52.66639851903808],[5.9649697328092035,52.6661545775928],[5.966853013738493,52.666580393141096],[5.970815344222739,52.66518902186373],[5.974668613783446,52.66271410501001],[5.979547762177914,52.66049575348272],[5.982653160616871,52.65794391541507],[5.981865802630094,52.65831424050568],[5.981239405815181,52.658091606102964],[5.983829351249908,52.65632602704284],[5.983738059337977,52.65560810687858],[5.968257069503872,52.64122130205594],[5.9637327565173965,52.6387402418447],[5.884885901295322,52.62280409143508],[5.8317875576699025,52.6125388011174],[5.7715637094973316,52.61276177219078],[5.750120694348428,52.61280803113347],[5.748595385855708,52.61226417799792],[5.745705916946758,52.612344309135196],[5.745765557965382,52.61122842368875],[5.749890137026109,52.61113075147685],[5.750201582248033,52.61074444069204],[5.745436316431822,52.61083286078399],[5.743303366323722,52.612410262095956],[5.7415990154279255,52.61211873557157],[5.73990827969562,52.61284666252979],[5.663327526564694,52.61304608405597],[5.658304006056418,52.6137204035614],[5.653562310317705,52.61546007825074],[5.651210509978936,52.614766508587195],[5.650038280067937,52.61559391502993],[5.6516458305001995,52.61697348907465],[5.629892402275229,52.63771675583927],[5.630443836590485,52.638402800864895],[5.6411020263256395,52.64254777864014],[5.636279924313008,52.647219676310556],[5.636132191081871,52.64961182406028],[5.648866700536067,52.64955091005975],[5.650016571957805,52.6543108048746],[5.642832573224403,52.66055109248486],[5.6553805522898815,52.665950374446],[5.641589937837176,52.678014752723165],[5.643718203150466,52.682614379625754],[5.6258042852748025,52.68260674725657],[5.6126247410621595,52.681345931655855],[5.609530101488371,52.680420092908435],[5.606930628905352,52.68241643859928],[5.604311638425822,52.682310066149974],[5.604311250877701,52.68323686464255],[5.594552055095608,52.68329991542994],[5.594313256178982,52.67627446159449],[5.5933210224447905,52.67628052199948],[5.593847882781646,52.70218256487006],[5.594878909862215,52.74800068003455],[5.595172901538701,52.76262603769782],[5.59658378259057,52.76605833736457],[5.633593685593979,52.802222476222255],[5.659722019575419,52.8276686235066],[5.663405816181137,52.83008710121739],[5.669587883641572,52.8317343000422],[5.709815772221746,52.83466487756623],[5.712029357481831,52.8356941889001],[5.713082180328173,52.83802768780208],[5.722699921539784,52.836075073309324],[5.728664311746872,52.83339844338408],[5.729574869293127,52.83372698909852],[5.727248153763831,52.8369166321707],[5.724824725917864,52.84362374253412],[5.724682830981626,52.843982677243154],[5.74571982999059,52.8402366492978],[5.7488082744242535,52.83968000184113],[5.784383102659829,52.81747611070471],[5.787376440938092,52.80896935439919]]]]},"properties":{"type":"boundary","gemeente":"Noordoostpolder","code":"GM0171"}}]}