{"type":"FeatureCollection","metadata":{"gemeente":"Noordwijk","slug":"noordwijk","code":"GM0575","generated_at":"2026-07-06T16:26:11.361Z","total_passenger":121,"total_freight":0,"bounds":[4.405463422371724,52.207356066080756,4.563707232373594,52.32819809812323],"operators":["Allego","E-Flux by Road","EQUANS","Eneco","Laadnet","PureCharged","Stellapower.eu","Vattenfall InCharge"]},"features":[{"type":"Feature","geometry":{"type":"Point","coordinates":[4.543822,52.301221]},"properties":{"type":"charge","layer":"passenger","locationId":"NLLOC006896","name":"NL, Beukenlaan 9, 2191 BL, De Zilk","address":"Beukenlaan 9","city":"De Zilk","operatorName":"Allego","maxPowerKw":11,"isMegawatt":false,"status":"AVAILABLE","source":"ndw","priceKwh":0.511}},{"type":"Feature","geometry":{"type":"Point","coordinates":[4.448239,52.227287]},"properties":{"type":"charge","layer":"passenger","locationId":"NLLOC004542","name":"NLD Schiewei 10, 2203 ZG Noordwijk","address":"Schiewei 10","city":"Noordwijk","operatorName":"Allego","maxPowerKw":11,"isMegawatt":false,"status":"CHARGING","source":"ndw","priceKwh":0.511}},{"type":"Feature","geometry":{"type":"Point","coordinates":[4.450029,52.242614]},"properties":{"type":"charge","layer":"passenger","locationId":"NLLOC006948","name":"NL, Abraham Rademakersstraat 15, 2203 GR, Noordwijk","address":"Abraham Rademakersstraat 15","city":"Noordwijk","operatorName":"Allego","maxPowerKw":11,"isMegawatt":false,"status":"AVAILABLE","source":"ndw","priceKwh":0.511}},{"type":"Feature","geometry":{"type":"Point","coordinates":[4.43985,52.2303]},"properties":{"type":"charge","layer":"passenger","locationId":"NL000157","name":"Bonnikeplein 12 Noordwijk","address":"Bonnikeplein 12","city":"Noordwijk","operatorName":"","maxPowerKw":17,"isMegawatt":false,"status":"AVAILABLE","source":"ndw","priceKwh":0.471}},{"type":"Feature","geometry":{"type":"Point","coordinates":[4.43939,52.250412]},"properties":{"type":"charge","layer":"passenger","locationId":"NLCCH00863","name":"Noordwijk - Golfbaan 58 (1)","address":"Golfbaan 58","city":"Noordwijk","operatorName":"","maxPowerKw":11,"isMegawatt":false,"status":"AVAILABLE","source":"ndw","priceKwh":0.5549}},{"type":"Feature","geometry":{"type":"Point","coordinates":[4.440755,52.240654]},"properties":{"type":"charge","layer":"passenger","locationId":"NLCCH00275","name":"Noordwijk - Jan Lutgensstraat 1","address":"Jan Lutgensstraat 1","city":"Noordwijk","operatorName":"","maxPowerKw":11,"isMegawatt":false,"status":"AVAILABLE","source":"ndw","priceKwh":0.5549}},{"type":"Feature","geometry":{"type":"Point","coordinates":[4.457203,52.240385]},"properties":{"type":"charge","layer":"passenger","locationId":"NLLOC005631","name":"NLD Symon Meeszstraat 28, 2203 BM Noordwijk","address":"Symon Meeszstraat 28","city":"Noordwijk","operatorName":"Allego","maxPowerKw":11,"isMegawatt":false,"status":"AVAILABLE","source":"ndw","priceKwh":0.511}},{"type":"Feature","geometry":{"type":"Point","coordinates":[4.441952,52.236799]},"properties":{"type":"charge","layer":"passenger","locationId":"NLLOC002756","name":"NLD, Jozef Beugelsdijkstraat 19, 2201 LL Noordwijk","address":"Jozef Beugelsdijkstraat 19","city":"Noordwijk","operatorName":"Allego","maxPowerKw":11,"isMegawatt":false,"status":"CHARGING","source":"ndw","priceKwh":0.511}},{"type":"Feature","geometry":{"type":"Point","coordinates":[4.434969,52.248738]},"properties":{"type":"charge","layer":"passenger","locationId":"NLCCH00570","name":"Noordwijk - Vuurtorenplein 1 (2)","address":"Vuurtorenplein 1 (2)","city":"Noordwijk","operatorName":"","maxPowerKw":11,"isMegawatt":false,"status":"AVAILABLE","source":"ndw","priceKwh":0.5549}},{"type":"Feature","geometry":{"type":"Point","coordinates":[4.436649,52.228452]},"properties":{"type":"charge","layer":"passenger","locationId":"NLLOC012761","name":"NL, Branding 4, 2201 WV Noordwijk","address":"Branding 4","city":"Noordwijk","operatorName":"Allego","maxPowerKw":11,"isMegawatt":false,"status":"AVAILABLE","source":"ndw","priceKwh":0.511}},{"type":"Feature","geometry":{"type":"Point","coordinates":[4.444779,52.238845]},"properties":{"type":"charge","layer":"passenger","locationId":"NLLOC002614","name":"NLD, Haagwinde 21, 2201SV Noordwijk","address":"Haagwinde 21","city":"Noordwijk","operatorName":"Allego","maxPowerKw":11,"isMegawatt":false,"status":"AVAILABLE","source":"ndw","priceKwh":0.511}},{"type":"Feature","geometry":{"type":"Point","coordinates":[4.43505,52.248718]},"properties":{"type":"charge","layer":"passenger","locationId":"NLCCH00572","name":"Noordwijk - Vuurtorenplein 1 (1)","address":"Vuurtorenplein 1 (1)","city":"Noordwijk","operatorName":"","maxPowerKw":11,"isMegawatt":false,"status":"AVAILABLE","source":"ndw","priceKwh":0.5549}},{"type":"Feature","geometry":{"type":"Point","coordinates":[4.515643,52.281536]},"properties":{"type":"charge","layer":"passenger","locationId":"67f7f72210618edf771288bd","name":"Formule 2 Noordwijkerhout","address":"provincionaleweg 30","city":"Noordwijkerhout","operatorName":"E-Flux by Road","maxPowerKw":270,"isMegawatt":false,"status":"AVAILABLE","source":"ndw","priceKwh":0.73}},{"type":"Feature","geometry":{"type":"Point","coordinates":[4.503967,52.262935]},"properties":{"type":"charge","layer":"passenger","locationId":"NLCCH00622","name":"Noordwijk - Noordwijkerhout - Livius t.h.v. Vergilius 33 (1)","address":"Vergilius 33","city":"Noordwijk","operatorName":"","maxPowerKw":11,"isMegawatt":false,"status":"AVAILABLE","source":"ndw","priceKwh":0.5549}},{"type":"Feature","geometry":{"type":"Point","coordinates":[4.463411,52.283953]},"properties":{"type":"charge","layer":"passenger","locationId":"3967047","name":"Laadnet Pack Company International","address":"Duindamseslag 7","city":"Noordwijk","operatorName":"Laadnet","maxPowerKw":22,"isMegawatt":false,"status":"AVAILABLE","source":"ndw"}},{"type":"Feature","geometry":{"type":"Point","coordinates":[4.498295,52.257738]},"properties":{"type":"charge","layer":"passenger","locationId":"aad1a204-8da8-4ad9-a6ba-6f86f0101b66","name":"Wildlaan","address":"Wildlaan 26","city":"Noordwijkerhout","operatorName":"Vattenfall InCharge","maxPowerKw":11,"isMegawatt":false,"status":"AVAILABLE","source":"ndw"}},{"type":"Feature","geometry":{"type":"Point","coordinates":[4.456064,52.235513]},"properties":{"type":"charge","layer":"passenger","locationId":"1CD09990-0B97-4B9F-814D-FF50A9BE7A02","name":"Eneco eMobility EVB-P1328148","address":"Ambachtsgeest 26","city":"Noordwijk","operatorName":"Eneco","maxPowerKw":22,"isMegawatt":false,"status":"AVAILABLE","source":"ndw"}},{"type":"Feature","geometry":{"type":"Point","coordinates":[4.465684,52.269031]},"properties":{"type":"charge","layer":"passenger","locationId":"88987990","name":"EQUANS Fletcher Fletcher Hotel-Restaurant De Witte Raaf","address":"Duinweg 117","city":"Noordwijk","operatorName":"EQUANS","maxPowerKw":11,"isMegawatt":false,"status":"AVAILABLE","source":"ndw"}},{"type":"Feature","geometry":{"type":"Point","coordinates":[4.540419,52.302468]},"properties":{"type":"charge","layer":"passenger","locationId":"NLLOC014333","name":"NL, Hafkenscheidtlaan 48, 2191BR, De Zilk","address":"Hafkenscheidtlaan 48","city":"De Zilk","operatorName":"Allego","maxPowerKw":11,"isMegawatt":false,"status":"AVAILABLE","source":"ndw","priceKwh":0.511}},{"type":"Feature","geometry":{"type":"Point","coordinates":[4.444983,52.221793]},"properties":{"type":"charge","layer":"passenger","locationId":"3117728","name":"Laadnet PD Vastgoed en Ontwikkeling BV","address":"Achterweg 14","city":"Noordwijk","operatorName":"Laadnet","maxPowerKw":22,"isMegawatt":false,"status":"AVAILABLE","source":"ndw"}},{"type":"Feature","geometry":{"type":"Point","coordinates":[4.490203,52.260964]},"properties":{"type":"charge","layer":"passenger","locationId":"3d4d5ae7-3281-4c7b-b133-7419db446ab4","name":"Dorpstraat","address":"Dorpstraat 53","city":"Noordwijkerhout","operatorName":"Vattenfall InCharge","maxPowerKw":11,"isMegawatt":false,"status":"UNAVAILABLE","source":"ndw"}},{"type":"Feature","geometry":{"type":"Point","coordinates":[4.489028,52.262869]},"properties":{"type":"charge","layer":"passenger","locationId":"6a3e5be9784ac485edfdf380","name":"Zeestraat 57/Noordwijkerhout","address":"Zeestraat 57","city":"Noordwijkerhout","operatorName":"E-Flux by Road","maxPowerKw":14,"isMegawatt":false,"status":"AVAILABLE","source":"ndw","priceKwh":0.5217}},{"type":"Feature","geometry":{"type":"Point","coordinates":[4.424198,52.234952]},"properties":{"type":"charge","layer":"passenger","locationId":"3966670","name":"Laadnet Beethovenweg","address":"Beethovenweg 6","city":"Noordwijk","operatorName":"Laadnet","maxPowerKw":11,"isMegawatt":false,"status":"AVAILABLE","source":"ndw"}},{"type":"Feature","geometry":{"type":"Point","coordinates":[4.49385,52.25349]},"properties":{"type":"charge","layer":"passenger","locationId":"NL000150","name":"Gentiaan 8 Noordwijk","address":"Gentiaan 30","city":"Noordwijk","operatorName":"Stellapower.eu","maxPowerKw":17,"isMegawatt":false,"status":"AVAILABLE","source":"ndw","priceKwh":0.471}},{"type":"Feature","geometry":{"type":"Point","coordinates":[4.451388,52.246416]},"properties":{"type":"charge","layer":"passenger","locationId":"NLLOC022090","name":"NL, Dreefkant 27, 2203 NX Noordwijk","address":"Dreefkant 27","city":"Noordwijk","operatorName":"Allego","maxPowerKw":11,"isMegawatt":false,"status":"AVAILABLE","source":"ndw","priceKwh":0.511}},{"type":"Feature","geometry":{"type":"Point","coordinates":[4.419764,52.217054]},"properties":{"type":"charge","layer":"passenger","locationId":"59955794","name":"EQUANS ESA Estec","address":"Keplerlaan 1","city":"Noordwijk","operatorName":"EQUANS","maxPowerKw":22,"isMegawatt":false,"status":"AVAILABLE","source":"ndw"}},{"type":"Feature","geometry":{"type":"Point","coordinates":[4.449477,52.244439]},"properties":{"type":"charge","layer":"passenger","locationId":"NLLOC004434","name":"NLD Zonnekant 11, 2203 NA Noordwijk","address":"Zonnekant 11","city":"Noordwijk","operatorName":"Allego","maxPowerKw":11,"isMegawatt":false,"status":"AVAILABLE","source":"ndw","priceKwh":0.511}},{"type":"Feature","geometry":{"type":"Point","coordinates":[4.473048,52.273715]},"properties":{"type":"charge","layer":"passenger","locationId":"68811a8dee875c065901861f","name":"Vrede's Vreugde BV (Tulp & Zee)","address":"Tulp en Zee 1","city":"Noordwijk","operatorName":"PureCharged","maxPowerKw":11,"isMegawatt":false,"status":"UNAVAILABLE","source":"ndw","priceKwh":0.53}},{"type":"Feature","geometry":{"type":"Point","coordinates":[4.527781,52.290414]},"properties":{"type":"charge","layer":"passenger","locationId":"4174791","name":"Laadnet Twinpack","address":"Delfweg 2","city":"Noordwijkerhout","operatorName":"Laadnet","maxPowerKw":22,"isMegawatt":false,"status":"AVAILABLE","source":"ndw"}},{"type":"Feature","geometry":{"type":"Point","coordinates":[4.451522,52.235505]},"properties":{"type":"charge","layer":"passenger","locationId":"NLLOC002882","name":"NLD, Gooweg 13, 2201 AX Noordwijk","address":"Gooweg 13","city":"Noordwijk","operatorName":"Allego","maxPowerKw":11,"isMegawatt":false,"status":"CHARGING","source":"ndw","priceKwh":0.511}},{"type":"Feature","geometry":{"type":"Point","coordinates":[4.437009,52.247141]},"properties":{"type":"charge","layer":"passenger","locationId":"NLLOC012551","name":"NL, Quarles van Uffordstraat 83, 2202 NE Noordwijk","address":"Quarles van Uffordstraat 83","city":"Noordwijk","operatorName":"Allego","maxPowerKw":11,"isMegawatt":false,"status":"AVAILABLE","source":"ndw","priceKwh":0.511}},{"type":"Feature","geometry":{"type":"Point","coordinates":[4.442838,52.232475]},"properties":{"type":"charge","layer":"passenger","locationId":"NLLOC003736","name":"NLD Losplaatsweg 34, 2201 DB Noordwijk","address":"Losplaatsweg 34","city":"Noordwijk","operatorName":"Allego","maxPowerKw":11,"isMegawatt":false,"status":"CHARGING","source":"ndw","priceKwh":0.511}},{"type":"Feature","geometry":{"type":"Point","coordinates":[4.457404,52.232429]},"properties":{"type":"charge","layer":"passenger","locationId":"NLLOC002886","name":"NLD, Gerrit Heeringastraat 2, 2201 DL, Noordwijk","address":"Gerrit Heeringastraat 2","city":"Noordwijk","operatorName":"Allego","maxPowerKw":11,"isMegawatt":false,"status":"AVAILABLE","source":"ndw","priceKwh":0.511}},{"type":"Feature","geometry":{"type":"Point","coordinates":[4.458781,52.242074]},"properties":{"type":"charge","layer":"passenger","locationId":"NLLOC019754","name":"NL, Jacoba van Beierenlaan 24, 2203 BX Noordwijk","address":"Jacoba van Beierenlaan 24","city":"Noordwijk","operatorName":"Allego","maxPowerKw":11,"isMegawatt":false,"status":"AVAILABLE","source":"ndw","priceKwh":0.511}},{"type":"Feature","geometry":{"type":"Point","coordinates":[4.435926,52.213133]},"properties":{"type":"charge","layer":"passenger","locationId":"67a235f7012c7670de48b080","name":"Hoogervorst Elektro","address":"Keyserswey 52","city":"Noordwijk","operatorName":"E-Flux by Road","maxPowerKw":22,"isMegawatt":false,"status":"AVAILABLE","source":"ndw","priceKwh":0.43}},{"type":"Feature","geometry":{"type":"Point","coordinates":[4.502706,52.264492]},"properties":{"type":"charge","layer":"passenger","locationId":"NLLOC006895","name":"NL, Vergilius 17, 2211 ZM, Noordwijkerhout","address":"Vergilius 17","city":"Noordwijkerhout","operatorName":"Allego","maxPowerKw":11,"isMegawatt":false,"status":"AVAILABLE","source":"ndw","priceKwh":0.511}},{"type":"Feature","geometry":{"type":"Point","coordinates":[4.457993,52.235431]},"properties":{"type":"charge","layer":"passenger","locationId":"NLLOC016300","name":"NL, Overbeek 35, 2201 GP Noordwijk","address":"Overbeek 35","city":"Noordwijk","operatorName":"Allego","maxPowerKw":11,"isMegawatt":false,"status":"CHARGING","source":"ndw","priceKwh":0.511}},{"type":"Feature","geometry":{"type":"Point","coordinates":[4.463564,52.248915]},"properties":{"type":"charge","layer":"passenger","locationId":"68ac6327c9eb8bd392186576","name":"Camping op Hoop van Zegen","address":"Westeinde 76","city":"Noordwijkerhout","operatorName":"PureCharged","maxPowerKw":22,"isMegawatt":false,"status":"AVAILABLE","source":"ndw","priceKwh":0.53}},{"type":"Feature","geometry":{"type":"Point","coordinates":[4.440767,52.240667]},"properties":{"type":"charge","layer":"passenger","locationId":"NLLOC015609","name":"NL, Jan Lutgensstraat 1, 2202DZ, Noordwijk","address":"Jan Lutgensstraat 1","city":"Noordwijk","operatorName":"Allego","maxPowerKw":11,"isMegawatt":false,"status":"CHARGING","source":"ndw","priceKwh":0.511}},{"type":"Feature","geometry":{"type":"Point","coordinates":[4.466824,52.266553]},"properties":{"type":"charge","layer":"passenger","locationId":"63ca48669826960012d15255","name":"Duinweg 102","address":"Duinweg 102","city":"Noordwijk","operatorName":"E-Flux by Road","maxPowerKw":22,"isMegawatt":false,"status":"CHARGING","source":"ndw","priceKwh":0.48}},{"type":"Feature","geometry":{"type":"Point","coordinates":[4.43196,52.2417]},"properties":{"type":"charge","layer":"passenger","locationId":"5A23C146-406C-43CA-8CBD-D15E9C0E4F00","name":"Eneco eMobility Van der Valk Noordwijk","address":"Pickeplein 8","city":"Noordwijk","operatorName":"Eneco","maxPowerKw":22,"isMegawatt":false,"status":"AVAILABLE","source":"ndw","priceKwh":0.49}},{"type":"Feature","geometry":{"type":"Point","coordinates":[4.441174,52.232031]},"properties":{"type":"charge","layer":"passenger","locationId":"NLLOC018046","name":"NL, Doctor Hadriaan van Neslaan 104, 2201 GG Noordwijk","address":"Doctor Hadriaan van Neslaan 104","city":"Noordwijk","operatorName":"Allego","maxPowerKw":11,"isMegawatt":false,"status":"AVAILABLE","source":"ndw","priceKwh":0.511}},{"type":"Feature","geometry":{"type":"Point","coordinates":[4.444547,52.234839]},"properties":{"type":"charge","layer":"passenger","locationId":"NLLOC002617","name":"NLD, Kloosterplein 126, 2201KG Noordwijk","address":"Kloosterplein 126","city":"Noordwijk","operatorName":"Allego","maxPowerKw":11,"isMegawatt":false,"status":"AVAILABLE","source":"ndw","priceKwh":0.511}},{"type":"Feature","geometry":{"type":"Point","coordinates":[4.488245,52.257922]},"properties":{"type":"charge","layer":"passenger","locationId":"NLLOC006995","name":"NL, Van der Weijdenlaan 14, 2211 JL, Noordwijkerhout","address":"Van der Weijdenlaan 14","city":"Noordwijkerhout","operatorName":"Allego","maxPowerKw":11,"isMegawatt":false,"status":"AVAILABLE","source":"ndw","priceKwh":0.511}},{"type":"Feature","geometry":{"type":"Point","coordinates":[4.455567,52.241718]},"properties":{"type":"charge","layer":"passenger","locationId":"NLLOC003557","name":"NLD, Sondauwhof 1A, 2203 EJ Noordwijk","address":"Sondauwhof 1A","city":"Noordwijk","operatorName":"Allego","maxPowerKw":11,"isMegawatt":false,"status":"AVAILABLE","source":"ndw","priceKwh":0.511}},{"type":"Feature","geometry":{"type":"Point","coordinates":[4.486085,52.259631]},"properties":{"type":"charge","layer":"passenger","locationId":"NLLOC007321","name":"NL, De Duinsloot 47, 2211 DP, Noordwijkerhout","address":"De Duinsloot 47","city":"Noordwijkerhout","operatorName":"Allego","maxPowerKw":11,"isMegawatt":false,"status":"AVAILABLE","source":"ndw","priceKwh":0.511}},{"type":"Feature","geometry":{"type":"Point","coordinates":[4.454977,52.241132]},"properties":{"type":"charge","layer":"passenger","locationId":"NLLOC007008","name":"NL, Lavendelhof 8, 2203EE, Noordwijk","address":"Lavendelhof 8","city":"Noordwijk","operatorName":"Allego","maxPowerKw":11,"isMegawatt":false,"status":"AVAILABLE","source":"ndw","priceKwh":0.511}},{"type":"Feature","geometry":{"type":"Point","coordinates":[4.442203,52.227076]},"properties":{"type":"charge","layer":"passenger","locationId":"NLLOC002618","name":"NLD, Zager 13, 2201 VN Noordwijk","address":"Zager 13","city":"Noordwijk","operatorName":"Allego","maxPowerKw":11,"isMegawatt":false,"status":"AVAILABLE","source":"ndw","priceKwh":0.511}},{"type":"Feature","geometry":{"type":"Point","coordinates":[4.496134,52.257751]},"properties":{"type":"charge","layer":"passenger","locationId":"NLLOC024284","name":"NL, Fazantlaan 16, 2211KV, Noordwijkerhout","address":"Fazantlaan 16","city":"Noordwijkerhout","operatorName":"Allego","maxPowerKw":11,"isMegawatt":false,"status":"AVAILABLE","source":"ndw","priceKwh":0.511}},{"type":"Feature","geometry":{"type":"Point","coordinates":[4.444399,52.241878]},"properties":{"type":"charge","layer":"passenger","locationId":"NLLOC006066","name":"NL, van Panhuysstraat 19, 2203JN, Noordwijk","address":"van Panhuysstraat 19","city":"Noordwijk","operatorName":"Allego","maxPowerKw":11,"isMegawatt":false,"status":"AVAILABLE","source":"ndw","priceKwh":0.511}},{"type":"Feature","geometry":{"type":"Point","coordinates":[4.515558,52.257296]},"properties":{"type":"charge","layer":"passenger","locationId":"3735150","name":"Laadnet Villa Meer en Duin","address":"Leidsevaart 110","city":"Noordwijkerhout","operatorName":"Laadnet","maxPowerKw":22,"isMegawatt":false,"status":"AVAILABLE","source":"ndw"}},{"type":"Feature","geometry":{"type":"Point","coordinates":[4.496268,52.255142]},"properties":{"type":"charge","layer":"passenger","locationId":"NLLOC006894","name":"NL, Kievitshorn 30, 2211LK, Noordwijkerhout","address":"Kievitshorn 30","city":"Noordwijkerhout","operatorName":"Allego","maxPowerKw":11,"isMegawatt":false,"status":"AVAILABLE","source":"ndw","priceKwh":0.511}},{"type":"Feature","geometry":{"type":"Point","coordinates":[4.500306,52.263852]},"properties":{"type":"charge","layer":"passenger","locationId":"NLLOC002894","name":"NLD Centurio 18, 2211 ZV Noordwijkerhout","address":"Centurio 18","city":"Noordwijkerhout","operatorName":"Allego","maxPowerKw":11,"isMegawatt":false,"status":"AVAILABLE","source":"ndw","priceKwh":0.511}},{"type":"Feature","geometry":{"type":"Point","coordinates":[4.442912,52.243821]},"properties":{"type":"charge","layer":"passenger","locationId":"NLLOC010517","name":"NL, van Panhuysstraat 74, 2203 JS Noordwijk","address":"van Panhuysstraat 74","city":"Noordwijk","operatorName":"Allego","maxPowerKw":11,"isMegawatt":false,"status":"AVAILABLE","source":"ndw","priceKwh":0.511}},{"type":"Feature","geometry":{"type":"Point","coordinates":[4.431759,52.243859]},"properties":{"type":"charge","layer":"passenger","locationId":"4174737","name":"Laadnet Centrum Parking Noordwijk","address":"Bomstraat 21","city":"Noordwijk","operatorName":"Laadnet","maxPowerKw":22,"isMegawatt":false,"status":"AVAILABLE","source":"ndw"}},{"type":"Feature","geometry":{"type":"Point","coordinates":[4.455113,52.242514]},"properties":{"type":"charge","layer":"passenger","locationId":"NLLOC006451","name":"NL, Buurweg 2, 2203 CL, Noordwijk","address":"Buurweg 2","city":"Noordwijk","operatorName":"Allego","maxPowerKw":11,"isMegawatt":false,"status":"AVAILABLE","source":"ndw","priceKwh":0.511}},{"type":"Feature","geometry":{"type":"Point","coordinates":[4.435002,52.242795]},"properties":{"type":"charge","layer":"passenger","locationId":"NLCCH00435","name":"Noordwijk - Huis ter Duinstraat 1C","address":"Huis ter Duinstraat 1C","city":"Noordwijk","operatorName":"","maxPowerKw":11,"isMegawatt":false,"status":"UNAVAILABLE","source":"ndw","priceKwh":0.5549}},{"type":"Feature","geometry":{"type":"Point","coordinates":[4.454133,52.240324]},"properties":{"type":"charge","layer":"passenger","locationId":"NLLOC020718","name":"NL, Clusiusweg 63, 2203 CA Noordwijk","address":"Clusiusweg 63","city":"Noordwijk","operatorName":"Allego","maxPowerKw":11,"isMegawatt":false,"status":"AVAILABLE","source":"ndw","priceKwh":0.511}},{"type":"Feature","geometry":{"type":"Point","coordinates":[4.434571,52.24653]},"properties":{"type":"charge","layer":"passenger","locationId":"NLLOC002758","name":"NLD, Jan van Henegouwenweg 42 2202 HZ Noordwijk","address":"Jan van henegouwenweg 42","city":"Noordwijk","operatorName":"Allego","maxPowerKw":11,"isMegawatt":false,"status":"AVAILABLE","source":"ndw","priceKwh":0.511}},{"type":"Feature","geometry":{"type":"Point","coordinates":[4.439642,52.246948]},"properties":{"type":"charge","layer":"passenger","locationId":"NLLOC002579","name":"NLD, Leon Senfstraat 13, 2202SB Noordwijk","address":"Leon Senfstraat 13","city":"Noordwijk","operatorName":"Allego","maxPowerKw":11,"isMegawatt":false,"status":"AVAILABLE","source":"ndw","priceKwh":0.511}},{"type":"Feature","geometry":{"type":"Point","coordinates":[4.491525,52.252309]},"properties":{"type":"charge","layer":"passenger","locationId":"NLLOC003976","name":"NLD, Maandagsewetering 39, 2211 PN Noordwijkerhout","address":"Maandagsewetering 39","city":"Noordwijkerhout","operatorName":"Allego","maxPowerKw":11,"isMegawatt":false,"status":"AVAILABLE","source":"ndw","priceKwh":0.511}},{"type":"Feature","geometry":{"type":"Point","coordinates":[4.439934,52.230432]},"properties":{"type":"charge","layer":"passenger","locationId":"NLLOC002647","name":"NLD, Bonnikeplein 169, 2201 GM Noordwijk","address":"Bonnikeplein 169","city":"Noordwijk","operatorName":"Allego","maxPowerKw":11,"isMegawatt":false,"status":"AVAILABLE","source":"ndw","priceKwh":0.511}},{"type":"Feature","geometry":{"type":"Point","coordinates":[4.449341,52.227628]},"properties":{"type":"charge","layer":"passenger","locationId":"NLLOC012968","name":"NL, Kweeklust 24, 2203ZB Noordwijk","address":"Kweeklust 24","city":"Noordwijk","operatorName":"Allego","maxPowerKw":11,"isMegawatt":false,"status":"CHARGING","source":"ndw","priceKwh":0.511}},{"type":"Feature","geometry":{"type":"Point","coordinates":[4.445545,52.23356]},"properties":{"type":"charge","layer":"passenger","locationId":"NLLOC006224","name":"NL, Van Limburg Stirumstraat 19, 2201 JM, Noordwijk","address":"Van Limburg Stirumstraat 19","city":"Noordwijk","operatorName":"Allego","maxPowerKw":11,"isMegawatt":false,"status":"CHARGING","source":"ndw","priceKwh":0.511}},{"type":"Feature","geometry":{"type":"Point","coordinates":[4.529028,52.286291]},"properties":{"type":"charge","layer":"passenger","locationId":"CB49B303-E321-4E8A-A28B-39C244E67236","name":"Eneco eMobility Nico Meeuwenoord Steengoed BV - Noordwijkerhout","address":"Delfweg 36 A","city":"Noordwijkerhout","operatorName":"Eneco","maxPowerKw":11,"isMegawatt":false,"status":"AVAILABLE","source":"ndw","priceKwh":0.33}},{"type":"Feature","geometry":{"type":"Point","coordinates":[4.44012,52.227289]},"properties":{"type":"charge","layer":"passenger","locationId":"NLLOC011188","name":"NL, Tolhoren 60, 2201VL, Noordwijk","address":"Tolhoren 60","city":"Noordwijk","operatorName":"Allego","maxPowerKw":11,"isMegawatt":false,"status":"AVAILABLE","source":"ndw","priceKwh":0.511}},{"type":"Feature","geometry":{"type":"Point","coordinates":[4.500079,52.261716]},"properties":{"type":"charge","layer":"passenger","locationId":"6a3e5d74784ac485ed02504c","name":"Noordwijkerhout/ Via Antiqua 29","address":"Via Antiqua 29","city":"Noordwijkerhout","operatorName":"E-Flux by Road","maxPowerKw":14,"isMegawatt":false,"status":"AVAILABLE","source":"ndw","priceKwh":0.5217}},{"type":"Feature","geometry":{"type":"Point","coordinates":[4.440039,52.229957]},"properties":{"type":"charge","layer":"passenger","locationId":"NLLOC007146","name":"NL, Bonnikeplein 115, 2201 GL, Noordwijk","address":"Bonnikeplein 115","city":"Noordwijk","operatorName":"Allego","maxPowerKw":11,"isMegawatt":false,"status":"CHARGING","source":"ndw","priceKwh":0.511}},{"type":"Feature","geometry":{"type":"Point","coordinates":[4.429301,52.243332]},"properties":{"type":"charge","layer":"passenger","locationId":"NLLOC014955","name":"NL, Palaceplein 1, 2202 ER Noordwijk","address":"Palaceplein 1","city":"Noordwijk","operatorName":"Allego","maxPowerKw":11,"isMegawatt":false,"status":"CHARGING","source":"ndw","priceKwh":0.511}},{"type":"Feature","geometry":{"type":"Point","coordinates":[4.503967,52.262935]},"properties":{"type":"charge","layer":"passenger","locationId":"NLCCH00621","name":"Noordwijk - Noordwijkerhout - Livius t.h.v. Vergilius 33 (2)","address":"Vergilius 33","city":"Noordwijk","operatorName":"","maxPowerKw":11,"isMegawatt":false,"status":"AVAILABLE","source":"ndw","priceKwh":0.5549}},{"type":"Feature","geometry":{"type":"Point","coordinates":[4.493559,52.253684]},"properties":{"type":"charge","layer":"passenger","locationId":"NLLOC017819","name":"NL, Gentiaan 34, 2211 NH Noordwijkerhout","address":"Gentiaan 34","city":"Noordwijkerhout","operatorName":"Allego","maxPowerKw":11,"isMegawatt":false,"status":"AVAILABLE","source":"ndw","priceKwh":0.511}},{"type":"Feature","geometry":{"type":"Point","coordinates":[4.48734,52.250079]},"properties":{"type":"charge","layer":"passenger","locationId":"NLLOC003054","name":"NLD Eyken Donck 26, 2211SE Noordwijkerhout","address":"Eyken Donck 26","city":"Noordwijkerhout","operatorName":"Allego","maxPowerKw":11,"isMegawatt":false,"status":"AVAILABLE","source":"ndw","priceKwh":0.511}},{"type":"Feature","geometry":{"type":"Point","coordinates":[4.454756,52.232919]},"properties":{"type":"charge","layer":"passenger","locationId":"NLLOC008465","name":"NL, Schiestraat 110, 2201 AT Noordwijk","address":"Schiestraat 110","city":"Noordwijk","operatorName":"Allego","maxPowerKw":11,"isMegawatt":false,"status":"AVAILABLE","source":"ndw","priceKwh":0.511}},{"type":"Feature","geometry":{"type":"Point","coordinates":[4.468097,52.266579]},"properties":{"type":"charge","layer":"passenger","locationId":"6530159a041f02001bc61893","name":"DeWitteRaaflaan69","address":"De Witte Raaflaan 69","city":"BK Noordwijk","operatorName":"E-Flux by Road","maxPowerKw":22,"isMegawatt":false,"status":"AVAILABLE","source":"ndw","priceKwh":0.32}},{"type":"Feature","geometry":{"type":"Point","coordinates":[4.45193,52.23477]},"properties":{"type":"charge","layer":"passenger","locationId":"E04B870B-92F7-4285-BE8D-6C5CA15A136F","name":"Eneco eMobility Abswoude Autopromenade","address":"Schiestraat 9","city":"Noordwijk","operatorName":"Eneco","maxPowerKw":22,"isMegawatt":false,"status":"AVAILABLE","source":"ndw","priceKwh":0.45}},{"type":"Feature","geometry":{"type":"Point","coordinates":[4.448349,52.245568]},"properties":{"type":"charge","layer":"passenger","locationId":"NLLOC007079","name":"NL, Elzenkant 2 A, 2203 NJ, Noordwijk","address":"Elzenkant 2 A","city":"Noordwijk","operatorName":"Allego","maxPowerKw":11,"isMegawatt":false,"status":"CHARGING","source":"ndw","priceKwh":0.511}},{"type":"Feature","geometry":{"type":"Point","coordinates":[4.441912,52.236755]},"properties":{"type":"charge","layer":"passenger","locationId":"NLCCH00271","name":"Noordwijk - An van Gilsehof t.h.v. Jozef Beugelsdijkstraat 19","address":"Jozef Beugelsdijkstraat 19","city":"Noordwijk","operatorName":"","maxPowerKw":11,"isMegawatt":false,"status":"AVAILABLE","source":"ndw","priceKwh":0.5549}},{"type":"Feature","geometry":{"type":"Point","coordinates":[4.430444,52.242178]},"properties":{"type":"charge","layer":"passenger","locationId":"NLLOC002895","name":"NLD, Abraham van Royenstraat 99, 2202 EM, Noordwijk","address":"Abraham van Royenstraat 99","city":"Noordwijk","operatorName":"Allego","maxPowerKw":11,"isMegawatt":false,"status":"CHARGING","source":"ndw","priceKwh":0.511}},{"type":"Feature","geometry":{"type":"Point","coordinates":[4.437086,52.247197]},"properties":{"type":"charge","layer":"passenger","locationId":"NLCCH00200","name":"Noordwijk - Prins Bernhardstraat 1","address":"Prins Bernhardstraat 1","city":"Noordwijk","operatorName":"","maxPowerKw":11,"isMegawatt":false,"status":"AVAILABLE","source":"ndw","priceKwh":0.5549}},{"type":"Feature","geometry":{"type":"Point","coordinates":[4.497684,52.256039]},"properties":{"type":"charge","layer":"passenger","locationId":"NLLOC006956","name":"NL, Meeuwenlaan 27, 2211KN, Noordwijkerhout","address":"Meeuwenlaan 27","city":"Noordwijkerhout","operatorName":"Allego","maxPowerKw":11,"isMegawatt":false,"status":"AVAILABLE","source":"ndw","priceKwh":0.511}},{"type":"Feature","geometry":{"type":"Point","coordinates":[4.441368,52.235527]},"properties":{"type":"charge","layer":"passenger","locationId":"NLLOC008647","name":"NL, Dompad 1, 2201 LN Noordwijk","address":"Dompad 1","city":"Noordwijk","operatorName":"Allego","maxPowerKw":11,"isMegawatt":false,"status":"AVAILABLE","source":"ndw","priceKwh":0.511}},{"type":"Feature","geometry":{"type":"Point","coordinates":[4.497267,52.266547]},"properties":{"type":"charge","layer":"passenger","locationId":"eeeb2265-b006-4bae-b26e-2cc9be7f9fb3","name":"Schaepmanlaan","address":"Schaepmanlaan 3","city":"Noordwijkerhout","operatorName":"Vattenfall InCharge","maxPowerKw":11,"isMegawatt":false,"status":"AVAILABLE","source":"ndw"}},{"type":"Feature","geometry":{"type":"Point","coordinates":[4.427116,52.239166]},"properties":{"type":"charge","layer":"passenger","locationId":"3411650","name":"Laadnet Vve Woningen Villa Zeezicht te Noordwijk","address":"Erasmusweg 20","city":"Noordwijk","operatorName":"Laadnet","maxPowerKw":22,"isMegawatt":false,"status":"AVAILABLE","source":"ndw"}},{"type":"Feature","geometry":{"type":"Point","coordinates":[4.441336,52.249658]},"properties":{"type":"charge","layer":"passenger","locationId":"NLLOC003034","name":"NLD Oranje Nassaustraat 25 2202 TL Noordwijk","address":"Oranje Nassaustraat 25","city":"Noordwijk","operatorName":"Allego","maxPowerKw":11,"isMegawatt":false,"status":"AVAILABLE","source":"ndw","priceKwh":0.511}},{"type":"Feature","geometry":{"type":"Point","coordinates":[4.437581,52.245337]},"properties":{"type":"charge","layer":"passenger","locationId":"NLLOC002578","name":"NLD, Prins Bernhardstraat 54, 2202 LJ Noordwijk","address":"Prins Bernhardstraat 54","city":"Noordwijk","operatorName":"Allego","maxPowerKw":11,"isMegawatt":false,"status":"AVAILABLE","source":"ndw","priceKwh":0.511}},{"type":"Feature","geometry":{"type":"Point","coordinates":[4.434945,52.242766]},"properties":{"type":"charge","layer":"passenger","locationId":"NLLOC006367","name":"NL, Huis Ter Duinstraat 1C, 2202 CS Noordwijk","address":"Huis Ter Duinstraat 1C","city":"Noordwijk","operatorName":"Allego","maxPowerKw":11,"isMegawatt":false,"status":"CHARGING","source":"ndw","priceKwh":0.511}},{"type":"Feature","geometry":{"type":"Point","coordinates":[4.447522,52.232752]},"properties":{"type":"charge","layer":"passenger","locationId":"NLLOC009855","name":"NL, Voorstraat 87, 2201HP Noordwijk","address":"Voorstraat 87","city":"Noordwijk","operatorName":"Allego","maxPowerKw":11,"isMegawatt":false,"status":"AVAILABLE","source":"ndw","priceKwh":0.511}},{"type":"Feature","geometry":{"type":"Point","coordinates":[4.443666,52.24765]},"properties":{"type":"charge","layer":"passenger","locationId":"NLLOC002613","name":"NLD, Pieter Bedijnstraat 2, 2202VK Noordwijk","address":"Pieter Bedijnstraat 2","city":"Noordwijk","operatorName":"Allego","maxPowerKw":11,"isMegawatt":false,"status":"AVAILABLE","source":"ndw","priceKwh":0.511}},{"type":"Feature","geometry":{"type":"Point","coordinates":[4.542466,52.301994]},"properties":{"type":"charge","layer":"passenger","locationId":"c519803e-80ff-466b-b5a7-3b8763dd3d59","name":"Hafkenscheidtlaan","address":"Hafkenscheidtlaan 17","city":"De Zilk","operatorName":"Vattenfall InCharge","maxPowerKw":11,"isMegawatt":false,"status":"AVAILABLE","source":"ndw"}},{"type":"Feature","geometry":{"type":"Point","coordinates":[4.546307,52.303418]},"properties":{"type":"charge","layer":"passenger","locationId":"NLLOC002454","name":"NLD, Breeland 2a, 2191XB Noordwijkerhout","address":"Breeland 2a","city":"Noordwijkerhout","operatorName":"Allego","maxPowerKw":11,"isMegawatt":false,"status":"AVAILABLE","source":"ndw","priceKwh":0.511}},{"type":"Feature","geometry":{"type":"Point","coordinates":[4.546465,52.301045]},"properties":{"type":"charge","layer":"passenger","locationId":"ec2673bc-d23d-4a32-aa97-bc65ca96477d","name":"Sint Jacobstraat","address":"Sint Jacobstraat 68","city":"De Zilk","operatorName":"Vattenfall InCharge","maxPowerKw":11,"isMegawatt":false,"status":"UNAVAILABLE","source":"ndw"}},{"type":"Feature","geometry":{"type":"Point","coordinates":[4.437153,52.249073]},"properties":{"type":"charge","layer":"passenger","locationId":"NLLOC005627","name":"NLD Golfbaan 24, 2202 TD Noordwijk","address":"Golfbaan 24","city":"Noordwijk","operatorName":"Allego","maxPowerKw":11,"isMegawatt":false,"status":"AVAILABLE","source":"ndw","priceKwh":0.511}},{"type":"Feature","geometry":{"type":"Point","coordinates":[4.449541,52.239591]},"properties":{"type":"charge","layer":"passenger","locationId":"NLLOC006708","name":"NL, Jan Kloosstraat 1, 2201 TP, Noordwijk","address":"Jan Kloosstraat 1","city":"Noordwijk","operatorName":"Allego","maxPowerKw":11,"isMegawatt":false,"status":"AVAILABLE","source":"ndw","priceKwh":0.511}},{"type":"Feature","geometry":{"type":"Point","coordinates":[4.489682,52.257138]},"properties":{"type":"charge","layer":"passenger","locationId":"1ef81b27-23b1-47fb-87bc-578e9e128142","name":"Andellaan 3","address":"Andellaan 3","city":"Noordwijkerhout","operatorName":"Vattenfall InCharge","maxPowerKw":11,"isMegawatt":false,"status":"AVAILABLE","source":"ndw"}},{"type":"Feature","geometry":{"type":"Point","coordinates":[4.493606,52.261602]},"properties":{"type":"charge","layer":"passenger","locationId":"NLLOC012116","name":"NL, Landbouwplein 8, 2211GE, Noordwijkerhout","address":"Landbouwplein 8","city":"Noordwijkerhout","operatorName":"Allego","maxPowerKw":11,"isMegawatt":false,"status":"AVAILABLE","source":"ndw","priceKwh":0.511}},{"type":"Feature","geometry":{"type":"Point","coordinates":[4.445875,52.249122]},"properties":{"type":"charge","layer":"passenger","locationId":"NLLOC013261","name":"NL, W.H. van Konijnenburgplantsoen 26, 2202XB, Noordwijk","address":"W.H. van Konijnenburgplantsoen 26","city":"Noordwijk","operatorName":"Allego","maxPowerKw":11,"isMegawatt":false,"status":"AVAILABLE","source":"ndw","priceKwh":0.511}},{"type":"Feature","geometry":{"type":"Point","coordinates":[4.436844,52.230824]},"properties":{"type":"charge","layer":"passenger","locationId":"NLLOC013882","name":"NL, Sneeuwgors 11, 2201 XW Noordwijk","address":"Sneeuwgors 11","city":"Noordwijk","operatorName":"Allego","maxPowerKw":11,"isMegawatt":false,"status":"AVAILABLE","source":"ndw","priceKwh":0.511}},{"type":"Feature","geometry":{"type":"Point","coordinates":[4.487039,52.261723]},"properties":{"type":"charge","layer":"passenger","locationId":"NLLOC007202","name":"NL, Erfvoort 64, 2211 DE, Noordwijkerhout","address":"Erfvoort 66","city":"Noordwijkerhout","operatorName":"Allego","maxPowerKw":11,"isMegawatt":false,"status":"AVAILABLE","source":"ndw","priceKwh":0.511}},{"type":"Feature","geometry":{"type":"Point","coordinates":[4.438981,52.234269]},"properties":{"type":"charge","layer":"passenger","locationId":"NLLOC003735","name":"NLD Gladiolusstraat 26, 2201 EG Noordwijk","address":"Gladiolusstraat 26","city":"Noordwijk","operatorName":"Allego","maxPowerKw":11,"isMegawatt":false,"status":"AVAILABLE","source":"ndw","priceKwh":0.511}},{"type":"Feature","geometry":{"type":"Point","coordinates":[4.455101,52.234019]},"properties":{"type":"charge","layer":"passenger","locationId":"NLLOC003049","name":"NLD Overbeek 72, 2201 JX Noordwijk","address":"Overbeek 72","city":"Noordwijk","operatorName":"Allego","maxPowerKw":11,"isMegawatt":false,"status":"AVAILABLE","source":"ndw","priceKwh":0.511}},{"type":"Feature","geometry":{"type":"Point","coordinates":[4.503046,52.26135]},"properties":{"type":"charge","layer":"passenger","locationId":"NLLOC003036","name":"NLD Arena 1, 2211 LS Noordwijkerhout","address":"Arena 1","city":"Noordwijkerhout","operatorName":"Allego","maxPowerKw":11,"isMegawatt":false,"status":"AVAILABLE","source":"ndw","priceKwh":0.511}},{"type":"Feature","geometry":{"type":"Point","coordinates":[4.544027,52.304537]},"properties":{"type":"charge","layer":"passenger","locationId":"NLLOC007124","name":"NL, Hoekgat 24, 2191 XK, Noordwijkerhout","address":"Hoekgat 24","city":"Noordwijkerhout","operatorName":"Allego","maxPowerKw":11,"isMegawatt":false,"status":"AVAILABLE","source":"ndw","priceKwh":0.511}},{"type":"Feature","geometry":{"type":"Point","coordinates":[4.502654,52.262317]},"properties":{"type":"charge","layer":"passenger","locationId":"NLLOC007160","name":"NL, Castellum 84, 2211 ZN Noordwijkerhout","address":"Castellum 84","city":"Noordwijkerhout","operatorName":"Allego","maxPowerKw":11,"isMegawatt":false,"status":"AVAILABLE","source":"ndw","priceKwh":0.511}},{"type":"Feature","geometry":{"type":"Point","coordinates":[4.449725,52.234915]},"properties":{"type":"charge","layer":"passenger","locationId":"NLLOC007080","name":"NL, Wilhelminastraat 4, 2201 KC, Noordwijk","address":"Wilhelminastraat 4","city":"Noordwijk","operatorName":"Allego","maxPowerKw":11,"isMegawatt":false,"status":"AVAILABLE","source":"ndw","priceKwh":0.511}},{"type":"Feature","geometry":{"type":"Point","coordinates":[4.489583,52.255443]},"properties":{"type":"charge","layer":"passenger","locationId":"NLLOC006410","name":"NL, Beltmolen 23, 2211 ST Noordwijkerhout","address":"Beltmolen 23","city":"Noordwijkerhout","operatorName":"Allego","maxPowerKw":11,"isMegawatt":false,"status":"AVAILABLE","source":"ndw","priceKwh":0.511}},{"type":"Feature","geometry":{"type":"Point","coordinates":[4.45028,52.236732]},"properties":{"type":"charge","layer":"passenger","locationId":"64b6408426e0ca001cc525f7","name":"Alexander Loe","address":"Goudenregenstraat  6","city":"Noordwijk","operatorName":"E-Flux by Road","maxPowerKw":11,"isMegawatt":false,"status":"AVAILABLE","source":"ndw","priceKwh":0.66}},{"type":"Feature","geometry":{"type":"Point","coordinates":[4.447763,52.237722]},"properties":{"type":"charge","layer":"passenger","locationId":"NLLOC002751","name":"NLD, Sint Jeroensweg 11, 2201 NS, Noordwijk","address":"Sint Jeroensweg 11","city":"Noordwijk","operatorName":"Allego","maxPowerKw":11,"isMegawatt":false,"status":"AVAILABLE","source":"ndw","priceKwh":0.511}},{"type":"Feature","geometry":{"type":"Point","coordinates":[4.431836,52.244745]},"properties":{"type":"charge","layer":"passenger","locationId":"NLLOC003558","name":"NLD, Nicolaas Barnhoornweg 20, 2202 JB Noordwijk","address":"Nicolaas Barnhoornweg 20","city":"Noordwijk","operatorName":"Allego","maxPowerKw":11,"isMegawatt":false,"status":"AVAILABLE","source":"ndw","priceKwh":0.511}},{"type":"Feature","geometry":{"type":"Point","coordinates":[4.540333,52.302484]},"properties":{"type":"charge","layer":"passenger","locationId":"NLCCH00229","name":"Noordwijk - De Zilk - Hafkenscheidtlaan t.h.v. Prunuslaan 15","address":"Prunuslaan 15","city":"Noordwijk","operatorName":"","maxPowerKw":11,"isMegawatt":false,"status":"AVAILABLE","source":"ndw","priceKwh":0.5549}},{"type":"Feature","geometry":{"type":"Point","coordinates":[4.499947,52.258451]},"properties":{"type":"charge","layer":"passenger","locationId":"NLCCH00198","name":"Noordwijk - Noordwijkerhout - Pioen 24","address":"Pioen 24","city":"Noordwijk","operatorName":"","maxPowerKw":11,"isMegawatt":false,"status":"AVAILABLE","source":"ndw","priceKwh":0.5549}},{"type":"Feature","geometry":{"type":"Point","coordinates":[4.437478,52.245391]},"properties":{"type":"charge","layer":"passenger","locationId":"NLCCH00665","name":"Noordwijk - Prins Bernhardstraat 45","address":"Prins Bernhardstraat 45","city":"Noordwijk","operatorName":"","maxPowerKw":11,"isMegawatt":false,"status":"AVAILABLE","source":"ndw","priceKwh":0.5549}},{"type":"Feature","geometry":{"type":"Point","coordinates":[4.488916,52.264939]},"properties":{"type":"charge","layer":"passenger","locationId":"NLCCH00563","name":"Noordwijk - Noordwijkerhout - Sint Bavolaan 16","address":"Sint Bavolaan 16","city":"Noordwijk","operatorName":"","maxPowerKw":11,"isMegawatt":false,"status":"AVAILABLE","source":"ndw","priceKwh":0.5549}},{"type":"Feature","geometry":{"type":"Point","coordinates":[4.500526,52.262217]},"properties":{"type":"charge","layer":"passenger","locationId":"NLCCH00282","name":"Noordwijk - Noordwijkerhout - Via Antiqua 29","address":"Via Antiqua 29","city":"Noordwijk","operatorName":"","maxPowerKw":11,"isMegawatt":false,"status":"AVAILABLE","source":"ndw","priceKwh":0.5549}},{"type":"Feature","geometry":{"type":"Point","coordinates":[4.441661,52.21487]},"properties":{"type":"charge","layer":"passenger","locationId":"NLCCH00316","name":"Katwijk - Noorderlicht 4 ","address":"Noorderlicht 4","city":"Katwijk","operatorName":"","maxPowerKw":11,"isMegawatt":false,"status":"AVAILABLE","source":"ndw","priceKwh":0.5549}},{"type":"Feature","geometry":{"type":"Point","coordinates":[4.486531,52.265141]},"properties":{"type":"charge","layer":"passenger","locationId":"26f8df46-abbe-4bfe-92c2-c04bc0fa0115","name":"Strandwal 2","address":"Strandwal 2","city":"Noordwijkerhout","operatorName":"Vattenfall InCharge","maxPowerKw":11,"isMegawatt":false,"status":"AVAILABLE","source":"ndw"}},{"type":"Feature","geometry":{"type":"Point","coordinates":[4.498439,52.261821]},"properties":{"type":"charge","layer":"passenger","locationId":"4946374c-4309-45f7-927d-192ebbe2bb1d","name":"Parallelweg","address":"Parallelweg 5","city":"Noordwijkerhout","operatorName":"Vattenfall InCharge","maxPowerKw":11,"isMegawatt":false,"status":"AVAILABLE","source":"ndw"}},{"type":"Feature","geometry":{"type":"Point","coordinates":[4.44208,52.22827]},"properties":{"type":"charge","layer":"passenger","locationId":"NL000149","name":"Kokkel 1 Noordwijk","address":"Kokkel 1","city":"Noordwijk","operatorName":"Stellapower.eu","maxPowerKw":17,"isMegawatt":false,"status":"AVAILABLE","source":"ndw","priceKwh":0.471}},{"type":"Feature","geometry":{"type":"Point","coordinates":[4.445296,52.233534]},"properties":{"type":"charge","layer":"passenger","locationId":"NLCCH00268","name":"Noordwijk - Van Limburg Stirumstraat 19","address":"Van Limburg Stirumstraat 19","city":"Noordwijk","operatorName":"","maxPowerKw":11,"isMegawatt":false,"status":"AVAILABLE","source":"ndw","priceKwh":0.5549}},{"type":"Feature","geometry":{"type":"Point","coordinates":[4.441131,52.232082]},"properties":{"type":"charge","layer":"passenger","locationId":"NLCCH00260","name":"Noordwijk - Doctor Hadriaan van Neslaan 104","address":"Dr. Hadriaan van Neslaan 104","city":"Noordwijk","operatorName":"","maxPowerKw":11,"isMegawatt":false,"status":"AVAILABLE","source":"ndw","priceKwh":0.5549}},{"type":"Feature","geometry":{"type":"Point","coordinates":[4.546707,52.30314]},"properties":{"type":"charge","layer":"passenger","locationId":"NLCCH00562","name":"Noordwijk - De Zilk - Breeland t.h.v. Zilkerduinweg 185","address":"Zilkerduinweg 185","city":"Noordwijk","operatorName":"","maxPowerKw":11,"isMegawatt":false,"status":"CHARGING","source":"ndw","priceKwh":0.5549}},{"type":"Feature","geometry":{"type":"Point","coordinates":[4.43939,52.250412]},"properties":{"type":"charge","layer":"passenger","locationId":"NLCCH00865","name":"Noordwijk - Golfbaan 58 (2)","address":"Golfbaan 58","city":"Noordwijk","operatorName":"","maxPowerKw":11,"isMegawatt":false,"status":"AVAILABLE","source":"ndw","priceKwh":0.5549}},{"type":"Feature","geometry":{"type":"MultiPolygon","coordinates":[[[[4.563707232373594,52.309298171707894],[4.555375945680056,52.2991442508184],[4.554459458547294,52.29941193500703],[4.551795089843256,52.2971233132875],[4.542318842705598,52.28737829669424],[4.54255006545876,52.286644389935276],[4.538709693679899,52.28177769679713],[4.536507757899334,52.279191930929],[4.53644302790839,52.278359534406476],[4.5359898756555435,52.278155872507],[4.535456802835394,52.27914798797086],[4.535025537670672,52.2788327532913],[4.530178155509648,52.27414689001284],[4.532871799330224,52.27309582480218],[4.520916859856399,52.26069858477901],[4.513494654047586,52.25499180732609],[4.501415862115624,52.248561739929826],[4.497662342732346,52.24603360341544],[4.495927666475718,52.24486439236552],[4.494919122847766,52.24418025357547],[4.479974001451196,52.234119651663065],[4.477491646538037,52.232450126808565],[4.468491168998621,52.22661971126593],[4.46606545564248,52.22500315660297],[4.466984782938821,52.22378628043504],[4.470703773756916,52.22176297606183],[4.4703575915601945,52.219813136311124],[4.464081503295297,52.2159648029281],[4.455895941474768,52.21403841580441],[4.451305052304786,52.21169799398924],[4.448477956883363,52.212504571808225],[4.44630805225849,52.21098226124772],[4.4444515784429575,52.209510400847066],[4.44165279948695,52.208503965827376],[4.440187457560035,52.207356066080756],[4.437477540574845,52.209511503447494],[4.437409872482513,52.20966750389656],[4.437137023968893,52.211199922747575],[4.435463006160382,52.21060337389929],[4.433276702636481,52.21350451750365],[4.429285268567197,52.212411301746286],[4.425695731556859,52.21628933253879],[4.423289765012444,52.21542849591599],[4.422325437917849,52.2144929913869],[4.4217910051888865,52.21480873704147],[4.419590792195088,52.21431271682555],[4.414932693223664,52.21610787619581],[4.414841621702521,52.21614260602896],[4.4148287910430115,52.21614750059514],[4.405463422371724,52.21972032279704],[4.418301350896737,52.233740441300824],[4.434516164231042,52.2537858531255],[4.4472615148654775,52.267245103907165],[4.493971247012524,52.32819809812323],[4.494926647180439,52.327948544748196],[4.543370743853952,52.314988724567726],[4.547322159134312,52.31399671927059],[4.563707232373594,52.309298171707894]]]]},"properties":{"type":"boundary","gemeente":"Noordwijk","code":"GM0575"}}]}