{"type":"FeatureCollection","metadata":{"gemeente":"Oostzaan","slug":"oostzaan","code":"GM0431","generated_at":"2026-07-06T16:26:11.361Z","total_passenger":37,"total_freight":2,"bounds":[4.842950356010052,52.42446153426868,4.906468949908379,52.47982686467045],"operators":["E-Flux by Road","Eneco","Fastned","Laadnet","NXT Charging Solutions","NXT50Five","TotalEnergies","Ubitricity","Valk Energy","Vattenfall InCharge"]},"features":[{"type":"Feature","geometry":{"type":"Point","coordinates":[4.873838,52.431328]},"properties":{"type":"charge","layer":"passenger","locationId":"aae6b70f-6ac8-40be-a900-beab60c623e5","name":"TNLP007304 - Skoon 35, Oostzaan","address":"35 Skoon","city":"Oostzaan","operatorName":"TotalEnergies","maxPowerKw":15,"isMegawatt":false,"status":"AVAILABLE","source":"ndw"}},{"type":"Feature","geometry":{"type":"Point","coordinates":[4.871096,52.447727]},"properties":{"type":"charge","layer":"passenger","locationId":"4cc5ff38-c3aa-42cb-8adf-7381ccff608d","name":"TNLP008649 - Jol 34, Oostzaan","address":"34 Jol","city":"Oostzaan","operatorName":"TotalEnergies","maxPowerKw":14,"isMegawatt":false,"status":"AVAILABLE","source":"ndw"}},{"type":"Feature","geometry":{"type":"Point","coordinates":[4.866501,52.438009]},"properties":{"type":"charge","layer":"passenger","locationId":"024dad8f-858d-4e66-9e86-c5061b3a9b57","name":"TNLP015149","address":"Kerkstraat 147","city":"Oostzaan","operatorName":"TotalEnergies","maxPowerKw":17,"isMegawatt":false,"status":"AVAILABLE","source":"ndw"}},{"type":"Feature","geometry":{"type":"Point","coordinates":[4.87335,52.4318]},"properties":{"type":"charge","layer":"passenger","locationId":"6FE9FD3C-8082-460B-B5BE-66B8A7F6E08A","name":"Eneco eMobility Dusseldorp BMW - Oostzaan","address":"Skoon 30","city":"Oostzaan","operatorName":"Eneco","maxPowerKw":200,"isMegawatt":false,"status":"AVAILABLE","source":"ndw","priceKwh":0.6}},{"type":"Feature","geometry":{"type":"Point","coordinates":[4.875954,52.42731]},"properties":{"type":"charge","layer":"passenger","locationId":"69afbdd5a59b7c858b2efed1","name":"Van der Valk - Amsterdam Oostzaan - Charging Stations","address":"Westeinde 1","city":"Oostzaan","operatorName":"Valk Energy","maxPowerKw":150,"isMegawatt":false,"status":"AVAILABLE","source":"ndw","priceKwh":0.59}},{"type":"Feature","geometry":{"type":"Point","coordinates":[4.86759,52.43716]},"properties":{"type":"charge","layer":"passenger","locationId":"58c3787f-f9f1-4cfe-87ed-cba721fe7f3b","name":"PP002042 - Karper 1/13, Oostzaan","address":"1/13 Karper","city":"Oostzaan","operatorName":"TotalEnergies","maxPowerKw":11,"isMegawatt":false,"status":"AVAILABLE","source":"ndw"}},{"type":"Feature","geometry":{"type":"Point","coordinates":[4.87729,52.43481]},"properties":{"type":"charge","layer":"passenger","locationId":"1470","name":"Shell Recharge NL Bron 39","address":"Bron 39","city":"Oostzaan","operatorName":"Ubitricity","maxPowerKw":11,"isMegawatt":false,"status":"AVAILABLE","source":"ndw","priceKwh":0.388}},{"type":"Feature","geometry":{"type":"Point","coordinates":[4.8818,52.446969]},"properties":{"type":"charge","layer":"passenger","locationId":"54010faace72282c006d3755df6c7060","name":"Twiskeweg 105","address":"Twiskeweg 105","city":"Oostzaan","operatorName":"Vattenfall InCharge","maxPowerKw":11,"isMegawatt":false,"status":"AVAILABLE","source":"ndw"}},{"type":"Feature","geometry":{"type":"Point","coordinates":[4.87715,52.44027]},"properties":{"type":"charge","layer":"passenger","locationId":"3dca0fb4-20af-4df5-9e56-8d602f11b2cd","name":"PP004157 - Dominee Nanne Zwiepsingel 2, Oostzaan","address":"2 Dominee Nanne Zwiepsingel","city":"Oostzaan","operatorName":"TotalEnergies","maxPowerKw":11,"isMegawatt":false,"status":"UNAVAILABLE","source":"ndw"}},{"type":"Feature","geometry":{"type":"Point","coordinates":[4.872514,52.4309]},"properties":{"type":"charge","layer":"passenger","locationId":"3831651","name":"Laadnet A-Booth BV","address":"Skoon 37","city":"Oostzaan","operatorName":"Laadnet","maxPowerKw":22,"isMegawatt":false,"status":"AVAILABLE","source":"ndw"}},{"type":"Feature","geometry":{"type":"Point","coordinates":[4.87383,52.43328]},"properties":{"type":"charge","layer":"passenger","locationId":"188","name":"Shell Recharge NL Hooiijzer 35","address":"Hooiijzer 35","city":"Oostzaan","operatorName":"Ubitricity","maxPowerKw":11,"isMegawatt":false,"status":"AVAILABLE","source":"ndw","priceKwh":0.388}},{"type":"Feature","geometry":{"type":"Point","coordinates":[4.8739,52.44709]},"properties":{"type":"charge","layer":"passenger","locationId":"dff8a0fb-ec40-4a2b-94ee-602f60af2d94","name":"PP004100 - Jollenmakersweg 31, Oostzaan","address":"31 Jollenmakersweg","city":"Oostzaan","operatorName":"TotalEnergies","maxPowerKw":11,"isMegawatt":false,"status":"UNAVAILABLE","source":"ndw"}},{"type":"Feature","geometry":{"type":"Point","coordinates":[4.869341,52.437572]},"properties":{"type":"charge","layer":"passenger","locationId":"0ee68dd0-6a08-4b8c-8282-2cc9d0786091","name":"TNLP007607 - Paling 2, Oostzaan","address":"2 Paling","city":"Oostzaan","operatorName":"TotalEnergies","maxPowerKw":15,"isMegawatt":false,"status":"AVAILABLE","source":"ndw"}},{"type":"Feature","geometry":{"type":"Point","coordinates":[4.868278,52.4348]},"properties":{"type":"charge","layer":"passenger","locationId":"0f9a2bac-a332-4c8b-a4d6-98949057601b","name":"TNLP006923 - Kievit 1, Oostzaan","address":"1 Kievit","city":"Oostzaan","operatorName":"TotalEnergies","maxPowerKw":17,"isMegawatt":false,"status":"UNAVAILABLE","source":"ndw"}},{"type":"Feature","geometry":{"type":"Point","coordinates":[4.87304,52.43903]},"properties":{"type":"charge","layer":"passenger","locationId":"527","name":"Shell Recharge NL Leertouwerstraat 17","address":"Leertouwerstraat 17","city":"Oostzaan","operatorName":"Ubitricity","maxPowerKw":11,"isMegawatt":false,"status":"AVAILABLE","source":"ndw","priceKwh":0.388}},{"type":"Feature","geometry":{"type":"Point","coordinates":[4.884273,52.429334]},"properties":{"type":"charge","layer":"passenger","locationId":"ed45d632-5631-43a9-80a9-9b599aeaeffa","name":"TNLP015163","address":"Zuideinde 176","city":"Oostzaan","operatorName":"TotalEnergies","maxPowerKw":17,"isMegawatt":false,"status":"AVAILABLE","source":"ndw"}},{"type":"Feature","geometry":{"type":"Point","coordinates":[4.873281,52.444878]},"properties":{"type":"charge","layer":"passenger","locationId":"a25284fc-d757-43fb-a16a-2dbe396beb62","name":"TNLP007584 - Kerkbuurt 110, Oostzaan","address":"110 Kerkbuurt","city":"Oostzaan","operatorName":"TotalEnergies","maxPowerKw":17,"isMegawatt":false,"status":"UNAVAILABLE","source":"ndw"}},{"type":"Feature","geometry":{"type":"Point","coordinates":[4.870113,52.43492]},"properties":{"type":"charge","layer":"passenger","locationId":"ea6b9709-02c5-47cd-9913-66999247f997","name":"TNLP008418 - Waterhoen 1, Oostzaan","address":"1 Waterhoen","city":"Oostzaan","operatorName":"TotalEnergies","maxPowerKw":13,"isMegawatt":false,"status":"UNAVAILABLE","source":"ndw"}},{"type":"Feature","geometry":{"type":"Point","coordinates":[4.875681,52.439509]},"properties":{"type":"charge","layer":"passenger","locationId":"4174667","name":"Laadnet Zuideinde","address":"Zuideinde 22","city":"Oostzaan","operatorName":"Laadnet","maxPowerKw":4,"isMegawatt":false,"status":"AVAILABLE","source":"ndw"}},{"type":"Feature","geometry":{"type":"Point","coordinates":[4.870769,52.433222]},"properties":{"type":"charge","layer":"passenger","locationId":"04123f6e0e163da92a3681d309a8e711","name":"Hooivork 45","address":"Hooivork 45","city":"Oostzaan","operatorName":"Vattenfall InCharge","maxPowerKw":11,"isMegawatt":false,"status":"CHARGING","source":"ndw"}},{"type":"Feature","geometry":{"type":"Point","coordinates":[4.862768,52.432276]},"properties":{"type":"charge","layer":"passenger","locationId":"671ba3a1b87d77001d37d328","name":"NXT 50five - Oostzaan - Ambacht 30 - DC","address":"Ambacht 30","city":"Oostzaan","operatorName":"NXT50Five","maxPowerKw":300,"isMegawatt":false,"status":"AVAILABLE","source":"ndw","priceKwh":0.63}},{"type":"Feature","geometry":{"type":"Point","coordinates":[4.882313,52.43883]},"properties":{"type":"charge","layer":"passenger","locationId":"9921e2a2-385e-4eb3-8ce2-1e5dc59ec9bc","name":"TNLP007910 - Rietschoot 96, Oostzaan","address":"96 Rietschoot","city":"Oostzaan","operatorName":"TotalEnergies","maxPowerKw":15,"isMegawatt":false,"status":"AVAILABLE","source":"ndw"}},{"type":"Feature","geometry":{"type":"Point","coordinates":[4.875853,52.433749]},"properties":{"type":"charge","layer":"passenger","locationId":"8897e1ed-5451-4cb5-91ee-ae145f8420bc","name":"Skoonzicht","address":"Skoonzicht 6","city":"Oostzaan","operatorName":"Vattenfall InCharge","maxPowerKw":11,"isMegawatt":false,"status":"AVAILABLE","source":"ndw"}},{"type":"Feature","geometry":{"type":"Point","coordinates":[4.872,52.43133]},"properties":{"type":"charge","layer":"passenger","locationId":"NLENV1111","name":"Oostzaan, Skoon 74 kantoor","address":"Skoon 74","city":"Oostzaan","operatorName":"","maxPowerKw":11,"isMegawatt":false,"status":"AVAILABLE","source":"ndw","priceKwh":0.5}},{"type":"Feature","geometry":{"type":"Point","coordinates":[4.873954,52.44006]},"properties":{"type":"charge","layer":"passenger","locationId":"eafa8119-8631-4827-808d-0400a2bcb843","name":"TNLP008398 - Burgemeester Swartstraat 2, Oostzaan","address":"2 Burgemeester Swartstraat","city":"Oostzaan","operatorName":"TotalEnergies","maxPowerKw":14,"isMegawatt":false,"status":"CHARGING","source":"ndw"}},{"type":"Feature","geometry":{"type":"Point","coordinates":[4.876594,52.4402]},"properties":{"type":"charge","layer":"passenger","locationId":"156c50a3-2f1a-4197-9f0c-8f80a83f335e","name":"TNLP007880 - Begoniastraat 2, Oostzaan","address":"2 Begoniastraat","city":"Oostzaan","operatorName":"TotalEnergies","maxPowerKw":17,"isMegawatt":false,"status":"UNAVAILABLE","source":"ndw"}},{"type":"Feature","geometry":{"type":"Point","coordinates":[4.876623,52.442599]},"properties":{"type":"charge","layer":"passenger","locationId":"33f059d9a4dc0fa3134631a77b34ca9b","name":"Dokter Boomstraat 29","address":"Dokter Boomstraat 29","city":"Oostzaan","operatorName":"Vattenfall InCharge","maxPowerKw":11,"isMegawatt":false,"status":"AVAILABLE","source":"ndw"}},{"type":"Feature","geometry":{"type":"Point","coordinates":[4.883423,52.435777]},"properties":{"type":"charge","layer":"passenger","locationId":"5d83d114-97d1-4076-816a-6a01934d7717","name":"Rietschoot","address":"Rietschoot 340","city":"Oostzaan","operatorName":"Vattenfall InCharge","maxPowerKw":11,"isMegawatt":false,"status":"CHARGING","source":"ndw"}},{"type":"Feature","geometry":{"type":"Point","coordinates":[4.879661,52.43774]},"properties":{"type":"charge","layer":"passenger","locationId":"3fd6f36d-5498-48e4-8954-1bd4a15ecf5e","name":"TNLP006965 - Lisweg 95, Oostzaan","address":"95 Lisweg","city":"Oostzaan","operatorName":"TotalEnergies","maxPowerKw":17,"isMegawatt":false,"status":"UNAVAILABLE","source":"ndw"}},{"type":"Feature","geometry":{"type":"Point","coordinates":[4.8785059,52.4461877]},"properties":{"type":"charge","layer":"passenger","locationId":"1376","name":"Shell Recharge NL Twiskeweg 6","address":"Twiskeweg 6","city":"Oostzaan","operatorName":"Ubitricity","maxPowerKw":22,"isMegawatt":false,"status":"AVAILABLE","source":"ndw","priceKwh":0.266}},{"type":"Feature","geometry":{"type":"Point","coordinates":[4.873324,52.43609]},"properties":{"type":"charge","layer":"passenger","locationId":"b0274250-89ad-47ad-a8c4-9912e4836407","name":"TNLP006654 - De Hoper 17, Oostzaan","address":"17 De Hoper","city":"Oostzaan","operatorName":"TotalEnergies","maxPowerKw":17,"isMegawatt":false,"status":"UNAVAILABLE","source":"ndw"}},{"type":"Feature","geometry":{"type":"Point","coordinates":[4.871185,52.433617]},"properties":{"type":"charge","layer":"passenger","locationId":"c9481a3b-5967-477a-add4-c5bb0094be19","name":"PP005176 - Strekel 1, Oostzaan","address":"1 Strekel","city":"Oostzaan","operatorName":"TotalEnergies","maxPowerKw":11,"isMegawatt":false,"status":"UNAVAILABLE","source":"ndw"}},{"type":"Feature","geometry":{"type":"Point","coordinates":[4.879647,52.43543]},"properties":{"type":"charge","layer":"passenger","locationId":"bc0549e8-fde1-41ff-b24e-2e1ebbafb0b8","name":"TNLP009883 - Lisweg 287, Oostzaan","address":"287 Lisweg","city":"Oostzaan","operatorName":"TotalEnergies","maxPowerKw":17,"isMegawatt":false,"status":"UNAVAILABLE","source":"ndw"}},{"type":"Feature","geometry":{"type":"Point","coordinates":[4.879784,52.43844]},"properties":{"type":"charge","layer":"passenger","locationId":"67691174-fb40-47ef-814a-5469f1a240bf","name":"TNLP034208","address":"Grashof 53","city":"Oostzaan","operatorName":"TotalEnergies","maxPowerKw":14,"isMegawatt":false,"status":"AVAILABLE","source":"ndw"}},{"type":"Feature","geometry":{"type":"Point","coordinates":[4.871087,52.447625]},"properties":{"type":"charge","layer":"passenger","locationId":"68cd0aff565b099877fd11d1","name":"H De kock 's station","address":"Jol 3","city":"Oostzaan","operatorName":"E-Flux by Road","maxPowerKw":11,"isMegawatt":false,"status":"CHARGING","source":"ndw","priceKwh":0.48}},{"type":"Feature","geometry":{"type":"Point","coordinates":[4.870486,52.449399]},"properties":{"type":"charge","layer":"passenger","locationId":"5213aecb-13aa-468e-b9f4-e8ee47ccd23a","name":"TNLP015123","address":"Corstina Kinneginstraat 7","city":"Oostzaan","operatorName":"TotalEnergies","maxPowerKw":17,"isMegawatt":false,"status":"CHARGING","source":"ndw"}},{"type":"Feature","geometry":{"type":"Point","coordinates":[4.884276,52.437997]},"properties":{"type":"charge","layer":"passenger","locationId":"6414a0050cb5300012d8fc79","name":"Wolfhsac Laadpaal","address":"Rietschoot 19","city":"Oostzaan","operatorName":"E-Flux by Road","maxPowerKw":22,"isMegawatt":false,"status":"CHARGING","source":"ndw","priceKwh":0.65}},{"type":"Feature","geometry":{"type":"Point","coordinates":[4.854528,52.44225]},"properties":{"type":"charge","layer":"freight","locationId":"31128","name":"Fastned De Watering","address":"De Watering A8","city":"Oostzaan","operatorName":"Fastned","maxPowerKw":400,"isMegawatt":false,"status":"AVAILABLE","source":"ndw","priceKwh":0.6364,"freightKind":"hpc","freightReason":"power"}},{"type":"Feature","geometry":{"type":"Point","coordinates":[4.877965,52.427139]},"properties":{"type":"charge","layer":"freight","locationId":"60993eeec1ae79248d228e5a","name":"NXT Charge - Oostzaan - Westeinde 12 - DC","address":"Westeinde 12","city":"Oostzaan","operatorName":"NXT Charging Solutions","maxPowerKw":460,"isMegawatt":false,"status":"AVAILABLE","source":"ndw","priceKwh":0.63,"freightKind":"hpc","freightReason":"power"}},{"type":"Feature","geometry":{"type":"MultiPolygon","coordinates":[[[[4.906468949908379,52.47982686467045],[4.903100366415021,52.47195423261192],[4.893318308953665,52.45727638013581],[4.89307676734055,52.454114888827675],[4.895075712216998,52.449809107019476],[4.896488543335236,52.446184408844964],[4.896544619110475,52.439853771259386],[4.894455030602015,52.43711989791691],[4.897004761975497,52.43473789275382],[4.898094492663291,52.43416913032703],[4.89928069115587,52.43130421015852],[4.8988806459959955,52.428764815860944],[4.898740285909736,52.42448995854876],[4.89873898216289,52.42446153426868],[4.892682553386325,52.42542388285991],[4.888141922896721,52.42561827363092],[4.8876837578322085,52.425585702954244],[4.886861490143003,52.42556256706853],[4.881647017004864,52.42566435102761],[4.878992773038774,52.42569654038449],[4.8765728678669635,52.42622813886904],[4.8736208521436675,52.428465018195205],[4.873205851124093,52.429549422647405],[4.871460917134531,52.43010151021296],[4.869543461537141,52.42984668284368],[4.865969826729935,52.43067889713135],[4.865256381325581,52.430543585115586],[4.865013098737878,52.43054949690412],[4.864205799671077,52.43037481254206],[4.864186488891788,52.43026442194055],[4.862676803188224,52.42994154690644],[4.862641663441166,52.429837143652904],[4.862623527920764,52.42979024852161],[4.862590147086719,52.42978612912969],[4.862416133247487,52.42982180097784],[4.862361070844651,52.42984894252534],[4.862338884969649,52.42989967841908],[4.862055254792661,52.42984768676079],[4.862022791520943,52.4297694132843],[4.861762731437984,52.42968401041622],[4.860004848144988,52.43229284455185],[4.858121054765646,52.435056801820146],[4.857571494812492,52.435864601013336],[4.857090130941992,52.436466943206455],[4.8557991483320535,52.43824787807421],[4.853977346774454,52.44157840468145],[4.852932635648887,52.442957337433405],[4.842950356010052,52.45226113127866],[4.844089953082345,52.45276403661189],[4.84442638368199,52.452921708640076],[4.8449238367181655,52.45648199797389],[4.848567845360426,52.45956902923645],[4.852504338424099,52.470367443147246],[4.862586084995048,52.46849789474036],[4.867225705361222,52.47057741908051],[4.882437217279824,52.474802230825546],[4.890531788145803,52.478959591958535],[4.895630293662027,52.47822790510785],[4.906468949908379,52.47982686467045]]]]},"properties":{"type":"boundary","gemeente":"Oostzaan","code":"GM0431"}}]}