{"type":"FeatureCollection","metadata":{"gemeente":"Opsterland","slug":"opsterland","code":"GM0086","generated_at":"2026-07-06T16:26:11.361Z","total_passenger":80,"total_freight":1,"bounds":[5.927580928104836,52.96437303432041,6.3320561236934125,53.12921393774217],"operators":["Alva Charging Services","Blink Charging","DAEN Mobility","E-Flux by Road","Fastned","Laadnet","Pluq","TotalEnergies","Vattenfall InCharge"]},"features":[{"type":"Feature","geometry":{"type":"Point","coordinates":[6.131965,53.096771]},"properties":{"type":"charge","layer":"passenger","locationId":"923517","name":"DAE_NL_2001282 8.2","address":"Curielaan 4","city":"Drachten","operatorName":"DAEN Mobility","maxPowerKw":22,"isMegawatt":false,"status":"AVAILABLE","source":"ndw","priceKwh":0.36}},{"type":"Feature","geometry":{"type":"Point","coordinates":[6.003059,53.07088]},"properties":{"type":"charge","layer":"passenger","locationId":"c4d5391d-56bc-46a0-962c-cdaeb8550cf9","name":"TNLP012051 - Dûmnysbosk 7, Nij Beets","address":"7 Dûmnysbosk","city":"Nij Beets","operatorName":"TotalEnergies","maxPowerKw":17,"isMegawatt":false,"status":"UNAVAILABLE","source":"ndw"}},{"type":"Feature","geometry":{"type":"Point","coordinates":[6.133591,53.095082]},"properties":{"type":"charge","layer":"passenger","locationId":"63a42293f257d70012d6a96a","name":"Wadro Drachten 3 + 4","address":"Curielaan  3","city":"Drachten","operatorName":"E-Flux by Road","maxPowerKw":22,"isMegawatt":false,"status":"UNAVAILABLE","source":"ndw","priceKwh":0.33}},{"type":"Feature","geometry":{"type":"Point","coordinates":[6.080427,53.058544]},"properties":{"type":"charge","layer":"passenger","locationId":"34d8d14a-9549-455d-a74a-0f55fb93e454","name":"Laadplein - Hoofdstraat 88, Beetsterzwaag","address":"88 Hoofdstraat","city":"Beetsterzwaag","operatorName":"TotalEnergies","maxPowerKw":17,"isMegawatt":false,"status":"AVAILABLE","source":"ndw"}},{"type":"Feature","geometry":{"type":"Point","coordinates":[6.079077,53.006292]},"properties":{"type":"charge","layer":"passenger","locationId":"64f5fe4b200d44001cdb5bad","name":"Peter de Jong Laadpunt","address":"Delling  19","city":"Gorredijk","operatorName":"E-Flux by Road","maxPowerKw":11,"isMegawatt":false,"status":"AVAILABLE","source":"ndw","priceKwh":0.3086}},{"type":"Feature","geometry":{"type":"Point","coordinates":[6.135603,53.095974]},"properties":{"type":"charge","layer":"passenger","locationId":"fc7d5c69-9b41-4000-8082-1ed1e4f62995","name":"Bohrlaan","address":"Bohrlaan 10","city":"Drachten","operatorName":"Vattenfall InCharge","maxPowerKw":50,"isMegawatt":false,"status":"AVAILABLE","source":"ndw"}},{"type":"Feature","geometry":{"type":"Point","coordinates":[6.061207,53.010466]},"properties":{"type":"charge","layer":"passenger","locationId":"60f5611fa9132e02ba0d3f93","name":"OPELAANBOD.NL","address":"Stationsweg  85","city":"Gorredijk","operatorName":"E-Flux by Road","maxPowerKw":14,"isMegawatt":false,"status":"AVAILABLE","source":"ndw","priceKwh":0.38}},{"type":"Feature","geometry":{"type":"Point","coordinates":[6.206224,53.108013]},"properties":{"type":"charge","layer":"passenger","locationId":"d548c918-7f5d-4a2e-bf83-65d9e4df8156","name":"TNLP012014 - Lytse Leane 10, Frieschepalen","address":"10 Lytse Leane","city":"Frieschepalen","operatorName":"TotalEnergies","maxPowerKw":17,"isMegawatt":false,"status":"UNAVAILABLE","source":"ndw"}},{"type":"Feature","geometry":{"type":"Point","coordinates":[6.021052,53.032504]},"properties":{"type":"charge","layer":"passenger","locationId":"31028","name":"Fastned De Vonken","address":"De Vonken A7","city":"Terwispel","operatorName":"Fastned","maxPowerKw":300,"isMegawatt":false,"status":"AVAILABLE","source":"ndw","priceKwh":0.6364}},{"type":"Feature","geometry":{"type":"Point","coordinates":[6.131965,53.096771]},"properties":{"type":"charge","layer":"passenger","locationId":"923522","name":"DAE_NL_2001287 11.2","address":"Curielaan 4","city":"Drachten","operatorName":"DAEN Mobility","maxPowerKw":22,"isMegawatt":false,"status":"AVAILABLE","source":"ndw","priceKwh":0.36}},{"type":"Feature","geometry":{"type":"Point","coordinates":[6.131965,53.096771]},"properties":{"type":"charge","layer":"passenger","locationId":"923529","name":"DAE_NL_2001292 14.1","address":"Curielaan 4","city":"Drachten","operatorName":"DAEN Mobility","maxPowerKw":22,"isMegawatt":false,"status":"AVAILABLE","source":"ndw","priceKwh":0.36}},{"type":"Feature","geometry":{"type":"Point","coordinates":[6.131965,53.096771]},"properties":{"type":"charge","layer":"passenger","locationId":"923518","name":"DAE_NL_2001283 9.1","address":"Curielaan 4","city":"Drachten","operatorName":"DAEN Mobility","maxPowerKw":22,"isMegawatt":false,"status":"AVAILABLE","source":"ndw","priceKwh":0.36}},{"type":"Feature","geometry":{"type":"Point","coordinates":[6.020644,53.029339]},"properties":{"type":"charge","layer":"passenger","locationId":"31113","name":"Fastned De Walden","address":"De Walden A7","city":"Terwispel","operatorName":"Fastned","maxPowerKw":300,"isMegawatt":false,"status":"AVAILABLE","source":"ndw","priceKwh":0.6364}},{"type":"Feature","geometry":{"type":"Point","coordinates":[6.261462,53.083244]},"properties":{"type":"charge","layer":"passenger","locationId":"1317ced3-1b0c-49f0-882c-8e9f3bdc5b58","name":"TNLP012020 - Aylvalân 11, Bakkeveen","address":"11 Aylvalân","city":"Bakkeveen","operatorName":"TotalEnergies","maxPowerKw":17,"isMegawatt":false,"status":"UNAVAILABLE","source":"ndw"}},{"type":"Feature","geometry":{"type":"Point","coordinates":[6.195512,53.121453]},"properties":{"type":"charge","layer":"passenger","locationId":"3843551","name":"Laadnet Sprangers","address":"De Scheiding 4","city":"Frieschepalen","operatorName":"Laadnet","maxPowerKw":22,"isMegawatt":false,"status":"AVAILABLE","source":"ndw"}},{"type":"Feature","geometry":{"type":"Point","coordinates":[6.173098,53.097624]},"properties":{"type":"charge","layer":"passenger","locationId":"68b6db1d36df75ddf67d7fb5","name":"Bureau Bring station","address":"Foareker  57","city":"Ureterp","operatorName":"E-Flux by Road","maxPowerKw":22,"isMegawatt":false,"status":"AVAILABLE","source":"ndw","priceKwh":0.53}},{"type":"Feature","geometry":{"type":"Point","coordinates":[6.065906,53.002796]},"properties":{"type":"charge","layer":"passenger","locationId":"1f4a954b-4bc4-4e47-95ae-7a0825221753","name":"TNLP011922 - Lijnbaan 16, Gorredijk","address":"16 Lijnbaan","city":"Gorredijk","operatorName":"TotalEnergies","maxPowerKw":17,"isMegawatt":false,"status":"UNAVAILABLE","source":"ndw"}},{"type":"Feature","geometry":{"type":"Point","coordinates":[6.131965,53.096771]},"properties":{"type":"charge","layer":"passenger","locationId":"923427","name":"D_P06.2_DAE_NL_2001254","address":"Curielaan 4","city":"Drachten","operatorName":"DAEN Mobility","maxPowerKw":22,"isMegawatt":false,"status":"AVAILABLE","source":"ndw","priceKwh":0.6}},{"type":"Feature","geometry":{"type":"Point","coordinates":[6.131965,53.096771]},"properties":{"type":"charge","layer":"passenger","locationId":"923523","name":"DAE_NL_2001288 12.1","address":"Curielaan 4","city":"Drachten","operatorName":"DAEN Mobility","maxPowerKw":22,"isMegawatt":false,"status":"AVAILABLE","source":"ndw","priceKwh":0.36}},{"type":"Feature","geometry":{"type":"Point","coordinates":[6.068875,53.001652]},"properties":{"type":"charge","layer":"passenger","locationId":"9423f9d4-e087-4e2d-9c9a-d19548578a35","name":"TNLP013165","address":"Heerenacker 44","city":"Gorredijk","operatorName":"TotalEnergies","maxPowerKw":17,"isMegawatt":false,"status":"UNAVAILABLE","source":"ndw"}},{"type":"Feature","geometry":{"type":"Point","coordinates":[6.131965,53.096771]},"properties":{"type":"charge","layer":"passenger","locationId":"923515","name":"DAE_NL_2001280 7.2","address":"Curielaan 4","city":"Drachten","operatorName":"DAEN Mobility","maxPowerKw":22,"isMegawatt":false,"status":"AVAILABLE","source":"ndw","priceKwh":0.36}},{"type":"Feature","geometry":{"type":"Point","coordinates":[6.131965,53.096771]},"properties":{"type":"charge","layer":"passenger","locationId":"923520","name":"DAE_NL_2001285 10.2","address":"Curielaan 4","city":"Drachten","operatorName":"DAEN Mobility","maxPowerKw":22,"isMegawatt":false,"status":"AVAILABLE","source":"ndw","priceKwh":0.36}},{"type":"Feature","geometry":{"type":"Point","coordinates":[6.131965,53.096771]},"properties":{"type":"charge","layer":"passenger","locationId":"923516","name":"DAE_NL_2001281 8.1","address":"Curielaan 4","city":"Drachten","operatorName":"DAEN Mobility","maxPowerKw":22,"isMegawatt":false,"status":"CHARGING","source":"ndw","priceKwh":0.36}},{"type":"Feature","geometry":{"type":"Point","coordinates":[6.104196,53.066607]},"properties":{"type":"charge","layer":"passenger","locationId":"668e4a6a00c6a0001c44ef18","name":"Hotel Restaurant Het Witte Huis","address":"Van Harinxmaweg 20","city":"Olterterp","operatorName":"Pluq","maxPowerKw":22,"isMegawatt":false,"status":"AVAILABLE","source":"ndw","priceKwh":0.38}},{"type":"Feature","geometry":{"type":"Point","coordinates":[6.165575,53.092648]},"properties":{"type":"charge","layer":"passenger","locationId":"a508391d-7daa-4de2-b35a-c21804d01cbf","name":"TNLP012126 - Strikel 15, Ureterp","address":"15 Strikel","city":"Ureterp","operatorName":"TotalEnergies","maxPowerKw":17,"isMegawatt":false,"status":"UNAVAILABLE","source":"ndw"}},{"type":"Feature","geometry":{"type":"Point","coordinates":[6.173155,53.095176]},"properties":{"type":"charge","layer":"passenger","locationId":"60b50619aaa084931632a62b","name":"Cafe It Alde Ste","address":"weibuorren 100","city":"Ureterp","operatorName":"E-Flux by Road","maxPowerKw":22,"isMegawatt":false,"status":"AVAILABLE","source":"ndw","priceKwh":0.78}},{"type":"Feature","geometry":{"type":"Point","coordinates":[6.064392,53.004597]},"properties":{"type":"charge","layer":"passenger","locationId":"a2715894-a543-4de4-b1a0-c2d623d2b9d2","name":"TNLP012128 - Hoofdstraat 1, Gorredijk","address":"1 Hoofdstraat","city":"Gorredijk","operatorName":"TotalEnergies","maxPowerKw":17,"isMegawatt":false,"status":"AVAILABLE","source":"ndw"}},{"type":"Feature","geometry":{"type":"Point","coordinates":[6.048161,53.006588]},"properties":{"type":"charge","layer":"passenger","locationId":"6a06c899440fc7b9054bd514","name":"Autobedrijf van der Veen Gorredijk","address":"Badweg 58","city":"Gorredijk","operatorName":"Alva Charging Services","maxPowerKw":11,"isMegawatt":false,"status":"AVAILABLE","source":"ndw","priceKwh":0.34}},{"type":"Feature","geometry":{"type":"Point","coordinates":[6.133591,53.095082]},"properties":{"type":"charge","layer":"passenger","locationId":"63a4215af257d70012d67f20","name":"Wadro Drachten 1+2","address":"Curielaan 3","city":"Drachten","operatorName":"E-Flux by Road","maxPowerKw":22,"isMegawatt":false,"status":"AVAILABLE","source":"ndw","priceKwh":0.33}},{"type":"Feature","geometry":{"type":"Point","coordinates":[6.080596,53.062046]},"properties":{"type":"charge","layer":"passenger","locationId":"babe4781-7a6e-407d-b045-164ead692cbd","name":"TNLP013178 - Vlaslaan 11, Beetsterzwaag","address":"11 Vlaslaan","city":"Beetsterzwaag","operatorName":"TotalEnergies","maxPowerKw":17,"isMegawatt":false,"status":"UNAVAILABLE","source":"ndw"}},{"type":"Feature","geometry":{"type":"Point","coordinates":[6.170439,53.089612]},"properties":{"type":"charge","layer":"passenger","locationId":"660d2c1175cc1f001c44304b","name":"Krûslings, Ureterp","address":"Kruslings 7","city":"Ureterp","operatorName":"E-Flux by Road","maxPowerKw":10,"isMegawatt":false,"status":"AVAILABLE","source":"ndw","priceKwh":0.55}},{"type":"Feature","geometry":{"type":"Point","coordinates":[6.065838,53.00374]},"properties":{"type":"charge","layer":"passenger","locationId":"76b236a6-22e3-40e6-b294-46c47d419ef0","name":"TNLP012210 - Hofland 111, Gorredijk","address":"111 Hofland","city":"Gorredijk","operatorName":"TotalEnergies","maxPowerKw":17,"isMegawatt":false,"status":"UNAVAILABLE","source":"ndw"}},{"type":"Feature","geometry":{"type":"Point","coordinates":[6.131965,53.096771]},"properties":{"type":"charge","layer":"passenger","locationId":"923525","name":"DAE_NL_2001290 13.1","address":"Curielaan 4","city":"Drachten","operatorName":"DAEN Mobility","maxPowerKw":22,"isMegawatt":false,"status":"AVAILABLE","source":"ndw","priceKwh":0.36}},{"type":"Feature","geometry":{"type":"Point","coordinates":[6.16953,53.094906]},"properties":{"type":"charge","layer":"passenger","locationId":"9c2a8f9e-6cc4-4e54-8677-a1a82de40df1","name":"TNLP012039 - Roggepaed 21, Ureterp","address":"21 Roggepaed","city":"Ureterp","operatorName":"TotalEnergies","maxPowerKw":17,"isMegawatt":false,"status":"UNAVAILABLE","source":"ndw"}},{"type":"Feature","geometry":{"type":"Point","coordinates":[6.131965,53.096771]},"properties":{"type":"charge","layer":"passenger","locationId":"923514","name":"DAE_NL_2001279 7.1","address":"Curielaan 4","city":"Drachten","operatorName":"DAEN Mobility","maxPowerKw":22,"isMegawatt":false,"status":"AVAILABLE","source":"ndw","priceKwh":0.36}},{"type":"Feature","geometry":{"type":"Point","coordinates":[6.131805,53.096927]},"properties":{"type":"charge","layer":"passenger","locationId":"922843","name":"D_P05_DAE_NL_2000531","address":"Curielaan 4","city":"Drachten","operatorName":"DAEN Mobility","maxPowerKw":11,"isMegawatt":false,"status":"AVAILABLE","source":"ndw","priceKwh":0.6}},{"type":"Feature","geometry":{"type":"Point","coordinates":[6.131965,53.096771]},"properties":{"type":"charge","layer":"passenger","locationId":"923526","name":"DAE_NL_2001293 14.2","address":"Curielaan 4","city":"Drachten","operatorName":"DAEN Mobility","maxPowerKw":22,"isMegawatt":false,"status":"AVAILABLE","source":"ndw","priceKwh":0.36}},{"type":"Feature","geometry":{"type":"Point","coordinates":[6.131965,53.096771]},"properties":{"type":"charge","layer":"passenger","locationId":"923521","name":"DAE_NL_2001286 11.1","address":"Curielaan 4","city":"Drachten","operatorName":"DAEN Mobility","maxPowerKw":22,"isMegawatt":false,"status":"AVAILABLE","source":"ndw","priceKwh":0.36}},{"type":"Feature","geometry":{"type":"Point","coordinates":[6.093778,53.018246]},"properties":{"type":"charge","layer":"passenger","locationId":"6d424074-2825-47fa-8f3a-cc751152a820","name":"TNLP013111 - Buorsterwyk 1, Lippenhuizen","address":"1 Buorsterwyk","city":"Lippenhuizen","operatorName":"TotalEnergies","maxPowerKw":17,"isMegawatt":false,"status":"UNAVAILABLE","source":"ndw"}},{"type":"Feature","geometry":{"type":"Point","coordinates":[6.131965,53.096771]},"properties":{"type":"charge","layer":"passenger","locationId":"923527","name":"DAE_NL_2001294 15.1","address":"Curielaan 4","city":"Drachten","operatorName":"DAEN Mobility","maxPowerKw":22,"isMegawatt":false,"status":"AVAILABLE","source":"ndw","priceKwh":0.36}},{"type":"Feature","geometry":{"type":"Point","coordinates":[6.131965,53.096771]},"properties":{"type":"charge","layer":"passenger","locationId":"923426","name":"D_P06.1_DAE_NL_2001253","address":"Curielaan 4","city":"Drachten","operatorName":"DAEN Mobility","maxPowerKw":22,"isMegawatt":false,"status":"AVAILABLE","source":"ndw","priceKwh":0.6}},{"type":"Feature","geometry":{"type":"Point","coordinates":[6.071209,53.008816]},"properties":{"type":"charge","layer":"passenger","locationId":"3ee54125-9703-431c-a3cf-50327c50aee1","name":"TNLP012244 - Mouterij 36, Gorredijk","address":"36 Mouterij","city":"Gorredijk","operatorName":"TotalEnergies","maxPowerKw":17,"isMegawatt":false,"status":"UNAVAILABLE","source":"ndw"}},{"type":"Feature","geometry":{"type":"Point","coordinates":[6.04363,53.006901]},"properties":{"type":"charge","layer":"passenger","locationId":"63f398b8f18bb8001275de15","name":"hubo gorredijk 's station","address":"De Kromten 14","city":"Gorredijk","operatorName":"E-Flux by Road","maxPowerKw":22,"isMegawatt":false,"status":"AVAILABLE","source":"ndw","priceKwh":0.58}},{"type":"Feature","geometry":{"type":"Point","coordinates":[6.076254,53.059864]},"properties":{"type":"charge","layer":"passenger","locationId":"30ca259a-8f75-47f5-9397-542c8849dced","name":"TNLP012181 - Pastorielaan 3, Beetsterzwaag","address":"3 Pastorielaan","city":"Beetsterzwaag","operatorName":"TotalEnergies","maxPowerKw":17,"isMegawatt":false,"status":"UNAVAILABLE","source":"ndw"}},{"type":"Feature","geometry":{"type":"Point","coordinates":[6.043543,53.008716]},"properties":{"type":"charge","layer":"passenger","locationId":"637648d8966fc221b09d5c20","name":"Sietzema Techniek BV","address":"De Werf 42","city":"Gorredijk","operatorName":"E-Flux by Road","maxPowerKw":22,"isMegawatt":false,"status":"AVAILABLE","source":"ndw","priceKwh":0.48}},{"type":"Feature","geometry":{"type":"Point","coordinates":[6.042707,53.007621]},"properties":{"type":"charge","layer":"passenger","locationId":"65fd6f977b9e88001ca39ee6","name":"Arjan Frederiks 's station","address":"De werf  15","city":"Gorredijk","operatorName":"E-Flux by Road","maxPowerKw":17,"isMegawatt":false,"status":"AVAILABLE","source":"ndw","priceKwh":0.48}},{"type":"Feature","geometry":{"type":"Point","coordinates":[6.258402,53.085148]},"properties":{"type":"charge","layer":"passenger","locationId":"5fce05fd-6657-4c1f-b026-692a41f70134","name":"TNLP012148 - Sjoerdlân 9, Bakkeveen","address":"9 Sjoerdlân","city":"Bakkeveen","operatorName":"TotalEnergies","maxPowerKw":17,"isMegawatt":false,"status":"UNAVAILABLE","source":"ndw"}},{"type":"Feature","geometry":{"type":"Point","coordinates":[6.060647,53.013219]},"properties":{"type":"charge","layer":"passenger","locationId":"3a7bcf4664e526eae7731b0083ab4d69","name":"Tolhûsleane 9","address":"Tolhûsleane 9","city":"Gorredijk","operatorName":"Vattenfall InCharge","maxPowerKw":22,"isMegawatt":false,"status":"AVAILABLE","source":"ndw"}},{"type":"Feature","geometry":{"type":"Point","coordinates":[6.044283,53.008148]},"properties":{"type":"charge","layer":"passenger","locationId":"6723f0915d1028f44597e7b0","name":"DVI Metaal BV laadstation","address":"De Werf 11","city":"Gorredijk","operatorName":"E-Flux by Road","maxPowerKw":14,"isMegawatt":false,"status":"AVAILABLE","source":"ndw","priceKwh":0.48}},{"type":"Feature","geometry":{"type":"Point","coordinates":[6.061307,53.0039]},"properties":{"type":"charge","layer":"passenger","locationId":"1ef1efe5-4d35-4c2d-b6d2-c82a32a20304","name":"TNLP013075 - Molenwal 26, Gorredijk","address":"26 Molenwal","city":"Gorredijk","operatorName":"TotalEnergies","maxPowerKw":17,"isMegawatt":false,"status":"UNAVAILABLE","source":"ndw"}},{"type":"Feature","geometry":{"type":"Point","coordinates":[6.131965,53.096771]},"properties":{"type":"charge","layer":"passenger","locationId":"923519","name":"DAE_NL_2001284 10.1","address":"Curielaan 4","city":"Drachten","operatorName":"DAEN Mobility","maxPowerKw":22,"isMegawatt":false,"status":"AVAILABLE","source":"ndw","priceKwh":0.36}},{"type":"Feature","geometry":{"type":"Point","coordinates":[6.066408,53.003105]},"properties":{"type":"charge","layer":"passenger","locationId":"84c604d8-4556-4ced-b5e5-a295731b7ec7","name":"TNLP012021 - Lijnbaan 7, Gorredijk","address":"7 Lijnbaan","city":"Gorredijk","operatorName":"TotalEnergies","maxPowerKw":17,"isMegawatt":false,"status":"UNAVAILABLE","source":"ndw"}},{"type":"Feature","geometry":{"type":"Point","coordinates":[6.056629,53.010799]},"properties":{"type":"charge","layer":"passenger","locationId":"668d0c3b2e189a001c79e07b","name":"Bergsma Meubelen","address":"Overtoom 4","city":"Gorredijk","operatorName":"E-Flux by Road","maxPowerKw":22,"isMegawatt":false,"status":"AVAILABLE","source":"ndw","priceKwh":0.33}},{"type":"Feature","geometry":{"type":"Point","coordinates":[6.169537,53.089142]},"properties":{"type":"charge","layer":"passenger","locationId":"6712105b6ef784001c2a1a70","name":"Freddie Welvering 's station","address":"Iisnocht 1","city":"Ureterp","operatorName":"E-Flux by Road","maxPowerKw":22,"isMegawatt":false,"status":"AVAILABLE","source":"ndw","priceKwh":0.38}},{"type":"Feature","geometry":{"type":"Point","coordinates":[6.131951,53.096952]},"properties":{"type":"charge","layer":"passenger","locationId":"922841","name":"D_P03_DAE_NL_2000529","address":"Curielaan 4","city":"Drachten","operatorName":"DAEN Mobility","maxPowerKw":11,"isMegawatt":false,"status":"AVAILABLE","source":"ndw","priceKwh":0.6}},{"type":"Feature","geometry":{"type":"Point","coordinates":[6.130116,53.095495]},"properties":{"type":"charge","layer":"passenger","locationId":"922927","name":"D_P01_DAE_NL_2000712","address":"Curielaan 4","city":"Drachten","operatorName":"DAEN Mobility","maxPowerKw":11,"isMegawatt":false,"status":"AVAILABLE","source":"ndw","priceKwh":0.6}},{"type":"Feature","geometry":{"type":"Point","coordinates":[6.138611,53.032252]},"properties":{"type":"charge","layer":"passenger","locationId":"671a6114ad2124001c80f007","name":"Eldert Jan Wiebenga 's station","address":"Binnenwei  47","city":"Hemrik","operatorName":"E-Flux by Road","maxPowerKw":11,"isMegawatt":false,"status":"AVAILABLE","source":"ndw","priceKwh":0.48}},{"type":"Feature","geometry":{"type":"Point","coordinates":[6.163704,53.09823]},"properties":{"type":"charge","layer":"passenger","locationId":"d71f3484-a33c-455e-a613-4de58a635d92","name":"TNLP013080 - Hege Kamp 50, Ureterp","address":"50 Hege Kamp","city":"Ureterp","operatorName":"TotalEnergies","maxPowerKw":17,"isMegawatt":false,"status":"UNAVAILABLE","source":"ndw"}},{"type":"Feature","geometry":{"type":"Point","coordinates":[6.06772,53.010784]},"properties":{"type":"charge","layer":"passenger","locationId":"e4b83873-5264-4cf3-bf49-c32ac4ff33f4","name":"TNLP013115 - Stokerij 103, Gorredijk","address":"103 Stokerij","city":"Gorredijk","operatorName":"TotalEnergies","maxPowerKw":17,"isMegawatt":false,"status":"UNAVAILABLE","source":"ndw"}},{"type":"Feature","geometry":{"type":"Point","coordinates":[6.063629,53.001556]},"properties":{"type":"charge","layer":"passenger","locationId":"258ddae6-4919-47cc-8c7d-c9e3b2282a2f","name":"TNLP013296 - Hoofdstraat 6324, Gorredijk","address":"6324 Hoofdstraat","city":"Gorredijk","operatorName":"TotalEnergies","maxPowerKw":17,"isMegawatt":false,"status":"UNAVAILABLE","source":"ndw"}},{"type":"Feature","geometry":{"type":"Point","coordinates":[6.195256,53.094694]},"properties":{"type":"charge","layer":"passenger","locationId":"61c970430d200ec0b000403b","name":"Kluswijs & Dijk","address":"boerstreek 41","city":"ureterp","operatorName":"E-Flux by Road","maxPowerKw":11,"isMegawatt":false,"status":"AVAILABLE","source":"ndw","priceKwh":0.37}},{"type":"Feature","geometry":{"type":"Point","coordinates":[6.077756,53.068058]},"properties":{"type":"charge","layer":"passenger","locationId":"65293fee-eed7-4502-82e8-0380f95fd976","name":"TNLP012005 - De Letterbeam 16, Beetsterzwaag","address":"16 De Letterbeam","city":"Beetsterzwaag","operatorName":"TotalEnergies","maxPowerKw":17,"isMegawatt":false,"status":"UNAVAILABLE","source":"ndw"}},{"type":"Feature","geometry":{"type":"Point","coordinates":[6.170859,53.092384]},"properties":{"type":"charge","layer":"passenger","locationId":"c4066c6e-7981-4540-b627-7315d5ac01ce","name":"TNLP013451 - De Bân 16, Ureterp","address":"16 De Bân","city":"Ureterp","operatorName":"TotalEnergies","maxPowerKw":17,"isMegawatt":false,"status":"UNAVAILABLE","source":"ndw"}},{"type":"Feature","geometry":{"type":"Point","coordinates":[6.205501,53.110695]},"properties":{"type":"charge","layer":"passenger","locationId":"f2506660-8f79-4852-95fe-09433db1bf3f","name":"TNLP012133 - De Bodding 8, Frieschepalen","address":"8 De Bodding","city":"Frieschepalen","operatorName":"TotalEnergies","maxPowerKw":17,"isMegawatt":false,"status":"UNAVAILABLE","source":"ndw"}},{"type":"Feature","geometry":{"type":"Point","coordinates":[6.131965,53.096771]},"properties":{"type":"charge","layer":"passenger","locationId":"923530","name":"DAE_NL_2001291 13.2","address":"Curielaan 4","city":"Drachten","operatorName":"DAEN Mobility","maxPowerKw":22,"isMegawatt":false,"status":"AVAILABLE","source":"ndw","priceKwh":0.36}},{"type":"Feature","geometry":{"type":"Point","coordinates":[5.990041,53.03072]},"properties":{"type":"charge","layer":"passenger","locationId":"6715832f-d7cf-44ac-8b7e-d843a5a5e93c","name":"TNLP012045 - Winia-ikkers 17, Tijnje","address":"17 Winia-ikkers","city":"Tijnje","operatorName":"TotalEnergies","maxPowerKw":17,"isMegawatt":false,"status":"UNAVAILABLE","source":"ndw"}},{"type":"Feature","geometry":{"type":"Point","coordinates":[6.131965,53.096771]},"properties":{"type":"charge","layer":"passenger","locationId":"923531","name":"DAE_NL_2001296 16.1","address":"Curielaan 4","city":"Drachten","operatorName":"DAEN Mobility","maxPowerKw":22,"isMegawatt":false,"status":"AVAILABLE","source":"ndw","priceKwh":0.36}},{"type":"Feature","geometry":{"type":"Point","coordinates":[6.131965,53.096771]},"properties":{"type":"charge","layer":"passenger","locationId":"923528","name":"DAE_NL_2001295 15.2","address":"Curielaan 4","city":"Drachten","operatorName":"DAEN Mobility","maxPowerKw":22,"isMegawatt":false,"status":"AVAILABLE","source":"ndw","priceKwh":0.36}},{"type":"Feature","geometry":{"type":"Point","coordinates":[6.131882,53.096939]},"properties":{"type":"charge","layer":"passenger","locationId":"922844","name":"D_P04_DAE_NL_2000533","address":"Curielaan 4","city":"Drachten","operatorName":"DAEN Mobility","maxPowerKw":11,"isMegawatt":false,"status":"AVAILABLE","source":"ndw","priceKwh":0.6}},{"type":"Feature","geometry":{"type":"Point","coordinates":[6.133574,53.095183]},"properties":{"type":"charge","layer":"passenger","locationId":"69e1fed8e08c1b4759abf980","name":"Wadro Drachten 5 + 6","address":"Curielaan  3","city":"Drachten","operatorName":"E-Flux by Road","maxPowerKw":11,"isMegawatt":false,"status":"AVAILABLE","source":"ndw","priceKwh":0.33}},{"type":"Feature","geometry":{"type":"Point","coordinates":[6.079506,53.002434]},"properties":{"type":"charge","layer":"passenger","locationId":"2e91c11a-ee44-4aff-871b-c770ee3aedea","name":"TNLP013371 - Jikke Reinbergenstrjitte 84, Gorredijk","address":"84 Jikke Reinbergenstrjitte","city":"Gorredijk","operatorName":"TotalEnergies","maxPowerKw":17,"isMegawatt":false,"status":"UNAVAILABLE","source":"ndw"}},{"type":"Feature","geometry":{"type":"Point","coordinates":[6.131742,53.096922]},"properties":{"type":"charge","layer":"passenger","locationId":"922842","name":"D_P02_DAE_NL_2000530","address":"Curielaan 4","city":"Drachten","operatorName":"DAEN Mobility","maxPowerKw":11,"isMegawatt":false,"status":"AVAILABLE","source":"ndw","priceKwh":0.6}},{"type":"Feature","geometry":{"type":"Point","coordinates":[6.131965,53.096771]},"properties":{"type":"charge","layer":"passenger","locationId":"923524","name":"DAE_NL_2001289 12.2","address":"Curielaan 4","city":"Drachten","operatorName":"DAEN Mobility","maxPowerKw":22,"isMegawatt":false,"status":"AVAILABLE","source":"ndw","priceKwh":0.36}},{"type":"Feature","geometry":{"type":"Point","coordinates":[6.13558,53.09871]},"properties":{"type":"charge","layer":"passenger","locationId":"cca9ccdf-fda0-40ff-94db-11aeaecdae00","name":"PRO - Profile - Drachten","address":"Dopplerlaan 8","city":"Drachten","operatorName":"Blink Charging","maxPowerKw":22,"isMegawatt":false,"status":"UNAVAILABLE","source":"ndw","priceKwh":0.537}},{"type":"Feature","geometry":{"type":"Point","coordinates":[6.16558,53.094814]},"properties":{"type":"charge","layer":"passenger","locationId":"75966c7f-9982-4f4b-8d47-d9dd6ea3abd5","name":"TNLP012249 - Souwe 2, Ureterp","address":"2 Souwe","city":"Ureterp","operatorName":"TotalEnergies","maxPowerKw":17,"isMegawatt":false,"status":"UNAVAILABLE","source":"ndw"}},{"type":"Feature","geometry":{"type":"Point","coordinates":[6.075806,53.062508]},"properties":{"type":"charge","layer":"passenger","locationId":"e846b21e-4b00-472d-bcd2-d6ae2b455de4","name":"TNLP013068 - Van Lyndenpark 102, Beetsterzwaag","address":"102 Van Lyndenpark","city":"Beetsterzwaag","operatorName":"TotalEnergies","maxPowerKw":17,"isMegawatt":false,"status":"UNAVAILABLE","source":"ndw"}},{"type":"Feature","geometry":{"type":"Point","coordinates":[6.081363,53.0615]},"properties":{"type":"charge","layer":"passenger","locationId":"09bd8fa3-1c71-4129-902e-1ea52e99c5df","name":"TNLP012096 - Vlaslaan 27A, Beetsterzwaag","address":"27A Vlaslaan","city":"Beetsterzwaag","operatorName":"TotalEnergies","maxPowerKw":17,"isMegawatt":false,"status":"UNAVAILABLE","source":"ndw"}},{"type":"Feature","geometry":{"type":"Point","coordinates":[6.180986,53.100632]},"properties":{"type":"charge","layer":"passenger","locationId":"6176c1865f5cdbcaca202f77","name":"Ureterp","address":"Griene Leane 8","city":"Ureterp","operatorName":"E-Flux by Road","maxPowerKw":11,"isMegawatt":false,"status":"AVAILABLE","source":"ndw","priceKwh":0.78}},{"type":"Feature","geometry":{"type":"Point","coordinates":[6.230155,53.069455]},"properties":{"type":"charge","layer":"passenger","locationId":"668e43c89a1a65001c8f3d4f","name":"Hotel & Restaurant De Stripe","address":"Duerswald 23","city":"Wijnjewoude","operatorName":"Pluq","maxPowerKw":17,"isMegawatt":false,"status":"AVAILABLE","source":"ndw","priceKwh":0.35}},{"type":"Feature","geometry":{"type":"Point","coordinates":[6.072315,53.056488]},"properties":{"type":"charge","layer":"passenger","locationId":"67053876266fbb001c8d68ab","name":"Landschapsbeheer Friesland","address":"Commissieweg 13","city":"Beetsterzwaag","operatorName":"E-Flux by Road","maxPowerKw":12,"isMegawatt":false,"status":"AVAILABLE","source":"ndw","priceKwh":0.4}},{"type":"Feature","geometry":{"type":"Point","coordinates":[6.041931,53.007538]},"properties":{"type":"charge","layer":"freight","locationId":"685a64aa13d8cab36f852a4e","name":"Fieten Electric B.V. | Gorredijk","address":"De Kromten  18","city":"Gorredijk","operatorName":"E-Flux by Road","maxPowerKw":400,"isMegawatt":false,"status":"AVAILABLE","source":"ndw","priceKwh":0.4876,"freightKind":"hpc","freightReason":"power"}},{"type":"Feature","geometry":{"type":"MultiPolygon","coordinates":[[[[6.225961863537374,53.11430065477275],[6.239364126294903,53.11338933481382],[6.251264980466621,53.11393746901759],[6.254381751772688,53.11413200380941],[6.255595160458937,53.11420022561672],[6.261684965914621,53.1142932066555],[6.27413931827276,53.11116168699449],[6.283050875055933,53.10686366498006],[6.290566223731988,53.09982958186881],[6.293173265517551,53.09921054911735],[6.2964276019982215,53.09844387499863],[6.315158233452453,53.09405334802579],[6.305274426098854,53.081190075833206],[6.3320561236934125,53.075279961784084],[6.327788913317632,53.07435700615247],[6.3054084771773296,53.06940965822603],[6.281430210937018,53.064187064734014],[6.280584178948917,53.05856091927319],[6.280531220984185,53.05821114737656],[6.273062890323489,53.05591015552748],[6.254412985147302,53.04918105857925],[6.25177125191651,53.04834137022575],[6.222837379099677,53.03918743792861],[6.215146258280927,53.03826925311236],[6.21290116165459,53.037145996569734],[6.2128517682465425,53.036236314983576],[6.205423687844217,53.037931611744106],[6.20039866279745,53.03679281220355],[6.198782694719828,53.033766569089615],[6.196624572120219,53.03327160369966],[6.194819511516488,53.03099724211605],[6.185699530469242,53.02502096461944],[6.176470349868927,53.02093235288245],[6.171300603129027,53.01990285902657],[6.158529958689497,53.01702357323467],[6.151337727024644,53.01661820660699],[6.138774003978719,53.01348438780523],[6.131553763709198,53.01200640548418],[6.129640894544567,53.01083000981122],[6.128779197518729,53.010385494951706],[6.129804713326002,53.00875782508815],[6.1204886580339055,53.00536307618366],[6.113904695371276,53.00173429499947],[6.107407889922464,52.99940729839471],[6.105555894810231,52.997769600020284],[6.1007722582376624,52.995606992199],[6.099286067980695,52.99407939611894],[6.096478249901063,52.99285414108098],[6.099722400936325,52.98950078754931],[6.0989832271834,52.98923884894223],[6.098468397875739,52.98975608535646],[6.096452884940996,52.98806413685449],[6.09750819839807,52.9869549110714],[6.092485528040198,52.984249521893474],[6.087863325577298,52.983285778916844],[6.086206197712748,52.983753892389785],[6.08496792182773,52.98294790100769],[6.084297489314572,52.98317422914481],[6.079725629248843,52.980454901466636],[6.069843994919747,52.974234534134716],[6.067493764030117,52.9731662599989],[6.066835307983477,52.9737163328718],[6.065497315277308,52.972998701802545],[6.058883714267476,52.97029182322518],[6.044347088030952,52.96623731219846],[6.026940727479524,52.96437303432041],[6.026805494259163,52.964998150336356],[6.018803829547893,52.96608985487395],[6.016341103788071,52.96637600601259],[5.962872379752625,52.97242509663777],[5.958104815078081,52.9729358393281],[5.962826066737134,52.977316927373316],[5.964891843138585,52.979337465403695],[5.9626531552188355,52.98100771921865],[5.972823482888482,52.98935378235343],[5.974154863871204,52.990549451709654],[5.976749936606969,52.9926592450877],[5.974648659274747,52.99428574157907],[5.976491981667311,52.99559137292365],[5.977592656611052,52.99638161121678],[5.979609948340853,52.99781166972692],[5.97396321399861,53.00342528532086],[5.973008888827786,53.00557904058129],[5.973911590454338,53.006219522894476],[5.971963495191006,53.009658880659615],[5.977122700599733,53.01016590468122],[5.976771700775142,53.01120085763305],[5.978902172023609,53.01500804345667],[5.984483873423735,53.025285761591675],[5.9839142004774555,53.02655943509477],[5.978721280830845,53.02817959448851],[5.979117983925946,53.02923920909286],[5.977036771507672,53.03012890845245],[5.966088266204813,53.032757696503545],[5.965926249651249,53.033167813249996],[5.952178630832391,53.037208223754085],[5.953087602793107,53.03834963815392],[5.942862193547954,53.04128395627984],[5.940137587688828,53.04221443422768],[5.9406363636531525,53.04282124168378],[5.93799610034261,53.04427039317299],[5.943949459883193,53.04439463730783],[5.9433552863753905,53.0474308854953],[5.944170427132295,53.04758574598241],[5.944531431277431,53.0490789568487],[5.948595490134706,53.04918626191241],[5.9488210751327175,53.04995621074738],[5.952904056367979,53.0500847847149],[5.953760139518728,53.05207647109824],[5.956396507498532,53.05221025617165],[5.957619088145141,53.05354666986483],[5.942635186845896,53.053486642803456],[5.947328521880649,53.06248064810795],[5.944268633895945,53.065254995699306],[5.9410906680731275,53.06390054200781],[5.939992944646837,53.06402170973299],[5.9354566156326545,53.06657074867143],[5.930412091594798,53.0710053112526],[5.932277792802961,53.07141056654306],[5.932296012635088,53.07321402038228],[5.935952144516764,53.07381582427752],[5.934318009645964,53.07577582723661],[5.932917045063137,53.076044754268544],[5.933650032755739,53.076853639325925],[5.933390638297558,53.07811179570973],[5.927580928104836,53.078395267865645],[5.930313798077253,53.08101842794735],[5.932799947640171,53.08118080148727],[5.980944171213114,53.07756591243885],[5.988055879967576,53.08075745521959],[5.996366865805596,53.08087578105536],[5.997666577563548,53.08068817983455],[6.002470713334114,53.080653263995345],[6.017467165747124,53.07610551878748],[6.0198162608965085,53.07682589312525],[6.024399399310812,53.07336143989723],[6.031736632440466,53.073862455288996],[6.051049200592785,53.07275171124458],[6.069401832036147,53.07210051937589],[6.076129010154924,53.07115949482018],[6.083426658817832,53.07098738882393],[6.088459977722329,53.07088995863439],[6.088558873643734,53.07087190473015],[6.08925654989381,53.070990719517354],[6.097689759425478,53.074913686114584],[6.103593681016836,53.07700593897355],[6.109609381459067,53.082210878987304],[6.114180786739748,53.0868656293377],[6.124961362642923,53.10121196575758],[6.12565928296808,53.10147027297478],[6.1291169492918485,53.102724122431674],[6.130684702713534,53.10291026989796],[6.134848331043126,53.104797577255894],[6.144891659398813,53.10857112099404],[6.15025117284275,53.1116763368086],[6.163946144606008,53.12076383604989],[6.175421078723248,53.12536738681636],[6.185716455705694,53.12921393774217],[6.192940993030266,53.123357107920015],[6.202381399660423,53.117221117585444],[6.2056097120516736,53.11546698356164],[6.206205292316681,53.11544829166446],[6.206271219804705,53.11544501284636],[6.21286048683029,53.115233060957955],[6.222606789022038,53.11491466125505],[6.225961863537374,53.11430065477275]]]]},"properties":{"type":"boundary","gemeente":"Opsterland","code":"GM0086"}}]}