{"type":"FeatureCollection","metadata":{"gemeente":"Oudewater","slug":"oudewater","code":"GM0589","generated_at":"2026-07-06T16:26:11.361Z","total_passenger":29,"total_freight":0,"bounds":[4.798700971667406,51.986143039045665,4.9266811572822204,52.06344677401791],"operators":["Laadnet","TotalEnergies","Ubitricity","Vattenfall InCharge"]},"features":[{"type":"Feature","geometry":{"type":"Point","coordinates":[4.86975,52.02086]},"properties":{"type":"charge","layer":"passenger","locationId":"828bbfe1ea186bee3eee50430bca10bd","name":"IJsselvere 19","address":"IJsselvere 19","city":"Oudewater","operatorName":"Vattenfall InCharge","maxPowerKw":11,"isMegawatt":false,"status":"CHARGING","source":"ndw"}},{"type":"Feature","geometry":{"type":"Point","coordinates":[4.80925,52.0164]},"properties":{"type":"charge","layer":"passenger","locationId":"4f6f707c-d9f9-4140-99ed-773804a8c49f","name":"PP002656 - Adriaan Leeuwenhoekstraat 12, Hekendorp","address":"12 Adriaan Leeuwenhoekstraat","city":"Hekendorp","operatorName":"TotalEnergies","maxPowerKw":13,"isMegawatt":false,"status":"CHARGING","source":"ndw"}},{"type":"Feature","geometry":{"type":"Point","coordinates":[4.8658226,52.0301033]},"properties":{"type":"charge","layer":"passenger","locationId":"788","name":"Shell Recharge NL G.R. van Kinschotstraat 20","address":"G.R. van Kinschotstraat 20","city":"Oudewater","operatorName":"Ubitricity","maxPowerKw":22,"isMegawatt":false,"status":"CHARGING","source":"ndw","priceKwh":0.266}},{"type":"Feature","geometry":{"type":"Point","coordinates":[4.861988,52.027203]},"properties":{"type":"charge","layer":"passenger","locationId":"c9f66cb8-e575-44fe-9460-b9c7792eb30c","name":"TNLP006927 - Papenhoeflaan 52, Oudewater","address":"52 Papenhoeflaan","city":"Oudewater","operatorName":"TotalEnergies","maxPowerKw":17,"isMegawatt":false,"status":"AVAILABLE","source":"ndw"}},{"type":"Feature","geometry":{"type":"Point","coordinates":[4.864605,52.022194]},"properties":{"type":"charge","layer":"passenger","locationId":"acac1964-9a12-4ba8-acb2-f14f2b7a769a","name":"TNLP008123 - Titus Brandsmastraat 2, Oudewater","address":"2 Titus Brandsmastraat","city":"Oudewater","operatorName":"TotalEnergies","maxPowerKw":17,"isMegawatt":false,"status":"AVAILABLE","source":"ndw"}},{"type":"Feature","geometry":{"type":"Point","coordinates":[4.868827,52.0250335]},"properties":{"type":"charge","layer":"passenger","locationId":"2563","name":"Shell Recharge NL Van Veenendaalstraat 2","address":"Van Veenendaalstraat 2","city":"Oudewater","operatorName":"Ubitricity","maxPowerKw":22,"isMegawatt":false,"status":"AVAILABLE","source":"ndw","priceKwh":0.266}},{"type":"Feature","geometry":{"type":"Point","coordinates":[4.87328,52.02253]},"properties":{"type":"charge","layer":"passenger","locationId":"def37d5d-7464-46c9-bfe8-4ceea8cd3c94","name":"PP002655 - Oude Huijgensteeg 5, Oudewater","address":"5 Oude Huijgensteeg","city":"Oudewater","operatorName":"TotalEnergies","maxPowerKw":13,"isMegawatt":false,"status":"AVAILABLE","source":"ndw"}},{"type":"Feature","geometry":{"type":"Point","coordinates":[4.872977,52.024]},"properties":{"type":"charge","layer":"passenger","locationId":"5349a2f6-f95d-46cb-8110-013b9e158f1e","name":"TNLP009964 - Lange Burchwal 55, Oudewater","address":"55 Lange Burchwal","city":"Oudewater","operatorName":"TotalEnergies","maxPowerKw":17,"isMegawatt":false,"status":"AVAILABLE","source":"ndw"}},{"type":"Feature","geometry":{"type":"Point","coordinates":[4.867816,52.028263]},"properties":{"type":"charge","layer":"passenger","locationId":"7011073b-5c66-4c2a-a4aa-a60e28995ec6","name":"TNLP007826 - C. Valeriusstraat 14, Oudewater","address":"14 C. Valeriusstraat","city":"Oudewater","operatorName":"TotalEnergies","maxPowerKw":17,"isMegawatt":false,"status":"AVAILABLE","source":"ndw"}},{"type":"Feature","geometry":{"type":"Point","coordinates":[4.876431,52.028084]},"properties":{"type":"charge","layer":"passenger","locationId":"e44290c9-8c9e-4ff5-bcd1-c5cb4ef336ed","name":"TNLP008224 - Kabelslag 19, Oudewater","address":"19 Kabelslag","city":"Oudewater","operatorName":"TotalEnergies","maxPowerKw":17,"isMegawatt":false,"status":"AVAILABLE","source":"ndw"}},{"type":"Feature","geometry":{"type":"Point","coordinates":[4.86208,52.02146]},"properties":{"type":"charge","layer":"passenger","locationId":"428","name":"Shell Recharge NL Viet 31","address":"Viet 31","city":"Oudewater","operatorName":"Ubitricity","maxPowerKw":11,"isMegawatt":false,"status":"AVAILABLE","source":"ndw","priceKwh":0.388}},{"type":"Feature","geometry":{"type":"Point","coordinates":[4.865312,52.025997]},"properties":{"type":"charge","layer":"passenger","locationId":"92f0239a-4a53-4254-8db8-0d2a480f6dff","name":"TNLP006072 - Schakenbosdreef 27, Oudewater","address":"27 Schakenbosdreef","city":"Oudewater","operatorName":"TotalEnergies","maxPowerKw":15,"isMegawatt":false,"status":"AVAILABLE","source":"ndw"}},{"type":"Feature","geometry":{"type":"Point","coordinates":[4.87533,52.0197]},"properties":{"type":"charge","layer":"passenger","locationId":"FBEE257A-55AB-4D65-8225-F7218FBCD3C8","name":"PP002657","address":"Bolwerk 1","city":"Oudewater","operatorName":"TotalEnergies","maxPowerKw":11,"isMegawatt":false,"status":"UNAVAILABLE","source":"ndw"}},{"type":"Feature","geometry":{"type":"Point","coordinates":[4.858517,52.02754]},"properties":{"type":"charge","layer":"passenger","locationId":"cde2b751-cf02-4ed8-bdb3-8660fb1143d2","name":"TNLP007906 - Oude Touwfabriek 38, Oudewater","address":"38 Oude Touwfabriek","city":"Oudewater","operatorName":"TotalEnergies","maxPowerKw":15,"isMegawatt":false,"status":"AVAILABLE","source":"ndw"}},{"type":"Feature","geometry":{"type":"Point","coordinates":[4.865566,52.02217]},"properties":{"type":"charge","layer":"passenger","locationId":"2656059","name":"Laadnet Bosch Car Service Van Dam","address":"Goudsestraatweg 18","city":"Oudewater","operatorName":"Laadnet","maxPowerKw":22,"isMegawatt":false,"status":"AVAILABLE","source":"ndw"}},{"type":"Feature","geometry":{"type":"Point","coordinates":[4.868789,52.026546]},"properties":{"type":"charge","layer":"passenger","locationId":"8239c253-eec9-48bf-9666-1d2a41bcabc8","name":"TNLP008124 - Oude Singel 11, Oudewater","address":"11 Oude Singel","city":"Oudewater","operatorName":"TotalEnergies","maxPowerKw":15,"isMegawatt":false,"status":"AVAILABLE","source":"ndw"}},{"type":"Feature","geometry":{"type":"Point","coordinates":[4.872435,52.024654]},"properties":{"type":"charge","layer":"passenger","locationId":"d4a44f61-a857-4510-9d0a-ee9ee1be1611","name":"TNLP006073 - Lange Burchwal 128, Oudewater","address":"128 Lange Burchwal","city":"Oudewater","operatorName":"TotalEnergies","maxPowerKw":17,"isMegawatt":false,"status":"CHARGING","source":"ndw"}},{"type":"Feature","geometry":{"type":"Point","coordinates":[4.872088,52.028194]},"properties":{"type":"charge","layer":"passenger","locationId":"d35c803c-1802-4be4-8ba4-1a15f2072866","name":"PP005171 - Strengen 41, Oudewater","address":"41 Strengen","city":"Oudewater","operatorName":"TotalEnergies","maxPowerKw":11,"isMegawatt":false,"status":"AVAILABLE","source":"ndw"}},{"type":"Feature","geometry":{"type":"Point","coordinates":[4.852529,52.045934]},"properties":{"type":"charge","layer":"passenger","locationId":"cdd07d80-fdf9-4409-af30-3acaa0240fbd","name":"TNLP034292","address":"Papekopperstraatweg 9","city":"Papekop","operatorName":"TotalEnergies","maxPowerKw":14,"isMegawatt":false,"status":"AVAILABLE","source":"ndw"}},{"type":"Feature","geometry":{"type":"Point","coordinates":[4.868877,52.023823]},"properties":{"type":"charge","layer":"passenger","locationId":"fe82fdd4-7493-478c-a577-e8aa94176a7e","name":"TNLP006129 - Westsingel 2, Oudewater","address":"2 Westsingel","city":"Oudewater","operatorName":"TotalEnergies","maxPowerKw":17,"isMegawatt":false,"status":"AVAILABLE","source":"ndw"}},{"type":"Feature","geometry":{"type":"Point","coordinates":[4.86184,52.02516]},"properties":{"type":"charge","layer":"passenger","locationId":"461","name":"Shell Recharge NL Papenhoeflaan 106","address":"Papenhoeflaan 106","city":"Oudewater","operatorName":"Ubitricity","maxPowerKw":11,"isMegawatt":false,"status":"AVAILABLE","source":"ndw","priceKwh":0.388}},{"type":"Feature","geometry":{"type":"Point","coordinates":[4.86878,52.02526]},"properties":{"type":"charge","layer":"passenger","locationId":"503","name":"Shell Recharge NL Lefébureplein 16","address":"Lefébureplein 16","city":"Oudewater","operatorName":"Ubitricity","maxPowerKw":11,"isMegawatt":false,"status":"AVAILABLE","source":"ndw","priceKwh":0.388}},{"type":"Feature","geometry":{"type":"Point","coordinates":[4.872438,52.0205]},"properties":{"type":"charge","layer":"passenger","locationId":"9aef8ceb-ea20-458a-89e1-f19dec114fdc","name":"TNLP006249 - Gasplein 3, Oudewater","address":"3 Gasplein","city":"Oudewater","operatorName":"TotalEnergies","maxPowerKw":11,"isMegawatt":false,"status":"CHARGING","source":"ndw"}},{"type":"Feature","geometry":{"type":"Point","coordinates":[4.87109,52.02603]},"properties":{"type":"charge","layer":"passenger","locationId":"1654","name":"Shell Recharge NL Van der Griendstraat 1","address":"Van der Griendstraat 1","city":"Oudewater","operatorName":"Ubitricity","maxPowerKw":11,"isMegawatt":false,"status":"AVAILABLE","source":"ndw","priceKwh":0.388}},{"type":"Feature","geometry":{"type":"Point","coordinates":[4.87487,52.02871]},"properties":{"type":"charge","layer":"passenger","locationId":"460","name":"Shell Recharge NL Grommer 2","address":"Grommer 2","city":"Oudewater","operatorName":"Ubitricity","maxPowerKw":11,"isMegawatt":false,"status":"AVAILABLE","source":"ndw","priceKwh":0.388}},{"type":"Feature","geometry":{"type":"Point","coordinates":[4.870193,52.03075]},"properties":{"type":"charge","layer":"passenger","locationId":"d38368c5-7f76-4ee2-97f8-bced808c8da5","name":"TNLP005938 - Twijnen 4, Oudewater","address":"4 Twijnen","city":"Oudewater","operatorName":"TotalEnergies","maxPowerKw":17,"isMegawatt":false,"status":"CHARGING","source":"ndw"}},{"type":"Feature","geometry":{"type":"Point","coordinates":[4.877158,52.024044]},"properties":{"type":"charge","layer":"passenger","locationId":"17f7d307-bbc3-46a3-8c47-7c869e53052d","name":"TNLP007614 - Pastoorsakker 32, Snelrewaard","address":"32 Pastoorsakker","city":"Snelrewaard","operatorName":"TotalEnergies","maxPowerKw":17,"isMegawatt":false,"status":"AVAILABLE","source":"ndw"}},{"type":"Feature","geometry":{"type":"Point","coordinates":[4.874703,52.030006]},"properties":{"type":"charge","layer":"passenger","locationId":"885149ca-0d43-4a26-9016-05c87192d8f1","name":"TNLP007233 - Garen 26, Oudewater","address":"26 Garen","city":"Oudewater","operatorName":"TotalEnergies","maxPowerKw":17,"isMegawatt":false,"status":"AVAILABLE","source":"ndw"}},{"type":"Feature","geometry":{"type":"Point","coordinates":[4.871831,52.032017]},"properties":{"type":"charge","layer":"passenger","locationId":"74a32e35-cd2d-4086-ab9d-d0df87cd9479","name":"TNLP008223 - Manilla 1, Oudewater","address":"1 Manilla","city":"Oudewater","operatorName":"TotalEnergies","maxPowerKw":17,"isMegawatt":false,"status":"AVAILABLE","source":"ndw"}},{"type":"Feature","geometry":{"type":"MultiPolygon","coordinates":[[[[4.8682254154038,52.06344677401791],[4.871458308087479,52.05922502771872],[4.875506841441443,52.061580210235164],[4.8813443800702085,52.05752298084256],[4.895411647716923,52.04823426829564],[4.895739234963245,52.050479552628666],[4.900546749357796,52.05214017136767],[4.90650485108532,52.05347598043487],[4.9171179528486215,52.043791145908266],[4.9148119255344485,52.04237809443105],[4.911398246554493,52.04018191058781],[4.9266811572822204,52.029987099736964],[4.926435557788765,52.02847607351972],[4.924026217109725,52.026525497883085],[4.920059361911232,52.02555806271547],[4.912426144701696,52.02529124138402],[4.904974915881804,52.026477762693844],[4.908523484049198,52.02277704025055],[4.917747894653346,52.01321684529177],[4.9166388610238405,52.01341328953618],[4.920045008175167,52.01001413350274],[4.916855706623324,52.01014489046521],[4.9138884782826135,52.01107772695179],[4.909734933078405,52.01104156122195],[4.896412261795234,52.00651656235311],[4.891584683483122,52.00485284807013],[4.8778321769591795,52.000568950948285],[4.853260740232245,51.991726845572614],[4.835218241018892,51.986143039045665],[4.82696914898096,51.992594783145826],[4.8178065210564,51.99976707735248],[4.853602628228583,52.004798579821355],[4.8571271435291195,52.00595968042854],[4.8563862881352575,52.00683823928395],[4.848603441346864,52.016117184189696],[4.847204148839597,52.01797458827047],[4.846896508003873,52.018181995161726],[4.840178815224477,52.0167072329005],[4.833335551270445,52.01642323697971],[4.824995052852379,52.01723693506867],[4.821485482074826,52.015918615248346],[4.815859699319127,52.014030313294214],[4.812632111210405,52.013942159217706],[4.8082858971595295,52.014143578933826],[4.805395563744079,52.014133271520976],[4.803410908583744,52.01414489615963],[4.798700971667406,52.022272143534515],[4.809934228725333,52.026764938109245],[4.809660657765122,52.0275063508881],[4.8086713398618395,52.029654342158416],[4.806705153026412,52.03316776124178],[4.811823025726418,52.03382496518343],[4.8171937343554845,52.03693155716724],[4.829361494036783,52.04927999407074],[4.829490954912946,52.04981388187023],[4.8390940658164645,52.054167875470455],[4.848049024337301,52.05816515251585],[4.856305558496174,52.05915224182821],[4.8682254154038,52.06344677401791]]]]},"properties":{"type":"boundary","gemeente":"Oudewater","code":"GM0589"}}]}