{"type":"FeatureCollection","metadata":{"gemeente":"Ouder-Amstel","slug":"ouder-amstel","code":"GM0437","generated_at":"2026-07-06T16:26:11.361Z","total_passenger":89,"total_freight":1,"bounds":[4.870121456918425,52.250743098908465,4.955239692764816,52.33863752286342],"operators":["Blink Charging","E-Flux by Road","Eneco","Greenchoice B.V.","NXT Charging Solutions","Pluq","Spirii","TotalEnergies","Ubitricity","Vattenfall InCharge"]},"features":[{"type":"Feature","geometry":{"type":"Point","coordinates":[4.911851,52.290756]},"properties":{"type":"charge","layer":"passenger","locationId":"6d3a8094-78d1-4772-8c58-dc80e2f92477","name":"TNLP006413 - Meerkoet 2, Ouderkerk Aan De Amstel","address":"2 Meerkoet","city":"Ouderkerk Aan De Amstel","operatorName":"TotalEnergies","maxPowerKw":17,"isMegawatt":false,"status":"AVAILABLE","source":"ndw"}},{"type":"Feature","geometry":{"type":"Point","coordinates":[4.928434,52.32789]},"properties":{"type":"charge","layer":"passenger","locationId":"d01da10d-6ed7-4c68-997a-fbbf6d38d531","name":"TNLP007008 - Spaklerweg 69, Amsterdam-Duivendrecht","address":"69 Spaklerweg","city":"Amsterdam-Duivendrecht","operatorName":"TotalEnergies","maxPowerKw":15,"isMegawatt":false,"status":"AVAILABLE","source":"ndw"}},{"type":"Feature","geometry":{"type":"Point","coordinates":[4.920699,52.325203]},"properties":{"type":"charge","layer":"passenger","locationId":"fa2c6873-f062-4777-bbc1-61e865e7a6a3","name":"TNLP015222 - Van der Madeweg 55, Amsterdam-Duivendrecht","address":"55 Van der Madeweg","city":"Amsterdam-Duivendrecht","operatorName":"TotalEnergies","maxPowerKw":17,"isMegawatt":false,"status":"CHARGING","source":"ndw"}},{"type":"Feature","geometry":{"type":"Point","coordinates":[4.917653,52.302116]},"properties":{"type":"charge","layer":"passenger","locationId":"103ac327-a721-4427-bf6e-237dfd7647d8","name":"TNLP006134 - Wethouder Koolhaasweg 1, Ouderkerk Aan De Amstel","address":"1 Wethouder Koolhaasweg","city":"Ouderkerk Aan De Amstel","operatorName":"TotalEnergies","maxPowerKw":15,"isMegawatt":false,"status":"AVAILABLE","source":"ndw"}},{"type":"Feature","geometry":{"type":"Point","coordinates":[4.922541,52.329105]},"properties":{"type":"charge","layer":"passenger","locationId":"d7622dcf-6a8c-4721-b48f-48c631647255","name":"TNLP006435 - Pieter Braaijweg 201, Amsterdam-Duivendrecht","address":"201 Pieter Braaijweg","city":"Amsterdam-Duivendrecht","operatorName":"TotalEnergies","maxPowerKw":15,"isMegawatt":false,"status":"AVAILABLE","source":"ndw"}},{"type":"Feature","geometry":{"type":"Point","coordinates":[4.937213,52.32799]},"properties":{"type":"charge","layer":"passenger","locationId":"8548f45d-136f-4190-9ad5-e2f3c005bfbb","name":"TNLP015030 - Basilicumhof 37, Duivendrecht","address":"37 Basilicumhof","city":"Duivendrecht","operatorName":"TotalEnergies","maxPowerKw":17,"isMegawatt":false,"status":"AVAILABLE","source":"ndw"}},{"type":"Feature","geometry":{"type":"Point","coordinates":[4.90461,52.29693]},"properties":{"type":"charge","layer":"passenger","locationId":"04b0d285-91fc-48c1-ab89-852986d163fe","name":"TNLP003520 - Raadhuislaan 6, Ouderkerk Aan De Amstel","address":"6 Raadhuislaan","city":"Ouderkerk Aan De Amstel","operatorName":"TotalEnergies","maxPowerKw":17,"isMegawatt":false,"status":"AVAILABLE","source":"ndw"}},{"type":"Feature","geometry":{"type":"Point","coordinates":[4.9205807,52.3205291]},"properties":{"type":"charge","layer":"passenger","locationId":"661","name":"Shell Recharge NL Verbindingsweg 1","address":"Verbindingsweg 1","city":"Duivendrecht","operatorName":"Ubitricity","maxPowerKw":11,"isMegawatt":false,"status":"AVAILABLE","source":"ndw","priceKwh":0.388}},{"type":"Feature","geometry":{"type":"Point","coordinates":[4.913939,52.290985]},"properties":{"type":"charge","layer":"passenger","locationId":"422d1405-3a1b-46be-b514-a5aa5b72aa73","name":"TNLP006472 - Poldermeester 13, Ouderkerk Aan De Amstel","address":"13 Poldermeester","city":"Ouderkerk Aan De Amstel","operatorName":"TotalEnergies","maxPowerKw":17,"isMegawatt":false,"status":"AVAILABLE","source":"ndw"}},{"type":"Feature","geometry":{"type":"Point","coordinates":[4.901456,52.29794]},"properties":{"type":"charge","layer":"passenger","locationId":"984212ba-809a-48e3-ab04-dcd7cb29b92f","name":"TNLP005734 - Hoger Einde-Zuid 8, Ouderkerk Aan De Amstel","address":"8 Hoger Einde-Zuid","city":"Ouderkerk Aan De Amstel","operatorName":"TotalEnergies","maxPowerKw":17,"isMegawatt":false,"status":"AVAILABLE","source":"ndw"}},{"type":"Feature","geometry":{"type":"Point","coordinates":[4.924693,52.326241]},"properties":{"type":"charge","layer":"passenger","locationId":"64edf54f3f2b2f001c2f7c02","name":"Bouwcenter RAB Amsterdam","address":"Van Der Madeweg  31","city":"Amsterdam-Duivendrecht","operatorName":"E-Flux by Road","maxPowerKw":22,"isMegawatt":false,"status":"CHARGING","source":"ndw","priceKwh":0.43}},{"type":"Feature","geometry":{"type":"Point","coordinates":[4.908999,52.297203]},"properties":{"type":"charge","layer":"passenger","locationId":"ee0a472d-be10-4c69-944b-cbb80bfad2a7","name":"TNLP007737 - Prinses Ireneplantsoen 24, Ouderkerk Aan De Amstel","address":"24 Prinses Ireneplantsoen","city":"Ouderkerk Aan De Amstel","operatorName":"TotalEnergies","maxPowerKw":13,"isMegawatt":false,"status":"CHARGING","source":"ndw"}},{"type":"Feature","geometry":{"type":"Point","coordinates":[4.931223,52.334003]},"properties":{"type":"charge","layer":"passenger","locationId":"1539e6f8-318d-496c-9f94-2af1b1d11dcd","name":"Blink Amsterdam Office","address":"Joop Geesinkweg 203","city":"Amsterdam","operatorName":"Blink Charging","maxPowerKw":25,"isMegawatt":false,"status":"AVAILABLE","source":"ndw","priceKwh":0.41}},{"type":"Feature","geometry":{"type":"Point","coordinates":[4.94784,52.33646]},"properties":{"type":"charge","layer":"passenger","locationId":"3462db96-fe38-4cb3-b506-55148a084cb6","name":"Deudekom","address":"Industrieweg 35","city":"Duivendrecht","operatorName":"TotalEnergies","maxPowerKw":120,"isMegawatt":false,"status":"AVAILABLE","source":"ndw"}},{"type":"Feature","geometry":{"type":"Point","coordinates":[4.914931,52.29645]},"properties":{"type":"charge","layer":"passenger","locationId":"f87fd48b-7d3f-4b42-9787-4e6091530127","name":"TNLP009488 - De Maalkom 33, Ouderkerk Aan De Amstel","address":"33 De Maalkom","city":"Ouderkerk Aan De Amstel","operatorName":"TotalEnergies","maxPowerKw":15,"isMegawatt":false,"status":"AVAILABLE","source":"ndw"}},{"type":"Feature","geometry":{"type":"Point","coordinates":[4.93856,52.32798]},"properties":{"type":"charge","layer":"passenger","locationId":"357","name":"Shell Recharge NL Basilicumhof 30","address":"Basilicumhof 30","city":"Duivendrecht","operatorName":"Ubitricity","maxPowerKw":11,"isMegawatt":false,"status":"AVAILABLE","source":"ndw","priceKwh":0.388}},{"type":"Feature","geometry":{"type":"Point","coordinates":[4.935394,52.335353]},"properties":{"type":"charge","layer":"passenger","locationId":"65f8248f322771001c6e81ea","name":"APF - The Gem Amsterdam","address":"Joop Geesinkweg 901","city":"Amsterdam","operatorName":"Greenchoice B.V.","maxPowerKw":22,"isMegawatt":false,"status":"AVAILABLE","source":"ndw","priceKwh":0.65}},{"type":"Feature","geometry":{"type":"Point","coordinates":[4.913096,52.291502]},"properties":{"type":"charge","layer":"passenger","locationId":"877acf83-5c2d-47de-9de6-c547b932049e","name":"TNLP015200","address":"Grutto 23","city":"Ouderkerk aan de Amstel","operatorName":"TotalEnergies","maxPowerKw":17,"isMegawatt":false,"status":"CHARGING","source":"ndw"}},{"type":"Feature","geometry":{"type":"Point","coordinates":[4.93393,52.328793]},"properties":{"type":"charge","layer":"passenger","locationId":"3F9D0536-B67B-47AE-89DD-EA3B7F618FF5","name":"Eneco eMobility Kruidenommegang 14 Duivendrecht","address":"Kruidenommegang 14","city":"Duivendrecht","operatorName":"Eneco","maxPowerKw":22,"isMegawatt":false,"status":"UNAVAILABLE","source":"ndw","priceKwh":0.32}},{"type":"Feature","geometry":{"type":"Point","coordinates":[4.9157752,52.2994158]},"properties":{"type":"charge","layer":"passenger","locationId":"1895","name":"Shell Recharge NL Reinier Noomsstraat 23","address":"Reinier Noomsstraat 23","city":"Ouderkerk aan de Amstel","operatorName":"Ubitricity","maxPowerKw":22,"isMegawatt":false,"status":"CHARGING","source":"ndw","priceKwh":0.266}},{"type":"Feature","geometry":{"type":"Point","coordinates":[4.93889,52.33303]},"properties":{"type":"charge","layer":"passenger","locationId":"897d6e6c2df2ec151b89fa0796ca8756","name":"Clarissenhof 101","address":"Clarissenhof 101","city":"Duivendrecht","operatorName":"Vattenfall InCharge","maxPowerKw":11,"isMegawatt":false,"status":"AVAILABLE","source":"ndw"}},{"type":"Feature","geometry":{"type":"Point","coordinates":[4.918882,52.327931]},"properties":{"type":"charge","layer":"passenger","locationId":"68946fa05b82054f0d022014","name":"razz garage","address":"joan muyskenweg 37","city":"Amsterdam","operatorName":"E-Flux by Road","maxPowerKw":22,"isMegawatt":false,"status":"UNAVAILABLE","source":"ndw"}},{"type":"Feature","geometry":{"type":"Point","coordinates":[4.916645,52.29869]},"properties":{"type":"charge","layer":"passenger","locationId":"a1c19332-213d-4c67-b633-468cb976a8be","name":"TNLP009020 - Hendrick van Avercampweg 45, Ouderkerk Aan De Amstel","address":"45 Hendrick van Avercampweg","city":"Ouderkerk Aan De Amstel","operatorName":"TotalEnergies","maxPowerKw":17,"isMegawatt":false,"status":"UNAVAILABLE","source":"ndw"}},{"type":"Feature","geometry":{"type":"Point","coordinates":[4.9388,52.326374]},"properties":{"type":"charge","layer":"passenger","locationId":"bca6f646-d3c8-4791-8162-e986ca01d877","name":"TNLP006481 - Rijksstraatweg 183, Duivendrecht","address":"183 Rijksstraatweg","city":"Duivendrecht","operatorName":"TotalEnergies","maxPowerKw":15,"isMegawatt":false,"status":"AVAILABLE","source":"ndw"}},{"type":"Feature","geometry":{"type":"Point","coordinates":[4.910816,52.293327]},"properties":{"type":"charge","layer":"passenger","locationId":"e2c5be48-fb2c-45f3-9d57-17c2c5981eb6","name":"TNLP008902 - Putter 1, Ouderkerk Aan De Amstel","address":"1 Putter","city":"Ouderkerk Aan De Amstel","operatorName":"TotalEnergies","maxPowerKw":13,"isMegawatt":false,"status":"UNAVAILABLE","source":"ndw"}},{"type":"Feature","geometry":{"type":"Point","coordinates":[4.911556,52.29764]},"properties":{"type":"charge","layer":"passenger","locationId":"340a27ee-d69b-406a-b8b1-a6b6cb2a1384","name":"TNLP006570 - Reijgershof 4, Ouderkerk Aan De Amstel","address":"4 Reijgershof","city":"Ouderkerk Aan De Amstel","operatorName":"TotalEnergies","maxPowerKw":17,"isMegawatt":false,"status":"UNAVAILABLE","source":"ndw"}},{"type":"Feature","geometry":{"type":"Point","coordinates":[4.919098,52.297234]},"properties":{"type":"charge","layer":"passenger","locationId":"00515a91-c1f9-40f0-a453-e364e356213e","name":"TNLP006852 - Sluisvaart 49, Ouderkerk aan de Amstel","address":"49 Sluisvaart","city":"Ouderkerk aan de Amstel","operatorName":"TotalEnergies","maxPowerKw":17,"isMegawatt":false,"status":"UNAVAILABLE","source":"ndw"}},{"type":"Feature","geometry":{"type":"Point","coordinates":[4.914441,52.299258]},"properties":{"type":"charge","layer":"passenger","locationId":"f66be694-fa69-4087-a118-1093f8870ead","name":"Abraham Rademakerstraat 15","address":"Abraham Rademakerstraat 15","city":"Ouderkerk aan de Amstel","operatorName":"Vattenfall InCharge","maxPowerKw":11,"isMegawatt":false,"status":"AVAILABLE","source":"ndw"}},{"type":"Feature","geometry":{"type":"Point","coordinates":[4.908803,52.295778]},"properties":{"type":"charge","layer":"passenger","locationId":"27a25d30-afe1-4f38-bb73-a512c2cac650","name":"Koningin Julianalaan","address":"Koningin Julianalaan 24","city":"Ouderkerk aan den Amstel","operatorName":"Vattenfall InCharge","maxPowerKw":11,"isMegawatt":false,"status":"UNAVAILABLE","source":"ndw"}},{"type":"Feature","geometry":{"type":"Point","coordinates":[4.936118,52.333084]},"properties":{"type":"charge","layer":"passenger","locationId":"592a2216-a08e-4c93-8523-b7a9d1783f54","name":"TNLP006474 - Saturnus 33, Duivendrecht","address":"33 Saturnus","city":"Duivendrecht","operatorName":"TotalEnergies","maxPowerKw":17,"isMegawatt":false,"status":"UNAVAILABLE","source":"ndw"}},{"type":"Feature","geometry":{"type":"Point","coordinates":[4.923048,52.294416]},"properties":{"type":"charge","layer":"passenger","locationId":"68c86b03dc266c5b3f9327bc","name":"Jeroen Wirz 's station","address":"Overweg 179","city":"Ouderkerk aan de Amstel","operatorName":"E-Flux by Road","maxPowerKw":11,"isMegawatt":false,"status":"AVAILABLE","source":"ndw","priceKwh":1.03}},{"type":"Feature","geometry":{"type":"Point","coordinates":[4.9361549,52.3315424]},"properties":{"type":"charge","layer":"passenger","locationId":"1187","name":"Shell Recharge NL Astronautenweg 34","address":"Astronautenweg 34","city":"Duivendrecht","operatorName":"Ubitricity","maxPowerKw":22,"isMegawatt":false,"status":"CHARGING","source":"ndw","priceKwh":0.266}},{"type":"Feature","geometry":{"type":"Point","coordinates":[4.947086,52.335935]},"properties":{"type":"charge","layer":"passenger","locationId":"69bbbc13f6b27ded0445e86a","name":"Niezen transport","address":"Industrieweg 10","city":"Duivendrecht","operatorName":"NXT Charging Solutions","maxPowerKw":40,"isMegawatt":false,"status":"AVAILABLE","source":"ndw","priceKwh":0.35}},{"type":"Feature","geometry":{"type":"Point","coordinates":[4.902958,52.292362]},"properties":{"type":"charge","layer":"passenger","locationId":"d632730d-df4f-4a3a-bddc-5ddc41c2bef4","name":"TNLP007031 - Madelief 5, Ouderkerk Aan De Amstel","address":"5 Madelief","city":"Ouderkerk Aan De Amstel","operatorName":"TotalEnergies","maxPowerKw":17,"isMegawatt":false,"status":"UNAVAILABLE","source":"ndw"}},{"type":"Feature","geometry":{"type":"Point","coordinates":[4.94111,52.33055]},"properties":{"type":"charge","layer":"passenger","locationId":"82","name":"Shell Recharge NL Schoolpad 3","address":"Schoolpad 3","city":"Duivendrecht","operatorName":"Ubitricity","maxPowerKw":11,"isMegawatt":false,"status":"AVAILABLE","source":"ndw","priceKwh":0.388}},{"type":"Feature","geometry":{"type":"Point","coordinates":[4.942922,52.333847]},"properties":{"type":"charge","layer":"passenger","locationId":"1bb6b2f4-32de-42db-b8a7-e2b28fb2a42e","name":"TNLP006141 - Burgemeester van Damstraat 15, Duivendrecht","address":"15 Burgemeester van Damstraat","city":"Duivendrecht","operatorName":"TotalEnergies","maxPowerKw":17,"isMegawatt":false,"status":"UNAVAILABLE","source":"ndw"}},{"type":"Feature","geometry":{"type":"Point","coordinates":[4.92082,52.29544]},"properties":{"type":"charge","layer":"passenger","locationId":"d5169991-84d7-4bc1-9329-251007404d2b","name":"PP002036 - Jonge Linde 34, Ouderkerk aan de Amstel","address":"34 Jonge Linde","city":"Ouderkerk aan de Amstel","operatorName":"TotalEnergies","maxPowerKw":11,"isMegawatt":false,"status":"UNAVAILABLE","source":"ndw"}},{"type":"Feature","geometry":{"type":"Point","coordinates":[4.910222,52.292374]},"properties":{"type":"charge","layer":"passenger","locationId":"473577ce-4f0b-4cb7-b05c-0d5f73278c14","name":"TNLP008774 - Patrijs 30, Ouderkerk aan de Amstel","address":"30 Patrijs","city":"Ouderkerk aan de Amstel","operatorName":"TotalEnergies","maxPowerKw":14,"isMegawatt":false,"status":"AVAILABLE","source":"ndw"}},{"type":"Feature","geometry":{"type":"Point","coordinates":[4.9137967,52.2972464]},"properties":{"type":"charge","layer":"passenger","locationId":"1712","name":"Shell Recharge NL Sluisplein 5","address":"Sluisplein 5","city":"Ouderkerk aan de Amstel","operatorName":"Ubitricity","maxPowerKw":22,"isMegawatt":false,"status":"AVAILABLE","source":"ndw","priceKwh":0.266}},{"type":"Feature","geometry":{"type":"Point","coordinates":[4.90499,52.29308]},"properties":{"type":"charge","layer":"passenger","locationId":"1526","name":"Shell Recharge NL Jan Persijnstraat 2","address":"Jan Persijnstraat 2","city":"Ouder-Amstel","operatorName":"Ubitricity","maxPowerKw":11,"isMegawatt":false,"status":"AVAILABLE","source":"ndw","priceKwh":0.388}},{"type":"Feature","geometry":{"type":"Point","coordinates":[4.942544,52.33297]},"properties":{"type":"charge","layer":"passenger","locationId":"863dd318-071e-494a-9129-801adeb7dfd5","name":"TNLP015332 - Populierstraat 33, Duivendrecht","address":"33 Populierstraat","city":"Duivendrecht","operatorName":"TotalEnergies","maxPowerKw":17,"isMegawatt":false,"status":"AVAILABLE","source":"ndw"}},{"type":"Feature","geometry":{"type":"Point","coordinates":[4.905514,52.29869]},"properties":{"type":"charge","layer":"passenger","locationId":"fd0b396e-1105-47bb-adad-9444bf4eb4b0","name":"TNLP008838 - Burghzatenplein 9, Ouderkerk Aan De Amstel","address":"9 Burghzatenplein","city":"Ouderkerk Aan De Amstel","operatorName":"TotalEnergies","maxPowerKw":14,"isMegawatt":false,"status":"CHARGING","source":"ndw"}},{"type":"Feature","geometry":{"type":"Point","coordinates":[4.906653,52.29266]},"properties":{"type":"charge","layer":"passenger","locationId":"bd5b2205-ae35-4d91-964c-d8f2e9a321fd","name":"TNLP008244 - Boterbloem 37, Ouderkerk Aan De Amstel","address":"37 Boterbloem","city":"Ouderkerk Aan De Amstel","operatorName":"TotalEnergies","maxPowerKw":17,"isMegawatt":false,"status":"UNAVAILABLE","source":"ndw"}},{"type":"Feature","geometry":{"type":"Point","coordinates":[4.923351,52.29579]},"properties":{"type":"charge","layer":"passenger","locationId":"220a9e34-b98e-48e6-ad47-25f1a58cf20e","name":"Overweg","address":"Overweg 126","city":"Ouderkerk aan den Amstel","operatorName":"Vattenfall InCharge","maxPowerKw":11,"isMegawatt":false,"status":"AVAILABLE","source":"ndw"}},{"type":"Feature","geometry":{"type":"Point","coordinates":[4.914382,52.292805]},"properties":{"type":"charge","layer":"passenger","locationId":"e2a44306-c4dc-4366-9d52-157ea9d098b1","name":"TNLP006696 - Jan Benninghweg 10, Ouderkerk Aan De Amstel","address":"10 Jan Benninghweg","city":"Ouderkerk Aan De Amstel","operatorName":"TotalEnergies","maxPowerKw":17,"isMegawatt":false,"status":"UNAVAILABLE","source":"ndw"}},{"type":"Feature","geometry":{"type":"Point","coordinates":[4.897385,52.293784]},"properties":{"type":"charge","layer":"passenger","locationId":"A5FDA20E-3649-44E1-9183-1A8ADC868C37","name":"Eneco eMobility Bakkers Brigade BV - Ouderkerk aan de Amstel","address":"Ambachtenstraat 59","city":"Ouderkerk aan de Amstel","operatorName":"Eneco","maxPowerKw":22,"isMegawatt":false,"status":"AVAILABLE","source":"ndw","priceKwh":0.32}},{"type":"Feature","geometry":{"type":"Point","coordinates":[4.93109,52.32649]},"properties":{"type":"charge","layer":"passenger","locationId":"1494","name":"Shell Recharge NL Ellermanstraat 31","address":"Ellermanstraat 31","city":"Ouder-Amstel","operatorName":"Ubitricity","maxPowerKw":11,"isMegawatt":false,"status":"AVAILABLE","source":"ndw","priceKwh":0.388}},{"type":"Feature","geometry":{"type":"Point","coordinates":[4.900172,52.294563]},"properties":{"type":"charge","layer":"passenger","locationId":"0d22b1df-7dbb-4ae8-9a08-771c354bfdd9","name":"TNLP006780 - Polderweg 2, Ouderkerk Aan De Amstel","address":"2 Polderweg","city":"Ouderkerk Aan De Amstel","operatorName":"TotalEnergies","maxPowerKw":17,"isMegawatt":false,"status":"UNAVAILABLE","source":"ndw"}},{"type":"Feature","geometry":{"type":"Point","coordinates":[4.92398,52.32598]},"properties":{"type":"charge","layer":"passenger","locationId":"791d328a-4e18-4f86-a832-2e7cad3da761","name":"TNLP003558 - Van Der Madeweg 35, Duivendrecht","address":"35 Van Der Madeweg","city":"Duivendrecht","operatorName":"TotalEnergies","maxPowerKw":17,"isMegawatt":false,"status":"AVAILABLE","source":"ndw"}},{"type":"Feature","geometry":{"type":"Point","coordinates":[4.9016088,52.2934268]},"properties":{"type":"charge","layer":"passenger","locationId":"1354","name":"Shell Recharge NL Schoolweg 9","address":"Schoolweg 9","city":"Ouderkerk aan de Amstel","operatorName":"Ubitricity","maxPowerKw":22,"isMegawatt":false,"status":"AVAILABLE","source":"ndw","priceKwh":0.266}},{"type":"Feature","geometry":{"type":"Point","coordinates":[4.912691,52.296812]},"properties":{"type":"charge","layer":"passenger","locationId":"f771610c5f8a5e3892048a804c7adc2c","name":"Hoger-Amstellaan 38","address":"Hoger-Amstellaan 38","city":"Ouderkerk aan de Amstel","operatorName":"Vattenfall InCharge","maxPowerKw":11,"isMegawatt":false,"status":"AVAILABLE","source":"ndw"}},{"type":"Feature","geometry":{"type":"Point","coordinates":[4.9177523,52.296768]},"properties":{"type":"charge","layer":"passenger","locationId":"735","name":"Shell Recharge NL Sluisvaart 11","address":"Sluisvaart 11","city":"Ouderkerk aan de Amstel","operatorName":"Ubitricity","maxPowerKw":11,"isMegawatt":false,"status":"AVAILABLE","source":"ndw","priceKwh":0.388}},{"type":"Feature","geometry":{"type":"Point","coordinates":[4.918893,52.325418]},"properties":{"type":"charge","layer":"passenger","locationId":"63f8bfb4c3ce7d00122ffd45","name":"Akesteyn station 1","address":"Joan Muyskenweg 40-148","city":"Amsterdam","operatorName":"E-Flux by Road","maxPowerKw":22,"isMegawatt":false,"status":"UNAVAILABLE","source":"ndw"}},{"type":"Feature","geometry":{"type":"Point","coordinates":[4.92217,52.29599]},"properties":{"type":"charge","layer":"passenger","locationId":"124","name":"Shell Recharge NL Paarl 37","address":"Paarl 37","city":"Ouderkerk aan de Amstel","operatorName":"Ubitricity","maxPowerKw":11,"isMegawatt":false,"status":"AVAILABLE","source":"ndw","priceKwh":0.388}},{"type":"Feature","geometry":{"type":"Point","coordinates":[4.906744,52.296135]},"properties":{"type":"charge","layer":"passenger","locationId":"76cd2959-8b55-46f8-9ca1-ea58c9ecc32d","name":"TNLP007530 - Prinses Marijkelaan 5, Ouderkerk Aan De Amstel","address":"5 Prinses Marijkelaan","city":"Ouderkerk Aan De Amstel","operatorName":"TotalEnergies","maxPowerKw":15,"isMegawatt":false,"status":"AVAILABLE","source":"ndw"}},{"type":"Feature","geometry":{"type":"Point","coordinates":[4.905083,52.29762]},"properties":{"type":"charge","layer":"passenger","locationId":"40c25989-72e3-4541-88d0-631d434cbf88","name":"TNLP006539 - De Drieburg 1, Ouderkerk Aan De Amstel","address":"1 De Drieburg","city":"Ouderkerk Aan De Amstel","operatorName":"TotalEnergies","maxPowerKw":17,"isMegawatt":false,"status":"UNAVAILABLE","source":"ndw"}},{"type":"Feature","geometry":{"type":"Point","coordinates":[4.908773,52.29334]},"properties":{"type":"charge","layer":"passenger","locationId":"342637c4-a2e4-4df4-b3bf-6cfa8f034196","name":"TNLP007052 - Ingeland 4, Ouderkerk Aan De Amstel","address":"4 Ingeland","city":"Ouderkerk Aan De Amstel","operatorName":"TotalEnergies","maxPowerKw":15,"isMegawatt":false,"status":"AVAILABLE","source":"ndw"}},{"type":"Feature","geometry":{"type":"Point","coordinates":[4.9419389,52.3351778]},"properties":{"type":"charge","layer":"passenger","locationId":"602","name":"Shell Recharge NL Rijksstraatweg 2","address":"Rijksstraatweg 2","city":"Duivendrecht","operatorName":"Ubitricity","maxPowerKw":11,"isMegawatt":false,"status":"AVAILABLE","source":"ndw","priceKwh":0.388}},{"type":"Feature","geometry":{"type":"Point","coordinates":[4.908189,52.298203]},"properties":{"type":"charge","layer":"passenger","locationId":"d60d23f6-5d08-4d15-a0fc-77b2787f25e2","name":"TNLP006779 - Koningin Wilhelminalaan 46, Ouderkerk Aan De Amstel","address":"46 Koningin Wilhelminalaan","city":"Ouderkerk Aan De Amstel","operatorName":"TotalEnergies","maxPowerKw":17,"isMegawatt":false,"status":"UNAVAILABLE","source":"ndw"}},{"type":"Feature","geometry":{"type":"Point","coordinates":[4.935004,52.329487]},"properties":{"type":"charge","layer":"passenger","locationId":"cf6d15a2-20dc-4e5f-8a04-30c28d962a1e","name":"TNLP015471 - Roosmarijnhof 5, Duivendrecht","address":"5 Roosmarijnhof","city":"Duivendrecht","operatorName":"TotalEnergies","maxPowerKw":17,"isMegawatt":false,"status":"AVAILABLE","source":"ndw"}},{"type":"Feature","geometry":{"type":"Point","coordinates":[4.925799,52.279499]},"properties":{"type":"charge","layer":"passenger","locationId":"67c84d11c5d61c7b698cd0a0","name":"Restaurant De Voetangel","address":"Rondehoep Oost 3","city":"Ouderkerk aan de Amstel","operatorName":"Pluq","maxPowerKw":14,"isMegawatt":false,"status":"AVAILABLE","source":"ndw","priceKwh":0.4}},{"type":"Feature","geometry":{"type":"Point","coordinates":[4.925441,52.329649]},"properties":{"type":"charge","layer":"passenger","locationId":"E7F63E81-C0FB-4DA8-9DE8-18802BB82083","name":"Eneco eMobility Hedin Automotive B.V. Amsterdam","address":"Pieter Braaijweg 1","city":"Amsterdam-Duivendrecht","operatorName":"Eneco","maxPowerKw":11,"isMegawatt":false,"status":"AVAILABLE","source":"ndw","priceKwh":0.6}},{"type":"Feature","geometry":{"type":"Point","coordinates":[4.9357545,52.3327754]},"properties":{"type":"charge","layer":"passenger","locationId":"1855","name":"Shell Recharge NL Meteoor 231","address":"Meteoor 231","city":"Duivendrecht","operatorName":"Ubitricity","maxPowerKw":22,"isMegawatt":false,"status":"CHARGING","source":"ndw","priceKwh":0.266}},{"type":"Feature","geometry":{"type":"Point","coordinates":[4.915078,52.297882]},"properties":{"type":"charge","layer":"passenger","locationId":"7430b26d-8446-403d-b59f-fd35ff35abcd","name":"TNLP006572 - Hendrick van Avercampweg 2, Ouderkerk Aan De Amstel","address":"2 Hendrick van Avercampweg","city":"Ouderkerk Aan De Amstel","operatorName":"TotalEnergies","maxPowerKw":17,"isMegawatt":false,"status":"UNAVAILABLE","source":"ndw"}},{"type":"Feature","geometry":{"type":"Point","coordinates":[4.90757,52.29533]},"properties":{"type":"charge","layer":"passenger","locationId":"0a49e40a-7129-4ff9-a392-dc3e6e0ffd02","name":"TNLP003501 - Koningin Julianalaan 15, Ouderkerk Aan De Amstel","address":"15 Koningin Julianalaan","city":"Ouderkerk Aan De Amstel","operatorName":"TotalEnergies","maxPowerKw":17,"isMegawatt":false,"status":"AVAILABLE","source":"ndw"}},{"type":"Feature","geometry":{"type":"Point","coordinates":[4.938667,52.33323]},"properties":{"type":"charge","layer":"passenger","locationId":"35b6598e-df46-4715-8915-30a662b4b076","name":"TNLP007736 - Michaëlplein 198, Duivendrecht","address":"198 Michaëlplein","city":"Duivendrecht","operatorName":"TotalEnergies","maxPowerKw":17,"isMegawatt":false,"status":"UNAVAILABLE","source":"ndw"}},{"type":"Feature","geometry":{"type":"Point","coordinates":[4.94455,52.3325]},"properties":{"type":"charge","layer":"passenger","locationId":"d920fb1a-3c22-4ed4-85ea-49406e50b1d2","name":"PP001585 - In de Papiermolen 1, Duivendrecht","address":"1 In de Papiermolen","city":"Duivendrecht","operatorName":"TotalEnergies","maxPowerKw":11,"isMegawatt":false,"status":"AVAILABLE","source":"ndw"}},{"type":"Feature","geometry":{"type":"Point","coordinates":[4.940267,52.332787]},"properties":{"type":"charge","layer":"passenger","locationId":"fe782258-9701-4107-a3d9-6dc917048491","name":"TNLP005971 - Clarissenhof 75, Duivendrecht","address":"75 Clarissenhof","city":"Duivendrecht","operatorName":"TotalEnergies","maxPowerKw":17,"isMegawatt":false,"status":"UNAVAILABLE","source":"ndw"}},{"type":"Feature","geometry":{"type":"Point","coordinates":[4.910483,52.291115]},"properties":{"type":"charge","layer":"passenger","locationId":"73ae3be6-2209-4aa9-8826-c68fade4b240","name":"TNLP007067 - Coen van Boshuizenlaan 77, Ouderkerk Aan De Amstel","address":"77 Coen van Boshuizenlaan","city":"Ouderkerk Aan De Amstel","operatorName":"TotalEnergies","maxPowerKw":17,"isMegawatt":false,"status":"UNAVAILABLE","source":"ndw"}},{"type":"Feature","geometry":{"type":"Point","coordinates":[4.939642,52.334396]},"properties":{"type":"charge","layer":"passenger","locationId":"22c50d92-4710-4066-8a2e-8efe0631b351","name":"TNLP007321 - Clarissenhof 7, Duivendrecht","address":"7 Clarissenhof","city":"Duivendrecht","operatorName":"TotalEnergies","maxPowerKw":17,"isMegawatt":false,"status":"UNAVAILABLE","source":"ndw"}},{"type":"Feature","geometry":{"type":"Point","coordinates":[4.915554,52.300674]},"properties":{"type":"charge","layer":"passenger","locationId":"79270c1a-9be5-4a9a-a890-99537b9c52de","name":"TNLP006496 - Rembrandt van Rijnweg 12, Ouderkerk Aan De Amstel","address":"12 Rembrandt van Rijnweg","city":"Ouderkerk Aan De Amstel","operatorName":"TotalEnergies","maxPowerKw":17,"isMegawatt":false,"status":"AVAILABLE","source":"ndw"}},{"type":"Feature","geometry":{"type":"Point","coordinates":[4.934233,52.327415]},"properties":{"type":"charge","layer":"passenger","locationId":"4eed916c-1065-4b05-b299-eafd03cf9a00","name":"PP004288 - Parnassiaveld 87, Duivendrecht","address":"87 Parnassiaveld","city":"Duivendrecht","operatorName":"TotalEnergies","maxPowerKw":11,"isMegawatt":false,"status":"UNAVAILABLE","source":"ndw"}},{"type":"Feature","geometry":{"type":"Point","coordinates":[4.943532,52.331196]},"properties":{"type":"charge","layer":"passenger","locationId":"5fb16ad2-a242-4cad-84a0-d452ccda7fd7","name":"TNLP007210 - In de Korenmolen 7, Duivendrecht","address":"7 In de Korenmolen","city":"Duivendrecht","operatorName":"TotalEnergies","maxPowerKw":17,"isMegawatt":false,"status":"UNAVAILABLE","source":"ndw"}},{"type":"Feature","geometry":{"type":"Point","coordinates":[4.904778,52.29187]},"properties":{"type":"charge","layer":"passenger","locationId":"5d4d8120-536a-4348-a655-340ad0db00b9","name":"PP005525 - Klaproos 15, Ouderkerk Aan De Amstel","address":"15 Klaproos","city":"Ouderkerk Aan De Amstel","operatorName":"TotalEnergies","maxPowerKw":17,"isMegawatt":false,"status":"AVAILABLE","source":"ndw"}},{"type":"Feature","geometry":{"type":"Point","coordinates":[4.935648,52.327816]},"properties":{"type":"charge","layer":"passenger","locationId":"62023179-6280-4734-80be-1fefb3d37c7a","name":"TNLP006748 - Parnassiaveld 1, Duivendrecht","address":"1 Parnassiaveld","city":"Duivendrecht","operatorName":"TotalEnergies","maxPowerKw":17,"isMegawatt":false,"status":"UNAVAILABLE","source":"ndw"}},{"type":"Feature","geometry":{"type":"Point","coordinates":[4.9378912,52.3342768]},"properties":{"type":"charge","layer":"passenger","locationId":"951","name":"Shell Recharge NL Michaëlplein 40","address":"Michaëlplein 40","city":"Duivendrecht","operatorName":"Ubitricity","maxPowerKw":22,"isMegawatt":false,"status":"AVAILABLE","source":"ndw","priceKwh":0.266}},{"type":"Feature","geometry":{"type":"Point","coordinates":[4.921255,52.29462]},"properties":{"type":"charge","layer":"passenger","locationId":"5ed140fb-7dd1-4d52-ab69-1117e0dbbc19","name":"TNLP006544 - Hoofdenburgsingel 176, Ouderkerk Aan De Amstel","address":"176 Hoofdenburgsingel","city":"Ouderkerk Aan De Amstel","operatorName":"TotalEnergies","maxPowerKw":17,"isMegawatt":false,"status":"UNAVAILABLE","source":"ndw"}},{"type":"Feature","geometry":{"type":"Point","coordinates":[4.90295,52.298706]},"properties":{"type":"charge","layer":"passenger","locationId":"aec64a20-0df4-4d2d-a767-7a08ff8a3a31","name":"TNLP006546 - Gosewijnstraat 2, Ouderkerk Aan De Amstel","address":"2 Gosewijnstraat","city":"Ouderkerk Aan De Amstel","operatorName":"TotalEnergies","maxPowerKw":17,"isMegawatt":false,"status":"UNAVAILABLE","source":"ndw"}},{"type":"Feature","geometry":{"type":"Point","coordinates":[4.94773,52.33771]},"properties":{"type":"charge","layer":"passenger","locationId":"f697880f-462b-476d-bc74-949468a05da4","name":"PP004293 - Molenkade 42, Duivendrecht","address":"42 Molenkade","city":"Duivendrecht","operatorName":"TotalEnergies","maxPowerKw":11,"isMegawatt":false,"status":"UNAVAILABLE","source":"ndw"}},{"type":"Feature","geometry":{"type":"Point","coordinates":[4.91449,52.29923]},"properties":{"type":"charge","layer":"passenger","locationId":"f7e799dc-070a-49ce-b532-f4b7ce6cf104","name":"TNLP008760 - Abraham Rademakerstraat 24, Ouderkerk Aan De Amstel","address":"24 Abraham Rademakerstraat","city":"Ouderkerk Aan De Amstel","operatorName":"TotalEnergies","maxPowerKw":14,"isMegawatt":false,"status":"CHARGING","source":"ndw"}},{"type":"Feature","geometry":{"type":"Point","coordinates":[4.915273,52.291348]},"properties":{"type":"charge","layer":"passenger","locationId":"b289bdea-d135-4db0-8f4f-1fb02eba64b5","name":"TNLP007294 - Jan Benninghweg 39, Ouderkerk Aan De Amstel","address":"39 Jan Benninghweg","city":"Ouderkerk Aan De Amstel","operatorName":"TotalEnergies","maxPowerKw":17,"isMegawatt":false,"status":"UNAVAILABLE","source":"ndw"}},{"type":"Feature","geometry":{"type":"Point","coordinates":[4.946867,52.337459]},"properties":{"type":"charge","layer":"passenger","locationId":"aea05beed4d8bb419630c2f18e0727b4","name":"Molenkade 40","address":"Molenkade 40","city":"Duivendrecht","operatorName":"Vattenfall InCharge","maxPowerKw":11,"isMegawatt":false,"status":"AVAILABLE","source":"ndw"}},{"type":"Feature","geometry":{"type":"Point","coordinates":[4.912034,52.297479]},"properties":{"type":"charge","layer":"passenger","locationId":"22c0ca08-17de-439b-a293-8512f6b5c1a6","name":"Reijgershof","address":"Reijgershof 49","city":"Ouderkerk aan de Amstel","operatorName":"Vattenfall InCharge","maxPowerKw":11,"isMegawatt":false,"status":"AVAILABLE","source":"ndw"}},{"type":"Feature","geometry":{"type":"Point","coordinates":[4.934596,52.315458]},"properties":{"type":"charge","layer":"passenger","locationId":"690c3bcdbcc49e582aa6d5fa","name":"MVGM Endemol","address":"MediArena 2","city":"Amsterdam","operatorName":"Pluq","maxPowerKw":22,"isMegawatt":false,"status":"AVAILABLE","source":"ndw","priceKwh":0.4}},{"type":"Feature","geometry":{"type":"Point","coordinates":[4.933859,52.328054]},"properties":{"type":"charge","layer":"passenger","locationId":"a0b6bacf5b885b91d3846a25bd5fcdc0","name":"Parnassiaveld  164","address":"Parnassiaveld  164","city":"Duivendrecht","operatorName":"Vattenfall InCharge","maxPowerKw":11,"isMegawatt":false,"status":"AVAILABLE","source":"ndw"}},{"type":"Feature","geometry":{"type":"Point","coordinates":[4.938159,52.332205]},"properties":{"type":"charge","layer":"passenger","locationId":"53a8174b-64e2-4f0b-9309-ea6e0a1c31e5","name":"Waddenland","address":"Waddenland 25","city":"Ouderkerk aan den Amstel","operatorName":"Vattenfall InCharge","maxPowerKw":11,"isMegawatt":false,"status":"AVAILABLE","source":"ndw"}},{"type":"Feature","geometry":{"type":"Point","coordinates":[4.913686,52.293696]},"properties":{"type":"charge","layer":"passenger","locationId":"a96c3a5c-b6db-442a-a013-e3409a913887","name":"Boomvalk 111","address":"Boomvalk 111","city":"Ouder-Amstel","operatorName":"Vattenfall InCharge","maxPowerKw":11,"isMegawatt":false,"status":"AVAILABLE","source":"ndw"}},{"type":"Feature","geometry":{"type":"Point","coordinates":[4.946451,52.332199]},"properties":{"type":"charge","layer":"passenger","locationId":"3153cfa1-626e-4088-8234-433d92646f71","name":"In de Watermolen","address":"In de Watermolen 78","city":"Duivendrecht","operatorName":"Vattenfall InCharge","maxPowerKw":11,"isMegawatt":false,"status":"AVAILABLE","source":"ndw"}},{"type":"Feature","geometry":{"type":"Point","coordinates":[4.908918,52.295876]},"properties":{"type":"charge","layer":"passenger","locationId":"fac9dd762442af21c1213548d432e05c","name":"Strandvlietlaan 14","address":"Strandvlietlaan 14","city":"Ouderkerk aan de Amstel","operatorName":"Vattenfall InCharge","maxPowerKw":11,"isMegawatt":false,"status":"AVAILABLE","source":"ndw"}},{"type":"Feature","geometry":{"type":"Point","coordinates":[4.928315,52.334117]},"properties":{"type":"charge","layer":"freight","locationId":"32407","name":"Circle K Amsterdam - Marwijk Kooij","address":"Verlengde van Marwijk Kooystraat 40","city":"Amsterdam-Duivendrecht","operatorName":"Spirii","maxPowerKw":400,"isMegawatt":false,"status":"AVAILABLE","source":"ndw","priceKwh":0.65,"freightKind":"hpc","freightReason":"power"}},{"type":"Feature","geometry":{"type":"MultiPolygon","coordinates":[[[[4.950447529384571,52.33777278007984],[4.948004684332483,52.335003750062775],[4.946005158890673,52.333767719107726],[4.94867011850004,52.33171374683458],[4.948907357068008,52.33152553774938],[4.942692748755328,52.329334392637584],[4.9447153803244115,52.32712985173148],[4.9418741787272085,52.326153026824535],[4.940495768433459,52.32567755633216],[4.939151485696418,52.324666295191186],[4.938528178525034,52.32419737928821],[4.937960266131281,52.32412249439308],[4.937618319680967,52.323299527711065],[4.939926166118134,52.321936154340186],[4.941042076575707,52.31961995062975],[4.9402214899179615,52.31933853920307],[4.940205996720136,52.319333225524744],[4.939584017757913,52.31911993660947],[4.940330705385187,52.318302466758304],[4.939829603875118,52.317119753947075],[4.938040835659308,52.3165056644274],[4.938451195504998,52.31565499930609],[4.938723139764865,52.31509124511812],[4.937773455580069,52.31476454997858],[4.9352283230081895,52.31388895366615],[4.936111570473455,52.312580912455346],[4.934136944997807,52.31190368872158],[4.930064487144147,52.309340197491004],[4.930325526573013,52.3091883944654],[4.929425024807702,52.308627560149695],[4.929327547924224,52.30853231344379],[4.929908070199647,52.30810390189853],[4.9294149712173825,52.30782911699581],[4.930255583140229,52.30642998931887],[4.939242724551777,52.2969398445651],[4.943197588652943,52.29235727098842],[4.953873226382125,52.28003062734135],[4.955239692764816,52.27830526050004],[4.953764099918933,52.278030009989],[4.946666748854739,52.27899190336042],[4.942690806363441,52.27818431433237],[4.933754448502869,52.28089610652232],[4.928586623367918,52.27961162458724],[4.926402129624212,52.279709606384245],[4.925985157831769,52.278078663590236],[4.927654389861835,52.27380868889479],[4.92665089929144,52.272445168345435],[4.928014116851766,52.271742536322336],[4.929299434486484,52.269958710596555],[4.929389968394121,52.26835372680916],[4.924713146880873,52.26693766068561],[4.923136254087175,52.26302359376527],[4.918086487252731,52.26166555741229],[4.918553182383959,52.25858660448631],[4.917302931891849,52.25681768228412],[4.910969991841693,52.25268269199646],[4.908546827615968,52.25268306775168],[4.902930578718323,52.25318225711935],[4.89856844417796,52.25093270012661],[4.891759447212619,52.25326812095286],[4.887585690828076,52.25098969128087],[4.882718901672255,52.253711968744554],[4.877728991881835,52.25281656284586],[4.873853104880392,52.250743098908465],[4.872289847352671,52.25118251176188],[4.870121456918425,52.25328261331767],[4.870669960070115,52.25485005688648],[4.873645710517663,52.25805330425491],[4.873273633594822,52.26060028405454],[4.879080387292519,52.26171297521875],[4.882344846558209,52.26403991971428],[4.879470178147436,52.26707601341783],[4.881578205602576,52.27208088763468],[4.881629586784928,52.27446322987916],[4.878783422966585,52.27890289364449],[4.884541939820145,52.284179851180426],[4.885325877828949,52.286496833436196],[4.8886713413358,52.28689878441209],[4.889770643325276,52.287918596626724],[4.887480834340121,52.28896760623243],[4.8870743558316825,52.289738743983506],[4.890913048501974,52.29149429956525],[4.891469053242025,52.294466429486775],[4.891779274998017,52.294703055231906],[4.892971335383201,52.29522420302243],[4.9010177173103555,52.29607576588964],[4.901175254729259,52.29698596926924],[4.898565800919053,52.29934226944301],[4.899605476081922,52.30098128966491],[4.904091271982233,52.303713010100154],[4.90781143288072,52.30700313688191],[4.905254713056143,52.31068447464572],[4.906066107140402,52.313914279125],[4.905411554497441,52.31600545928934],[4.90913472257084,52.31825335673702],[4.912375025803687,52.31824816978083],[4.914280895391874,52.32040812790464],[4.910806478060496,52.32188317198948],[4.911342760622607,52.32288426461024],[4.91033357435127,52.32356646110548],[4.911099576480926,52.32409813343437],[4.913880686298998,52.324551668828335],[4.913591877239767,52.3263332423586],[4.913264938456311,52.32840095770433],[4.913264919586988,52.32840107626706],[4.912931075454717,52.33051052924533],[4.917482582992052,52.33153663466334],[4.922549756589058,52.33308430222793],[4.9237645602961075,52.335442774007255],[4.924945356617045,52.33538289687096],[4.925361960556219,52.33538148400147],[4.9257726242765845,52.335372823960974],[4.926941286132301,52.3357766913271],[4.926769212888678,52.335964683285276],[4.92849256784552,52.33655491379855],[4.9342198769328975,52.33549611368895],[4.935622926563798,52.335514059351645],[4.9365108771327355,52.33459209566644],[4.939673809735732,52.33560764276444],[4.941704731922781,52.3355329797437],[4.94172031582258,52.33640709411869],[4.942596181608506,52.33652121711086],[4.943004994220423,52.33657448597255],[4.943797507366373,52.336712480351565],[4.943747482854476,52.33674100865955],[4.949859310548102,52.33852835308899],[4.950326306850983,52.33863752286342],[4.950615840344534,52.33793647174874],[4.950447529384571,52.33777278007984]]]]},"properties":{"type":"boundary","gemeente":"Ouder-Amstel","code":"GM0437"}}]}