{"type":"FeatureCollection","metadata":{"gemeente":"Renswoude","slug":"renswoude","code":"GM0339","generated_at":"2026-07-06T16:26:11.361Z","total_passenger":15,"total_freight":0,"bounds":[5.49557457745312,52.03946874834359,5.562746105169518,52.10541973367088],"operators":["E-Flux by Road","Pluq","TotalEnergies","e-VOLTT"]},"features":[{"type":"Feature","geometry":{"type":"Point","coordinates":[5.537688,52.076604]},"properties":{"type":"charge","layer":"passenger","locationId":"LIB_11500","name":"LIB_11500","address":"Barneveldsestraat 11","city":"Renswoude","operatorName":"e-VOLTT","maxPowerKw":19,"isMegawatt":false,"status":"AVAILABLE","source":"ndw","priceKwh":0.55}},{"type":"Feature","geometry":{"type":"Point","coordinates":[5.537542,52.07373]},"properties":{"type":"charge","layer":"passenger","locationId":"ace74cea-9abd-43d3-bbd1-f7c5f0a8fa47","name":"PP004099 - Vendelier 22, Renswoude","address":"22 Vendelier","city":"Renswoude","operatorName":"TotalEnergies","maxPowerKw":11,"isMegawatt":false,"status":"AVAILABLE","source":"ndw"}},{"type":"Feature","geometry":{"type":"Point","coordinates":[5.537688,52.076604]},"properties":{"type":"charge","layer":"passenger","locationId":"LIB_4815","name":"LIB_4815","address":"Barneveldsestraat 11","city":"Renswoude","operatorName":"e-VOLTT","maxPowerKw":19,"isMegawatt":false,"status":"AVAILABLE","source":"ndw","priceKwh":0.55}},{"type":"Feature","geometry":{"type":"Point","coordinates":[5.533469,52.077524]},"properties":{"type":"charge","layer":"passenger","locationId":"645b60966f6d610012d1b079","name":"EAS laadstation 3+4","address":"De Hooge Hoek  19 A","city":"Renswoude","operatorName":"E-Flux by Road","maxPowerKw":11,"isMegawatt":false,"status":"AVAILABLE","source":"ndw","priceKwh":0.43}},{"type":"Feature","geometry":{"type":"Point","coordinates":[5.533469,52.077524]},"properties":{"type":"charge","layer":"passenger","locationId":"645b61b53bfb3700124296ea","name":"EAS laadstation 1+2","address":"De Hooge Hoek 19 A","city":"Renswoude","operatorName":"E-Flux by Road","maxPowerKw":11,"isMegawatt":false,"status":"AVAILABLE","source":"ndw","priceKwh":0.43}},{"type":"Feature","geometry":{"type":"Point","coordinates":[5.534175,52.071583]},"properties":{"type":"charge","layer":"passenger","locationId":"dcf6a4d8-7a0f-4adb-a6a7-7092e1681233","name":"TNLP005820 - Graaf van Bentheimlaan 10, Renswoude","address":"10 Graaf van Bentheimlaan","city":"Renswoude","operatorName":"TotalEnergies","maxPowerKw":11,"isMegawatt":false,"status":"AVAILABLE","source":"ndw"}},{"type":"Feature","geometry":{"type":"Point","coordinates":[5.538486,52.07182]},"properties":{"type":"charge","layer":"passenger","locationId":"c2c560ba-f20c-436b-ac32-261dc6ea35f7","name":"PP004086 - Van Reedeweg 84, Renswoude","address":"84 Van Reedeweg","city":"Renswoude","operatorName":"TotalEnergies","maxPowerKw":11,"isMegawatt":false,"status":"AVAILABLE","source":"ndw"}},{"type":"Feature","geometry":{"type":"Point","coordinates":[5.543822,52.076057]},"properties":{"type":"charge","layer":"passenger","locationId":"c7dbc2bc-0024-45a2-bded-266bd358f2f3","name":"TNLP007874 - De Hokhorst 2, Renswoude","address":"2 De Hokhorst","city":"Renswoude","operatorName":"TotalEnergies","maxPowerKw":17,"isMegawatt":false,"status":"AVAILABLE","source":"ndw"}},{"type":"Feature","geometry":{"type":"Point","coordinates":[5.556302,52.049338]},"properties":{"type":"charge","layer":"passenger","locationId":"69b180d369694f15ad2d1074","name":"Grebbelounge B.V.","address":"Buursteeg 2","city":"Renswoude","operatorName":"Pluq","maxPowerKw":22,"isMegawatt":false,"status":"AVAILABLE","source":"ndw","priceKwh":0.42}},{"type":"Feature","geometry":{"type":"Point","coordinates":[5.546037,52.07572]},"properties":{"type":"charge","layer":"passenger","locationId":"d924e6fa-ad0b-44f0-a002-c3de980ebb0f","name":"PP005528 - Leeuwerikweide 75, Renswoude","address":"75 Leeuwerikweide","city":"Renswoude","operatorName":"TotalEnergies","maxPowerKw":11,"isMegawatt":false,"status":"AVAILABLE","source":"ndw"}},{"type":"Feature","geometry":{"type":"Point","coordinates":[5.534356,52.075582]},"properties":{"type":"charge","layer":"passenger","locationId":"OST23P0063_0009_1","name":"OST23P0063_0009_1","address":"Utrechtseweg 4d","city":"Renswoude","operatorName":"e-VOLTT","maxPowerKw":38,"isMegawatt":false,"status":"AVAILABLE","source":"ndw","priceKwh":0.5}},{"type":"Feature","geometry":{"type":"Point","coordinates":[5.546483,52.077168]},"properties":{"type":"charge","layer":"passenger","locationId":"7fefa4ec-157c-431f-8751-ad7b1da582ad","name":"TNLP006324 - Leeuwerikweide 21, Renswoude","address":"21 Leeuwerikweide","city":"Renswoude","operatorName":"TotalEnergies","maxPowerKw":17,"isMegawatt":false,"status":"UNAVAILABLE","source":"ndw"}},{"type":"Feature","geometry":{"type":"Point","coordinates":[5.534356,52.075582]},"properties":{"type":"charge","layer":"passenger","locationId":"OST23P0063_0009_2","name":"OST23P0063_0009_2","address":"Utrechtseweg 4d","city":"Renswoude","operatorName":"e-VOLTT","maxPowerKw":38,"isMegawatt":false,"status":"AVAILABLE","source":"ndw","priceKwh":0.5}},{"type":"Feature","geometry":{"type":"Point","coordinates":[5.554833,52.062984]},"properties":{"type":"charge","layer":"passenger","locationId":"609a8b298796b152784f2065","name":"Restaurant De Hof","address":"arnhemseweg 3","city":"Renswoude","operatorName":"E-Flux by Road","maxPowerKw":22,"isMegawatt":false,"status":"AVAILABLE","source":"ndw","priceKwh":0.58}},{"type":"Feature","geometry":{"type":"Point","coordinates":[5.534356,52.075582]},"properties":{"type":"charge","layer":"passenger","locationId":"OST23P0063_0009_0","name":"OST23P0063_0009_0","address":"Utrechtseweg 4d","city":"Renswoude","operatorName":"e-VOLTT","maxPowerKw":38,"isMegawatt":false,"status":"AVAILABLE","source":"ndw","priceKwh":0.5}},{"type":"Feature","geometry":{"type":"MultiPolygon","coordinates":[[[[5.550342612110322,52.10541973367088],[5.553063475009288,52.1009541714182],[5.55423579508087,52.10015137932733],[5.55054240466417,52.09667650599384],[5.554429251578869,52.09539205212992],[5.554434897652765,52.09346875628314],[5.555869506591967,52.0918196601081],[5.5547180785957515,52.09149850677632],[5.554927293280342,52.08651036692826],[5.55590953938958,52.087117789087145],[5.557052982495735,52.08686738051491],[5.557418262448742,52.08617822089319],[5.556687197269062,52.08548284290953],[5.560753817846573,52.08421076013272],[5.560710703045596,52.08141292050483],[5.562746105169518,52.078278023954226],[5.561443401230534,52.073286311861395],[5.56031374544996,52.07215270551122],[5.5592104360868015,52.07103370933429],[5.560729213000751,52.067501488062355],[5.557903086092428,52.04886504657465],[5.557817423013315,52.048652608212194],[5.5545234477253205,52.04920860467271],[5.54463932537194,52.04937324912922],[5.540862230704418,52.04281478937051],[5.539063603293208,52.041595651059374],[5.538818442429739,52.04126473721337],[5.538281158462006,52.041423017882],[5.537351606602747,52.041409944957486],[5.535409590178809,52.041477753647705],[5.531641304331787,52.03985627806084],[5.531795594881775,52.039761632112956],[5.531419884204611,52.03946874834359],[5.5293476190527135,52.04020236731616],[5.525998637219976,52.041368921422276],[5.516430619785062,52.047763769076724],[5.515909391891826,52.052611631951],[5.514992917786572,52.05262638399556],[5.515681006407022,52.05419113841912],[5.512995179718007,52.05511366285274],[5.497875717436673,52.05701822266613],[5.49557457745312,52.07096355566418],[5.49612785786005,52.07167800189385],[5.499882261110468,52.071335268608415],[5.502092198606249,52.07334527536723],[5.504584206511191,52.073349688844345],[5.504922639319208,52.07598904778297],[5.505003133924027,52.07674239232817],[5.5068365030628375,52.07674841424456],[5.509112826001396,52.07697711447594],[5.510360633430601,52.078055086081356],[5.509922511499954,52.07905026537224],[5.514453186893774,52.07879540894182],[5.519413800208778,52.079206928912676],[5.520357104751161,52.07830777416721],[5.522654279693401,52.07754218691038],[5.526896142754347,52.08067998321932],[5.531142085205783,52.08227961495541],[5.53130598323423,52.08393933465881],[5.526634078873908,52.08490350068989],[5.53085600618608,52.08977450999354],[5.537118413410304,52.08864392193794],[5.538293887332536,52.092689859695696],[5.5350791404984045,52.092874757775185],[5.5388306445984625,52.09643633461713],[5.539160158677871,52.09781386211934],[5.532816931382994,52.099984054327784],[5.531543284885606,52.10226714628791],[5.541539933004594,52.103737283446],[5.544012638382804,52.101949074019615],[5.546302203673316,52.10244381437986],[5.545291806702375,52.10439023007554],[5.550342612110322,52.10541973367088]]]]},"properties":{"type":"boundary","gemeente":"Renswoude","code":"GM0339"}}]}