{"type":"FeatureCollection","metadata":{"gemeente":"Rhenen","slug":"rhenen","code":"GM0340","generated_at":"2026-07-06T16:26:11.361Z","total_passenger":53,"total_freight":0,"bounds":[5.477664050955791,51.94312468990061,5.627308699285775,52.01851603404941],"operators":["Allego","E-Flux by Road","Eneco","Laadnet","Opcharge","Pluq","Shell Recharge","TotalEnergies","Ubitricity","Vattenfall InCharge"]},"features":[{"type":"Feature","geometry":{"type":"Point","coordinates":[5.56251,51.963063]},"properties":{"type":"charge","layer":"passenger","locationId":"NLLOC004058","name":"NLD Van Bentheimhof 39, 3911 JM Rhenen","address":"Van bentheimhof 39","city":"Rhenen","operatorName":"Allego","maxPowerKw":11,"isMegawatt":false,"status":"AVAILABLE","source":"ndw","priceKwh":0.511}},{"type":"Feature","geometry":{"type":"Point","coordinates":[5.569113,51.966655]},"properties":{"type":"charge","layer":"passenger","locationId":"fdf87ada-fa5e-4d86-86d0-39c30f77ca06","name":"TNLP034367","address":"Petuniastraat 13","city":"Rhenen","operatorName":"TotalEnergies","maxPowerKw":14,"isMegawatt":false,"status":"AVAILABLE","source":"ndw"}},{"type":"Feature","geometry":{"type":"Point","coordinates":[5.568322,51.956814]},"properties":{"type":"charge","layer":"passenger","locationId":"NLLOC002368","name":"NLD, Rhenen, Buitenomme 8, 3911 AE","address":"Buitenomme 8","city":"Rhenen","operatorName":"Allego","maxPowerKw":11,"isMegawatt":false,"status":"AVAILABLE","source":"ndw","priceKwh":0.511}},{"type":"Feature","geometry":{"type":"Point","coordinates":[5.58609,51.973155]},"properties":{"type":"charge","layer":"passenger","locationId":"NLLOC004253","name":"NLD Achterbergsestraatweg 184a, 3911 CX Rhenen","address":"Achterbergsestraatweg 184a","city":"Rhenen","operatorName":"Allego","maxPowerKw":11,"isMegawatt":false,"status":"CHARGING","source":"ndw","priceKwh":0.511}},{"type":"Feature","geometry":{"type":"Point","coordinates":[5.578406,51.9546]},"properties":{"type":"charge","layer":"passenger","locationId":"05f74150-a655-4c7e-85a3-c6950fa249d5","name":"TNLP008415 - Zanglijster 56, Rhenen","address":"56 Zanglijster","city":"Rhenen","operatorName":"TotalEnergies","maxPowerKw":13,"isMegawatt":false,"status":"AVAILABLE","source":"ndw"}},{"type":"Feature","geometry":{"type":"Point","coordinates":[5.529929,51.972485]},"properties":{"type":"charge","layer":"passenger","locationId":"5221","name":"Shell Recharge NL9303 - Karwei Rhenen","address":"Tasveld 38","city":"Rhenen","operatorName":"Shell Recharge","maxPowerKw":50,"isMegawatt":false,"status":"AVAILABLE","source":"ndw","priceKwh":0.7025}},{"type":"Feature","geometry":{"type":"Point","coordinates":[5.573709,51.963647]},"properties":{"type":"charge","layer":"passenger","locationId":"NLLOC004357","name":"NLD, Verlengde Acacialaan 41, 3911 GA Rhenen","address":"Verlengde Acacialaan 41","city":"Rhenen","operatorName":"Allego","maxPowerKw":11,"isMegawatt":false,"status":"CHARGING","source":"ndw","priceKwh":0.511}},{"type":"Feature","geometry":{"type":"Point","coordinates":[5.592034,51.956137]},"properties":{"type":"charge","layer":"passenger","locationId":"d9ba75aa104c4696a72747b924885f73","name":"Ouwehands Dierenpark Rhenen","address":"Grebbeweg 111","city":"Rhenen","operatorName":"Opcharge","maxPowerKw":22,"isMegawatt":false,"status":"AVAILABLE","source":"ndw","priceKwh":0.49}},{"type":"Feature","geometry":{"type":"Point","coordinates":[5.5055421,51.9858701]},"properties":{"type":"charge","layer":"passenger","locationId":"1971","name":"Shell Recharge NL Koninginneweg 50","address":"Koninginneweg 50","city":"Elst Ut","operatorName":"Ubitricity","maxPowerKw":22,"isMegawatt":false,"status":"AVAILABLE","source":"ndw","priceKwh":0.266}},{"type":"Feature","geometry":{"type":"Point","coordinates":[5.4971661,51.9888522]},"properties":{"type":"charge","layer":"passenger","locationId":"2123","name":"Shell Recharge NL De Klamp 27","address":"De Klamp 27","city":"Elst Ut","operatorName":"Ubitricity","maxPowerKw":22,"isMegawatt":false,"status":"AVAILABLE","source":"ndw","priceKwh":0.266}},{"type":"Feature","geometry":{"type":"Point","coordinates":[5.561015,51.96188]},"properties":{"type":"charge","layer":"passenger","locationId":"9030d337-17fb-41ee-8155-36bdcc7d042d","name":"TNLP007175 - Donderberg 43, Rhenen","address":"43 Donderberg","city":"Rhenen","operatorName":"TotalEnergies","maxPowerKw":17,"isMegawatt":false,"status":"CHARGING","source":"ndw"}},{"type":"Feature","geometry":{"type":"Point","coordinates":[5.570429,51.968006]},"properties":{"type":"charge","layer":"passenger","locationId":"99c520a2-ddde-480b-8581-01b1022c7a3c","name":"TNLP008466 - Beukenlaan 38, Rhenen","address":"38 Beukenlaan","city":"Rhenen","operatorName":"TotalEnergies","maxPowerKw":13,"isMegawatt":false,"status":"CHARGING","source":"ndw"}},{"type":"Feature","geometry":{"type":"Point","coordinates":[5.497543,51.987889]},"properties":{"type":"charge","layer":"passenger","locationId":"NLLOC009558","name":"NL, Kleingeel 3, 3921 EM, Elst","address":"Kleingeel 3","city":"Elst, gem Rhenen","operatorName":"Allego","maxPowerKw":11,"isMegawatt":false,"status":"AVAILABLE","source":"ndw","priceKwh":0.511}},{"type":"Feature","geometry":{"type":"Point","coordinates":[5.607218,51.955347]},"properties":{"type":"charge","layer":"passenger","locationId":"66d9a2775c52bb001c27aa92","name":"Villa Grebbeoord","address":"Grebbeweg 160","city":"Rhenen","operatorName":"Pluq","maxPowerKw":22,"isMegawatt":false,"status":"AVAILABLE","source":"ndw","priceKwh":0.56}},{"type":"Feature","geometry":{"type":"Point","coordinates":[5.570689,51.9575]},"properties":{"type":"charge","layer":"passenger","locationId":"062bafae-5d6c-4467-98f5-aa2f4fd7476c","name":"TNLP008389 - Achterbergsestraatweg 1a, Rhenen","address":"1a Achterbergsestraatweg","city":"Rhenen","operatorName":"TotalEnergies","maxPowerKw":13,"isMegawatt":false,"status":"AVAILABLE","source":"ndw"}},{"type":"Feature","geometry":{"type":"Point","coordinates":[5.565726,51.961527]},"properties":{"type":"charge","layer":"passenger","locationId":"NLLOC001969","name":"NLD, Rhenen, Groeneweg 58","address":"Groeneweg 58","city":"Rhenen","operatorName":"Allego","maxPowerKw":11,"isMegawatt":false,"status":"UNAVAILABLE","source":"ndw","priceKwh":0.511}},{"type":"Feature","geometry":{"type":"Point","coordinates":[5.573885,51.965096]},"properties":{"type":"charge","layer":"passenger","locationId":"75a8a4ef-9ecb-4060-af76-ed056a394fbf","name":"TNLP008428 - Anjerlaan 1, Rhenen","address":"1 Anjerlaan","city":"Rhenen","operatorName":"TotalEnergies","maxPowerKw":13,"isMegawatt":false,"status":"AVAILABLE","source":"ndw"}},{"type":"Feature","geometry":{"type":"Point","coordinates":[5.566051,51.962215]},"properties":{"type":"charge","layer":"passenger","locationId":"3da0f551-73b5-4ab2-8a0c-adc6d06a5954","name":"TNLP034369","address":"Groeneweg 58","city":"Rhenen","operatorName":"TotalEnergies","maxPowerKw":14,"isMegawatt":false,"status":"AVAILABLE","source":"ndw"}},{"type":"Feature","geometry":{"type":"Point","coordinates":[5.554418,51.993681]},"properties":{"type":"charge","layer":"passenger","locationId":"6a3e796d3fdebe58daf05975","name":"House of Bird Kwintelooijen","address":"Oude Veensegrindweg 47","city":"Rhenen","operatorName":"E-Flux by Road","maxPowerKw":22,"isMegawatt":false,"status":"AVAILABLE","source":"ndw","priceKwh":0.4432}},{"type":"Feature","geometry":{"type":"Point","coordinates":[5.53964,52.006103]},"properties":{"type":"charge","layer":"passenger","locationId":"66dab337d0d381001cd1cc35","name":"Restaurant & Lounge bar 3 Zussen Rhenen B.V.","address":"Kerkewijk 115","city":"Rhenen","operatorName":"Pluq","maxPowerKw":22,"isMegawatt":false,"status":"UNAVAILABLE","source":"ndw","priceKwh":0.33}},{"type":"Feature","geometry":{"type":"Point","coordinates":[5.572638,51.966119]},"properties":{"type":"charge","layer":"passenger","locationId":"b3da1363-afb4-424f-93ad-4ec1fd57d75a","name":"TNLP015192","address":"Korenbloemstraat 93","city":"Rhenen","operatorName":"TotalEnergies","maxPowerKw":17,"isMegawatt":false,"status":"CHARGING","source":"ndw"}},{"type":"Feature","geometry":{"type":"Point","coordinates":[5.563202,51.957844]},"properties":{"type":"charge","layer":"passenger","locationId":"NLLOC001968","name":"NLD, Rhenen, Koningshof 24","address":"Koningshof 24","city":"Rhenen","operatorName":"Allego","maxPowerKw":11,"isMegawatt":false,"status":"AVAILABLE","source":"ndw","priceKwh":0.511}},{"type":"Feature","geometry":{"type":"Point","coordinates":[5.58011,51.954536]},"properties":{"type":"charge","layer":"passenger","locationId":"NLLOC006880","name":"NL, Zanglijster 103, 3911er, Rhenen","address":"Zanglijster 103","city":"Rhenen","operatorName":"Allego","maxPowerKw":11,"isMegawatt":false,"status":"AVAILABLE","source":"ndw","priceKwh":0.511}},{"type":"Feature","geometry":{"type":"Point","coordinates":[5.578193,51.957819]},"properties":{"type":"charge","layer":"passenger","locationId":"D2860FDF-3F99-4410-989A-4B7C9C6B269D","name":"Eneco eMobility NS Stationsplein 1 Rhenen","address":"Stationsplein 1","city":"Rhenen","operatorName":"Eneco","maxPowerKw":22,"isMegawatt":false,"status":"AVAILABLE","source":"ndw","priceKwh":0.48}},{"type":"Feature","geometry":{"type":"Point","coordinates":[5.5719137,51.9583367]},"properties":{"type":"charge","layer":"passenger","locationId":"2807","name":"Shell Recharge NL Achterbergsestraatweg 8","address":"Achterbergsestraatweg 8","city":"Rhenen","operatorName":"Ubitricity","maxPowerKw":22,"isMegawatt":false,"status":"AVAILABLE","source":"ndw","priceKwh":0.266}},{"type":"Feature","geometry":{"type":"Point","coordinates":[5.499157,51.987082]},"properties":{"type":"charge","layer":"passenger","locationId":"f8b6a561ae4fa994e4dc6b2d8a9e49a6","name":"Margrietstraat 21","address":"Margrietstraat 21","city":"Elst Ut","operatorName":"Vattenfall InCharge","maxPowerKw":11,"isMegawatt":false,"status":"AVAILABLE","source":"ndw"}},{"type":"Feature","geometry":{"type":"Point","coordinates":[5.56327,51.965992]},"properties":{"type":"charge","layer":"passenger","locationId":"NLLOC001922","name":"NLD, Rhenen, De Toltoren 27","address":"De Toltoren 27","city":"Rhenen","operatorName":"Allego","maxPowerKw":11,"isMegawatt":false,"status":"AVAILABLE","source":"ndw","priceKwh":0.511}},{"type":"Feature","geometry":{"type":"Point","coordinates":[5.567875,51.967814]},"properties":{"type":"charge","layer":"passenger","locationId":"NLLOC004056","name":"NLD Asterstraat 19, 3911 WE Rhenen","address":"Asterstraat 19","city":"Rhenen","operatorName":"Allego","maxPowerKw":11,"isMegawatt":false,"status":"AVAILABLE","source":"ndw","priceKwh":0.511}},{"type":"Feature","geometry":{"type":"Point","coordinates":[5.5639333,51.9578411]},"properties":{"type":"charge","layer":"passenger","locationId":"1840","name":"Shell Recharge NL Frederik van de Paltshof 8","address":"Frederik van de Paltshof 8","city":"Rhenen","operatorName":"Ubitricity","maxPowerKw":22,"isMegawatt":false,"status":"AVAILABLE","source":"ndw","priceKwh":0.266}},{"type":"Feature","geometry":{"type":"Point","coordinates":[5.568659,51.959015]},"properties":{"type":"charge","layer":"passenger","locationId":"c5d79651-490e-4b00-a6e9-f06172a60140","name":"TNLP007145 - Molenstraat 41, Rhenen","address":"41 Molenstraat","city":"Rhenen","operatorName":"TotalEnergies","maxPowerKw":17,"isMegawatt":false,"status":"CHARGING","source":"ndw"}},{"type":"Feature","geometry":{"type":"Point","coordinates":[5.565778,51.958982]},"properties":{"type":"charge","layer":"passenger","locationId":"NLLOC008617","name":"NL, Grutterstraat 17, 3911KV, Rhenen","address":"Grutterstraat 17","city":"Rhenen","operatorName":"Allego","maxPowerKw":11,"isMegawatt":false,"status":"CHARGING","source":"ndw","priceKwh":0.511}},{"type":"Feature","geometry":{"type":"Point","coordinates":[5.573903,51.95723]},"properties":{"type":"charge","layer":"passenger","locationId":"b6cdf38a-21b1-453f-8322-8ce5bf9d7222","name":"TNLP006801 - Stationsweg 2, Rhenen","address":"2 Stationsweg","city":"Rhenen","operatorName":"TotalEnergies","maxPowerKw":17,"isMegawatt":false,"status":"AVAILABLE","source":"ndw"}},{"type":"Feature","geometry":{"type":"Point","coordinates":[5.49731,51.98681]},"properties":{"type":"charge","layer":"passenger","locationId":"86df1f2aed14420369b1112ef85b70cd","name":"Schoolweg 59","address":"Schoolweg 59","city":"Elst Ut","operatorName":"Vattenfall InCharge","maxPowerKw":11,"isMegawatt":false,"status":"UNAVAILABLE","source":"ndw"}},{"type":"Feature","geometry":{"type":"Point","coordinates":[5.58068,51.956024]},"properties":{"type":"charge","layer":"passenger","locationId":"604cac2a-2e7a-49db-9d7c-cff563584446","name":"TNLP008491 - Majoor Landzaatweg 44, Rhenen","address":"44 Majoor Landzaatweg","city":"Rhenen","operatorName":"TotalEnergies","maxPowerKw":13,"isMegawatt":false,"status":"AVAILABLE","source":"ndw"}},{"type":"Feature","geometry":{"type":"Point","coordinates":[5.582185,51.959606]},"properties":{"type":"charge","layer":"passenger","locationId":"3d7c55a0-98d1-45bf-a265-81b1321bd6da","name":"TNLP034101","address":"Van Abcoudehof 56","city":"Rhenen","operatorName":"TotalEnergies","maxPowerKw":14,"isMegawatt":false,"status":"AVAILABLE","source":"ndw"}},{"type":"Feature","geometry":{"type":"Point","coordinates":[5.578535,51.985951]},"properties":{"type":"charge","layer":"passenger","locationId":"3778934","name":"Laadnet 3911TD14C","address":"Zuidelijke Meentsteeg 14C","city":"Rhenen","operatorName":"Laadnet","maxPowerKw":22,"isMegawatt":false,"status":"UNAVAILABLE","source":"ndw"}},{"type":"Feature","geometry":{"type":"Point","coordinates":[5.57202,51.96555]},"properties":{"type":"charge","layer":"passenger","locationId":"96078540-dcbe-4df2-a09b-5a55564394ec","name":"TNLP008154 - Papaverstraat 1G, Rhenen","address":"1G Papaverstraat","city":"Rhenen","operatorName":"TotalEnergies","maxPowerKw":17,"isMegawatt":false,"status":"AVAILABLE","source":"ndw"}},{"type":"Feature","geometry":{"type":"Point","coordinates":[5.562948,51.960793]},"properties":{"type":"charge","layer":"passenger","locationId":"204ffd4b-7868-44b4-85e9-b500a1e972c8","name":"TNLP006329 - Teldersweg 99, Rhenen","address":"99 Teldersweg","city":"Rhenen","operatorName":"TotalEnergies","maxPowerKw":17,"isMegawatt":false,"status":"AVAILABLE","source":"ndw"}},{"type":"Feature","geometry":{"type":"Point","coordinates":[5.49607,51.985811]},"properties":{"type":"charge","layer":"passenger","locationId":"NLLOC005481","name":"NLD, Schoolweg 19, Elst","address":"Schoolweg 19","city":"Elst","operatorName":"Allego","maxPowerKw":11,"isMegawatt":false,"status":"AVAILABLE","source":"ndw","priceKwh":0.511}},{"type":"Feature","geometry":{"type":"Point","coordinates":[5.495859,51.987682]},"properties":{"type":"charge","layer":"passenger","locationId":"cad82ccd-7a02-4700-a6b0-aa8b98244545","name":"TNLP008309 - Tabaksweg 20, Elst (ut)","address":"20 Tabaksweg","city":"Elst","operatorName":"TotalEnergies","maxPowerKw":13,"isMegawatt":false,"status":"AVAILABLE","source":"ndw"}},{"type":"Feature","geometry":{"type":"Point","coordinates":[5.569647,51.968604]},"properties":{"type":"charge","layer":"passenger","locationId":"3961729","name":"Laadnet Mercator Inkoopadviezen","address":"Ericalaan 14","city":"Rhenen","operatorName":"Laadnet","maxPowerKw":11,"isMegawatt":false,"status":"UNAVAILABLE","source":"ndw"}},{"type":"Feature","geometry":{"type":"Point","coordinates":[5.581676,51.955032]},"properties":{"type":"charge","layer":"passenger","locationId":"5a9ef989-73d0-40cb-b3dd-141a9e1da328","name":"TNLP008157 - Zanglijster 130, Rhenen","address":"130 Zanglijster","city":"Rhenen","operatorName":"TotalEnergies","maxPowerKw":17,"isMegawatt":false,"status":"AVAILABLE","source":"ndw"}},{"type":"Feature","geometry":{"type":"Point","coordinates":[5.57805,51.964115]},"properties":{"type":"charge","layer":"passenger","locationId":"90bd0d7b-0a13-4346-8504-22856bc6745b","name":"TNLP007828 - Ribeslaan 1, Rhenen","address":"1 Ribeslaan","city":"Rhenen","operatorName":"TotalEnergies","maxPowerKw":17,"isMegawatt":false,"status":"AVAILABLE","source":"ndw"}},{"type":"Feature","geometry":{"type":"Point","coordinates":[5.584149,51.97265]},"properties":{"type":"charge","layer":"passenger","locationId":"bbdf3042-488b-40f3-b922-08153597bda4","name":"TNLP008556 - Stuivenes 33, Rhenen","address":"33 Stuivenes","city":"Rhenen","operatorName":"TotalEnergies","maxPowerKw":13,"isMegawatt":false,"status":"AVAILABLE","source":"ndw"}},{"type":"Feature","geometry":{"type":"Point","coordinates":[5.537513,51.970673]},"properties":{"type":"charge","layer":"passenger","locationId":"A7563936-10C2-4F97-B337-3ACAE07F63D5","name":"Eneco eMobility Remmerden 5 Rhenen","address":"Remmerden 5","city":"Rhenen","operatorName":"Eneco","maxPowerKw":22,"isMegawatt":false,"status":"UNAVAILABLE","source":"ndw","priceKwh":0.32}},{"type":"Feature","geometry":{"type":"Point","coordinates":[5.565344,51.95619]},"properties":{"type":"charge","layer":"passenger","locationId":"6be4ee54-bf00-4e14-af64-89bdf54eaef0","name":"TNLP006590 - Rijnstraat 20, Rhenen","address":"20 Rijnstraat","city":"Rhenen","operatorName":"TotalEnergies","maxPowerKw":17,"isMegawatt":false,"status":"AVAILABLE","source":"ndw"}},{"type":"Feature","geometry":{"type":"Point","coordinates":[5.5659822,51.9638369]},"properties":{"type":"charge","layer":"passenger","locationId":"2455","name":"Shell Recharge NL Platanenlaan 49","address":"Platanenlaan 49","city":"Rhenen","operatorName":"Ubitricity","maxPowerKw":22,"isMegawatt":false,"status":"AVAILABLE","source":"ndw","priceKwh":0.266}},{"type":"Feature","geometry":{"type":"Point","coordinates":[5.5701326,51.9612015]},"properties":{"type":"charge","layer":"passenger","locationId":"901","name":"Shell Recharge NL Prunuslaan 1","address":"Prunuslaan 1","city":"Rhenen","operatorName":"Ubitricity","maxPowerKw":22,"isMegawatt":false,"status":"AVAILABLE","source":"ndw","priceKwh":0.266}},{"type":"Feature","geometry":{"type":"Point","coordinates":[5.504789,51.984245]},"properties":{"type":"charge","layer":"passenger","locationId":"709b92c2-fa60-4a32-8faa-ef99287418de","name":"TNLP008438 - Heideweg 74, Elst (ut)","address":"74 Heideweg","city":"Elst","operatorName":"TotalEnergies","maxPowerKw":13,"isMegawatt":false,"status":"UNAVAILABLE","source":"ndw"}},{"type":"Feature","geometry":{"type":"Point","coordinates":[5.574861,51.962794]},"properties":{"type":"charge","layer":"passenger","locationId":"cc79e659-dd18-4fa2-9d01-23f456ec3b6b","name":"TNLP034364","address":"Lijsterberg 72","city":"Rhenen","operatorName":"TotalEnergies","maxPowerKw":14,"isMegawatt":false,"status":"AVAILABLE","source":"ndw"}},{"type":"Feature","geometry":{"type":"Point","coordinates":[5.5663,51.962247]},"properties":{"type":"charge","layer":"passenger","locationId":"95f86c79-5107-4270-baa4-91a2f5a3eab2","name":"TNLP034374","address":"Groeneweg 58","city":"Rhenen","operatorName":"TotalEnergies","maxPowerKw":14,"isMegawatt":false,"status":"AVAILABLE","source":"ndw"}},{"type":"Feature","geometry":{"type":"Point","coordinates":[5.499341,51.98533]},"properties":{"type":"charge","layer":"passenger","locationId":"f8c92a8a-1830-4f41-8a11-69bc3bb06e66","name":"TNLP006327 - Nassaustraat 1, Elst (ut)","address":"1 Nassaustraat","city":"Elst","operatorName":"TotalEnergies","maxPowerKw":17,"isMegawatt":false,"status":"CHARGING","source":"ndw"}},{"type":"Feature","geometry":{"type":"Point","coordinates":[5.564292,51.96471]},"properties":{"type":"charge","layer":"passenger","locationId":"b7be9567-2f5f-4a20-97ae-d766d91f2180","name":"TNLP006531 - Koerheuvelweg 9, Rhenen","address":"9 Koerheuvelweg","city":"Rhenen","operatorName":"TotalEnergies","maxPowerKw":17,"isMegawatt":false,"status":"AVAILABLE","source":"ndw"}},{"type":"Feature","geometry":{"type":"MultiPolygon","coordinates":[[[[5.548336372241255,52.00164691961347],[5.553228983381824,51.99903074704829],[5.554429572110342,52.00018204511824],[5.558044814085113,52.003631917556554],[5.561352956742085,52.00185271505739],[5.570478377483419,51.99695824334161],[5.573244717992078,51.99876595133995],[5.5820879900148554,52.004475259404146],[5.589488588968606,52.009455375935595],[5.591112554719796,52.0073013252777],[5.590807990962315,52.00302465676512],[5.591997538710364,52.001392144854464],[5.59655619077781,51.99920138670778],[5.602514928590894,51.99499767078971],[5.606016941466754,51.994164188740555],[5.609972206734906,51.993691364892165],[5.613812768403021,51.99034260868056],[5.615059950233054,51.982716775267214],[5.619888340017703,51.97771017876914],[5.626064250760591,51.97406988960198],[5.624855756617822,51.970448199252125],[5.620258296249782,51.96658217567588],[5.62321364585549,51.96256459073045],[5.626495307227726,51.95736559918897],[5.627308699285775,51.95247316763022],[5.625027570414318,51.951614698125574],[5.623446607053282,51.95194543000212],[5.620162613113861,51.95149798799527],[5.620437397385176,51.94832466320546],[5.616428042276996,51.94935343014928],[5.605939713923702,51.94312468990061],[5.603911140436063,51.94388317840186],[5.592736547483571,51.94918246919891],[5.586616538178616,51.95082886036091],[5.575574263148438,51.95282646959742],[5.561252308969734,51.95450171802286],[5.556933551978607,51.9557109506468],[5.549560810722379,51.959196822423735],[5.540207824858125,51.967281441851526],[5.537520164884423,51.968285263341485],[5.527112676282416,51.97021900485558],[5.518829174644289,51.971573553638855],[5.518221743139957,51.97169333079114],[5.5109789569145775,51.97364316758348],[5.500750580344955,51.97859198975458],[5.4862135673753345,51.98382638887078],[5.477664050955791,51.98347261725088],[5.477849378029511,51.987691660942005],[5.480554697544854,51.98874793462992],[5.47925874633913,51.99019949250198],[5.480300253641873,51.991093986589405],[5.484594292454842,51.98775952287515],[5.486083763334669,51.9908525821519],[5.485293410690199,51.990964976964044],[5.490897313064996,51.99656100277726],[5.492874322067688,51.996094570372215],[5.494201269836863,51.99490100815412],[5.507886548458229,52.012311048968215],[5.511022299426759,52.01642021688087],[5.512591840645124,52.01851603404941],[5.524646710124884,52.01448972998254],[5.53345504062266,52.01237350460086],[5.532365701958386,52.010900045173166],[5.536690177244535,52.00831972202342],[5.539183508519721,52.007407896911516],[5.540234736350546,52.007021048492476],[5.548336372241255,52.00164691961347]]]]},"properties":{"type":"boundary","gemeente":"Rhenen","code":"GM0340"}}]}