{"type":"FeatureCollection","metadata":{"gemeente":"Rijswijk (ZH.)","slug":"rijswijk-zh","code":"GM0603","generated_at":"2026-07-06T16:26:11.361Z","total_passenger":251,"total_freight":1,"bounds":[4.290951733694958,52.012766395951836,4.357902176139592,52.061947192708644],"operators":["E-Flux by Road","EQUANS","Electra","Eneco","Laadnet","NXT Charging Solutions","Opcharge","Pluq","Q-Park Netherlands","Shell Recharge","Tesla","Vattenfall InCharge","bp pulse","e-VOLTT"]},"features":[{"type":"Feature","geometry":{"type":"Point","coordinates":[4.325702,52.021427]},"properties":{"type":"charge","layer":"passenger","locationId":"89942973","name":"EQUANS SGZH 2.0 89942973","address":"Guldeling 2","city":"Rijswijk","operatorName":"EQUANS","maxPowerKw":11,"isMegawatt":false,"status":"AVAILABLE","source":"ndw"}},{"type":"Feature","geometry":{"type":"Point","coordinates":[4.339133,52.059489]},"properties":{"type":"charge","layer":"passenger","locationId":"89880964","name":"EQUANS SGZH 2.0 89880964","address":"Caan van Necklaan 171","city":"Rijswijk","operatorName":"EQUANS","maxPowerKw":11,"isMegawatt":false,"status":"CHARGING","source":"ndw"}},{"type":"Feature","geometry":{"type":"Point","coordinates":[4.31162,52.02703]},"properties":{"type":"charge","layer":"passenger","locationId":"91328834","name":"EQUANS SGZH 2.0 Suze Groenewegstraat 1","address":"Suze Groenewegstraat 1","city":"Rijswijk","operatorName":"EQUANS","maxPowerKw":11,"isMegawatt":false,"status":"AVAILABLE","source":"ndw"}},{"type":"Feature","geometry":{"type":"Point","coordinates":[4.341962,52.053678]},"properties":{"type":"charge","layer":"passenger","locationId":"90400467","name":"EQUANS SGZH 2.0 Mauritslaan 58","address":"Mauritslaan 58","city":"Rijswijk","operatorName":"EQUANS","maxPowerKw":11,"isMegawatt":false,"status":"AVAILABLE","source":"ndw"}},{"type":"Feature","geometry":{"type":"Point","coordinates":[4.34233,52.046097]},"properties":{"type":"charge","layer":"passenger","locationId":"88610616","name":"EQUANS SGZH 2.0 88610616","address":"Prunuskade 6","city":"Rijswijk","operatorName":"EQUANS","maxPowerKw":11,"isMegawatt":false,"status":"CHARGING","source":"ndw"}},{"type":"Feature","geometry":{"type":"Point","coordinates":[4.356553,52.028532]},"properties":{"type":"charge","layer":"passenger","locationId":"131","name":"Shell Recharge NL8521 - Shell Vrijenbanselaan","address":"Vrijenbanselaan 15","city":"Rijswijk","operatorName":"Shell Recharge","maxPowerKw":175,"isMegawatt":false,"status":"AVAILABLE","source":"ndw","priceKwh":0.7025}},{"type":"Feature","geometry":{"type":"Point","coordinates":[4.31795,52.04511]},"properties":{"type":"charge","layer":"passenger","locationId":"91050034","name":"EQUANS SGZH 2.0 Huis te Landelaan 27","address":"Huis te Landelaan 27","city":"Rijswijk","operatorName":"EQUANS","maxPowerKw":11,"isMegawatt":false,"status":"AVAILABLE","source":"ndw"}},{"type":"Feature","geometry":{"type":"Point","coordinates":[4.3014,52.03301]},"properties":{"type":"charge","layer":"passenger","locationId":"90909768","name":"EQUANS SGZH 2.0 Liseiland 2 (Siergaarde)","address":"Liseiland 2","city":"Rijswijk","operatorName":"EQUANS","maxPowerKw":11,"isMegawatt":false,"status":"AVAILABLE","source":"ndw"}},{"type":"Feature","geometry":{"type":"Point","coordinates":[4.331524,52.050451]},"properties":{"type":"charge","layer":"passenger","locationId":"91321574","name":"EQUANS SGZH 2.0 Burgemeester Elsenlaan 97","address":"Burgemeester Elsenlaan 97","city":"Rijswijk","operatorName":"EQUANS","maxPowerKw":11,"isMegawatt":false,"status":"AVAILABLE","source":"ndw"}},{"type":"Feature","geometry":{"type":"Point","coordinates":[4.333913,52.019925]},"properties":{"type":"charge","layer":"passenger","locationId":"89942875","name":"EQUANS SGZH 2.0 89942875","address":"Parelgraslaan 19","city":"Rijswijk","operatorName":"EQUANS","maxPowerKw":11,"isMegawatt":false,"status":"AVAILABLE","source":"ndw"}},{"type":"Feature","geometry":{"type":"Point","coordinates":[4.332183,52.049252]},"properties":{"type":"charge","layer":"passenger","locationId":"90099085","name":"EQUANS SGZH 2.0 Hendrik Ravesteijnplein 2","address":"Hendrik Ravesteijnplein 2","city":"Rijswijk","operatorName":"EQUANS","maxPowerKw":11,"isMegawatt":false,"status":"AVAILABLE","source":"ndw"}},{"type":"Feature","geometry":{"type":"Point","coordinates":[4.324257,52.049457]},"properties":{"type":"charge","layer":"passenger","locationId":"91072557","name":"EQUANS SGZH 2.0 Park de Wervelaan 47","address":"Park de Wervelaan 47","city":"Rijswijk","operatorName":"EQUANS","maxPowerKw":11,"isMegawatt":false,"status":"AVAILABLE","source":"ndw"}},{"type":"Feature","geometry":{"type":"Point","coordinates":[4.32515,52.04208]},"properties":{"type":"charge","layer":"passenger","locationId":"5311","name":"EQUANS SGZH 2.0 Ir H.H. van Kollaan 49","address":"Ir H.H. van Kollaan 49","city":"Rijswijk","operatorName":"EQUANS","maxPowerKw":11,"isMegawatt":false,"status":"AVAILABLE","source":"ndw"}},{"type":"Feature","geometry":{"type":"Point","coordinates":[4.345513,52.048847]},"properties":{"type":"charge","layer":"passenger","locationId":"0D9C688B-B6D4-46C3-AB47-62D2F744118F","name":"Eneco eMobility Madame Curielaan 8 - Rijswijk","address":"Madame Curielaan 8","city":"Rijswijk","operatorName":"Eneco","maxPowerKw":22,"isMegawatt":false,"status":"AVAILABLE","source":"ndw","priceKwh":0.35}},{"type":"Feature","geometry":{"type":"Point","coordinates":[4.314809,52.024198]},"properties":{"type":"charge","layer":"passenger","locationId":"89329821","name":"EQUANS SGZH 2.0 89329821","address":"Mr. Beerninkplantsoen 152","city":"Rijswijk","operatorName":"EQUANS","maxPowerKw":11,"isMegawatt":false,"status":"AVAILABLE","source":"ndw"}},{"type":"Feature","geometry":{"type":"Point","coordinates":[4.30762,52.02906]},"properties":{"type":"charge","layer":"passenger","locationId":"91277513","name":"EQUANS SGZH 2.0 H.Kuipers-Rietbergenpad 11","address":"H.Kuipers-Rietbergenpad 11","city":"Rijswijk","operatorName":"EQUANS","maxPowerKw":11,"isMegawatt":false,"status":"AVAILABLE","source":"ndw"}},{"type":"Feature","geometry":{"type":"Point","coordinates":[4.331797,52.053678]},"properties":{"type":"charge","layer":"passenger","locationId":"90155338","name":"EQUANS SGZH 2.0 Willem Marisstraat 29","address":"Willem Marisstraat 29","city":"Rijswijk","operatorName":"EQUANS","maxPowerKw":11,"isMegawatt":false,"status":"AVAILABLE","source":"ndw"}},{"type":"Feature","geometry":{"type":"Point","coordinates":[4.341346,52.056562]},"properties":{"type":"charge","layer":"passenger","locationId":"89615431","name":"EQUANS SGZH 2.0 89615431","address":"Wilhelminalaan 14","city":"Rijswijk","operatorName":"EQUANS","maxPowerKw":11,"isMegawatt":false,"status":"AVAILABLE","source":"ndw"}},{"type":"Feature","geometry":{"type":"Point","coordinates":[4.33056,52.018273]},"properties":{"type":"charge","layer":"passenger","locationId":"89344672","name":"EQUANS SGZH 2.0 89344672","address":"Metelerkampstraat 9","city":"Rijswijk","operatorName":"EQUANS","maxPowerKw":11,"isMegawatt":false,"status":"AVAILABLE","source":"ndw"}},{"type":"Feature","geometry":{"type":"Point","coordinates":[4.335009,52.04934]},"properties":{"type":"charge","layer":"passenger","locationId":"90255748","name":"EQUANS SGZH 2.0 Jozef Israëlslaan 154","address":"Jozef Israëlslaan 154","city":"Rijswijk","operatorName":"EQUANS","maxPowerKw":11,"isMegawatt":false,"status":"CHARGING","source":"ndw"}},{"type":"Feature","geometry":{"type":"Point","coordinates":[4.332732,52.046326]},"properties":{"type":"charge","layer":"passenger","locationId":"90386363","name":"EQUANS SGZH 2.0 Karel Doormanlaan 2","address":"Karel Doormanlaan 2","city":"Rijswijk","operatorName":"EQUANS","maxPowerKw":11,"isMegawatt":false,"status":"AVAILABLE","source":"ndw"}},{"type":"Feature","geometry":{"type":"Point","coordinates":[4.303162,52.029101]},"properties":{"type":"charge","layer":"passenger","locationId":"89165248","name":"EQUANS SGZH 2.0 GRW173","address":"Drakensteyn 14","city":"Rijswijk","operatorName":"EQUANS","maxPowerKw":11,"isMegawatt":false,"status":"AVAILABLE","source":"ndw"}},{"type":"Feature","geometry":{"type":"Point","coordinates":[4.32689,52.047324]},"properties":{"type":"charge","layer":"passenger","locationId":"2665","name":"EQUANS SGZH 2.0 2665","address":"Schouwburg, Huys te Nieuburchlaan 501","city":"Rijswijk","operatorName":"EQUANS","maxPowerKw":11,"isMegawatt":false,"status":"AVAILABLE","source":"ndw"}},{"type":"Feature","geometry":{"type":"Point","coordinates":[4.339272,52.0499]},"properties":{"type":"charge","layer":"passenger","locationId":"3600","name":"EQUANS SGZH 2.0 3600","address":"Sir Winston Churchilllaan 149","city":"Rijswijk","operatorName":"EQUANS","maxPowerKw":11,"isMegawatt":false,"status":"AVAILABLE","source":"ndw"}},{"type":"Feature","geometry":{"type":"Point","coordinates":[4.335843,52.03692]},"properties":{"type":"charge","layer":"passenger","locationId":"3a8b75b1-4346-48a4-8e39-359dc2e1fa5d","name":"Polakweg","address":"Polakweg 2","city":"Rijswijk","operatorName":"Vattenfall InCharge","maxPowerKw":50,"isMegawatt":false,"status":"AVAILABLE","source":"ndw"}},{"type":"Feature","geometry":{"type":"Point","coordinates":[4.34178,52.044322]},"properties":{"type":"charge","layer":"passenger","locationId":"89473069","name":"EQUANS SGZH 2.0 89473069","address":"Steenplaetsstraat 5","city":"Rijswijk","operatorName":"EQUANS","maxPowerKw":11,"isMegawatt":false,"status":"AVAILABLE","source":"ndw"}},{"type":"Feature","geometry":{"type":"Point","coordinates":[4.323788,52.020073]},"properties":{"type":"charge","layer":"passenger","locationId":"88189389","name":"EQUANS SGZH 2.0 88189389","address":"Laan van Sion 211","city":"Rijswijk","operatorName":"EQUANS","maxPowerKw":11,"isMegawatt":false,"status":"AVAILABLE","source":"ndw"}},{"type":"Feature","geometry":{"type":"Point","coordinates":[4.315535,52.03501]},"properties":{"type":"charge","layer":"passenger","locationId":"7CC468FF-3106-4BDB-8B9A-6F81F109338F","name":"Q-Park Rijswijk Boogaardplein P","address":"Prinses Beatrixlaan 969","city":"Rijswijk","operatorName":"Q-Park Netherlands","maxPowerKw":11,"isMegawatt":false,"status":"AVAILABLE","source":"ndw"}},{"type":"Feature","geometry":{"type":"Point","coordinates":[4.33272,52.03678]},"properties":{"type":"charge","layer":"passenger","locationId":"7749B728-F91A-4FB8-A78C-EDD1E2001C11","name":"Eneco eMobility Celil Bedrijfsdiensten B.V. - Van Gijnstraat - Rijswijk","address":"Van Gijnstraat 24","city":"Rijswijk","operatorName":"Eneco","maxPowerKw":22,"isMegawatt":false,"status":"AVAILABLE","source":"ndw","priceKwh":0.32}},{"type":"Feature","geometry":{"type":"Point","coordinates":[4.33644,52.053596]},"properties":{"type":"charge","layer":"passenger","locationId":"89195904","name":"EQUANS SGZH 2.0 89195904","address":"Esdoornstraat 6","city":"Rijswijk","operatorName":"EQUANS","maxPowerKw":11,"isMegawatt":false,"status":"AVAILABLE","source":"ndw"}},{"type":"Feature","geometry":{"type":"Point","coordinates":[4.32111,52.03084]},"properties":{"type":"charge","layer":"passenger","locationId":"91045951","name":"EQUANS SGZH 2.0 Ocarinalaan (t.h.v. hoek Clavecimbellaan 160)","address":"Ocarinalaan","city":"Rijswijk","operatorName":"EQUANS","maxPowerKw":11,"isMegawatt":false,"status":"CHARGING","source":"ndw"}},{"type":"Feature","geometry":{"type":"Point","coordinates":[4.33952,52.05484]},"properties":{"type":"charge","layer":"passenger","locationId":"91227869","name":"EQUANS SGZH 2.0 Haagweg 130","address":"Haagweg 130","city":"Rijswijk","operatorName":"EQUANS","maxPowerKw":11,"isMegawatt":false,"status":"AVAILABLE","source":"ndw"}},{"type":"Feature","geometry":{"type":"Point","coordinates":[4.296105,52.036946]},"properties":{"type":"charge","layer":"passenger","locationId":"89473063","name":"EQUANS SGZH 2.0 89473063","address":"Lange Dreef 159","city":"Rijswijk","operatorName":"EQUANS","maxPowerKw":11,"isMegawatt":false,"status":"AVAILABLE","source":"ndw"}},{"type":"Feature","geometry":{"type":"Point","coordinates":[4.30847,52.03566]},"properties":{"type":"charge","layer":"passenger","locationId":"90974917","name":"EQUANS SGZH 2.0 Prinses Irenelaan 266","address":"Prinses Irenelaan 266","city":"Rijswijk","operatorName":"EQUANS","maxPowerKw":11,"isMegawatt":false,"status":"AVAILABLE","source":"ndw"}},{"type":"Feature","geometry":{"type":"Point","coordinates":[4.313835,52.036461]},"properties":{"type":"charge","layer":"passenger","locationId":"6a341b3898f2462590a46e1b9ddcd591","name":"Q-Park Rijswijk","address":"Pr. Beatrixlaan 1","city":"Rijswijk","operatorName":"","maxPowerKw":11,"isMegawatt":false,"status":"AVAILABLE","source":"ndw","priceKwh":0.6}},{"type":"Feature","geometry":{"type":"Point","coordinates":[4.293975,52.042565]},"properties":{"type":"charge","layer":"passenger","locationId":"471","name":"Shell Recharge NL1052 - Shell Schaapweg","address":"Schaapweg 1","city":"Rijswijk","operatorName":"Shell Recharge","maxPowerKw":300,"isMegawatt":false,"status":"AVAILABLE","source":"ndw","priceKwh":0.7025}},{"type":"Feature","geometry":{"type":"Point","coordinates":[4.315327,52.0317]},"properties":{"type":"charge","layer":"passenger","locationId":"89637091","name":"EQUANS SGZH 2.0 89637091","address":"Wethouder Brederodelaan 1 b","city":"Rijswijk","operatorName":"EQUANS","maxPowerKw":11,"isMegawatt":false,"status":"AVAILABLE","source":"ndw"}},{"type":"Feature","geometry":{"type":"Point","coordinates":[4.327179,52.044637]},"properties":{"type":"charge","layer":"passenger","locationId":"90223499","name":"EQUANS SGZH 2.0 van Vollenhovenlaan 2 a","address":"van Vollenhovenlaan 2 a","city":"Rijswijk","operatorName":"EQUANS","maxPowerKw":11,"isMegawatt":false,"status":"AVAILABLE","source":"ndw"}},{"type":"Feature","geometry":{"type":"Point","coordinates":[4.331008,52.054007]},"properties":{"type":"charge","layer":"passenger","locationId":"2851","name":"EQUANS SGZH 2.0 2851","address":"Van Vredenburchweg-Ruysdaelplein thv 37","city":"Rijswijk","operatorName":"EQUANS","maxPowerKw":11,"isMegawatt":false,"status":"AVAILABLE","source":"ndw"}},{"type":"Feature","geometry":{"type":"Point","coordinates":[4.349303,52.049519]},"properties":{"type":"charge","layer":"passenger","locationId":"FBEE6EB9-C455-4FD2-A8A1-7096983DEED2","name":"Q-Park Rijswijk PR Hoornwijk","address":"Laan van Zuid Hoorn 38","city":"Rijswijk","operatorName":"Q-Park Netherlands","maxPowerKw":11,"isMegawatt":false,"status":"AVAILABLE","source":"ndw"}},{"type":"Feature","geometry":{"type":"Point","coordinates":[4.31232,52.04283]},"properties":{"type":"charge","layer":"passenger","locationId":"4889","name":"EQUANS SGZH 2.0 Karmozijnstraat 39","address":"Karmozijnstraat 39","city":"Rijswijk","operatorName":"EQUANS","maxPowerKw":11,"isMegawatt":false,"status":"AVAILABLE","source":"ndw"}},{"type":"Feature","geometry":{"type":"Point","coordinates":[4.332732,52.020965]},"properties":{"type":"charge","layer":"passenger","locationId":"89205285","name":"EQUANS SGZH 2.0 89205285","address":"Parelgraslaan 55","city":"Rijswijk","operatorName":"EQUANS","maxPowerKw":11,"isMegawatt":false,"status":"CHARGING","source":"ndw"}},{"type":"Feature","geometry":{"type":"Point","coordinates":[4.310799,52.02762]},"properties":{"type":"charge","layer":"passenger","locationId":"89330031","name":"EQUANS SGZH 2.0 89330031","address":"Doctor H.J. van Mooklaan 74","city":"Rijswijk","operatorName":"EQUANS","maxPowerKw":11,"isMegawatt":false,"status":"AVAILABLE","source":"ndw"}},{"type":"Feature","geometry":{"type":"Point","coordinates":[4.304053,52.028056]},"properties":{"type":"charge","layer":"passenger","locationId":"90159920","name":"EQUANS SGZH 2.0 Groeneveld 11","address":"Groeneveld 11","city":"Rijswijk","operatorName":"EQUANS","maxPowerKw":11,"isMegawatt":false,"status":"AVAILABLE","source":"ndw"}},{"type":"Feature","geometry":{"type":"Point","coordinates":[4.352235,52.048998]},"properties":{"type":"charge","layer":"passenger","locationId":"1F1C48A5-3D8F-4470-94A9-F30B46EC33C4","name":"Eneco eMobility Tagi Holding - Rijswijk","address":"Laan van Zuid Hoorn 165","city":"Rijswijk","operatorName":"Eneco","maxPowerKw":22,"isMegawatt":false,"status":"AVAILABLE","source":"ndw","priceKwh":0.65}},{"type":"Feature","geometry":{"type":"Point","coordinates":[4.338778,52.05732]},"properties":{"type":"charge","layer":"passenger","locationId":"88781999","name":"EQUANS SGZH 2.0 88781999","address":"Geestbrugweg 21A","city":"Rijswijk","operatorName":"EQUANS","maxPowerKw":11,"isMegawatt":false,"status":"CHARGING","source":"ndw"}},{"type":"Feature","geometry":{"type":"Point","coordinates":[4.30504,52.037502]},"properties":{"type":"charge","layer":"passenger","locationId":"89052433","name":"EQUANS SGZH 2.0 89052433","address":"John F. Kennedylaan 71","city":"Rijswijk","operatorName":"EQUANS","maxPowerKw":11,"isMegawatt":false,"status":"AVAILABLE","source":"ndw"}},{"type":"Feature","geometry":{"type":"Point","coordinates":[4.31352,52.02906]},"properties":{"type":"charge","layer":"passenger","locationId":"921716","name":"EQUANS SGZH 2.0 Briandstraat 1","address":"Briandstraat 1","city":"Rijswijk","operatorName":"EQUANS","maxPowerKw":11,"isMegawatt":false,"status":"AVAILABLE","source":"ndw"}},{"type":"Feature","geometry":{"type":"Point","coordinates":[4.33758,52.04884]},"properties":{"type":"charge","layer":"passenger","locationId":"91076514","name":"EQUANS SGZH 2.0 Sir Winston Churchillln 242","address":"Sir Winston Churchillln 242","city":"Rijswijk","operatorName":"EQUANS","maxPowerKw":11,"isMegawatt":false,"status":"AVAILABLE","source":"ndw"}},{"type":"Feature","geometry":{"type":"Point","coordinates":[4.324871,52.040888]},"properties":{"type":"charge","layer":"passenger","locationId":"90255723","name":"EQUANS SGZH 2.0 Karel Doormanlaan 298","address":"Karel Doormanlaan 298","city":"Rijswijk","operatorName":"EQUANS","maxPowerKw":11,"isMegawatt":false,"status":"AVAILABLE","source":"ndw"}},{"type":"Feature","geometry":{"type":"Point","coordinates":[4.356976,52.02791]},"properties":{"type":"charge","layer":"passenger","locationId":"NL_ELD_PRIJKF","name":"Electra Rijswijk - KFC","address":"Vrijenbanselaan 101","city":"Delft","operatorName":"Electra","maxPowerKw":300,"isMegawatt":false,"status":"AVAILABLE","source":"ndw","priceKwh":0.5702}},{"type":"Feature","geometry":{"type":"Point","coordinates":[4.336656,52.048871]},"properties":{"type":"charge","layer":"passenger","locationId":"90172028","name":"EQUANS SGZH 2.0 Jozef Israëlslaan 491","address":"Jozef Israëlslaan 491","city":"Rijswijk","operatorName":"EQUANS","maxPowerKw":11,"isMegawatt":false,"status":"AVAILABLE","source":"ndw"}},{"type":"Feature","geometry":{"type":"Point","coordinates":[4.326214,52.041646]},"properties":{"type":"charge","layer":"passenger","locationId":"4308742","name":"Laadnet KD267","address":"Karel Doormanlaan 267","city":"Rijswijk","operatorName":"Laadnet","maxPowerKw":11,"isMegawatt":false,"status":"UNAVAILABLE","source":"ndw"}},{"type":"Feature","geometry":{"type":"Point","coordinates":[4.347063,52.048634]},"properties":{"type":"charge","layer":"passenger","locationId":"a96e5480-2818-4402-b7b0-c537e01a1dca","name":"bp pulse Ypenburg #2","address":"Laan van Hoornwijck 70","city":"Rijswijk","operatorName":"bp pulse","maxPowerKw":150,"isMegawatt":false,"status":"AVAILABLE","source":"ndw","priceKwh":0.7}},{"type":"Feature","geometry":{"type":"Point","coordinates":[4.301655,52.030835]},"properties":{"type":"charge","layer":"passenger","locationId":"89329878","name":"EQUANS SGZH 2.0 89329878","address":"Serre 17","city":"Rijswijk","operatorName":"EQUANS","maxPowerKw":11,"isMegawatt":false,"status":"AVAILABLE","source":"ndw"}},{"type":"Feature","geometry":{"type":"Point","coordinates":[4.316003,52.023721]},"properties":{"type":"charge","layer":"passenger","locationId":"89052424","name":"EQUANS SGZH 2.0 Mr. Beerninkplantsoen 70","address":"Mr. Beerninkplantsoen 70","city":"Rijswijk","operatorName":"EQUANS","maxPowerKw":11,"isMegawatt":false,"status":"AVAILABLE","source":"ndw"}},{"type":"Feature","geometry":{"type":"Point","coordinates":[4.327815,52.020845]},"properties":{"type":"charge","layer":"passenger","locationId":"89192986","name":"EQUANS SGZH 2.0 89205296","address":"Van Rijtstraat 16","city":"Rijswijk","operatorName":"EQUANS","maxPowerKw":11,"isMegawatt":false,"status":"AVAILABLE","source":"ndw"}},{"type":"Feature","geometry":{"type":"Point","coordinates":[4.332835,52.040758]},"properties":{"type":"charge","layer":"passenger","locationId":"89052429","name":"EQUANS SGZH 2.0 89052429","address":"Diepenhorstlaan 11C","city":"Rijswijk","operatorName":"EQUANS","maxPowerKw":11,"isMegawatt":false,"status":"AVAILABLE","source":"ndw"}},{"type":"Feature","geometry":{"type":"Point","coordinates":[4.313187,52.032959]},"properties":{"type":"charge","layer":"passenger","locationId":"90467128","name":"EQUANS SGZH 2.0 Bertha von Suttnerstraat 2","address":"Bertha von Suttnerstraat 2","city":"Rijswijk","operatorName":"EQUANS","maxPowerKw":11,"isMegawatt":false,"status":"AVAILABLE","source":"ndw"}},{"type":"Feature","geometry":{"type":"Point","coordinates":[4.3342,52.052758]},"properties":{"type":"charge","layer":"passenger","locationId":"90273550","name":"EQUANS SGZH 2.0 Frans Halskade 2","address":"Frans Halskade 2","city":"Rijswijk","operatorName":"EQUANS","maxPowerKw":11,"isMegawatt":false,"status":"AVAILABLE","source":"ndw"}},{"type":"Feature","geometry":{"type":"Point","coordinates":[4.296546,52.035094]},"properties":{"type":"charge","layer":"passenger","locationId":"89052437","name":"EQUANS SGZH 2.0 89052437","address":"Strijplaan 118","city":"Rijswijk","operatorName":"EQUANS","maxPowerKw":11,"isMegawatt":false,"status":"AVAILABLE","source":"ndw"}},{"type":"Feature","geometry":{"type":"Point","coordinates":[4.314897,52.025087]},"properties":{"type":"charge","layer":"passenger","locationId":"89254178","name":"EQUANS SGZH 2.0 89254178","address":"Goedendorplaan 12","city":"Rijswijk","operatorName":"EQUANS","maxPowerKw":11,"isMegawatt":false,"status":"AVAILABLE","source":"ndw"}},{"type":"Feature","geometry":{"type":"Point","coordinates":[4.332144,52.048398]},"properties":{"type":"charge","layer":"passenger","locationId":"89880802","name":"EQUANS SGZH 2.0 89880802","address":"Hendrik Ravesteijnplein 45","city":"Rijswijk","operatorName":"EQUANS","maxPowerKw":11,"isMegawatt":false,"status":"AVAILABLE","source":"ndw"}},{"type":"Feature","geometry":{"type":"Point","coordinates":[4.338758,52.021425]},"properties":{"type":"charge","layer":"passenger","locationId":"90273552","name":"EQUANS SGZH 2.0 Parelmoervlinderlaan 1","address":"Parelmoervlinderlaan 1","city":"Rijswijk","operatorName":"EQUANS","maxPowerKw":11,"isMegawatt":false,"status":"AVAILABLE","source":"ndw"}},{"type":"Feature","geometry":{"type":"Point","coordinates":[4.34792,52.0246]},"properties":{"type":"charge","layer":"passenger","locationId":"91459935","name":"EQUANS SGZH 2.0 Pauwenstein 6","address":"Pauwenstein 6","city":"Rijswijk","operatorName":"EQUANS","maxPowerKw":11,"isMegawatt":false,"status":"AVAILABLE","source":"ndw"}},{"type":"Feature","geometry":{"type":"Point","coordinates":[4.329718,52.045326]},"properties":{"type":"charge","layer":"passenger","locationId":"89254238","name":"EQUANS SGZH 2.0 89254238","address":"Idenburglaan 28","city":"Rijswijk","operatorName":"EQUANS","maxPowerKw":11,"isMegawatt":false,"status":"AVAILABLE","source":"ndw"}},{"type":"Feature","geometry":{"type":"Point","coordinates":[4.33038,52.03817]},"properties":{"type":"charge","layer":"passenger","locationId":"3437","name":"EQUANS SGZH 2.0 Verrijn Stuartlaan 35","address":"Verrijn Stuartlaan 35","city":"Rijswijk","operatorName":"EQUANS","maxPowerKw":11,"isMegawatt":false,"status":"AVAILABLE","source":"ndw"}},{"type":"Feature","geometry":{"type":"Point","coordinates":[4.333648,52.037966]},"properties":{"type":"charge","layer":"passenger","locationId":"89193036","name":"EQUANS SGZH 2.0 89193036","address":"Frijdastraat 45","city":"Rijswijk","operatorName":"EQUANS","maxPowerKw":11,"isMegawatt":false,"status":"AVAILABLE","source":"ndw"}},{"type":"Feature","geometry":{"type":"Point","coordinates":[4.322075,52.039004]},"properties":{"type":"charge","layer":"passenger","locationId":"89354072","name":"EQUANS SGZH 2.0 89354072","address":"P.C. Boutenslaan 64","city":"Rijswijk","operatorName":"EQUANS","maxPowerKw":11,"isMegawatt":false,"status":"AVAILABLE","source":"ndw"}},{"type":"Feature","geometry":{"type":"Point","coordinates":[4.311595,52.028741]},"properties":{"type":"charge","layer":"passenger","locationId":"89192991","name":"EQUANS SGZH 2.0 Jacob Hamelinkpad 1","address":"Jacob Hamelinkpad 1","city":"Rijswijk","operatorName":"EQUANS","maxPowerKw":11,"isMegawatt":false,"status":"AVAILABLE","source":"ndw"}},{"type":"Feature","geometry":{"type":"Point","coordinates":[4.345398,52.026891]},"properties":{"type":"charge","layer":"passenger","locationId":"89329842","name":"EQUANS SGZH 2.0 89329842","address":"van Hardenbroeklaan 71 A","city":"Rijswijk","operatorName":"EQUANS","maxPowerKw":11,"isMegawatt":false,"status":"AVAILABLE","source":"ndw"}},{"type":"Feature","geometry":{"type":"Point","coordinates":[4.318103,52.037352]},"properties":{"type":"charge","layer":"passenger","locationId":"90294291","name":"EQUANS SGZH 2.0 Willem Royaardsstraat 3","address":"Willem Royaardsstraat 3","city":"Rijswijk","operatorName":"EQUANS","maxPowerKw":11,"isMegawatt":false,"status":"AVAILABLE","source":"ndw"}},{"type":"Feature","geometry":{"type":"Point","coordinates":[4.353866,52.027271]},"properties":{"type":"charge","layer":"passenger","locationId":"89473068","name":"EQUANS SGZH 2.0 89473068","address":"Fazantlaan 9","city":"Rijswijk","operatorName":"EQUANS","maxPowerKw":11,"isMegawatt":false,"status":"AVAILABLE","source":"ndw"}},{"type":"Feature","geometry":{"type":"Point","coordinates":[4.333141,52.018328]},"properties":{"type":"charge","layer":"passenger","locationId":"6867d4124c813bc6eedcf6d2","name":"Koningslinde P2 Rechts","address":"Heemraadstraat 64","city":"Rijswijk","operatorName":"E-Flux by Road","maxPowerKw":22,"isMegawatt":false,"status":"AVAILABLE","source":"ndw","priceKwh":0.36}},{"type":"Feature","geometry":{"type":"Point","coordinates":[4.34075,52.04706]},"properties":{"type":"charge","layer":"passenger","locationId":"91017899","name":"EQUANS SGZH 2.0 Populierlaan 3 a","address":"Populierlaan 3 a","city":"Rijswijk","operatorName":"EQUANS","maxPowerKw":11,"isMegawatt":false,"status":"AVAILABLE","source":"ndw"}},{"type":"Feature","geometry":{"type":"Point","coordinates":[4.318089,52.03992]},"properties":{"type":"charge","layer":"passenger","locationId":"89328033","name":"EQUANS SGZH 2.0 89328033","address":"Hoogkamerlaan 99","city":"Rijswijk","operatorName":"EQUANS","maxPowerKw":11,"isMegawatt":false,"status":"AVAILABLE","source":"ndw"}},{"type":"Feature","geometry":{"type":"Point","coordinates":[4.325768,52.036589]},"properties":{"type":"charge","layer":"passenger","locationId":"89187702","name":"EQUANS SGZH 2.0 89187702","address":"Lange Kleiweg 6","city":"Rijswijk","operatorName":"EQUANS","maxPowerKw":11,"isMegawatt":false,"status":"AVAILABLE","source":"ndw"}},{"type":"Feature","geometry":{"type":"Point","coordinates":[4.354131,52.028089]},"properties":{"type":"charge","layer":"passenger","locationId":"96AAACE8-FE20-48F3-9D7D-2FF2C02BEA3B","name":"Eneco eMobility Platina Argenta Events & Business Company BV","address":"Patrijsweg 42","city":"Rijswijk","operatorName":"Eneco","maxPowerKw":22,"isMegawatt":false,"status":"CHARGING","source":"ndw","priceKwh":0.35}},{"type":"Feature","geometry":{"type":"Point","coordinates":[4.32088,52.03309]},"properties":{"type":"charge","layer":"passenger","locationId":"91267827","name":"EQUANS SGZH 2.0 Banjostraat 1","address":"Banjostraat 1","city":"Rijswijk","operatorName":"EQUANS","maxPowerKw":11,"isMegawatt":false,"status":"AVAILABLE","source":"ndw"}},{"type":"Feature","geometry":{"type":"Point","coordinates":[4.3171,52.02986]},"properties":{"type":"charge","layer":"passenger","locationId":"91046458","name":"EQUANS SGZH 2.0 Nansenstraat 2 t.h.v. Hammarskjöldlaan 38","address":"Nansenstraat 2","city":"Rijswijk","operatorName":"EQUANS","maxPowerKw":11,"isMegawatt":false,"status":"CHARGING","source":"ndw"}},{"type":"Feature","geometry":{"type":"Point","coordinates":[4.308598,52.030315]},"properties":{"type":"charge","layer":"passenger","locationId":"89330037","name":"EQUANS SGZH 2.0 89330037","address":"Wiardi Beckmanlaan 1","city":"Rijswijk","operatorName":"EQUANS","maxPowerKw":11,"isMegawatt":false,"status":"CHARGING","source":"ndw"}},{"type":"Feature","geometry":{"type":"Point","coordinates":[4.327537,52.039952]},"properties":{"type":"charge","layer":"passenger","locationId":"3466","name":"EQUANS SGZH 2.0 3466","address":"Treubstraat thv 33","city":"Rijswijk","operatorName":"EQUANS","maxPowerKw":11,"isMegawatt":false,"status":"AVAILABLE","source":"ndw"}},{"type":"Feature","geometry":{"type":"Point","coordinates":[4.33673,52.055557]},"properties":{"type":"charge","layer":"passenger","locationId":"90938459","name":"EQUANS SGZH 2.0 Emmastraat 10","address":"Emmastraat 10","city":"Rijswijk","operatorName":"EQUANS","maxPowerKw":11,"isMegawatt":false,"status":"AVAILABLE","source":"ndw"}},{"type":"Feature","geometry":{"type":"Point","coordinates":[4.31919,52.0402]},"properties":{"type":"charge","layer":"passenger","locationId":"90992416","name":"EQUANS SGZH 2.0 Piramideplein 2","address":"Piramideplein 2","city":"Rijswijk","operatorName":"EQUANS","maxPowerKw":11,"isMegawatt":false,"status":"AVAILABLE","source":"ndw"}},{"type":"Feature","geometry":{"type":"Point","coordinates":[4.29844,52.03334]},"properties":{"type":"charge","layer":"passenger","locationId":"89329879","name":"EQUANS SGZH 2.0 89329879","address":"Lange Dreef 3","city":"Rijswijk","operatorName":"EQUANS","maxPowerKw":11,"isMegawatt":false,"status":"AVAILABLE","source":"ndw"}},{"type":"Feature","geometry":{"type":"Point","coordinates":[4.329357,52.050342]},"properties":{"type":"charge","layer":"passenger","locationId":"89289150","name":"EQUANS SGZH 2.0 89289150","address":"Burgemeester Elsenlaan 97","city":"Rijswijk","operatorName":"EQUANS","maxPowerKw":11,"isMegawatt":false,"status":"AVAILABLE","source":"ndw"}},{"type":"Feature","geometry":{"type":"Point","coordinates":[4.31069,52.03086]},"properties":{"type":"charge","layer":"passenger","locationId":"90992424","name":"EQUANS SGZH 2.0 Titus Brandsmastraat 1","address":"Titus Brandsmastraat 1","city":"Rijswijk","operatorName":"EQUANS","maxPowerKw":11,"isMegawatt":false,"status":"CHARGING","source":"ndw"}},{"type":"Feature","geometry":{"type":"Point","coordinates":[4.307549,52.036616]},"properties":{"type":"charge","layer":"passenger","locationId":"89477494","name":"EQUANS SGZH 2.0 89477494","address":"Minister Talmalaan 90","city":"Rijswijk","operatorName":"EQUANS","maxPowerKw":11,"isMegawatt":false,"status":"CHARGING","source":"ndw"}},{"type":"Feature","geometry":{"type":"Point","coordinates":[4.335927,52.051878]},"properties":{"type":"charge","layer":"passenger","locationId":"55450906","name":"EQUANS SGZH 2.0 55450906","address":"Rembrandtkade 103","city":"Rijswijk","operatorName":"EQUANS","maxPowerKw":11,"isMegawatt":false,"status":"AVAILABLE","source":"ndw"}},{"type":"Feature","geometry":{"type":"Point","coordinates":[4.337575,52.021674]},"properties":{"type":"charge","layer":"passenger","locationId":"89254241","name":"EQUANS SGZH 2.0 89254241","address":"Keizersmantelstraat 2","city":"rijswijk","operatorName":"EQUANS","maxPowerKw":11,"isMegawatt":false,"status":"AVAILABLE","source":"ndw"}},{"type":"Feature","geometry":{"type":"Point","coordinates":[4.35121,52.04858]},"properties":{"type":"charge","layer":"passenger","locationId":"62FFE37B-DC3D-4434-83EE-CEB3E7A70440","name":"Eneco eMobility JOVI - Laan van Zuid Hoorn - Rijswijk","address":"Laan van Zuid Hoorn 70","city":"Rijswijk","operatorName":"Eneco","maxPowerKw":22,"isMegawatt":false,"status":"AVAILABLE","source":"ndw","priceKwh":0.35}},{"type":"Feature","geometry":{"type":"Point","coordinates":[4.352859,52.025142]},"properties":{"type":"charge","layer":"passenger","locationId":"89942865","name":"EQUANS SGZH 2.0 89942865","address":"Kievitlaan 31","city":"Rijswijk","operatorName":"EQUANS","maxPowerKw":11,"isMegawatt":false,"status":"AVAILABLE","source":"ndw"}},{"type":"Feature","geometry":{"type":"Point","coordinates":[4.29318,52.03987]},"properties":{"type":"charge","layer":"passenger","locationId":"90924241","name":"EQUANS SGZH 2.0 Strijplaan 322","address":"Strijplaan 322","city":"Rijswijk","operatorName":"EQUANS","maxPowerKw":11,"isMegawatt":false,"status":"AVAILABLE","source":"ndw"}},{"type":"Feature","geometry":{"type":"Point","coordinates":[4.335644,52.045616]},"properties":{"type":"charge","layer":"passenger","locationId":"90260089","name":"EQUANS SGZH 2.0 Havenstraat 60","address":"Havenstraat 60","city":"Rijswijk","operatorName":"EQUANS","maxPowerKw":11,"isMegawatt":false,"status":"CHARGING","source":"ndw"}},{"type":"Feature","geometry":{"type":"Point","coordinates":[4.32376,52.03155]},"properties":{"type":"charge","layer":"passenger","locationId":"56349113","name":"EQUANS SGZH 2.0 Clavecimbellaan 131","address":"Clavecimbellaan 131","city":"Rijswijk","operatorName":"EQUANS","maxPowerKw":11,"isMegawatt":false,"status":"AVAILABLE","source":"ndw"}},{"type":"Feature","geometry":{"type":"Point","coordinates":[4.33497,52.05384]},"properties":{"type":"charge","layer":"passenger","locationId":"91492018","name":"EQUANS SGZH 2.0 Julianastraat 55","address":"Julianastraat 55","city":"Rijswijk","operatorName":"EQUANS","maxPowerKw":11,"isMegawatt":false,"status":"AVAILABLE","source":"ndw"}},{"type":"Feature","geometry":{"type":"Point","coordinates":[4.344495,52.021274]},"properties":{"type":"charge","layer":"passenger","locationId":"89187699","name":"EQUANS SGZH 2.0 89187699","address":"Haantje 17","city":"Rijswijk","operatorName":"EQUANS","maxPowerKw":11,"isMegawatt":false,"status":"AVAILABLE","source":"ndw"}},{"type":"Feature","geometry":{"type":"Point","coordinates":[4.334522,52.053557]},"properties":{"type":"charge","layer":"passenger","locationId":"89358772","name":"EQUANS SGZH 2.0 89358772","address":"Rembrandtkade 41","city":"Rijswijk","operatorName":"EQUANS","maxPowerKw":11,"isMegawatt":false,"status":"CHARGING","source":"ndw"}},{"type":"Feature","geometry":{"type":"Point","coordinates":[4.32463,52.02085]},"properties":{"type":"charge","layer":"passenger","locationId":"91391579","name":"EQUANS SGZH 2.0 Laan van Sion 53","address":"Laan van Sion 53","city":"Rijswijk","operatorName":"EQUANS","maxPowerKw":11,"isMegawatt":false,"status":"AVAILABLE","source":"ndw"}},{"type":"Feature","geometry":{"type":"Point","coordinates":[4.327819,52.014374]},"properties":{"type":"charge","layer":"passenger","locationId":"89329883","name":"EQUANS SGZH 2.0 89329883","address":"Boomgaard 51","city":"Rijswijk","operatorName":"EQUANS","maxPowerKw":11,"isMegawatt":false,"status":"AVAILABLE","source":"ndw"}},{"type":"Feature","geometry":{"type":"Point","coordinates":[4.2939,52.038785]},"properties":{"type":"charge","layer":"passenger","locationId":"2850","name":"EQUANS SGZH 2.0 2850","address":"Strijplaan thv. 505","city":"Rijswijk","operatorName":"EQUANS","maxPowerKw":11,"isMegawatt":false,"status":"CHARGING","source":"ndw"}},{"type":"Feature","geometry":{"type":"Point","coordinates":[4.317667,52.038056]},"properties":{"type":"charge","layer":"passenger","locationId":"89289061","name":"EQUANS SGZH 2.0 89289061","address":"Buziaulaan 50","city":"Rijswijk","operatorName":"EQUANS","maxPowerKw":11,"isMegawatt":false,"status":"AVAILABLE","source":"ndw"}},{"type":"Feature","geometry":{"type":"Point","coordinates":[4.334693,52.036312]},"properties":{"type":"charge","layer":"passenger","locationId":"4583","name":"EQUANS SGZH 2.0 4583","address":"Polakweg 3-4","city":"Rijswijk","operatorName":"EQUANS","maxPowerKw":11,"isMegawatt":false,"status":"AVAILABLE","source":"ndw"}},{"type":"Feature","geometry":{"type":"Point","coordinates":[4.306778,52.034469]},"properties":{"type":"charge","layer":"passenger","locationId":"89942968","name":"EQUANS SGZH 2.0 d","address":"Minister Aalberselaan 134","city":"Rijswijk","operatorName":"EQUANS","maxPowerKw":11,"isMegawatt":false,"status":"AVAILABLE","source":"ndw"}},{"type":"Feature","geometry":{"type":"Point","coordinates":[4.322884,52.041779]},"properties":{"type":"charge","layer":"passenger","locationId":"89192984","name":"EQUANS SGZH 2.0 89192984","address":"Dr h colijnlaan 231","city":"Rijswijk","operatorName":"EQUANS","maxPowerKw":11,"isMegawatt":false,"status":"AVAILABLE","source":"ndw"}},{"type":"Feature","geometry":{"type":"Point","coordinates":[4.294486,52.03829]},"properties":{"type":"charge","layer":"passenger","locationId":"89273870","name":"EQUANS SGZH 2.0 89273870","address":"Strijplaan 244","city":"Rijswijk","operatorName":"EQUANS","maxPowerKw":11,"isMegawatt":false,"status":"CHARGING","source":"ndw"}},{"type":"Feature","geometry":{"type":"Point","coordinates":[4.343308,52.04423]},"properties":{"type":"charge","layer":"passenger","locationId":"2746","name":"EQUANS SGZH 2.0 2746","address":"Jaagpad 1 nabij aansluiting Limpergstraat","city":"Rijswijk","operatorName":"EQUANS","maxPowerKw":11,"isMegawatt":false,"status":"AVAILABLE","source":"ndw"}},{"type":"Feature","geometry":{"type":"Point","coordinates":[4.33941,52.02314]},"properties":{"type":"charge","layer":"passenger","locationId":"91277515","name":"EQUANS SGZH 2.0 Grote Vuurvlinderstraat 307","address":"Grote Vuurvlinderstraat 307","city":"Rijswijk","operatorName":"EQUANS","maxPowerKw":11,"isMegawatt":false,"status":"AVAILABLE","source":"ndw"}},{"type":"Feature","geometry":{"type":"Point","coordinates":[4.342115,52.060298]},"properties":{"type":"charge","layer":"passenger","locationId":"90467127","name":"EQUANS SGZH 2.0 Beetslaan 238","address":"Beetslaan 238","city":"Rijswijk","operatorName":"EQUANS","maxPowerKw":11,"isMegawatt":false,"status":"CHARGING","source":"ndw"}},{"type":"Feature","geometry":{"type":"Point","coordinates":[4.300505,52.035798]},"properties":{"type":"charge","layer":"passenger","locationId":"89205313","name":"EQUANS SGZH 2.0 89205313","address":"Endezant 18","city":"Rijswijk","operatorName":"EQUANS","maxPowerKw":11,"isMegawatt":false,"status":"AVAILABLE","source":"ndw"}},{"type":"Feature","geometry":{"type":"Point","coordinates":[4.33776,52.022492]},"properties":{"type":"charge","layer":"passenger","locationId":"89880808","name":"EQUANS SGZH 2.0 89880808","address":"Parelmoervlinderlaan 35","city":"Rijswijk","operatorName":"EQUANS","maxPowerKw":11,"isMegawatt":false,"status":"CHARGING","source":"ndw"}},{"type":"Feature","geometry":{"type":"Point","coordinates":[4.330215,52.021482]},"properties":{"type":"charge","layer":"passenger","locationId":"91246103","name":"EQUANS SGZH 2.0 Parklaan 100","address":"Parklaan 100","city":"Rijswijk","operatorName":"EQUANS","maxPowerKw":11,"isMegawatt":false,"status":"AVAILABLE","source":"ndw"}},{"type":"Feature","geometry":{"type":"Point","coordinates":[4.33763,52.021007]},"properties":{"type":"charge","layer":"passenger","locationId":"89205288","name":"EQUANS SGZH 2.0 89205288","address":"Keizersmantelstraat 15","city":"Rijswijk","operatorName":"EQUANS","maxPowerKw":11,"isMegawatt":false,"status":"AVAILABLE","source":"ndw"}},{"type":"Feature","geometry":{"type":"Point","coordinates":[4.324759,52.036741]},"properties":{"type":"charge","layer":"passenger","locationId":"56c5f83a-a5ee-405d-a3f6-5769680b1a59","name":"Lange Kleiweg 6","address":"Lange Kleiweg 6","city":"Rijswijk","operatorName":"Vattenfall InCharge","maxPowerKw":22,"isMegawatt":false,"status":"UNAVAILABLE","source":"ndw"}},{"type":"Feature","geometry":{"type":"Point","coordinates":[4.30807,52.03342]},"properties":{"type":"charge","layer":"passenger","locationId":"91155759","name":"EQUANS SGZH 2.0 P. van Vlietlaan 10","address":"P. van Vlietlaan 10","city":"Rijswijk","operatorName":"EQUANS","maxPowerKw":11,"isMegawatt":false,"status":"AVAILABLE","source":"ndw"}},{"type":"Feature","geometry":{"type":"Point","coordinates":[4.33356,52.046996]},"properties":{"type":"charge","layer":"passenger","locationId":"89195915","name":"EQUANS SGZH 2.0 89195915","address":"Jacob van Offwegenlaan 78","city":"Rijswijk","operatorName":"EQUANS","maxPowerKw":11,"isMegawatt":false,"status":"AVAILABLE","source":"ndw"}},{"type":"Feature","geometry":{"type":"Point","coordinates":[4.33918,52.06134]},"properties":{"type":"charge","layer":"passenger","locationId":"89209936","name":"EQUANS SGZH 2.0 Broekslootkade 139","address":"Broekslootkade 139","city":"Rijswijk","operatorName":"EQUANS","maxPowerKw":11,"isMegawatt":false,"status":"AVAILABLE","source":"ndw"}},{"type":"Feature","geometry":{"type":"Point","coordinates":[4.348827,52.0251]},"properties":{"type":"charge","layer":"passenger","locationId":"89254212","name":"EQUANS SGZH 2.0 89254212","address":"IJsvogelhof 32","city":"Rijswijk","operatorName":"EQUANS","maxPowerKw":11,"isMegawatt":false,"status":"AVAILABLE","source":"ndw"}},{"type":"Feature","geometry":{"type":"Point","coordinates":[4.30484,52.03361]},"properties":{"type":"charge","layer":"passenger","locationId":"1207032","name":"EQUANS SGZH 2.0 Minister Lelylaan 50","address":"Minister Lelylaan 50","city":"Rijswijk","operatorName":"EQUANS","maxPowerKw":11,"isMegawatt":false,"status":"AVAILABLE","source":"ndw"}},{"type":"Feature","geometry":{"type":"Point","coordinates":[4.340759,52.059072]},"properties":{"type":"charge","layer":"passenger","locationId":"89192976","name":"EQUANS SGZH 2.0 89192976","address":"Caan van Necklaan 228","city":"Rijswijk","operatorName":"EQUANS","maxPowerKw":11,"isMegawatt":false,"status":"AVAILABLE","source":"ndw"}},{"type":"Feature","geometry":{"type":"Point","coordinates":[4.35115,52.025312]},"properties":{"type":"charge","layer":"passenger","locationId":"90467124","name":"EQUANS SGZH 2.0 Nachtegaallaan 4","address":"Nachtegaallaan 4","city":"Rijswijk","operatorName":"EQUANS","maxPowerKw":11,"isMegawatt":false,"status":"AVAILABLE","source":"ndw"}},{"type":"Feature","geometry":{"type":"Point","coordinates":[4.34811,52.04953]},"properties":{"type":"charge","layer":"passenger","locationId":"62BD58AE-7380-4D82-99AC-BC9231449671","name":"Eneco eMobility Laan van Oversteen 20 Rijswijk","address":"Laan van Oversteen 20","city":"Rijswijk","operatorName":"Eneco","maxPowerKw":22,"isMegawatt":false,"status":"AVAILABLE","source":"ndw","priceKwh":0.32}},{"type":"Feature","geometry":{"type":"Point","coordinates":[4.32754,52.03965]},"properties":{"type":"charge","layer":"passenger","locationId":"86600f3fd09e4e8a8aafe8e16df89ebd","name":"Rijswijk - TUI Hoofdkantoor","address":" Volmerlaan 3","city":"Rijswijk","operatorName":"Opcharge","maxPowerKw":22,"isMegawatt":false,"status":"AVAILABLE","source":"ndw","priceKwh":0.49}},{"type":"Feature","geometry":{"type":"Point","coordinates":[4.324759,52.036741]},"properties":{"type":"charge","layer":"passenger","locationId":"af9e762d-5a8a-491b-b395-2df21dbbfda2","name":"Lange Kleiweg 6","address":"Lange Kleiweg 6","city":"Rijswijk","operatorName":"Vattenfall InCharge","maxPowerKw":22,"isMegawatt":false,"status":"UNAVAILABLE","source":"ndw"}},{"type":"Feature","geometry":{"type":"Point","coordinates":[4.34704,52.04745]},"properties":{"type":"charge","layer":"passenger","locationId":"15348200-40EC-43FD-83A0-F7AB3A6D5C9A","name":"Eneco eMobility BMW - Group Nederland - Hoofdkantoor bezoekers","address":"Einsteinlaan 5","city":"Rijswijk","operatorName":"Eneco","maxPowerKw":200,"isMegawatt":false,"status":"AVAILABLE","source":"ndw","priceKwh":0.3}},{"type":"Feature","geometry":{"type":"Point","coordinates":[4.318852,52.042777]},"properties":{"type":"charge","layer":"passenger","locationId":"82337811","name":"EQUANS SGZH 2.0 82337811","address":"Doctor Augustijnlaan 64","city":"Rijswijk","operatorName":"EQUANS","maxPowerKw":11,"isMegawatt":false,"status":"UNAVAILABLE","source":"ndw"}},{"type":"Feature","geometry":{"type":"Point","coordinates":[4.32914,52.01501]},"properties":{"type":"charge","layer":"passenger","locationId":"89330036","name":"EQUANS SGZH 2.0 Loofgang 15","address":"Loofgang 15","city":"Rijswijk","operatorName":"EQUANS","maxPowerKw":11,"isMegawatt":false,"status":"AVAILABLE","source":"ndw"}},{"type":"Feature","geometry":{"type":"Point","coordinates":[4.335302,52.056714]},"properties":{"type":"charge","layer":"passenger","locationId":"89473067","name":"EQUANS SGZH 2.0 89473067","address":"Laan Hofrust 21","city":"Rijswijk","operatorName":"EQUANS","maxPowerKw":11,"isMegawatt":false,"status":"AVAILABLE","source":"ndw"}},{"type":"Feature","geometry":{"type":"Point","coordinates":[4.33054,52.04179]},"properties":{"type":"charge","layer":"passenger","locationId":"3627","name":"EQUANS SGZH 2.0 Diepenhorstlaan 2","address":"Diepenhorstlaan 2","city":"Rijswijk","operatorName":"EQUANS","maxPowerKw":11,"isMegawatt":false,"status":"AVAILABLE","source":"ndw"}},{"type":"Feature","geometry":{"type":"Point","coordinates":[4.313843,52.026877]},"properties":{"type":"charge","layer":"passenger","locationId":"89274106","name":"EQUANS SGZH 2.0 89274106","address":"Albert Schweitzerlaan 523","city":"Rijswijk","operatorName":"EQUANS","maxPowerKw":11,"isMegawatt":false,"status":"CHARGING","source":"ndw"}},{"type":"Feature","geometry":{"type":"Point","coordinates":[4.34371,52.057128]},"properties":{"type":"charge","layer":"passenger","locationId":"89273874","name":"EQUANS SGZH 2.0 89273874","address":"Koninginnelaan 33","city":"Rijswijk","operatorName":"EQUANS","maxPowerKw":11,"isMegawatt":false,"status":"AVAILABLE","source":"ndw"}},{"type":"Feature","geometry":{"type":"Point","coordinates":[4.308217,52.031259]},"properties":{"type":"charge","layer":"passenger","locationId":"90155334","name":"EQUANS SGZH 2.0 Ds van den Boschlaan 88","address":"Ds van den Boschlaan 88","city":"Rijswijk","operatorName":"EQUANS","maxPowerKw":11,"isMegawatt":false,"status":"AVAILABLE","source":"ndw"}},{"type":"Feature","geometry":{"type":"Point","coordinates":[4.31399,52.04016]},"properties":{"type":"charge","layer":"passenger","locationId":"921727","name":"EQUANS SGZH 2.0 Steenvoordelaan 364","address":"Steenvoordelaan 364","city":"Rijswijk","operatorName":"EQUANS","maxPowerKw":11,"isMegawatt":false,"status":"AVAILABLE","source":"ndw"}},{"type":"Feature","geometry":{"type":"Point","coordinates":[4.342338,52.055769]},"properties":{"type":"charge","layer":"passenger","locationId":"6239e1f25986780aff016b29","name":"Thuislader Sven","address":"Regentesselaan 23","city":"Rijswijk","operatorName":"E-Flux by Road","maxPowerKw":11,"isMegawatt":false,"status":"AVAILABLE","source":"ndw","priceKwh":0.43}},{"type":"Feature","geometry":{"type":"Point","coordinates":[4.332452,52.03533]},"properties":{"type":"charge","layer":"passenger","locationId":"3597","name":"EQUANS SGZH 2.0 3597","address":"Volmerlaan nabij 20","city":"Rijswijk","operatorName":"EQUANS","maxPowerKw":11,"isMegawatt":false,"status":"AVAILABLE","source":"ndw"}},{"type":"Feature","geometry":{"type":"Point","coordinates":[4.344052,52.055407]},"properties":{"type":"charge","layer":"passenger","locationId":"89329984","name":"EQUANS SGZH 2.0 89329984","address":"Leeuwendaallaan 69","city":"Rijswijk","operatorName":"EQUANS","maxPowerKw":11,"isMegawatt":false,"status":"AVAILABLE","source":"ndw"}},{"type":"Feature","geometry":{"type":"Point","coordinates":[4.302616,52.031795]},"properties":{"type":"charge","layer":"passenger","locationId":"88925363","name":"EQUANS SGZH 2.0 88925363","address":"Siergaarde 137","city":"Rijswijk","operatorName":"EQUANS","maxPowerKw":11,"isMegawatt":false,"status":"AVAILABLE","source":"ndw"}},{"type":"Feature","geometry":{"type":"Point","coordinates":[4.33231,52.01894]},"properties":{"type":"charge","layer":"passenger","locationId":"89005801","name":"EQUANS SGZH 2.0 Zwenkgrasstraat 8","address":"Zwenkgrasstraat 8","city":"Rijswijk","operatorName":"EQUANS","maxPowerKw":11,"isMegawatt":false,"status":"CHARGING","source":"ndw"}},{"type":"Feature","geometry":{"type":"Point","coordinates":[4.30901,52.03252]},"properties":{"type":"charge","layer":"passenger","locationId":"89330029","name":"EQUANS SGZH 2.0 Doctor Wibautlaan 87","address":"Doctor Wibautlaan 87","city":"Rijswijk","operatorName":"EQUANS","maxPowerKw":11,"isMegawatt":false,"status":"AVAILABLE","source":"ndw"}},{"type":"Feature","geometry":{"type":"Point","coordinates":[4.335418,52.043573]},"properties":{"type":"charge","layer":"passenger","locationId":"2675","name":"EQUANS SGZH 2.0 2675","address":"De Bruyn Kopsstraat 7","city":"Rijswijk","operatorName":"EQUANS","maxPowerKw":11,"isMegawatt":false,"status":"AVAILABLE","source":"ndw"}},{"type":"Feature","geometry":{"type":"Point","coordinates":[4.31308,52.023671]},"properties":{"type":"charge","layer":"passenger","locationId":"90267115","name":"EQUANS SGZH 2.0 Mr. Beerninkplantsoen 63","address":"Mr. Beerninkplantsoen 63","city":"Rijswijk","operatorName":"EQUANS","maxPowerKw":11,"isMegawatt":false,"status":"CHARGING","source":"ndw"}},{"type":"Feature","geometry":{"type":"Point","coordinates":[4.317407,52.043579]},"properties":{"type":"charge","layer":"passenger","locationId":"89880807","name":"EQUANS SGZH 2.0 89880807","address":"Dr Augustijnlaan 44","city":"Rijswijk","operatorName":"EQUANS","maxPowerKw":11,"isMegawatt":false,"status":"CHARGING","source":"ndw"}},{"type":"Feature","geometry":{"type":"Point","coordinates":[4.320184,52.031314]},"properties":{"type":"charge","layer":"passenger","locationId":"6683bbad952d74001c9c79e6","name":"VvE Ocarinalaan II te Rijswijk","address":"Ocarinalaan 454","city":"Rijswijk","operatorName":"Pluq","maxPowerKw":11,"isMegawatt":false,"status":"AVAILABLE","source":"ndw","priceKwh":0.44}},{"type":"Feature","geometry":{"type":"Point","coordinates":[4.345095,52.047642]},"properties":{"type":"charge","layer":"passenger","locationId":"89942972","name":"EQUANS SGZH 2.0 89942972","address":"Ampèrelaan 4","city":"Rijswijk","operatorName":"EQUANS","maxPowerKw":11,"isMegawatt":false,"status":"CHARGING","source":"ndw"}},{"type":"Feature","geometry":{"type":"Point","coordinates":[4.331284,52.01609]},"properties":{"type":"charge","layer":"passenger","locationId":"89954689","name":"EQUANS SGZH 2.0 89954689","address":"Oranjerie 1","city":"Rijswijk","operatorName":"EQUANS","maxPowerKw":11,"isMegawatt":false,"status":"AVAILABLE","source":"ndw"}},{"type":"Feature","geometry":{"type":"Point","coordinates":[4.335648,52.040108]},"properties":{"type":"charge","layer":"passenger","locationId":"119809F4-373F-4D1E-A410-7CD28D992E27","name":"Eneco eMobility NIWO Rijswijk - Veraartlaan","address":"Veraartlaan 10","city":"Rijswijk","operatorName":"Eneco","maxPowerKw":11,"isMegawatt":false,"status":"AVAILABLE","source":"ndw","priceKwh":0.55}},{"type":"Feature","geometry":{"type":"Point","coordinates":[4.343407,52.059281]},"properties":{"type":"charge","layer":"passenger","locationId":"89330028","name":"EQUANS SGZH 2.0 89330028","address":"Geestbrugweg 111","city":"Rijswijk","operatorName":"EQUANS","maxPowerKw":11,"isMegawatt":false,"status":"AVAILABLE","source":"ndw"}},{"type":"Feature","geometry":{"type":"Point","coordinates":[4.341967,52.059433]},"properties":{"type":"charge","layer":"passenger","locationId":"89942964","name":"EQUANS SGZH 2.0 89942964","address":"Caan van Necklaan 315","city":"Rijswijk","operatorName":"EQUANS","maxPowerKw":11,"isMegawatt":false,"status":"AVAILABLE","source":"ndw"}},{"type":"Feature","geometry":{"type":"Point","coordinates":[4.341162,52.058334]},"properties":{"type":"charge","layer":"passenger","locationId":"90255804","name":"EQUANS SGZH 2.0 Bilderdijklaan 108","address":"Bilderdijklaan 108","city":"Rijswijk","operatorName":"EQUANS","maxPowerKw":11,"isMegawatt":false,"status":"AVAILABLE","source":"ndw"}},{"type":"Feature","geometry":{"type":"Point","coordinates":[4.315228,52.044326]},"properties":{"type":"charge","layer":"passenger","locationId":"89481117","name":"EQUANS SGZH 2.0 89481117","address":"Dr Augustijnlaan 2 a","city":"Rijswijk","operatorName":"EQUANS","maxPowerKw":11,"isMegawatt":false,"status":"AVAILABLE","source":"ndw"}},{"type":"Feature","geometry":{"type":"Point","coordinates":[4.335891,52.059568]},"properties":{"type":"charge","layer":"passenger","locationId":"89307485","name":"EQUANS SGZH 2.0 Caan van Necklaan 1 C","address":"Caan van Necklaan 1 C","city":"Rijswijk","operatorName":"EQUANS","maxPowerKw":11,"isMegawatt":false,"status":"AVAILABLE","source":"ndw"}},{"type":"Feature","geometry":{"type":"Point","coordinates":[4.303573,52.035513]},"properties":{"type":"charge","layer":"passenger","locationId":"90255709","name":"EQUANS SGZH 2.0 Minister Lelylaan 4","address":"Minister Lelylaan 4","city":"Rijswijk","operatorName":"EQUANS","maxPowerKw":11,"isMegawatt":false,"status":"AVAILABLE","source":"ndw"}},{"type":"Feature","geometry":{"type":"Point","coordinates":[4.333687,52.036062]},"properties":{"type":"charge","layer":"passenger","locationId":"158888EA-E53A-4CCC-9930-2E74A177C629","name":"Eneco eMobility AGFA Healthcare - Rijswijk","address":"Polakweg 10-11","city":"Rijswijk","operatorName":"Eneco","maxPowerKw":22,"isMegawatt":false,"status":"AVAILABLE","source":"ndw","priceKwh":0.35}},{"type":"Feature","geometry":{"type":"Point","coordinates":[4.32613,52.01353]},"properties":{"type":"charge","layer":"passenger","locationId":"4837","name":"EQUANS SGZH 2.0 Boomgaard 70","address":"Boomgaard 70","city":"Rijswijk","operatorName":"EQUANS","maxPowerKw":11,"isMegawatt":false,"status":"AVAILABLE","source":"ndw"}},{"type":"Feature","geometry":{"type":"Point","coordinates":[4.353368,52.026337]},"properties":{"type":"charge","layer":"passenger","locationId":"89156706","name":"EQUANS SGZH 2.0 89156706","address":"Zwaluwsingel 22","city":"Rijswijk","operatorName":"EQUANS","maxPowerKw":11,"isMegawatt":false,"status":"AVAILABLE","source":"ndw"}},{"type":"Feature","geometry":{"type":"Point","coordinates":[4.332952,52.04354]},"properties":{"type":"charge","layer":"passenger","locationId":"2484332","name":"Laadnet Rexel Rijswijk","address":"Treubstraat 5","city":"Rijswijk","operatorName":"Laadnet","maxPowerKw":22,"isMegawatt":false,"status":"AVAILABLE","source":"ndw"}},{"type":"Feature","geometry":{"type":"Point","coordinates":[4.315605,52.028048]},"properties":{"type":"charge","layer":"passenger","locationId":"89880803","name":"EQUANS SGZH 2.0 89880803","address":"Henri Dunantlaan 167","city":"Rijswijk","operatorName":"EQUANS","maxPowerKw":11,"isMegawatt":false,"status":"AVAILABLE","source":"ndw"}},{"type":"Feature","geometry":{"type":"Point","coordinates":[4.334465,52.057687]},"properties":{"type":"charge","layer":"passenger","locationId":"89274108","name":"EQUANS SGZH 2.0 89274108","address":"Generaal van Geenplein 22","city":"Rijswijk","operatorName":"EQUANS","maxPowerKw":11,"isMegawatt":false,"status":"CHARGING","source":"ndw"}},{"type":"Feature","geometry":{"type":"Point","coordinates":[4.293338,52.040053]},"properties":{"type":"charge","layer":"passenger","locationId":"89209926","name":"EQUANS SGZH 2.0 89209926","address":"Strijplaan 328","city":"Rijswijk","operatorName":"EQUANS","maxPowerKw":17,"isMegawatt":false,"status":"AVAILABLE","source":"ndw"}},{"type":"Feature","geometry":{"type":"Point","coordinates":[4.326691,52.033025]},"properties":{"type":"charge","layer":"passenger","locationId":"89330038","name":"EQUANS SGZH 2.0 89330038","address":"Klaroenstraat 131","city":"Rijswijk","operatorName":"EQUANS","maxPowerKw":11,"isMegawatt":false,"status":"CHARGING","source":"ndw"}},{"type":"Feature","geometry":{"type":"Point","coordinates":[4.333141,52.018328]},"properties":{"type":"charge","layer":"passenger","locationId":"6867d115a0b5672cbcbabe53","name":"Koningslinde P1 Links","address":"Heemraadstraat  64","city":"Rijswijk","operatorName":"E-Flux by Road","maxPowerKw":22,"isMegawatt":false,"status":"CHARGING","source":"ndw","priceKwh":0.36}},{"type":"Feature","geometry":{"type":"Point","coordinates":[4.331879,52.017741]},"properties":{"type":"charge","layer":"passenger","locationId":"89942838","name":"EQUANS SGZH 2.0 Anna van Hogendorpstraat 18","address":"Anna van Hogendorpstraat 18","city":"Rijswijk","operatorName":"EQUANS","maxPowerKw":11,"isMegawatt":false,"status":"AVAILABLE","source":"ndw"}},{"type":"Feature","geometry":{"type":"Point","coordinates":[4.310431,52.026505]},"properties":{"type":"charge","layer":"passenger","locationId":"90695520","name":"EQUANS SGZH 2.0 Aletta Jacobsstraat 11","address":"Aletta Jacobsstraat 11","city":"Rijswijk","operatorName":"EQUANS","maxPowerKw":11,"isMegawatt":false,"status":"AVAILABLE","source":"ndw"}},{"type":"Feature","geometry":{"type":"Point","coordinates":[4.310646,52.033824]},"properties":{"type":"charge","layer":"passenger","locationId":"89942871","name":"EQUANS SGZH 2.0 89942871","address":"Dr Poelslaan 28","city":"Rijswijk","operatorName":"EQUANS","maxPowerKw":11,"isMegawatt":false,"status":"AVAILABLE","source":"ndw"}},{"type":"Feature","geometry":{"type":"Point","coordinates":[4.317271,52.041909]},"properties":{"type":"charge","layer":"passenger","locationId":"90255802","name":"EQUANS SGZH 2.0 Mgr P.J. Willekenslaan 91","address":"Mgr P.J. Willekenslaan 91","city":"Rijswijk","operatorName":"EQUANS","maxPowerKw":11,"isMegawatt":false,"status":"AVAILABLE","source":"ndw"}},{"type":"Feature","geometry":{"type":"Point","coordinates":[4.331155,52.017375]},"properties":{"type":"charge","layer":"passenger","locationId":"89209924","name":"EQUANS SGZH 2.0 89209924","address":"Anna van Hogendorpstraat 2","city":"Rijswijk","operatorName":"EQUANS","maxPowerKw":11,"isMegawatt":false,"status":"AVAILABLE","source":"ndw"}},{"type":"Feature","geometry":{"type":"Point","coordinates":[4.341217,52.047011]},"properties":{"type":"charge","layer":"passenger","locationId":"89222684","name":"EQUANS SGZH 2.0 89222684","address":"Populierlaan 3A","city":"Rijswijk","operatorName":"EQUANS","maxPowerKw":11,"isMegawatt":false,"status":"AVAILABLE","source":"ndw"}},{"type":"Feature","geometry":{"type":"Point","coordinates":[4.334962,52.059398]},"properties":{"type":"charge","layer":"passenger","locationId":"89211769","name":"EQUANS SGZH 2.0 89211769","address":"Haagweg 2","city":"Rijswijk","operatorName":"EQUANS","maxPowerKw":11,"isMegawatt":false,"status":"AVAILABLE","source":"ndw"}},{"type":"Feature","geometry":{"type":"Point","coordinates":[4.33657,52.02358]},"properties":{"type":"charge","layer":"passenger","locationId":"91452086","name":"EQUANS SGZH 2.0 Parelmoervlinderlaan 101","address":"Parelmoervlinderlaan 101","city":"Rijswijk","operatorName":"EQUANS","maxPowerKw":11,"isMegawatt":false,"status":"AVAILABLE","source":"ndw"}},{"type":"Feature","geometry":{"type":"Point","coordinates":[4.332353,52.02145]},"properties":{"type":"charge","layer":"passenger","locationId":"89255689","name":"EQUANS SGZH 2.0 89255689","address":"Parelgraslaan 77","city":"Rijswijk","operatorName":"EQUANS","maxPowerKw":11,"isMegawatt":false,"status":"AVAILABLE","source":"ndw"}},{"type":"Feature","geometry":{"type":"Point","coordinates":[4.314474,52.042332]},"properties":{"type":"charge","layer":"passenger","locationId":"89195893","name":"EQUANS SGZH 2.0 89195893","address":"Vermiljoenstraat 10","city":"Rijswijk","operatorName":"EQUANS","maxPowerKw":11,"isMegawatt":false,"status":"AVAILABLE","source":"ndw"}},{"type":"Feature","geometry":{"type":"Point","coordinates":[4.31803,52.034027]},"properties":{"type":"charge","layer":"passenger","locationId":"89880806","name":"EQUANS SGZH 2.0 89880806","address":"Fagotstraat 51","city":"Rijswijk","operatorName":"EQUANS","maxPowerKw":11,"isMegawatt":false,"status":"AVAILABLE","source":"ndw"}},{"type":"Feature","geometry":{"type":"Point","coordinates":[4.322087,52.033008]},"properties":{"type":"charge","layer":"passenger","locationId":"89329830","name":"EQUANS SGZH 2.0 89329830","address":"Banjostraat 6","city":"Rijswijk","operatorName":"EQUANS","maxPowerKw":11,"isMegawatt":false,"status":"AVAILABLE","source":"ndw"}},{"type":"Feature","geometry":{"type":"Point","coordinates":[4.33517,52.04144]},"properties":{"type":"charge","layer":"passenger","locationId":"91003880","name":"EQUANS SGZH 2.0 Verrijn Stuartlaan 22","address":"Verrijn Stuartlaan 22","city":"Rijswijk","operatorName":"EQUANS","maxPowerKw":11,"isMegawatt":false,"status":"AVAILABLE","source":"ndw"}},{"type":"Feature","geometry":{"type":"Point","coordinates":[4.346235,52.026522]},"properties":{"type":"charge","layer":"passenger","locationId":"89052434","name":"EQUANS SGZH 2.0 89052434","address":"Pasgeldlaan 1","city":"Rijswijk","operatorName":"EQUANS","maxPowerKw":11,"isMegawatt":false,"status":"AVAILABLE","source":"ndw"}},{"type":"Feature","geometry":{"type":"Point","coordinates":[4.311721,52.031833]},"properties":{"type":"charge","layer":"passenger","locationId":"89052436","name":"EQUANS SGZH 2.0 89052436","address":"Arnoldsonstraat 55","city":"Rijswijk","operatorName":"EQUANS","maxPowerKw":11,"isMegawatt":false,"status":"AVAILABLE","source":"ndw"}},{"type":"Feature","geometry":{"type":"Point","coordinates":[4.341748,52.049193]},"properties":{"type":"charge","layer":"passenger","locationId":"89048710","name":"EQUANS SGZH 2.0 89048710","address":"Thierenskade 19","city":"Rijswijk","operatorName":"EQUANS","maxPowerKw":11,"isMegawatt":false,"status":"CHARGING","source":"ndw"}},{"type":"Feature","geometry":{"type":"Point","coordinates":[4.326134,52.016099]},"properties":{"type":"charge","layer":"passenger","locationId":"90122408","name":"EQUANS SGZH 2.0 Hof van Sion 30","address":"Hof van Sion 30","city":"Rijswijk","operatorName":"EQUANS","maxPowerKw":11,"isMegawatt":false,"status":"AVAILABLE","source":"ndw"}},{"type":"Feature","geometry":{"type":"Point","coordinates":[4.321811,52.028823]},"properties":{"type":"charge","layer":"passenger","locationId":"bec00fe3-d2b0-4360-aad7-557dd8f68683","name":"bp pulse Zoomseweg #05","address":"Prinses Beatrixlaan 1147","city":"Rijswijk","operatorName":"bp pulse","maxPowerKw":150,"isMegawatt":false,"status":"AVAILABLE","source":"ndw","priceKwh":0.7}},{"type":"Feature","geometry":{"type":"Point","coordinates":[4.349099,52.048291]},"properties":{"type":"charge","layer":"passenger","locationId":"2c5ba77d-d0e1-4d95-8fa7-31e5623da5e2","name":"Rijswijk, Netherlands","address":"29, Laan van Hoornwijck","city":"Rijswijk","operatorName":"Tesla","maxPowerKw":250,"isMegawatt":false,"status":"AVAILABLE","source":"ndw","priceKwh":0.53}},{"type":"Feature","geometry":{"type":"Point","coordinates":[4.337103,52.060229]},"properties":{"type":"charge","layer":"passenger","locationId":"89052426","name":"EQUANS SGZH 2.0 89052426","address":"Broekslootkade 35","city":"Rijswijk","operatorName":"EQUANS","maxPowerKw":11,"isMegawatt":false,"status":"AVAILABLE","source":"ndw"}},{"type":"Feature","geometry":{"type":"Point","coordinates":[4.31098,52.024575]},"properties":{"type":"charge","layer":"passenger","locationId":"89089112","name":"EQUANS SGZH 2.0 89089112","address":"Florence Nightingalestraat 42","city":"Rijswijk","operatorName":"EQUANS","maxPowerKw":11,"isMegawatt":false,"status":"AVAILABLE","source":"ndw"}},{"type":"Feature","geometry":{"type":"Point","coordinates":[4.317686,52.045765]},"properties":{"type":"charge","layer":"passenger","locationId":"89052432","name":"EQUANS SGZH 2.0 89052432","address":"Huis te Landelaan 19","city":"Rijswijk","operatorName":"EQUANS","maxPowerKw":11,"isMegawatt":false,"status":"AVAILABLE","source":"ndw"}},{"type":"Feature","geometry":{"type":"Point","coordinates":[4.34164,52.053201]},"properties":{"type":"charge","layer":"passenger","locationId":"89329820","name":"EQUANS SGZH 2.0 89329820","address":"Haagweg 205","city":"Rijswijk","operatorName":"EQUANS","maxPowerKw":22,"isMegawatt":false,"status":"AVAILABLE","source":"ndw"}},{"type":"Feature","geometry":{"type":"Point","coordinates":[4.34361,52.050331]},"properties":{"type":"charge","layer":"passenger","locationId":"89329847","name":"EQUANS SGZH 2.0 89329847","address":"Rotterdamseweg 4","city":"Rijswijk","operatorName":"EQUANS","maxPowerKw":11,"isMegawatt":false,"status":"AVAILABLE","source":"ndw"}},{"type":"Feature","geometry":{"type":"Point","coordinates":[4.347198,52.02305]},"properties":{"type":"charge","layer":"passenger","locationId":"89205287","name":"EQUANS SGZH 2.0 89205287","address":"Jaagpad 187","city":"Rijswijk","operatorName":"EQUANS","maxPowerKw":11,"isMegawatt":false,"status":"AVAILABLE","source":"ndw"}},{"type":"Feature","geometry":{"type":"Point","coordinates":[4.298785,52.038268]},"properties":{"type":"charge","layer":"passenger","locationId":"89187707","name":"EQUANS SGZH 2.0 89187707","address":"Schaapweg 4","city":"Rijswijk","operatorName":"EQUANS","maxPowerKw":11,"isMegawatt":false,"status":"CHARGING","source":"ndw"}},{"type":"Feature","geometry":{"type":"Point","coordinates":[4.33672,52.04861]},"properties":{"type":"charge","layer":"passenger","locationId":"5031","name":"EQUANS SGZH 2.0 Jozef Israëlslaan 491","address":"Jozef Israëlslaan 491","city":"Rijswijk","operatorName":"EQUANS","maxPowerKw":11,"isMegawatt":false,"status":"CHARGING","source":"ndw"}},{"type":"Feature","geometry":{"type":"Point","coordinates":[4.316145,52.030997]},"properties":{"type":"charge","layer":"passenger","locationId":"89062476","name":"EQUANS SGZH 2.0 89062476","address":"Brantingstraat 6","city":"Rijswijk","operatorName":"EQUANS","maxPowerKw":11,"isMegawatt":false,"status":"AVAILABLE","source":"ndw"}},{"type":"Feature","geometry":{"type":"Point","coordinates":[4.312593,52.026106]},"properties":{"type":"charge","layer":"passenger","locationId":"90122397","name":"EQUANS SGZH 2.0 Petronella Voûtestraat 411","address":"Petronella Voûtestraat 411","city":"Rijswijk","operatorName":"EQUANS","maxPowerKw":11,"isMegawatt":false,"status":"AVAILABLE","source":"ndw"}},{"type":"Feature","geometry":{"type":"Point","coordinates":[4.311932,52.033683]},"properties":{"type":"charge","layer":"passenger","locationId":"90255726","name":"EQUANS SGZH 2.0 Pa van der Steurlaan 1","address":"Pa van der Steurlaan 1","city":"Rijswijk","operatorName":"EQUANS","maxPowerKw":11,"isMegawatt":false,"status":"AVAILABLE","source":"ndw"}},{"type":"Feature","geometry":{"type":"Point","coordinates":[4.29686,52.03424]},"properties":{"type":"charge","layer":"passenger","locationId":"90924238","name":"EQUANS SGZH 2.0 Strijplaan 94","address":"Strijplaan 94","city":"Rijswijk","operatorName":"EQUANS","maxPowerKw":11,"isMegawatt":false,"status":"AVAILABLE","source":"ndw"}},{"type":"Feature","geometry":{"type":"Point","coordinates":[4.343402,52.054607]},"properties":{"type":"charge","layer":"passenger","locationId":"88424626","name":"EQUANS SGZH 2.0 88424626","address":"Molenlaan 1","city":"Rijswijk","operatorName":"EQUANS","maxPowerKw":11,"isMegawatt":false,"status":"AVAILABLE","source":"ndw"}},{"type":"Feature","geometry":{"type":"Point","coordinates":[4.326966,52.042374]},"properties":{"type":"charge","layer":"passenger","locationId":"89192988","name":"EQUANS SGZH 2.0 89192988","address":"Karel Doormanlaan 220","city":"Rijswijk","operatorName":"EQUANS","maxPowerKw":11,"isMegawatt":false,"status":"AVAILABLE","source":"ndw"}},{"type":"Feature","geometry":{"type":"Point","coordinates":[4.339652,52.055293]},"properties":{"type":"charge","layer":"passenger","locationId":"89052435","name":"EQUANS SGZH 2.0 89052435","address":"Princesselaan 1","city":"Rijswijk","operatorName":"EQUANS","maxPowerKw":11,"isMegawatt":false,"status":"AVAILABLE","source":"ndw"}},{"type":"Feature","geometry":{"type":"Point","coordinates":[4.335523,52.059153]},"properties":{"type":"charge","layer":"passenger","locationId":"2680","name":"EQUANS SGZH 2.0 2680","address":"Haagweg thv 20","city":"Rijswijk","operatorName":"EQUANS","maxPowerKw":11,"isMegawatt":false,"status":"AVAILABLE","source":"ndw"}},{"type":"Feature","geometry":{"type":"Point","coordinates":[4.317264,52.046902]},"properties":{"type":"charge","layer":"passenger","locationId":"89329881","name":"EQUANS SGZH 2.0 89329881","address":"van Vredenburchweg 134","city":"Rijswijk","operatorName":"EQUANS","maxPowerKw":11,"isMegawatt":false,"status":"AVAILABLE","source":"ndw"}},{"type":"Feature","geometry":{"type":"Point","coordinates":[4.30401,52.037902]},"properties":{"type":"charge","layer":"passenger","locationId":"89273861","name":"EQUANS SGZH 2.0 89273861","address":"Thomas Jeffersonlaan 287","city":"Rijswijk","operatorName":"EQUANS","maxPowerKw":11,"isMegawatt":false,"status":"AVAILABLE","source":"ndw"}},{"type":"Feature","geometry":{"type":"Point","coordinates":[4.341295,52.051121]},"properties":{"type":"charge","layer":"passenger","locationId":"89473064","name":"EQUANS SGZH 2.0 89473064","address":"Sir Winston Churchillln 147","city":"Rijswijk","operatorName":"EQUANS","maxPowerKw":11,"isMegawatt":false,"status":"AVAILABLE","source":"ndw"}},{"type":"Feature","geometry":{"type":"Point","coordinates":[4.342161,52.047732]},"properties":{"type":"charge","layer":"passenger","locationId":"2677","name":"EQUANS SGZH 2.0 Larikslaan 11","address":"Larikslaan 11","city":"Rijswijk","operatorName":"EQUANS","maxPowerKw":11,"isMegawatt":false,"status":"AVAILABLE","source":"ndw"}},{"type":"Feature","geometry":{"type":"Point","coordinates":[4.32528,52.03122]},"properties":{"type":"charge","layer":"passenger","locationId":"91292919","name":"EQUANS SGZH 2.0 Tubasingel 50","address":"Tubasingel 50","city":"Rijswijk","operatorName":"EQUANS","maxPowerKw":11,"isMegawatt":false,"status":"AVAILABLE","source":"ndw"}},{"type":"Feature","geometry":{"type":"Point","coordinates":[4.30062,52.039466]},"properties":{"type":"charge","layer":"passenger","locationId":"90255817","name":"EQUANS SGZH 2.0 Franklin D. Rooseveltln 26","address":"Franklin D. Rooseveltln 26","city":"Rijswijk","operatorName":"EQUANS","maxPowerKw":11,"isMegawatt":false,"status":"AVAILABLE","source":"ndw"}},{"type":"Feature","geometry":{"type":"Point","coordinates":[4.329198,52.052767]},"properties":{"type":"charge","layer":"passenger","locationId":"89328032","name":"EQUANS SGZH 2.0 89328032","address":"van Vredenburchweg 69","city":"Rijswijk","operatorName":"EQUANS","maxPowerKw":11,"isMegawatt":false,"status":"AVAILABLE","source":"ndw"}},{"type":"Feature","geometry":{"type":"Point","coordinates":[4.330924,52.037882]},"properties":{"type":"charge","layer":"passenger","locationId":"69cb7f6d1787d3f9054911d8","name":"NXT Charge - Rijswijk - Van Gijnstraat 16 - DC","address":"Van Gijnstraat 16","city":"Rijswijk","operatorName":"NXT Charging Solutions","maxPowerKw":150,"isMegawatt":false,"status":"UNAVAILABLE","source":"ndw","priceKwh":0.63}},{"type":"Feature","geometry":{"type":"Point","coordinates":[4.300638,52.034658]},"properties":{"type":"charge","layer":"passenger","locationId":"88946514","name":"EQUANS SGZH 2.0 88946514","address":"Siergaarde 1","city":"Rijswijk","operatorName":"EQUANS","maxPowerKw":11,"isMegawatt":false,"status":"AVAILABLE","source":"ndw"}},{"type":"Feature","geometry":{"type":"Point","coordinates":[4.330121,52.04704]},"properties":{"type":"charge","layer":"passenger","locationId":"89209919","name":"EQUANS SGZH 2.0 89209919","address":"Generaal Spoorlaan 69","city":"Rijswijk","operatorName":"EQUANS","maxPowerKw":11,"isMegawatt":false,"status":"CHARGING","source":"ndw"}},{"type":"Feature","geometry":{"type":"Point","coordinates":[4.348635,52.025877]},"properties":{"type":"charge","layer":"passenger","locationId":"89052425","name":"EQUANS SGZH 2.0 89052425","address":"Broekmolenweg 17","city":"Rijswijk","operatorName":"EQUANS","maxPowerKw":11,"isMegawatt":false,"status":"AVAILABLE","source":"ndw"}},{"type":"Feature","geometry":{"type":"Point","coordinates":[4.312451,52.040371]},"properties":{"type":"charge","layer":"passenger","locationId":"89880804","name":"EQUANS SGZH 2.0 89880804","address":"Hilvoordestraat 22","city":"Rijswijk","operatorName":"EQUANS","maxPowerKw":11,"isMegawatt":false,"status":"AVAILABLE","source":"ndw"}},{"type":"Feature","geometry":{"type":"Point","coordinates":[4.318229,52.028569]},"properties":{"type":"charge","layer":"passenger","locationId":"89294151","name":"EQUANS SGZH 2.0 89294151","address":"Hendersonstraat 1G","city":"Rijswijk","operatorName":"EQUANS","maxPowerKw":11,"isMegawatt":false,"status":"AVAILABLE","source":"ndw"}},{"type":"Feature","geometry":{"type":"Point","coordinates":[4.340592,52.057601]},"properties":{"type":"charge","layer":"passenger","locationId":"89052430","name":"EQUANS SGZH 2.0 89052430","address":"Geestbrugweg 38","city":"Rijswijk","operatorName":"EQUANS","maxPowerKw":11,"isMegawatt":false,"status":"AVAILABLE","source":"ndw"}},{"type":"Feature","geometry":{"type":"Point","coordinates":[4.33682,52.050435]},"properties":{"type":"charge","layer":"passenger","locationId":"89209974","name":"EQUANS SGZH 2.0 89209974","address":"Rembrandtkade 222","city":"Rijswijk","operatorName":"EQUANS","maxPowerKw":17,"isMegawatt":false,"status":"AVAILABLE","source":"ndw"}},{"type":"Feature","geometry":{"type":"Point","coordinates":[4.298916,52.030688]},"properties":{"type":"charge","layer":"passenger","locationId":"2758","name":"EQUANS SGZH 2.0 2758","address":"Strijplaan thv 11","city":"Rijswijk","operatorName":"EQUANS","maxPowerKw":11,"isMegawatt":false,"status":"AVAILABLE","source":"ndw"}},{"type":"Feature","geometry":{"type":"Point","coordinates":[4.339412,52.048328]},"properties":{"type":"charge","layer":"passenger","locationId":"91491130","name":"EQUANS SGZH 2.0 Populierlaan 73","address":"Populierlaan 73","city":"Rijswijk","operatorName":"EQUANS","maxPowerKw":11,"isMegawatt":false,"status":"AVAILABLE","source":"ndw"}},{"type":"Feature","geometry":{"type":"Point","coordinates":[4.324461,52.034665]},"properties":{"type":"charge","layer":"passenger","locationId":"89209937","name":"EQUANS SGZH 2.0 89209937","address":"Klaroenstraat 40","city":"Rijswijk","operatorName":"EQUANS","maxPowerKw":11,"isMegawatt":false,"status":"AVAILABLE","source":"ndw"}},{"type":"Feature","geometry":{"type":"Point","coordinates":[4.32114,52.033795]},"properties":{"type":"charge","layer":"passenger","locationId":"5201","name":"EQUANS SGZH 2.0 5201","address":"Admiraal Helfrichsingel 47","city":"Rijswijk","operatorName":"EQUANS","maxPowerKw":11,"isMegawatt":false,"status":"AVAILABLE","source":"ndw"}},{"type":"Feature","geometry":{"type":"Point","coordinates":[4.328685,52.01725]},"properties":{"type":"charge","layer":"passenger","locationId":"89052427","name":"EQUANS SGZH 2.0 89052427","address":"Terras van Sion 42","city":"Rijswijk","operatorName":"EQUANS","maxPowerKw":11,"isMegawatt":false,"status":"AVAILABLE","source":"ndw"}},{"type":"Feature","geometry":{"type":"Point","coordinates":[4.31985,52.040637]},"properties":{"type":"charge","layer":"passenger","locationId":"89969947","name":"EQUANS SGZH 2.0 Dr. H. Colijnlaan 490","address":"Dr. H. Colijnlaan 490","city":"Rijswijk","operatorName":"EQUANS","maxPowerKw":11,"isMegawatt":false,"status":"AVAILABLE","source":"ndw"}},{"type":"Feature","geometry":{"type":"Point","coordinates":[4.333205,52.056447]},"properties":{"type":"charge","layer":"passenger","locationId":"89273867","name":"EQUANS SGZH 2.0 89273867","address":"Blekerslaan 1","city":"Rijswijk","operatorName":"EQUANS","maxPowerKw":11,"isMegawatt":false,"status":"CHARGING","source":"ndw"}},{"type":"Feature","geometry":{"type":"Point","coordinates":[4.336511,52.040681]},"properties":{"type":"charge","layer":"passenger","locationId":"2664","name":"EQUANS SGZH 2.0 2664","address":"Veraartlaan 8","city":"Rijswijk","operatorName":"EQUANS","maxPowerKw":11,"isMegawatt":false,"status":"AVAILABLE","source":"ndw"}},{"type":"Feature","geometry":{"type":"Point","coordinates":[4.33144,52.05747]},"properties":{"type":"charge","layer":"passenger","locationId":"89055046","name":"EQUANS SGZH 2.0 Doelenstraat 86","address":"Doelenstraat 86","city":"Rijswijk","operatorName":"EQUANS","maxPowerKw":11,"isMegawatt":false,"status":"AVAILABLE","source":"ndw"}},{"type":"Feature","geometry":{"type":"Point","coordinates":[4.337761,52.045833]},"properties":{"type":"charge","layer":"passenger","locationId":"89052431","name":"EQUANS SGZH 2.0 89052431","address":"Handelskade 2","city":"Rijswijk","operatorName":"EQUANS","maxPowerKw":11,"isMegawatt":false,"status":"AVAILABLE","source":"ndw"}},{"type":"Feature","geometry":{"type":"Point","coordinates":[4.326905,52.022132]},"properties":{"type":"charge","layer":"passenger","locationId":"88886870","name":"EQUANS SGZH 2.0 88886870","address":"Metelerkampstraat 259","city":"Rijswijk","operatorName":"EQUANS","maxPowerKw":11,"isMegawatt":false,"status":"AVAILABLE","source":"ndw"}},{"type":"Feature","geometry":{"type":"Point","coordinates":[4.322659,52.040807]},"properties":{"type":"charge","layer":"passenger","locationId":"90155336","name":"EQUANS SGZH 2.0 Huis te Landelaan 492-F103","address":"Huis te Landelaan 492-F103","city":"Rijswijk","operatorName":"EQUANS","maxPowerKw":11,"isMegawatt":false,"status":"UNAVAILABLE","source":"ndw"}},{"type":"Feature","geometry":{"type":"Point","coordinates":[4.3364,52.05144]},"properties":{"type":"charge","layer":"passenger","locationId":"91321600","name":"EQUANS SGZH 2.0 Rembrandtkade 107","address":"Rembrandtkade 107","city":"Rijswijk","operatorName":"EQUANS","maxPowerKw":11,"isMegawatt":false,"status":"AVAILABLE","source":"ndw"}},{"type":"Feature","geometry":{"type":"Point","coordinates":[4.302958,52.045207]},"properties":{"type":"charge","layer":"passenger","locationId":"OST22P0059_0001_0","name":"OST22P0059_0001_0","address":"van Vredenburchweg 170","city":"Rijswijk","operatorName":"e-VOLTT","maxPowerKw":12,"isMegawatt":false,"status":"AVAILABLE","source":"ndw","priceKwh":0.5455}},{"type":"Feature","geometry":{"type":"Point","coordinates":[4.33822,52.05354]},"properties":{"type":"charge","layer":"passenger","locationId":"90365790","name":"EQUANS SGZH 2.0 Ieplaan 17","address":"Ieplaan 17","city":"Rijswijk","operatorName":"EQUANS","maxPowerKw":11,"isMegawatt":false,"status":"AVAILABLE","source":"ndw"}},{"type":"Feature","geometry":{"type":"Point","coordinates":[4.30266,52.03113]},"properties":{"type":"charge","layer":"passenger","locationId":"90891570","name":"EQUANS SGZH 2.0 Siergaarde 14","address":"Siergaarde 14","city":"Rijswijk","operatorName":"EQUANS","maxPowerKw":11,"isMegawatt":false,"status":"AVAILABLE","source":"ndw"}},{"type":"Feature","geometry":{"type":"Point","coordinates":[4.30607,52.03607]},"properties":{"type":"charge","layer":"passenger","locationId":"89215761","name":"EQUANS SGZH 2.0 Minister Talmalaan 83","address":"Minister Talmalaan 83","city":"Rijswijk","operatorName":"EQUANS","maxPowerKw":11,"isMegawatt":false,"status":"AVAILABLE","source":"ndw"}},{"type":"Feature","geometry":{"type":"Point","coordinates":[4.3148,52.02987]},"properties":{"type":"charge","layer":"passenger","locationId":"90850396","name":"EQUANS SGZH 2.0 Nansenstraat 22 (hoek Bunchestraat)","address":"Nansenstraat 22","city":"Rijswijk","operatorName":"EQUANS","maxPowerKw":11,"isMegawatt":false,"status":"AVAILABLE","source":"ndw"}},{"type":"Feature","geometry":{"type":"Point","coordinates":[4.3176,52.035961]},"properties":{"type":"charge","layer":"passenger","locationId":"89911984","name":"EQUANS SGZH 2.0 Steenvoordelaan 526","address":"Steenvoordelaan 526","city":"Rijswijk","operatorName":"EQUANS","maxPowerKw":11,"isMegawatt":false,"status":"AVAILABLE","source":"ndw"}},{"type":"Feature","geometry":{"type":"Point","coordinates":[4.332012,52.016502]},"properties":{"type":"charge","layer":"passenger","locationId":"75338777","name":"EQUANS SGZH 2.0 75338777","address":"Anna v Hogendorpstraat 64","city":"Rijswijk","operatorName":"EQUANS","maxPowerKw":11,"isMegawatt":false,"status":"AVAILABLE","source":"ndw"}},{"type":"Feature","geometry":{"type":"Point","coordinates":[4.302078,52.033463]},"properties":{"type":"charge","layer":"passenger","locationId":"89221175","name":"EQUANS SGZH 2.0 89221175","address":"Warande 33","city":"Rijswijk","operatorName":"EQUANS","maxPowerKw":11,"isMegawatt":false,"status":"AVAILABLE","source":"ndw"}},{"type":"Feature","geometry":{"type":"Point","coordinates":[4.33211,52.05174]},"properties":{"type":"charge","layer":"passenger","locationId":"89330040","name":"EQUANS SGZH 2.0 Frans Halskade 106","address":"Frans Halskade 106","city":"Rijswijk","operatorName":"EQUANS","maxPowerKw":11,"isMegawatt":false,"status":"AVAILABLE","source":"ndw"}},{"type":"Feature","geometry":{"type":"Point","coordinates":[4.349305,52.049343]},"properties":{"type":"charge","layer":"passenger","locationId":"89187705","name":"EQUANS SGZH 2.0 89187705","address":"Laan van Zuidhoorn 40","city":"Rijswijk","operatorName":"EQUANS","maxPowerKw":11,"isMegawatt":false,"status":"AVAILABLE","source":"ndw"}},{"type":"Feature","geometry":{"type":"Point","coordinates":[4.33075,52.04802]},"properties":{"type":"charge","layer":"passenger","locationId":"90967501","name":"EQUANS SGZH 2.0 Generaal Spoorlaan 2","address":"Generaal Spoorlaan 2","city":"rijswijk","operatorName":"EQUANS","maxPowerKw":11,"isMegawatt":false,"status":"AVAILABLE","source":"ndw"}},{"type":"Feature","geometry":{"type":"Point","coordinates":[4.33366,52.01859]},"properties":{"type":"charge","layer":"passenger","locationId":"91046111","name":"EQUANS SGZH 2.0 Heemraadstraat 86","address":"Heemraadstraat 86","city":"Rijswijk","operatorName":"EQUANS","maxPowerKw":11,"isMegawatt":false,"status":"AVAILABLE","source":"ndw"}},{"type":"Feature","geometry":{"type":"Point","coordinates":[4.29795,52.03256]},"properties":{"type":"charge","layer":"passenger","locationId":"89330034","name":"EQUANS SGZH 2.0 Strijplaan 75","address":"Strijplaan 75","city":"Rijswijk","operatorName":"EQUANS","maxPowerKw":11,"isMegawatt":false,"status":"AVAILABLE","source":"ndw"}},{"type":"Feature","geometry":{"type":"Point","coordinates":[4.31372,52.04125]},"properties":{"type":"charge","layer":"passenger","locationId":"90967503","name":"EQUANS SGZH 2.0 Purperstraat 36","address":"Purperstraat 36","city":"Rijswijk","operatorName":"EQUANS","maxPowerKw":11,"isMegawatt":false,"status":"AVAILABLE","source":"ndw"}},{"type":"Feature","geometry":{"type":"Point","coordinates":[4.346158,52.055639]},"properties":{"type":"charge","layer":"passenger","locationId":"4817","name":"EQUANS SGZH 2.0 4817","address":"Nassaukade 53 ELP","city":"Rijswijk","operatorName":"EQUANS","maxPowerKw":11,"isMegawatt":false,"status":"AVAILABLE","source":"ndw"}},{"type":"Feature","geometry":{"type":"Point","coordinates":[4.337389,52.041083]},"properties":{"type":"charge","layer":"passenger","locationId":"89187706","name":"EQUANS SGZH 2.0 89187706","address":"Veraartlaan 4","city":"Rijswijk","operatorName":"EQUANS","maxPowerKw":11,"isMegawatt":false,"status":"AVAILABLE","source":"ndw"}},{"type":"Feature","geometry":{"type":"Point","coordinates":[4.347073,52.028734]},"properties":{"type":"charge","layer":"passenger","locationId":"90291176","name":"EQUANS SGZH 2.0 De Ruijt 2","address":"De Ruijt 2","city":"Rijswijk","operatorName":"EQUANS","maxPowerKw":11,"isMegawatt":false,"status":"AVAILABLE","source":"ndw"}},{"type":"Feature","geometry":{"type":"Point","coordinates":[4.336646,52.0566]},"properties":{"type":"charge","layer":"passenger","locationId":"89187700","name":"EQUANS SGZH 2.0 89187700","address":"Herenstraat 18","city":"Rijswijk","operatorName":"EQUANS","maxPowerKw":11,"isMegawatt":false,"status":"AVAILABLE","source":"ndw"}},{"type":"Feature","geometry":{"type":"Point","coordinates":[4.30017,52.0287]},"properties":{"type":"charge","layer":"passenger","locationId":"90967500","name":"EQUANS SGZH 2.0 Menkemaborg 12 (t.h.v. Duin en Kruidberg 45)","address":"Menkemaborg 12","city":"Rijswijk","operatorName":"EQUANS","maxPowerKw":11,"isMegawatt":false,"status":"AVAILABLE","source":"ndw"}},{"type":"Feature","geometry":{"type":"Point","coordinates":[4.342138,52.054968]},"properties":{"type":"charge","layer":"passenger","locationId":"89193033","name":"EQUANS SGZH 2.0 89193033","address":"Waldeck Pyrmontlaan 20","city":"Rijswijk","operatorName":"EQUANS","maxPowerKw":11,"isMegawatt":false,"status":"CHARGING","source":"ndw"}},{"type":"Feature","geometry":{"type":"Point","coordinates":[4.30159,52.039254]},"properties":{"type":"charge","layer":"passenger","locationId":"89329822","name":"EQUANS SGZH 2.0 89329822","address":"Franklin D. Rooseveltln 25","city":"Rijswijk","operatorName":"EQUANS","maxPowerKw":11,"isMegawatt":false,"status":"AVAILABLE","source":"ndw"}},{"type":"Feature","geometry":{"type":"Point","coordinates":[4.344467,52.058718]},"properties":{"type":"charge","layer":"passenger","locationId":"89439571","name":"EQUANS SGZH 2.0 89439571","address":"Geestbrugkade 16","city":"Rijswijk","operatorName":"EQUANS","maxPowerKw":11,"isMegawatt":false,"status":"AVAILABLE","source":"ndw"}},{"type":"Feature","geometry":{"type":"Point","coordinates":[4.346462,52.055851]},"properties":{"type":"charge","layer":"passenger","locationId":"90255714","name":"EQUANS SGZH 2.0 Nassaukade 54","address":"Nassaukade 54","city":"Rijswijk","operatorName":"EQUANS","maxPowerKw":11,"isMegawatt":false,"status":"AVAILABLE","source":"ndw"}},{"type":"Feature","geometry":{"type":"Point","coordinates":[4.33982,52.05487]},"properties":{"type":"charge","layer":"passenger","locationId":"90925384","name":"EQUANS SGZH 2.0 Haagweg 165","address":"Haagweg 165","city":"Rijswijk","operatorName":"EQUANS","maxPowerKw":11,"isMegawatt":false,"status":"AVAILABLE","source":"ndw"}},{"type":"Feature","geometry":{"type":"Point","coordinates":[4.346881,52.046605]},"properties":{"type":"charge","layer":"passenger","locationId":"NLENV534","name":"Rijswijk, Einsteinlaan 2-30","address":"Einsteinlaan 2-30","city":"Rijswijk","operatorName":"","maxPowerKw":11,"isMegawatt":false,"status":"AVAILABLE","source":"ndw","priceKwh":0.5}},{"type":"Feature","geometry":{"type":"Point","coordinates":[4.324186,52.036569]},"properties":{"type":"charge","layer":"passenger","locationId":"9e57d771-12c2-455d-88e8-b92de5efbc6a","name":"Lange Kleiweg 8","address":"Lange Kleiweg 8","city":"Rijswijk","operatorName":"Vattenfall InCharge","maxPowerKw":22,"isMegawatt":false,"status":"UNAVAILABLE","source":"ndw"}},{"type":"Feature","geometry":{"type":"Point","coordinates":[4.32687,52.04318]},"properties":{"type":"charge","layer":"passenger","locationId":"90255746","name":"EQUANS SGZH 2.0 Ir H.H. van Kollaan 2","address":"Ir H.H. van Kollaan 2","city":"Rijswijk","operatorName":"EQUANS","maxPowerKw":11,"isMegawatt":false,"status":"AVAILABLE","source":"ndw"}},{"type":"Feature","geometry":{"type":"Point","coordinates":[4.348843,52.04837]},"properties":{"type":"charge","layer":"freight","locationId":"NL_ELD_PRIJHS","name":"Electra Rijswijk - Hotel Savarin","address":"Laan van Hoornwijck 29","city":"Rijswijk","operatorName":"Electra","maxPowerKw":400,"isMegawatt":false,"status":"AVAILABLE","source":"ndw","priceKwh":0.5702,"freightKind":"hpc","freightReason":"power"}},{"type":"Feature","geometry":{"type":"MultiPolygon","coordinates":[[[[4.346904934129129,52.057054950926585],[4.347256515673281,52.05630471514582],[4.3446912643473095,52.053939835181694],[4.352638657206237,52.04909550495675],[4.35231244569715,52.04818280848369],[4.349132151005686,52.0468862666981],[4.3468774656477684,52.045517877848816],[4.346062682229949,52.044018489079235],[4.346836788630859,52.043573338181716],[4.346883988176048,52.04246695270404],[4.350364129135919,52.039313295592436],[4.353777841617522,52.03067622895628],[4.354833882653312,52.030438570145165],[4.357902176139592,52.02776568737795],[4.357531837343994,52.02737773924428],[4.357790268060775,52.02686341860571],[4.357693149975473,52.026821029612584],[4.355477303249321,52.02585235795553],[4.355426793731289,52.02571339805766],[4.355034436923696,52.02553039909008],[4.354950325894957,52.02558060122033],[4.351418457183246,52.02400334556387],[4.34801195256351,52.02245684989573],[4.348001873287155,52.022453815296686],[4.347670303040843,52.022351645405344],[4.343695465358787,52.020616973480266],[4.334426352577611,52.0164813726538],[4.33428729204129,52.01641822627134],[4.330246018521032,52.01466622137696],[4.325956264367408,52.012793464372024],[4.325765933623224,52.012766395951836],[4.319389382120227,52.01998809931153],[4.317584542665666,52.0190870044175],[4.316913743363545,52.018785254688765],[4.309819285230901,52.01563419619695],[4.307638612434026,52.01815153083072],[4.304312939950155,52.02200211915601],[4.304188786783604,52.02214782539812],[4.30093148253174,52.02593223142609],[4.297905049004085,52.02944758848],[4.297890781448809,52.02946895960008],[4.298616726097045,52.02982158240644],[4.2917073199007,52.04037857437497],[4.290951733694958,52.041573247927424],[4.2938656851542785,52.04254069558537],[4.29345293753887,52.04306290661624],[4.295508948074936,52.0435833060866],[4.296767251504078,52.043727912202826],[4.2975630341777284,52.04406791188079],[4.297246981070801,52.044570311522364],[4.298737126472772,52.04500954799317],[4.298366764909033,52.04555740831346],[4.303226189110237,52.04695660102036],[4.304409669888944,52.0466601332893],[4.309812380909147,52.04857479361361],[4.310041771335123,52.04866953715548],[4.31308060788506,52.05013293039581],[4.316445680725599,52.05087091600353],[4.321907990612944,52.053052103840145],[4.321353466922484,52.05461677892702],[4.324122349304174,52.055647827580486],[4.325487390424294,52.055441583429136],[4.327628249054511,52.05645311522258],[4.3276430809152755,52.05694328008708],[4.328650951581421,52.05654897133889],[4.330332650916968,52.05733573348859],[4.334891969644629,52.05952377638079],[4.3351506555486,52.0596314451206],[4.340306892142686,52.061947192708644],[4.341880771314075,52.0609780787801],[4.34415462323508,52.05938226591603],[4.346904934129129,52.057054950926585]]]]},"properties":{"type":"boundary","gemeente":"Rijswijk (ZH.)","code":"GM0603"}}]}