{"type":"FeatureCollection","metadata":{"gemeente":"Schagen","slug":"schagen","code":"GM0441","generated_at":"2026-07-06T16:26:11.361Z","total_passenger":174,"total_freight":0,"bounds":[4.645760598440532,52.691404552571484,4.8497249033161705,52.88362247271309],"operators":["DAEN Mobility","E-Flux by Road","EQUANS","Eneco","Laadnet","NXT Charging Solutions","NXT50Five","Pluq","PureCharged","TotalEnergies","Ubitricity","Vattenfall","Vattenfall InCharge"]},"features":[{"type":"Feature","geometry":{"type":"Point","coordinates":[4.77769,52.78633]},"properties":{"type":"charge","layer":"passenger","locationId":"ff0ca0e7-2809-4954-aa11-d8183b050885","name":"PP004323 - Sperwerhof 52, Schagen","address":"52 Sperwerhof","city":"Schagen","operatorName":"TotalEnergies","maxPowerKw":15,"isMegawatt":false,"status":"AVAILABLE","source":"ndw"}},{"type":"Feature","geometry":{"type":"Point","coordinates":[4.75439,52.83682]},"properties":{"type":"charge","layer":"passenger","locationId":"435","name":"Shell Recharge NL Keinsmerweg 10","address":"Keinsmerweg 10","city":"'t Zand","operatorName":"Ubitricity","maxPowerKw":11,"isMegawatt":false,"status":"AVAILABLE","source":"ndw","priceKwh":0.388}},{"type":"Feature","geometry":{"type":"Point","coordinates":[4.809031,52.782335]},"properties":{"type":"charge","layer":"passenger","locationId":"2fc0393e-b552-4f05-9ba6-48616f1dd0c0","name":"Grotewallerweg","address":"Grotewallerweg 2M","city":"Schagen","operatorName":"Vattenfall InCharge","maxPowerKw":50,"isMegawatt":false,"status":"AVAILABLE","source":"ndw"}},{"type":"Feature","geometry":{"type":"Point","coordinates":[4.782394,52.79128]},"properties":{"type":"charge","layer":"passenger","locationId":"65253d5d0bf2d000205becdf","name":"Autozenter Schagen laadstation 2","address":"De Fok 8","city":"Schagen","operatorName":"E-Flux by Road","maxPowerKw":22,"isMegawatt":false,"status":"AVAILABLE","source":"ndw","priceKwh":0.33}},{"type":"Feature","geometry":{"type":"Point","coordinates":[4.802184,52.79249]},"properties":{"type":"charge","layer":"passenger","locationId":"792474e5-a67a-4d28-9f58-0ca3e4795c2d","name":"TNLP005874 - Frans Halsstraat 29, Schagen","address":"29 Frans Halsstraat","city":"Schagen","operatorName":"TotalEnergies","maxPowerKw":15,"isMegawatt":false,"status":"AVAILABLE","source":"ndw"}},{"type":"Feature","geometry":{"type":"Point","coordinates":[4.787271,52.786217]},"properties":{"type":"charge","layer":"passenger","locationId":"35021a03-f00b-4aa7-8b29-c3724f05f0ae","name":"TNLP009291 - Plevierstraat 1, Schagen","address":"1 Plevierstraat","city":"Schagen","operatorName":"TotalEnergies","maxPowerKw":15,"isMegawatt":false,"status":"AVAILABLE","source":"ndw"}},{"type":"Feature","geometry":{"type":"Point","coordinates":[4.703991,52.747505]},"properties":{"type":"charge","layer":"passenger","locationId":"5c5908f0-4853-44ac-9400-43b36b859930","name":"TNLP006282 - Zwanenplein 1, Burgerbrug","address":"1 Zwanenplein","city":"Burgerbrug","operatorName":"TotalEnergies","maxPowerKw":17,"isMegawatt":false,"status":"UNAVAILABLE","source":"ndw"}},{"type":"Feature","geometry":{"type":"Point","coordinates":[4.710517,52.862774]},"properties":{"type":"charge","layer":"passenger","locationId":"525330a8-4d1b-4946-bd85-7f80d701ff7d","name":"TNLP006106 - Duinweg 13, Callantsoog","address":"13 Duinweg","city":"Callantsoog","operatorName":"TotalEnergies","maxPowerKw":15,"isMegawatt":false,"status":"AVAILABLE","source":"ndw"}},{"type":"Feature","geometry":{"type":"Point","coordinates":[4.7774625,52.7831622]},"properties":{"type":"charge","layer":"passenger","locationId":"1062","name":"Shell Recharge NL Zwaluwplein 22","address":"Zwaluwplein 22","city":"Schagen","operatorName":"Ubitricity","maxPowerKw":22,"isMegawatt":false,"status":"AVAILABLE","source":"ndw","priceKwh":0.266}},{"type":"Feature","geometry":{"type":"Point","coordinates":[4.676868,52.785414]},"properties":{"type":"charge","layer":"passenger","locationId":"692870b8723eb51cc16517b7","name":"29 (17+18)","address":"Westerduinweg  3","city":"Petten","operatorName":"E-Flux by Road","maxPowerKw":11,"isMegawatt":false,"status":"AVAILABLE","source":"ndw","priceKwh":0.53}},{"type":"Feature","geometry":{"type":"Point","coordinates":[4.693898,52.834505]},"properties":{"type":"charge","layer":"passenger","locationId":"15d583c1e090d3b95ba4915fa492ae52","name":"Kerkplein 1","address":"Kerkplein 1","city":"Callantsoog","operatorName":"Vattenfall InCharge","maxPowerKw":11,"isMegawatt":false,"status":"AVAILABLE","source":"ndw"}},{"type":"Feature","geometry":{"type":"Point","coordinates":[4.746712,52.771904]},"properties":{"type":"charge","layer":"passenger","locationId":"a31829fb-2d9b-4447-b3f0-912cb4de1576","name":"TNLP007230 - Eikenlaantje 2, Sint Maarten","address":"2 Eikenlaantje","city":"Sint Maarten","operatorName":"TotalEnergies","maxPowerKw":17,"isMegawatt":false,"status":"UNAVAILABLE","source":"ndw"}},{"type":"Feature","geometry":{"type":"Point","coordinates":[4.811226,52.78859]},"properties":{"type":"charge","layer":"passenger","locationId":"e81042ac-cee3-4ce1-aee7-a42f6a2dbf54","name":"PP005289 - Vliedlaan 13, Schagen","address":"13 Vliedlaan","city":"Schagen","operatorName":"TotalEnergies","maxPowerKw":15,"isMegawatt":false,"status":"CHARGING","source":"ndw"}},{"type":"Feature","geometry":{"type":"Point","coordinates":[4.676868,52.785414]},"properties":{"type":"charge","layer":"passenger","locationId":"69286e66e9e9f9d361562f0d","name":"35 (11+12)","address":"Westerduinweg  3","city":"Petten","operatorName":"E-Flux by Road","maxPowerKw":22,"isMegawatt":false,"status":"AVAILABLE","source":"ndw","priceKwh":0.53}},{"type":"Feature","geometry":{"type":"Point","coordinates":[4.83438,52.72588]},"properties":{"type":"charge","layer":"passenger","locationId":"3a85cb3e-aa6c-4790-9c5a-3df68c386d46","name":"PP004134 - Het Modderweidje 4, Waarland","address":"4 Het Modderweidje","city":"Waarland","operatorName":"TotalEnergies","maxPowerKw":15,"isMegawatt":false,"status":"AVAILABLE","source":"ndw"}},{"type":"Feature","geometry":{"type":"Point","coordinates":[4.80959,52.79436]},"properties":{"type":"charge","layer":"passenger","locationId":"309","name":"Shell Recharge NL Steur 17","address":"Steur 17","city":"Schagen","operatorName":"Ubitricity","maxPowerKw":11,"isMegawatt":false,"status":"AVAILABLE","source":"ndw","priceKwh":0.388}},{"type":"Feature","geometry":{"type":"Point","coordinates":[4.689773,52.791084]},"properties":{"type":"charge","layer":"passenger","locationId":"5f97d2d2-c58a-4c2a-ac80-ce5ac4091f58","name":"TNLP006023 - Zeeweg 67, Sint Maartensvlotbrug","address":"67 Zeeweg","city":"Sint Maartensvlotbrug","operatorName":"TotalEnergies","maxPowerKw":15,"isMegawatt":false,"status":"AVAILABLE","source":"ndw"}},{"type":"Feature","geometry":{"type":"Point","coordinates":[4.771898,52.77732]},"properties":{"type":"charge","layer":"passenger","locationId":"381a3384-bd75-46cc-becb-2a7b7d0b618c","name":"TNLP006735 - Valkkogerweg 7, Sint Maarten","address":"7 Valkkogerweg","city":"Sint Maarten","operatorName":"TotalEnergies","maxPowerKw":15,"isMegawatt":false,"status":"AVAILABLE","source":"ndw"}},{"type":"Feature","geometry":{"type":"Point","coordinates":[4.719527,52.704806]},"properties":{"type":"charge","layer":"passenger","locationId":"67e26b533845453e5f070dac","name":"Laadstation Schoorldam #1","address":"rekerkoogweg 30","city":"Schoorldam","operatorName":"E-Flux by Road","maxPowerKw":22,"isMegawatt":false,"status":"AVAILABLE","source":"ndw","priceKwh":0.53}},{"type":"Feature","geometry":{"type":"Point","coordinates":[4.830987,52.726215]},"properties":{"type":"charge","layer":"passenger","locationId":"424ea206-b9ff-43ba-a3f7-ad5b9c5f5ab8","name":"TNLP006731 - Lantmanstraat 35, Waarland","address":"35 Lantmanstraat","city":"Waarland","operatorName":"TotalEnergies","maxPowerKw":15,"isMegawatt":false,"status":"AVAILABLE","source":"ndw"}},{"type":"Feature","geometry":{"type":"Point","coordinates":[4.706525,52.831694]},"properties":{"type":"charge","layer":"passenger","locationId":"62975c5cf9dcb736736c9fee","name":"Duynpark het Zwanenwater rest. Heerlykheid 1","address":"Uitlandseweg 4","city":"Callantsoog","operatorName":"E-Flux by Road","maxPowerKw":22,"isMegawatt":false,"status":"AVAILABLE","source":"ndw","priceKwh":0.62}},{"type":"Feature","geometry":{"type":"Point","coordinates":[4.666363,52.769679]},"properties":{"type":"charge","layer":"passenger","locationId":"7dced777-262a-4b9a-bfde-4972d335a431","name":"TNLP034238","address":"Eriksstraat 29","city":"Petten","operatorName":"TotalEnergies","maxPowerKw":14,"isMegawatt":false,"status":"AVAILABLE","source":"ndw"}},{"type":"Feature","geometry":{"type":"Point","coordinates":[4.8055471,52.8331449]},"properties":{"type":"charge","layer":"passenger","locationId":"934","name":"Shell Recharge NL Melchiorstraat 2","address":"Melchiorstraat 2","city":"Oudesluis","operatorName":"Ubitricity","maxPowerKw":22,"isMegawatt":false,"status":"AVAILABLE","source":"ndw","priceKwh":0.266}},{"type":"Feature","geometry":{"type":"Point","coordinates":[4.7897,52.828729]},"properties":{"type":"charge","layer":"passenger","locationId":"63be91de0d0a02001283bf60","name":"`t Bullekroffie station","address":"Korte Ruigeweg  43","city":"Oudesluis","operatorName":"E-Flux by Road","maxPowerKw":22,"isMegawatt":false,"status":"AVAILABLE","source":"ndw","priceKwh":0.46}},{"type":"Feature","geometry":{"type":"Point","coordinates":[4.765561,52.798051]},"properties":{"type":"charge","layer":"passenger","locationId":"aa79586eed01edfbc83acaa80cd1cce4","name":"P. Ottstraat 1","address":"P. Ottstraat 1","city":"Schagerbrug","operatorName":"Vattenfall InCharge","maxPowerKw":11,"isMegawatt":false,"status":"AVAILABLE","source":"ndw"}},{"type":"Feature","geometry":{"type":"Point","coordinates":[4.743606,52.731218]},"properties":{"type":"charge","layer":"passenger","locationId":"4267741","name":"Laadnet Oostwal","address":"Oostwal 41","city":"Warmenhuizen","operatorName":"Laadnet","maxPowerKw":22,"isMegawatt":false,"status":"AVAILABLE","source":"ndw"}},{"type":"Feature","geometry":{"type":"Point","coordinates":[4.779257,52.749695]},"properties":{"type":"charge","layer":"passenger","locationId":"6dd2a352-1c1a-488a-9e32-8a07dd54b21b","name":"PP005299 - Voorpolderweg 1, Dirkshorn","address":"1 Voorpolderweg","city":"Dirkshorn","operatorName":"TotalEnergies","maxPowerKw":15,"isMegawatt":false,"status":"AVAILABLE","source":"ndw"}},{"type":"Feature","geometry":{"type":"Point","coordinates":[4.759637,52.833441]},"properties":{"type":"charge","layer":"passenger","locationId":"4287251","name":"Laadnet keinsmerweg 80","address":"Keinsmerweg 80","city":"'t Zand","operatorName":"Laadnet","maxPowerKw":22,"isMegawatt":false,"status":"UNAVAILABLE","source":"ndw"}},{"type":"Feature","geometry":{"type":"Point","coordinates":[4.80395,52.78799]},"properties":{"type":"charge","layer":"passenger","locationId":"437","name":"Shell Recharge NL Molenstraat 64","address":"Molenstraat 64","city":"Schagen","operatorName":"Ubitricity","maxPowerKw":11,"isMegawatt":false,"status":"CHARGING","source":"ndw","priceKwh":0.388}},{"type":"Feature","geometry":{"type":"Point","coordinates":[4.79853,52.78388]},"properties":{"type":"charge","layer":"passenger","locationId":"2797","name":"Shell Recharge NL Marijkestraat 1","address":"Marijkestraat 1","city":"Schagen","operatorName":"Ubitricity","maxPowerKw":11,"isMegawatt":false,"status":"AVAILABLE","source":"ndw","priceKwh":0.388}},{"type":"Feature","geometry":{"type":"Point","coordinates":[4.79863,52.78549]},"properties":{"type":"charge","layer":"passenger","locationId":"412","name":"Shell Recharge NL Herenbosstraat 8","address":"Herenbosstraat 8","city":"Schagen","operatorName":"Ubitricity","maxPowerKw":11,"isMegawatt":false,"status":"AVAILABLE","source":"ndw","priceKwh":0.388}},{"type":"Feature","geometry":{"type":"Point","coordinates":[4.782592,52.791382]},"properties":{"type":"charge","layer":"passenger","locationId":"65253c00204cea0020236a6a","name":"Autozenter Schagen laadstation 1","address":"De Fok 8","city":"Schagen","operatorName":"E-Flux by Road","maxPowerKw":22,"isMegawatt":false,"status":"AVAILABLE","source":"ndw","priceKwh":0.33}},{"type":"Feature","geometry":{"type":"Point","coordinates":[4.742234,52.727236]},"properties":{"type":"charge","layer":"passenger","locationId":"6783e3ecabbc54fcec3939dcedba6049","name":"Rietzangerstraat 26","address":"Rietzangerstraat 26","city":"Warmenhuizen","operatorName":"Vattenfall InCharge","maxPowerKw":11,"isMegawatt":false,"status":"CHARGING","source":"ndw"}},{"type":"Feature","geometry":{"type":"Point","coordinates":[4.80047,52.77694]},"properties":{"type":"charge","layer":"passenger","locationId":"170","name":"Shell Recharge NL Lenie Blindstraat 53","address":"Lenie Blindstraat 53","city":"Schagen","operatorName":"Ubitricity","maxPowerKw":11,"isMegawatt":false,"status":"CHARGING","source":"ndw","priceKwh":0.388}},{"type":"Feature","geometry":{"type":"Point","coordinates":[4.70511,52.835598]},"properties":{"type":"charge","layer":"passenger","locationId":"c897d4ca-032d-4bd8-80df-95a8d6f80bbb","name":"TNLP006241 - Sinckelsant 48, Callantsoog","address":"48 Sinckelsant","city":"Callantsoog","operatorName":"TotalEnergies","maxPowerKw":17,"isMegawatt":false,"status":"UNAVAILABLE","source":"ndw"}},{"type":"Feature","geometry":{"type":"Point","coordinates":[4.701964,52.841656]},"properties":{"type":"charge","layer":"passenger","locationId":"44175a5d-62c7-4f09-9f95-81cf67988d31","name":"TNLP008795 - De Garnekuul 2, Callantsoog","address":"2 De Garnekuul","city":"Callantsoog","operatorName":"TotalEnergies","maxPowerKw":14,"isMegawatt":false,"status":"AVAILABLE","source":"ndw"}},{"type":"Feature","geometry":{"type":"Point","coordinates":[4.814763,52.778093]},"properties":{"type":"charge","layer":"passenger","locationId":"4F658171-1BAA-4C67-A51F-2A454D951138","name":"Eneco eMobility Broekhuis Volkswagen Schagen","address":"Witte Paal 326","city":"Schagen","operatorName":"Eneco","maxPowerKw":22,"isMegawatt":false,"status":"AVAILABLE","source":"ndw","priceKwh":0.45}},{"type":"Feature","geometry":{"type":"Point","coordinates":[4.69297,52.83427]},"properties":{"type":"charge","layer":"passenger","locationId":"738","name":"Shell Recharge NL Zeeweg 6","address":"Zeeweg 6","city":"Callantsoog","operatorName":"Ubitricity","maxPowerKw":11,"isMegawatt":false,"status":"AVAILABLE","source":"ndw","priceKwh":0.388}},{"type":"Feature","geometry":{"type":"Point","coordinates":[4.7996909,52.7982505]},"properties":{"type":"charge","layer":"passenger","locationId":"89","name":"Shell Recharge NL Berkenweg 21","address":"Berkenweg 21","city":"Schagen","operatorName":"Ubitricity","maxPowerKw":11,"isMegawatt":false,"status":"AVAILABLE","source":"ndw","priceKwh":0.388}},{"type":"Feature","geometry":{"type":"Point","coordinates":[4.814007,52.777076]},"properties":{"type":"charge","layer":"passenger","locationId":"64119e28cc06cd0012e3fa0d","name":"Kevin de Wit 's station","address":"Witte Paal 320 C","city":"Schagen","operatorName":"E-Flux by Road","maxPowerKw":11,"isMegawatt":false,"status":"AVAILABLE","source":"ndw","priceKwh":0.83}},{"type":"Feature","geometry":{"type":"Point","coordinates":[4.7502228,52.7302859]},"properties":{"type":"charge","layer":"passenger","locationId":"2041","name":"Shell Recharge NL Zuiderkruis 10","address":"Zuiderkruis 10","city":"Warmenhuizen","operatorName":"Ubitricity","maxPowerKw":22,"isMegawatt":false,"status":"AVAILABLE","source":"ndw","priceKwh":0.266}},{"type":"Feature","geometry":{"type":"Point","coordinates":[4.698137,52.786301]},"properties":{"type":"charge","layer":"passenger","locationId":"38ac0b28e5f639ae9a49fa90aafbd47c","name":"Belkmerweg 79","address":"Belkmerweg 79","city":"Sint Maartensvlotbrug","operatorName":"Vattenfall InCharge","maxPowerKw":11,"isMegawatt":false,"status":"UNAVAILABLE","source":"ndw"}},{"type":"Feature","geometry":{"type":"Point","coordinates":[4.742787,52.718353]},"properties":{"type":"charge","layer":"passenger","locationId":"1ec6f251-23ef-4d78-9db1-18c64420383a","name":"PP005386 - Regelhaalder 14, Warmenhuizen","address":"14 Regelhaalder","city":"Warmenhuizen","operatorName":"TotalEnergies","maxPowerKw":11,"isMegawatt":false,"status":"UNAVAILABLE","source":"ndw"}},{"type":"Feature","geometry":{"type":"Point","coordinates":[4.721034,52.819898]},"properties":{"type":"charge","layer":"passenger","locationId":"4242686","name":"Laadnet Zeezand Recreatie","address":"Bosweg 48","city":"'t Zand","operatorName":"Laadnet","maxPowerKw":22,"isMegawatt":false,"status":"AVAILABLE","source":"ndw"}},{"type":"Feature","geometry":{"type":"Point","coordinates":[4.770182,52.789547]},"properties":{"type":"charge","layer":"passenger","locationId":"69f8850456c7457e025ebc0c","name":"Recreatiepark Burghorn","address":"Oudedijk 1","city":"Schagen","operatorName":"Pluq","maxPowerKw":22,"isMegawatt":false,"status":"AVAILABLE","source":"ndw","priceKwh":0.4}},{"type":"Feature","geometry":{"type":"Point","coordinates":[4.706525,52.831694]},"properties":{"type":"charge","layer":"passenger","locationId":"6296228bcdf02f0dff05d27e","name":"Duynpark het Zwanenwater zwstr links","address":"Uitlandesweg 4","city":"Callantsoog","operatorName":"E-Flux by Road","maxPowerKw":22,"isMegawatt":false,"status":"AVAILABLE","source":"ndw","priceKwh":0.68}},{"type":"Feature","geometry":{"type":"Point","coordinates":[4.77402,52.735441]},"properties":{"type":"charge","layer":"passenger","locationId":"60dc82ea6b02aabbe22011a3","name":"Natuurpark de Bongerd","address":"Bongerdlaan, 3","city":"Tuitjehorn","operatorName":"E-Flux by Road","maxPowerKw":22,"isMegawatt":false,"status":"UNAVAILABLE","source":"ndw"}},{"type":"Feature","geometry":{"type":"Point","coordinates":[4.698457,52.83527]},"properties":{"type":"charge","layer":"passenger","locationId":"68af498d7ee10c5bba8ed7e0","name":"Mart Luursema 's station","address":"Previnaireweg 25","city":"Callantsoog","operatorName":"E-Flux by Road","maxPowerKw":11,"isMegawatt":false,"status":"AVAILABLE","source":"ndw","priceKwh":0.38}},{"type":"Feature","geometry":{"type":"Point","coordinates":[4.676868,52.785414]},"properties":{"type":"charge","layer":"passenger","locationId":"69286f47a8286401eac572c0","name":"32 (3+4)","address":"Westerduinweg 3","city":"Petten","operatorName":"E-Flux by Road","maxPowerKw":22,"isMegawatt":false,"status":"AVAILABLE","source":"ndw","priceKwh":0.53}},{"type":"Feature","geometry":{"type":"Point","coordinates":[4.714825,52.862351]},"properties":{"type":"charge","layer":"passenger","locationId":"60f146fe5cd294446e506ed2","name":"Sjef Otto 's station","address":"Helmweg 2","city":"Groote Keeten","operatorName":"E-Flux by Road","maxPowerKw":11,"isMegawatt":false,"status":"AVAILABLE","source":"ndw","priceKwh":0.41}},{"type":"Feature","geometry":{"type":"Point","coordinates":[4.73409,52.717197]},"properties":{"type":"charge","layer":"passenger","locationId":"69c278ec426169d0540e322d","name":"Voorzijde B4a","address":"Bregweid 4a","city":"Warmenhuizen","operatorName":"E-Flux by Road","maxPowerKw":11,"isMegawatt":false,"status":"AVAILABLE","source":"ndw","priceKwh":0.48}},{"type":"Feature","geometry":{"type":"Point","coordinates":[4.835525,52.725185]},"properties":{"type":"charge","layer":"passenger","locationId":"5b47fa92-9e0c-4f44-9312-b3e33b2fd6ed","name":"TNLP006740 - Leiakker 3, Waarland","address":"3 Leiakker","city":"Waarland","operatorName":"TotalEnergies","maxPowerKw":15,"isMegawatt":false,"status":"AVAILABLE","source":"ndw"}},{"type":"Feature","geometry":{"type":"Point","coordinates":[4.799564,52.77772]},"properties":{"type":"charge","layer":"passenger","locationId":"f84c53cb-fe82-43b9-b73d-9c757325eb28","name":"TNLP009446 - Gebr. Luiderstraat 9, Schagen","address":"9 Gebr. Luiderstraat","city":"Schagen","operatorName":"TotalEnergies","maxPowerKw":17,"isMegawatt":false,"status":"UNAVAILABLE","source":"ndw"}},{"type":"Feature","geometry":{"type":"Point","coordinates":[4.827095,52.782558]},"properties":{"type":"charge","layer":"passenger","locationId":"67dadabb143ec5310fb6dccc","name":"Rene's station","address":"Henriëtte Roland Holststraat 5","city":"Alkmaar","operatorName":"E-Flux by Road","maxPowerKw":11,"isMegawatt":false,"status":"AVAILABLE","source":"ndw","priceKwh":0.36}},{"type":"Feature","geometry":{"type":"Point","coordinates":[4.79611,52.79248]},"properties":{"type":"charge","layer":"passenger","locationId":"6ee52c4b-06cc-4d5d-af33-398e826d4d5c","name":"PP005058 - Lijsterbesstraat 14, Schagen","address":"14 Lijsterbesstraat","city":"Schagen","operatorName":"TotalEnergies","maxPowerKw":15,"isMegawatt":false,"status":"AVAILABLE","source":"ndw"}},{"type":"Feature","geometry":{"type":"Point","coordinates":[4.7951478,52.7868277]},"properties":{"type":"charge","layer":"passenger","locationId":"829","name":"Shell Recharge NL Handelsstraat 3","address":"Handelsstraat 3","city":"Schagen","operatorName":"Ubitricity","maxPowerKw":22,"isMegawatt":false,"status":"AVAILABLE","source":"ndw","priceKwh":0.266}},{"type":"Feature","geometry":{"type":"Point","coordinates":[4.702347,52.842269]},"properties":{"type":"charge","layer":"passenger","locationId":"88901319","name":"EQUANS Fletcher Fletcher Badhotel Callantsoog","address":"Abbestederweg 26","city":"Callantsoog","operatorName":"EQUANS","maxPowerKw":22,"isMegawatt":false,"status":"AVAILABLE","source":"ndw"}},{"type":"Feature","geometry":{"type":"Point","coordinates":[4.80068,52.77963]},"properties":{"type":"charge","layer":"passenger","locationId":"0173ef0a-289a-46dc-87d3-5ee338d230f9","name":"PP004255 - Piet Blokkerstraat 98, Schagen","address":"98 Piet Blokkerstraat","city":"Schagen","operatorName":"TotalEnergies","maxPowerKw":15,"isMegawatt":false,"status":"AVAILABLE","source":"ndw"}},{"type":"Feature","geometry":{"type":"Point","coordinates":[4.70426,52.731968]},"properties":{"type":"charge","layer":"passenger","locationId":"4362178a-ed8c-4d47-9abc-6b558cd34299","name":"TNLP005754 - Kerkpad 7, Warmenhuizen","address":"7 Kerkpad","city":"Warmenhuizen","operatorName":"TotalEnergies","maxPowerKw":11,"isMegawatt":false,"status":"UNAVAILABLE","source":"ndw"}},{"type":"Feature","geometry":{"type":"Point","coordinates":[4.733913,52.714261]},"properties":{"type":"charge","layer":"passenger","locationId":"69dcc5162b6a031b1ec43f1b","name":"Bemo Rail B.V.","address":"Debbemeerweg 59","city":"WARMENHUIZEN","operatorName":"E-Flux by Road","maxPowerKw":22,"isMegawatt":false,"status":"AVAILABLE","source":"ndw","priceKwh":0.48}},{"type":"Feature","geometry":{"type":"Point","coordinates":[4.750119,52.741257]},"properties":{"type":"charge","layer":"passenger","locationId":"9b33e21d-f8cc-4906-b403-f15a12418d59","name":"TNLP008579 - Sportlaan 4, Tuitjenhorn","address":"4 Sportlaan","city":"Tuitjenhorn","operatorName":"TotalEnergies","maxPowerKw":14,"isMegawatt":false,"status":"UNAVAILABLE","source":"ndw"}},{"type":"Feature","geometry":{"type":"Point","coordinates":[4.676868,52.785414]},"properties":{"type":"charge","layer":"passenger","locationId":"69287021f91e303b574f7cea","name":"29 (15+16)","address":"Westerduinweg 3","city":"Petten","operatorName":"E-Flux by Road","maxPowerKw":11,"isMegawatt":false,"status":"AVAILABLE","source":"ndw","priceKwh":0.53}},{"type":"Feature","geometry":{"type":"Point","coordinates":[4.676868,52.785414]},"properties":{"type":"charge","layer":"passenger","locationId":"69286f86f230799a56aec837","name":"32 (1+2)","address":"Westerduinweg 3","city":"Petten","operatorName":"E-Flux by Road","maxPowerKw":22,"isMegawatt":false,"status":"AVAILABLE","source":"ndw","priceKwh":0.53}},{"type":"Feature","geometry":{"type":"Point","coordinates":[4.808975,52.795033]},"properties":{"type":"charge","layer":"passenger","locationId":"a480fe86-cfb2-4c64-983d-fda5375b5336","name":"TNLP009136 - Snoek 8, Schagen","address":"8 Snoek","city":"Schagen","operatorName":"TotalEnergies","maxPowerKw":17,"isMegawatt":false,"status":"UNAVAILABLE","source":"ndw"}},{"type":"Feature","geometry":{"type":"Point","coordinates":[4.794983,52.784805]},"properties":{"type":"charge","layer":"passenger","locationId":"5b49d44d-fb15-4833-b999-8c403ecf7952","name":"TNLP009589 - Hofstraat 52, Schagen","address":"52 Hofstraat","city":"Schagen","operatorName":"TotalEnergies","maxPowerKw":17,"isMegawatt":false,"status":"UNAVAILABLE","source":"ndw"}},{"type":"Feature","geometry":{"type":"Point","coordinates":[4.808412,52.79548]},"properties":{"type":"charge","layer":"passenger","locationId":"708682d0-2258-4a15-af6c-8e96372e0cce","name":"TNLP005903 - Karper 25, Schagen","address":"25 Karper","city":"Schagen","operatorName":"TotalEnergies","maxPowerKw":17,"isMegawatt":false,"status":"UNAVAILABLE","source":"ndw"}},{"type":"Feature","geometry":{"type":"Point","coordinates":[4.719402,52.705027]},"properties":{"type":"charge","layer":"passenger","locationId":"691f79ddd2777d06a47cd632","name":"Laadstation Schoorldam #2","address":"Rekerkoogweg 30","city":"30","operatorName":"E-Flux by Road","maxPowerKw":22,"isMegawatt":false,"status":"AVAILABLE","source":"ndw","priceKwh":0.48}},{"type":"Feature","geometry":{"type":"Point","coordinates":[4.809521,52.78432]},"properties":{"type":"charge","layer":"passenger","locationId":"9f184e32-d954-403f-bfe4-e99bcbbee5bf","name":"TNLP006585 - De Boog 49, Schagen","address":"49 De Boog","city":"Schagen","operatorName":"TotalEnergies","maxPowerKw":17,"isMegawatt":false,"status":"UNAVAILABLE","source":"ndw"}},{"type":"Feature","geometry":{"type":"Point","coordinates":[4.704275,52.751363]},"properties":{"type":"charge","layer":"passenger","locationId":"666c5659d474d8001ca278d9","name":"Carlos Verduin 's station","address":"Grote Sloot 89","city":"Burgerbrug","operatorName":"E-Flux by Road","maxPowerKw":22,"isMegawatt":false,"status":"UNAVAILABLE","source":"ndw"}},{"type":"Feature","geometry":{"type":"Point","coordinates":[4.80179,52.7864]},"properties":{"type":"charge","layer":"passenger","locationId":"561b08e2-3c3f-415f-9026-fe185b185af9","name":"PP001858 - Kerkepad 1001, Schagen","address":"1001 Kerkepad","city":"Schagen","operatorName":"TotalEnergies","maxPowerKw":11,"isMegawatt":false,"status":"AVAILABLE","source":"ndw"}},{"type":"Feature","geometry":{"type":"Point","coordinates":[4.777752,52.746968]},"properties":{"type":"charge","layer":"passenger","locationId":"3964731","name":"Laadnet Park de Horn","address":"Park de Horn 1","city":"Dirkshorn","operatorName":"Laadnet","maxPowerKw":22,"isMegawatt":false,"status":"AVAILABLE","source":"ndw"}},{"type":"Feature","geometry":{"type":"Point","coordinates":[4.710085,52.862222]},"properties":{"type":"charge","layer":"passenger","locationId":"2201c43cd2cbb5e0b345d297838a503f","name":"Duinweg 13","address":"Duinweg 13","city":"Callantsoog","operatorName":"Vattenfall InCharge","maxPowerKw":11,"isMegawatt":false,"status":"AVAILABLE","source":"ndw"}},{"type":"Feature","geometry":{"type":"Point","coordinates":[4.77751,52.78438]},"properties":{"type":"charge","layer":"passenger","locationId":"85","name":"Shell Recharge NL Mezenhof 29","address":"Mezenhof 29","city":"Schagen","operatorName":"Ubitricity","maxPowerKw":11,"isMegawatt":false,"status":"CHARGING","source":"ndw","priceKwh":0.388}},{"type":"Feature","geometry":{"type":"Point","coordinates":[4.710038,52.716928]},"properties":{"type":"charge","layer":"passenger","locationId":"6259578d627657678cc2bd34","name":"Bungalowpark 't Geestmerambacht station","address":"westfriesedijk  39","city":"Warmenhuizen","operatorName":"E-Flux by Road","maxPowerKw":22,"isMegawatt":false,"status":"AVAILABLE","source":"ndw","priceKwh":0.65}},{"type":"Feature","geometry":{"type":"Point","coordinates":[4.793156,52.79686]},"properties":{"type":"charge","layer":"passenger","locationId":"8e614549-06d6-4e88-a1b4-0252f5ce6c8d","name":"TNLP008452 - Iepenlaan 42, Schagen","address":"42 Iepenlaan","city":"Schagen","operatorName":"TotalEnergies","maxPowerKw":14,"isMegawatt":false,"status":"AVAILABLE","source":"ndw"}},{"type":"Feature","geometry":{"type":"Point","coordinates":[4.806306,52.79624]},"properties":{"type":"charge","layer":"passenger","locationId":"fa33bb9b-09dc-42a3-9a93-c49bfbde191d","name":"TNLP007308 - Kabeljauw 1, Schagen","address":"1 Kabeljauw","city":"Schagen","operatorName":"TotalEnergies","maxPowerKw":17,"isMegawatt":false,"status":"UNAVAILABLE","source":"ndw"}},{"type":"Feature","geometry":{"type":"Point","coordinates":[4.68759,52.79145]},"properties":{"type":"charge","layer":"passenger","locationId":"9a26dd79-7c44-4f10-9dc6-8eda5875fd0a","name":"TNLP007360 - Zeeweg 91, Sint Maartensvlotbrug","address":"91 Zeeweg","city":"Sint Maartensvlotbrug","operatorName":"TotalEnergies","maxPowerKw":15,"isMegawatt":false,"status":"AVAILABLE","source":"ndw"}},{"type":"Feature","geometry":{"type":"Point","coordinates":[4.786759,52.796723]},"properties":{"type":"charge","layer":"passenger","locationId":"69f1b77ffef1f98159aa3d4b","name":"NXT 50five - Schagen - Groeneweg 1 - DC","address":"Groeneweg 1","city":"Schagen","operatorName":"NXT50Five","maxPowerKw":50,"isMegawatt":false,"status":"AVAILABLE","source":"ndw","priceKwh":0.6}},{"type":"Feature","geometry":{"type":"Point","coordinates":[4.77382,52.75026]},"properties":{"type":"charge","layer":"passenger","locationId":"4983e950-bfe0-45be-b7bb-716eb6e937c9","name":"PP004165 - Raadhuisstraat 36, Dirkshorn","address":"36 Raadhuisstraat","city":"Dirkshorn","operatorName":"TotalEnergies","maxPowerKw":15,"isMegawatt":false,"status":"AVAILABLE","source":"ndw"}},{"type":"Feature","geometry":{"type":"Point","coordinates":[4.732583,52.7209]},"properties":{"type":"charge","layer":"passenger","locationId":"c9312881-2908-43ff-88a4-a41a52f4a8f9","name":"TNLP006776 - Schelphoek Zuid 20, Warmenhuizen","address":"20 Schelphoek Zuid","city":"Warmenhuizen","operatorName":"TotalEnergies","maxPowerKw":15,"isMegawatt":false,"status":"AVAILABLE","source":"ndw"}},{"type":"Feature","geometry":{"type":"Point","coordinates":[4.803993,52.791107]},"properties":{"type":"charge","layer":"passenger","locationId":"a1aa795a-c484-41af-b8eb-8dcd247571d9","name":"TNLP009769 - Beethovenlaan 31, Schagen","address":"31 Beethovenlaan","city":"Schagen","operatorName":"TotalEnergies","maxPowerKw":17,"isMegawatt":false,"status":"UNAVAILABLE","source":"ndw"}},{"type":"Feature","geometry":{"type":"Point","coordinates":[4.810176,52.791706]},"properties":{"type":"charge","layer":"passenger","locationId":"f654cec7-2d87-4668-af4a-cf66cb905b2e","name":"TNLP009779 - de Kreek 28, Schagen","address":"28 de Kreek","city":"Schagen","operatorName":"TotalEnergies","maxPowerKw":17,"isMegawatt":false,"status":"UNAVAILABLE","source":"ndw"}},{"type":"Feature","geometry":{"type":"Point","coordinates":[4.807552,52.788738]},"properties":{"type":"charge","layer":"passenger","locationId":"963943","name":"DAE_NL_2001342","address":"Kogerlaan 47","city":"Schagen","operatorName":"DAEN Mobility","maxPowerKw":11,"isMegawatt":false,"status":"AVAILABLE","source":"ndw","priceKwh":0.36}},{"type":"Feature","geometry":{"type":"Point","coordinates":[4.74565,52.732688]},"properties":{"type":"charge","layer":"passenger","locationId":"59805d77-d72e-441f-9690-68f17cec1da6","name":"TNLP015168","address":"Oostwal 31","city":"Tuitjenhorn","operatorName":"TotalEnergies","maxPowerKw":17,"isMegawatt":false,"status":"AVAILABLE","source":"ndw"}},{"type":"Feature","geometry":{"type":"Point","coordinates":[4.79912,52.786213]},"properties":{"type":"charge","layer":"passenger","locationId":"b1eb4b4a-e23c-465e-9954-e3fb5e76bd2f","name":"TNLP005902 - Laan 8, Schagen","address":"8 Laan","city":"Schagen","operatorName":"TotalEnergies","maxPowerKw":15,"isMegawatt":false,"status":"AVAILABLE","source":"ndw"}},{"type":"Feature","geometry":{"type":"Point","coordinates":[4.750497,52.73839]},"properties":{"type":"charge","layer":"passenger","locationId":"f48d1eb2-7c6f-4c17-a7e2-2109f8675aea","name":"TNLP009782 - Rietkraag 19, Tuitjenhorn","address":"19 Rietkraag","city":"Tuitjenhorn","operatorName":"TotalEnergies","maxPowerKw":17,"isMegawatt":false,"status":"UNAVAILABLE","source":"ndw"}},{"type":"Feature","geometry":{"type":"Point","coordinates":[4.740718,52.72211]},"properties":{"type":"charge","layer":"passenger","locationId":"2b2e454b3f26c1f322f6b79040256d13","name":"Doorbraak 14","address":"Doorbraak 14","city":"Warmenhuizen","operatorName":"Vattenfall InCharge","maxPowerKw":11,"isMegawatt":false,"status":"CHARGING","source":"ndw"}},{"type":"Feature","geometry":{"type":"Point","coordinates":[4.755216,52.761215]},"properties":{"type":"charge","layer":"passenger","locationId":"677d0ea3f11937ab2726f330","name":"Gm Jansen 's station","address":"Stroet  6","city":"Sint Maarten","operatorName":"Vattenfall","maxPowerKw":14,"isMegawatt":false,"status":"AVAILABLE","source":"ndw","priceKwh":0.53}},{"type":"Feature","geometry":{"type":"Point","coordinates":[4.692152,52.834124]},"properties":{"type":"charge","layer":"passenger","locationId":"66950a492a3fa8001cb00257","name":"Duynsuites kantoorzijde","address":"Zeeweg  2","city":"Callantsoog","operatorName":"E-Flux by Road","maxPowerKw":22,"isMegawatt":false,"status":"AVAILABLE","source":"ndw","priceKwh":0.63}},{"type":"Feature","geometry":{"type":"Point","coordinates":[4.744738,52.72154]},"properties":{"type":"charge","layer":"passenger","locationId":"aec422a2-87b7-4e18-9514-57d9b2cdf1d6","name":"PP005281 - Doorbraak 22, Warmenhuizen","address":"22 Doorbraak","city":"Warmenhuizen","operatorName":"TotalEnergies","maxPowerKw":15,"isMegawatt":false,"status":"AVAILABLE","source":"ndw"}},{"type":"Feature","geometry":{"type":"Point","coordinates":[4.804036,52.784225]},"properties":{"type":"charge","layer":"passenger","locationId":"8a8f2513-7282-4024-a0db-80c514188f4c","name":"TNLP007694 - Nijverheidsstraat 41, Schagen","address":"41 Nijverheidsstraat","city":"Schagen","operatorName":"TotalEnergies","maxPowerKw":17,"isMegawatt":false,"status":"UNAVAILABLE","source":"ndw"}},{"type":"Feature","geometry":{"type":"Point","coordinates":[4.7449809,52.7350425]},"properties":{"type":"charge","layer":"passenger","locationId":"2327","name":"Shell Recharge NL Koolzaad 72","address":"Koolzaad 72","city":"Tuitjenhorn","operatorName":"Ubitricity","maxPowerKw":22,"isMegawatt":false,"status":"AVAILABLE","source":"ndw","priceKwh":0.266}},{"type":"Feature","geometry":{"type":"Point","coordinates":[4.8046,52.78521]},"properties":{"type":"charge","layer":"passenger","locationId":"cd249c42-58a8-4326-8c8f-1da3af2b7779","name":"TNLP008820 - Plantsoen 13, Schagen","address":"13 Plantsoen","city":"Schagen","operatorName":"TotalEnergies","maxPowerKw":14,"isMegawatt":false,"status":"AVAILABLE","source":"ndw"}},{"type":"Feature","geometry":{"type":"Point","coordinates":[4.836981,52.728146]},"properties":{"type":"charge","layer":"passenger","locationId":"4e0874f5-35dd-4e35-ad7d-37276c76691a","name":"TNLP006491 - Houtwerf 3, Waarland","address":"3 Houtwerf","city":"Waarland","operatorName":"TotalEnergies","maxPowerKw":15,"isMegawatt":false,"status":"AVAILABLE","source":"ndw"}},{"type":"Feature","geometry":{"type":"Point","coordinates":[4.80125,52.78479]},"properties":{"type":"charge","layer":"passenger","locationId":"154","name":"Shell Recharge NL Dorpen 14c","address":"Dorpen 14c","city":"Schagen","operatorName":"Ubitricity","maxPowerKw":11,"isMegawatt":false,"status":"AVAILABLE","source":"ndw","priceKwh":0.388}},{"type":"Feature","geometry":{"type":"Point","coordinates":[4.69777,52.839607]},"properties":{"type":"charge","layer":"passenger","locationId":"aa304771-5f0d-4ab4-b8da-917090cc2e9e","name":"TNLP034229","address":"Stuijvezandeweg 42","city":"Callantsoog","operatorName":"TotalEnergies","maxPowerKw":14,"isMegawatt":false,"status":"AVAILABLE","source":"ndw"}},{"type":"Feature","geometry":{"type":"Point","coordinates":[4.663312,52.760014]},"properties":{"type":"charge","layer":"passenger","locationId":"69f889ea27714c9d3175c952","name":"Recreatiepark De Watersnip II BV","address":"Pettemerweg 4","city":"Petten","operatorName":"Pluq","maxPowerKw":22,"isMegawatt":false,"status":"AVAILABLE","source":"ndw","priceKwh":0.4}},{"type":"Feature","geometry":{"type":"Point","coordinates":[4.79854,52.79568]},"properties":{"type":"charge","layer":"passenger","locationId":"c903a221-6d20-4085-aaca-e537a1760837","name":"TNLP008134 - Goudenregenstraat 28, Schagen","address":"28 Goudenregenstraat","city":"Schagen","operatorName":"TotalEnergies","maxPowerKw":17,"isMegawatt":false,"status":"UNAVAILABLE","source":"ndw"}},{"type":"Feature","geometry":{"type":"Point","coordinates":[4.794108,52.79437]},"properties":{"type":"charge","layer":"passenger","locationId":"d5278cd5-8815-4e01-98b3-6302a43d2639","name":"TNLP009436 - Sierkersstraat 23, Schagen","address":"23 Sierkersstraat","city":"Schagen","operatorName":"TotalEnergies","maxPowerKw":15,"isMegawatt":false,"status":"UNAVAILABLE","source":"ndw"}},{"type":"Feature","geometry":{"type":"Point","coordinates":[4.78928,52.78838]},"properties":{"type":"charge","layer":"passenger","locationId":"120b5c66-19f4-4c86-8a0b-2ea52ec83d1f","name":"TNLP006741 - Westerpark 83, Schagen","address":"83 Westerpark","city":"Schagen","operatorName":"TotalEnergies","maxPowerKw":17,"isMegawatt":false,"status":"UNAVAILABLE","source":"ndw"}},{"type":"Feature","geometry":{"type":"Point","coordinates":[4.751856,52.727255]},"properties":{"type":"charge","layer":"passenger","locationId":"664f08bab962b8001c5d0e55","name":"Mark Nannes 's station","address":"Leenman 17","city":"Warmenhuizen","operatorName":"E-Flux by Road","maxPowerKw":11,"isMegawatt":false,"status":"CHARGING","source":"ndw","priceKwh":0.38}},{"type":"Feature","geometry":{"type":"Point","coordinates":[4.754246,52.735905]},"properties":{"type":"charge","layer":"passenger","locationId":"47bba651-2260-4645-9445-1b696bc9f79b","name":"TNLP008291 - 't Skuitje 25, Tuitjenhorn","address":"25 't Skuitje","city":"Tuitjenhorn","operatorName":"TotalEnergies","maxPowerKw":14,"isMegawatt":false,"status":"AVAILABLE","source":"ndw"}},{"type":"Feature","geometry":{"type":"Point","coordinates":[4.787716,52.781307]},"properties":{"type":"charge","layer":"passenger","locationId":"5db43cba-81d9-4a77-8315-8e3fc895488d","name":"TNLP007540 - Spreeuwenlaan 5, Schagen","address":"5 Spreeuwenlaan","city":"Schagen","operatorName":"TotalEnergies","maxPowerKw":17,"isMegawatt":false,"status":"UNAVAILABLE","source":"ndw"}},{"type":"Feature","geometry":{"type":"Point","coordinates":[4.706525,52.831694]},"properties":{"type":"charge","layer":"passenger","locationId":"629623c58e7202068a624eb6","name":"Duynpark het Zwanenwater zwstr rechts","address":"Uitlandseweg 4","city":"Callantsoog","operatorName":"E-Flux by Road","maxPowerKw":22,"isMegawatt":false,"status":"CHARGING","source":"ndw","priceKwh":0.68}},{"type":"Feature","geometry":{"type":"Point","coordinates":[4.832247,52.724755]},"properties":{"type":"charge","layer":"passenger","locationId":"4437767d-87c6-4736-98cf-0e4c42e25fef","name":"TNLP015201","address":"Bloemstraat 9","city":"Waarland","operatorName":"TotalEnergies","maxPowerKw":17,"isMegawatt":false,"status":"AVAILABLE","source":"ndw"}},{"type":"Feature","geometry":{"type":"Point","coordinates":[4.792714,52.797894]},"properties":{"type":"charge","layer":"passenger","locationId":"71288c3f-3efc-4553-b7cf-fec773cbd4b6","name":"PP004049 - Esdoornstraat 17, Schagen","address":"17 Esdoornstraat","city":"Schagen","operatorName":"TotalEnergies","maxPowerKw":11,"isMegawatt":false,"status":"UNAVAILABLE","source":"ndw"}},{"type":"Feature","geometry":{"type":"Point","coordinates":[4.694945,52.841003]},"properties":{"type":"charge","layer":"passenger","locationId":"1beae4d1-5c2f-49f2-8fb4-7d8cf09b9a02","name":"TNLP009140 - Vloedlijn 15, Callantsoog","address":"15 Vloedlijn","city":"Callantsoog","operatorName":"TotalEnergies","maxPowerKw":15,"isMegawatt":false,"status":"CHARGING","source":"ndw"}},{"type":"Feature","geometry":{"type":"Point","coordinates":[4.79298,52.789864]},"properties":{"type":"charge","layer":"passenger","locationId":"a79a18db-6544-46bc-9d0a-82324efd0192","name":"TNLP007009 - Noord 102, Schagen","address":"102 Noord","city":"Schagen","operatorName":"TotalEnergies","maxPowerKw":15,"isMegawatt":false,"status":"AVAILABLE","source":"ndw"}},{"type":"Feature","geometry":{"type":"Point","coordinates":[4.810335,52.783394]},"properties":{"type":"charge","layer":"passenger","locationId":"b80c8862-b379-4e47-9d07-961bf891d10e","name":"TNLP005829 - Harmenkaag 9 A, Schagen","address":"9 A Harmenkaag","city":"Schagen","operatorName":"TotalEnergies","maxPowerKw":15,"isMegawatt":false,"status":"AVAILABLE","source":"ndw"}},{"type":"Feature","geometry":{"type":"Point","coordinates":[4.804806,52.7986]},"properties":{"type":"charge","layer":"passenger","locationId":"b8a68988-0018-4abc-99bb-9feb1f9d82c8","name":"TNLP009912 - Zeewolf 20, Schagen","address":"20 Zeewolf","city":"Schagen","operatorName":"TotalEnergies","maxPowerKw":17,"isMegawatt":false,"status":"UNAVAILABLE","source":"ndw"}},{"type":"Feature","geometry":{"type":"Point","coordinates":[4.798735,52.779137]},"properties":{"type":"charge","layer":"passenger","locationId":"8e436ea8-9193-42d3-8bd8-a16bcad0fd87","name":"TNLP005970 - Frits Bongenaarstraat 7, Schagen","address":"7 Frits Bongenaarstraat","city":"Schagen","operatorName":"TotalEnergies","maxPowerKw":15,"isMegawatt":false,"status":"AVAILABLE","source":"ndw"}},{"type":"Feature","geometry":{"type":"Point","coordinates":[4.751712,52.768648]},"properties":{"type":"charge","layer":"passenger","locationId":"668bb75d1e809d001c2a8038","name":"Recreatiepark De Wielen","address":"De Wielen 84","city":"Sint Maarten","operatorName":"PureCharged","maxPowerKw":11,"isMegawatt":false,"status":"AVAILABLE","source":"ndw","priceKwh":0.53}},{"type":"Feature","geometry":{"type":"Point","coordinates":[4.7911341,52.7905363]},"properties":{"type":"charge","layer":"passenger","locationId":"1992","name":"Shell Recharge NL Cornelis Bregmanstraat 15","address":"Cornelis Bregmanstraat 15","city":"Schagen","operatorName":"Ubitricity","maxPowerKw":22,"isMegawatt":false,"status":"AVAILABLE","source":"ndw","priceKwh":0.266}},{"type":"Feature","geometry":{"type":"Point","coordinates":[4.73985,52.7223]},"properties":{"type":"charge","layer":"passenger","locationId":"262","name":"Shell Recharge NL Doorbraak 8","address":"Doorbraak 8","city":"Warmenhuizen","operatorName":"Ubitricity","maxPowerKw":11,"isMegawatt":false,"status":"AVAILABLE","source":"ndw","priceKwh":0.388}},{"type":"Feature","geometry":{"type":"Point","coordinates":[4.75723,52.73591]},"properties":{"type":"charge","layer":"passenger","locationId":"155","name":"Shell Recharge NL Groteblok 11","address":"Groteblok 11","city":"Tuitjenhorn","operatorName":"Ubitricity","maxPowerKw":11,"isMegawatt":false,"status":"AVAILABLE","source":"ndw","priceKwh":0.388}},{"type":"Feature","geometry":{"type":"Point","coordinates":[4.8063778,52.7972349]},"properties":{"type":"charge","layer":"passenger","locationId":"806","name":"Shell Recharge NL Wijting 2","address":"Wijting 2","city":"Schagen","operatorName":"Ubitricity","maxPowerKw":22,"isMegawatt":false,"status":"AVAILABLE","source":"ndw","priceKwh":0.266}},{"type":"Feature","geometry":{"type":"Point","coordinates":[4.72472,52.78236]},"properties":{"type":"charge","layer":"passenger","locationId":"c62c176c-a333-4388-b63d-a3163e0121c2","name":"PP005029 - Maarten Breetstraat 1, Sint Maartensbrug","address":"1 Maarten Breetstraat","city":"Sint Maartensbrug","operatorName":"TotalEnergies","maxPowerKw":15,"isMegawatt":false,"status":"AVAILABLE","source":"ndw"}},{"type":"Feature","geometry":{"type":"Point","coordinates":[4.79342,52.791]},"properties":{"type":"charge","layer":"passenger","locationId":"3785f088-ba3d-4722-901b-bdbbc9470070","name":"PP004043 - A. Schelfhoutstraat 21, Schagen","address":"21 A. Schelfhoutstraat","city":"Schagen","operatorName":"TotalEnergies","maxPowerKw":11,"isMegawatt":false,"status":"UNAVAILABLE","source":"ndw"}},{"type":"Feature","geometry":{"type":"Point","coordinates":[4.661639,52.76781]},"properties":{"type":"charge","layer":"passenger","locationId":"74a0d870-8e21-47bb-9c31-6d85a118a355","name":"TNLP015046 - J.C. Bellisstraat 2, Petten","address":"2 J.C. Bellisstraat","city":"Petten","operatorName":"TotalEnergies","maxPowerKw":17,"isMegawatt":false,"status":"UNAVAILABLE","source":"ndw"}},{"type":"Feature","geometry":{"type":"Point","coordinates":[4.794832,52.79763]},"properties":{"type":"charge","layer":"passenger","locationId":"33a4400a-0087-4572-9cf6-7ea2f233f49b","name":"TNLP008301 - Notenhof 1, Schagen","address":"1 Notenhof","city":"Schagen","operatorName":"TotalEnergies","maxPowerKw":14,"isMegawatt":false,"status":"AVAILABLE","source":"ndw"}},{"type":"Feature","geometry":{"type":"Point","coordinates":[4.77715,52.78354]},"properties":{"type":"charge","layer":"passenger","locationId":"d986a424-9971-4ea3-8fbe-19c1de3cd26d","name":"PP004244 - Zwaluwplein 14, Schagen","address":"14 Zwaluwplein","city":"Schagen","operatorName":"TotalEnergies","maxPowerKw":11,"isMegawatt":false,"status":"UNAVAILABLE","source":"ndw"}},{"type":"Feature","geometry":{"type":"Point","coordinates":[4.759347,52.838993]},"properties":{"type":"charge","layer":"passenger","locationId":"bca399f63d9c697f65522f1b291c3808","name":"Wielploeg 22","address":"Wielploeg 22","city":"'t Zand","operatorName":"Vattenfall InCharge","maxPowerKw":11,"isMegawatt":false,"status":"AVAILABLE","source":"ndw"}},{"type":"Feature","geometry":{"type":"Point","coordinates":[4.689583,52.794435]},"properties":{"type":"charge","layer":"passenger","locationId":"68c81496cc1284671bd1295e","name":"Sint Maartenszee","address":"Westerduinweg 30","city":"Sint Maartenszee","operatorName":"PureCharged","maxPowerKw":11,"isMegawatt":false,"status":"UNAVAILABLE","source":"ndw","priceKwh":0.53}},{"type":"Feature","geometry":{"type":"Point","coordinates":[4.727314,52.78213]},"properties":{"type":"charge","layer":"passenger","locationId":"945e0cbc-d7d9-4ea8-ac00-15e7596050cd","name":"TNLP009154 - Antoniszstraat 47, Sint Maartensbrug","address":"47 Antoniszstraat","city":"Sint Maartensbrug","operatorName":"TotalEnergies","maxPowerKw":15,"isMegawatt":false,"status":"CHARGING","source":"ndw"}},{"type":"Feature","geometry":{"type":"Point","coordinates":[4.676868,52.785414]},"properties":{"type":"charge","layer":"passenger","locationId":"692870567a633e555712bc57","name":"29 (19+20)","address":"Westerduinweg 3","city":"Petten","operatorName":"E-Flux by Road","maxPowerKw":11,"isMegawatt":false,"status":"AVAILABLE","source":"ndw","priceKwh":0.53}},{"type":"Feature","geometry":{"type":"Point","coordinates":[4.815909,52.77834]},"properties":{"type":"charge","layer":"passenger","locationId":"60e6c7096db4f8182aa1cb88","name":"Groet, Witte Paal 329, Schagen","address":"Witte Paal 329","city":"Schagen","operatorName":"E-Flux by Road","maxPowerKw":22,"isMegawatt":false,"status":"AVAILABLE","source":"ndw","priceKwh":0.53}},{"type":"Feature","geometry":{"type":"Point","coordinates":[4.80633,52.78383]},"properties":{"type":"charge","layer":"passenger","locationId":"293","name":"Shell Recharge NL De Boog 2","address":"De Boog 2","city":"Schagen","operatorName":"Ubitricity","maxPowerKw":11,"isMegawatt":false,"status":"AVAILABLE","source":"ndw","priceKwh":0.388}},{"type":"Feature","geometry":{"type":"Point","coordinates":[4.79131,52.78854]},"properties":{"type":"charge","layer":"passenger","locationId":"335","name":"Shell Recharge NL Veeteeltstraat 17","address":"Veeteeltstraat 17","city":"Schagen","operatorName":"Ubitricity","maxPowerKw":11,"isMegawatt":false,"status":"AVAILABLE","source":"ndw","priceKwh":0.388}},{"type":"Feature","geometry":{"type":"Point","coordinates":[4.6583,52.76912]},"properties":{"type":"charge","layer":"passenger","locationId":"3799109b-62a3-43b0-b909-2fdfd4b1b200","name":"TNLP007983 - TNLP009814 - Spreeuwendijk 1, Petten","address":"1 Spreeuwendijk","city":"Petten","operatorName":"TotalEnergies","maxPowerKw":17,"isMegawatt":false,"status":"UNAVAILABLE","source":"ndw"}},{"type":"Feature","geometry":{"type":"Point","coordinates":[4.676868,52.785414]},"properties":{"type":"charge","layer":"passenger","locationId":"69286efb3aee71933d8d6c95","name":"34 (9+10)","address":"Westerduinweg 3","city":"Petten","operatorName":"E-Flux by Road","maxPowerKw":11,"isMegawatt":false,"status":"AVAILABLE","source":"ndw","priceKwh":0.53}},{"type":"Feature","geometry":{"type":"Point","coordinates":[4.676868,52.785414]},"properties":{"type":"charge","layer":"passenger","locationId":"69286fd47799a43a7466a343","name":"34 (5+6)","address":"Westerduinweg  3","city":"Petten","operatorName":"E-Flux by Road","maxPowerKw":11,"isMegawatt":false,"status":"AVAILABLE","source":"ndw","priceKwh":0.53}},{"type":"Feature","geometry":{"type":"Point","coordinates":[4.676868,52.785414]},"properties":{"type":"charge","layer":"passenger","locationId":"69287114e9e9f9d3615ba240","name":"34 (7+8)","address":"Westerduinweg 3","city":"Petten","operatorName":"E-Flux by Road","maxPowerKw":11,"isMegawatt":false,"status":"AVAILABLE","source":"ndw","priceKwh":0.53}},{"type":"Feature","geometry":{"type":"Point","coordinates":[4.741843,52.727177]},"properties":{"type":"charge","layer":"passenger","locationId":"f3129df5-3142-433b-9348-cb02fd14f25c","name":"TNLP005923 - Rietzangerstraat 6, Warmenhuizen","address":"6 Rietzangerstraat","city":"Warmenhuizen","operatorName":"TotalEnergies","maxPowerKw":17,"isMegawatt":false,"status":"UNAVAILABLE","source":"ndw"}},{"type":"Feature","geometry":{"type":"Point","coordinates":[4.760486,52.834995]},"properties":{"type":"charge","layer":"passenger","locationId":"68776c4b23e515abca64da4dd01864d9","name":"Willem Het Hartplein 8","address":"Willem Het Hartplein 8","city":"'t Zand","operatorName":"Vattenfall InCharge","maxPowerKw":11,"isMegawatt":false,"status":"CHARGING","source":"ndw"}},{"type":"Feature","geometry":{"type":"Point","coordinates":[4.787329,52.784447]},"properties":{"type":"charge","layer":"passenger","locationId":"9f7a6813-8a69-4caa-a824-110649ee896d","name":"TNLP008458 - Kievitlaan 27, Schagen","address":"27 Kievitlaan","city":"Schagen","operatorName":"TotalEnergies","maxPowerKw":14,"isMegawatt":false,"status":"AVAILABLE","source":"ndw"}},{"type":"Feature","geometry":{"type":"Point","coordinates":[4.785478,52.788364]},"properties":{"type":"charge","layer":"passenger","locationId":"dfe0accb-acf6-4818-b157-c3d2888c4c67","name":"TNLP009906 - Patrijzenhof 108, Schagen","address":"108 Patrijzenhof","city":"Schagen","operatorName":"TotalEnergies","maxPowerKw":17,"isMegawatt":false,"status":"UNAVAILABLE","source":"ndw"}},{"type":"Feature","geometry":{"type":"Point","coordinates":[4.7522,52.73312]},"properties":{"type":"charge","layer":"passenger","locationId":"E0E18956-EFE3-4008-9D65-27A6E820A471","name":"Eneco eMobility De Regenboog 50 Tuitjenhorn","address":"De Regenboog 50","city":"Tuitjenhorn","operatorName":"Eneco","maxPowerKw":22,"isMegawatt":false,"status":"AVAILABLE","source":"ndw","priceKwh":0.32}},{"type":"Feature","geometry":{"type":"Point","coordinates":[4.774783,52.78664]},"properties":{"type":"charge","layer":"passenger","locationId":"39df4990-11c0-4277-8e9d-24365d837c27","name":"PP005016 - Sperwerhof 137, Schagen","address":"137 Sperwerhof","city":"Schagen","operatorName":"TotalEnergies","maxPowerKw":11,"isMegawatt":false,"status":"UNAVAILABLE","source":"ndw"}},{"type":"Feature","geometry":{"type":"Point","coordinates":[4.81052,52.79195]},"properties":{"type":"charge","layer":"passenger","locationId":"b46f1109316776da12998e6d85dac1f1","name":"De Wetering 41","address":"De Wetering 41","city":"Schagen","operatorName":"Vattenfall InCharge","maxPowerKw":11,"isMegawatt":false,"status":"AVAILABLE","source":"ndw"}},{"type":"Feature","geometry":{"type":"Point","coordinates":[4.700862,52.788968]},"properties":{"type":"charge","layer":"passenger","locationId":"4148413","name":"Laadnet Zeeweg","address":"Zeeweg 2A","city":"Sint Maartensvlotbrug","operatorName":"Laadnet","maxPowerKw":22,"isMegawatt":false,"status":"UNAVAILABLE","source":"ndw"}},{"type":"Feature","geometry":{"type":"Point","coordinates":[4.666025,52.768285]},"properties":{"type":"charge","layer":"passenger","locationId":"672b33e85f1be46816ca236c","name":"Dinny Verduin 's station","address":"Ketelduinweg  16","city":"Petten","operatorName":"E-Flux by Road","maxPowerKw":11,"isMegawatt":false,"status":"AVAILABLE","source":"ndw","priceKwh":0.51}},{"type":"Feature","geometry":{"type":"Point","coordinates":[4.779668,52.787925]},"properties":{"type":"charge","layer":"passenger","locationId":"6798c037ff989d43ca877218","name":"CYC (Charge Your Car)","address":"Eksterstraat","city":"SCHAGEN","operatorName":"E-Flux by Road","maxPowerKw":11,"isMegawatt":false,"status":"AVAILABLE","source":"ndw","priceKwh":0.42}},{"type":"Feature","geometry":{"type":"Point","coordinates":[4.808781,52.79407]},"properties":{"type":"charge","layer":"passenger","locationId":"d335b486-662b-447d-80b2-3c234ed3aa93","name":"TNLP008129 - Meerval 45, Schagen","address":"45 Meerval","city":"Schagen","operatorName":"TotalEnergies","maxPowerKw":17,"isMegawatt":false,"status":"UNAVAILABLE","source":"ndw"}},{"type":"Feature","geometry":{"type":"Point","coordinates":[4.78039,52.74493]},"properties":{"type":"charge","layer":"passenger","locationId":"91","name":"Shell Recharge NL Apollostraat 21","address":"Apollostraat 21","city":"Dirkshorn","operatorName":"Ubitricity","maxPowerKw":11,"isMegawatt":false,"status":"AVAILABLE","source":"ndw","priceKwh":0.388}},{"type":"Feature","geometry":{"type":"Point","coordinates":[4.79692,52.78945]},"properties":{"type":"charge","layer":"passenger","locationId":"c05b606f-bc68-4d78-92b2-786723aab759","name":"PP004349 - Schubertstraat 24, Schagen","address":"24 Schubertstraat","city":"Schagen","operatorName":"TotalEnergies","maxPowerKw":11,"isMegawatt":false,"status":"UNAVAILABLE","source":"ndw"}},{"type":"Feature","geometry":{"type":"Point","coordinates":[4.740414,52.71821]},"properties":{"type":"charge","layer":"passenger","locationId":"dde3828d-e7e5-41ce-a24e-772683c1f04c","name":"TNLP009220 - Regelhaalder 61, Warmenhuizen","address":"61 Regelhaalder","city":"Warmenhuizen","operatorName":"TotalEnergies","maxPowerKw":15,"isMegawatt":false,"status":"AVAILABLE","source":"ndw"}},{"type":"Feature","geometry":{"type":"Point","coordinates":[4.751844,52.73571]},"properties":{"type":"charge","layer":"passenger","locationId":"152eba2c-deb7-4104-a9ac-70afee9afadc","name":"PP005394 - De Piek 21, Tuitjenhorn","address":"21 De Piek","city":"Tuitjenhorn","operatorName":"TotalEnergies","maxPowerKw":15,"isMegawatt":false,"status":"AVAILABLE","source":"ndw"}},{"type":"Feature","geometry":{"type":"Point","coordinates":[4.697649,52.779875]},"properties":{"type":"charge","layer":"passenger","locationId":"681323baffc2f2fa17ad1798","name":"NXT Charge - Sint maartensvlotburg - Eb & Vloed - AC","address":"Belkmerweg 54","city":"Sint Maartensvlotbrug","operatorName":"NXT Charging Solutions","maxPowerKw":17,"isMegawatt":false,"status":"AVAILABLE","source":"ndw","priceKwh":0.48}},{"type":"Feature","geometry":{"type":"Point","coordinates":[4.794651,52.78832]},"properties":{"type":"charge","layer":"passenger","locationId":"f743a695-2405-42b5-a5e2-a8cdd988ba2b","name":"TNLP009773 - Noord 58, Schagen","address":"58 Noord","city":"Schagen","operatorName":"TotalEnergies","maxPowerKw":17,"isMegawatt":false,"status":"UNAVAILABLE","source":"ndw"}},{"type":"Feature","geometry":{"type":"Point","coordinates":[4.739854,52.720867]},"properties":{"type":"charge","layer":"passenger","locationId":"40ff84e7-0587-4713-94a4-212775bcc926","name":"TNLP008941 - Pastoor Willemsestraat 80, Warmenhuizen","address":"80 Pastoor Willemsestraat","city":"Warmenhuizen","operatorName":"TotalEnergies","maxPowerKw":14,"isMegawatt":false,"status":"AVAILABLE","source":"ndw"}},{"type":"Feature","geometry":{"type":"Point","coordinates":[4.80422,52.78481]},"properties":{"type":"charge","layer":"passenger","locationId":"4f3ecb0c-842a-4779-a6ea-3d4ad60ec007","name":"PP001279 - Plantsoen 10, Schagen","address":"10 Plantsoen","city":"Schagen","operatorName":"TotalEnergies","maxPowerKw":11,"isMegawatt":false,"status":"AVAILABLE","source":"ndw"}},{"type":"Feature","geometry":{"type":"Point","coordinates":[4.741129,52.72421]},"properties":{"type":"charge","layer":"passenger","locationId":"5fe646fb-3a21-462f-9684-f196aec16d87","name":"TNLP006140 - Jan Arentsweg 1, Warmenhuizen","address":"1 Jan Arentsweg","city":"Warmenhuizen","operatorName":"TotalEnergies","maxPowerKw":15,"isMegawatt":false,"status":"AVAILABLE","source":"ndw"}},{"type":"Feature","geometry":{"type":"Point","coordinates":[4.799275,52.793488]},"properties":{"type":"charge","layer":"passenger","locationId":"f7430d17-6fc3-4b09-b4b7-c532589c158f","name":"TNLP007834 - Johan Vermeerstraat 2, Schagen","address":"2 Johan Vermeerstraat","city":"Schagen","operatorName":"TotalEnergies","maxPowerKw":15,"isMegawatt":false,"status":"AVAILABLE","source":"ndw"}},{"type":"Feature","geometry":{"type":"Point","coordinates":[4.805831,52.788445]},"properties":{"type":"charge","layer":"passenger","locationId":"ae988822-dc55-4ff0-ba1e-3f73a9124520","name":"TNLP007315 - Hoep 4, Schagen","address":"4 Hoep","city":"Schagen","operatorName":"TotalEnergies","maxPowerKw":15,"isMegawatt":false,"status":"AVAILABLE","source":"ndw"}},{"type":"Feature","geometry":{"type":"Point","coordinates":[4.78156,52.78764]},"properties":{"type":"charge","layer":"passenger","locationId":"092fd704-316d-4387-a2b0-44906bf97cac","name":"PP001605 - Scholeksterlaan 18, Schagen","address":"18 Scholeksterlaan","city":"Schagen","operatorName":"TotalEnergies","maxPowerKw":11,"isMegawatt":false,"status":"AVAILABLE","source":"ndw"}},{"type":"Feature","geometry":{"type":"Point","coordinates":[4.73097,52.71612]},"properties":{"type":"charge","layer":"passenger","locationId":"732DF191-8E9B-4A22-9723-4D0179BA807A","name":"Eneco eMobility Oudevaart 63 A Warmenhuizen","address":"Oudevaart 63 A","city":"Warmenhuizen","operatorName":"Eneco","maxPowerKw":22,"isMegawatt":false,"status":"AVAILABLE","source":"ndw","priceKwh":0.7}},{"type":"Feature","geometry":{"type":"Point","coordinates":[4.664103,52.765587]},"properties":{"type":"charge","layer":"passenger","locationId":"15ed2f33-aeba-4a71-9460-84ccba8a2253","name":"TNLP009139 - Singel 73, Petten","address":"73 Singel","city":"Petten","operatorName":"TotalEnergies","maxPowerKw":15,"isMegawatt":false,"status":"AVAILABLE","source":"ndw"}},{"type":"Feature","geometry":{"type":"Point","coordinates":[4.693821,52.83452]},"properties":{"type":"charge","layer":"passenger","locationId":"be61dd50-6c07-4169-9d17-fea1f7498edc","name":"TNLP006757 - Kerkplein 1, Callantsoog","address":"1 Kerkplein","city":"Callantsoog","operatorName":"TotalEnergies","maxPowerKw":15,"isMegawatt":false,"status":"AVAILABLE","source":"ndw"}},{"type":"Feature","geometry":{"type":"Point","coordinates":[4.696308,52.839634]},"properties":{"type":"charge","layer":"passenger","locationId":"1979045","name":"Laadnet Callantsoog","address":"Stuijvezandeweg 53","city":"Callantsoog","operatorName":"Laadnet","maxPowerKw":11,"isMegawatt":false,"status":"AVAILABLE","source":"ndw"}},{"type":"Feature","geometry":{"type":"Point","coordinates":[4.75876,52.83557]},"properties":{"type":"charge","layer":"passenger","locationId":"c1a4c178-acfa-4d96-a18f-500818f1580e","name":"PP004322 - Willem 't Hartstraat 26, Het Zand","address":"26 Willem 't Hartstraat","city":"Het Zand","operatorName":"TotalEnergies","maxPowerKw":11,"isMegawatt":false,"status":"UNAVAILABLE","source":"ndw"}},{"type":"Feature","geometry":{"type":"Point","coordinates":[4.65716,52.7661]},"properties":{"type":"charge","layer":"passenger","locationId":"2e229de2-9ff6-4730-b7e0-013047ba1410","name":"TNLP009607 - Bergeendstraat 45, Petten","address":"45 Bergeendstraat","city":"Petten","operatorName":"TotalEnergies","maxPowerKw":15,"isMegawatt":false,"status":"AVAILABLE","source":"ndw"}},{"type":"Feature","geometry":{"type":"Point","coordinates":[4.7939,52.7851]},"properties":{"type":"charge","layer":"passenger","locationId":"57bafbf0-88fd-4c7e-bccf-f1fc99eb7ebf","name":"PP001153 - Loet 43, Schagen","address":"43 Loet","city":"Schagen","operatorName":"TotalEnergies","maxPowerKw":11,"isMegawatt":false,"status":"UNAVAILABLE","source":"ndw"}},{"type":"Feature","geometry":{"type":"Point","coordinates":[4.704249,52.850557]},"properties":{"type":"charge","layer":"passenger","locationId":"613b322121b069a1e084d7f8","name":"De Karnemelkplaats","address":"Voorweg 1","city":"Callantsoog","operatorName":"E-Flux by Road","maxPowerKw":22,"isMegawatt":false,"status":"AVAILABLE","source":"ndw","priceKwh":0.42}},{"type":"Feature","geometry":{"type":"Point","coordinates":[4.79638,52.779922]},"properties":{"type":"charge","layer":"passenger","locationId":"3087032d-51c2-45b1-aa22-38ecf12b6f50","name":"TNLP009609 - Gebr. Plukkerstraat 9, Schagen","address":"9 Gebr. Plukkerstraat","city":"Schagen","operatorName":"TotalEnergies","maxPowerKw":15,"isMegawatt":false,"status":"AVAILABLE","source":"ndw"}},{"type":"Feature","geometry":{"type":"Point","coordinates":[4.75812,52.73398]},"properties":{"type":"charge","layer":"passenger","locationId":"85d5f5b5-faa8-4fa6-8a28-cb3b59ee2f8e","name":"PP004219 - Mosterdpot 28, Tuitjenhorn","address":"28 Mosterdpot","city":"Tuitjenhorn","operatorName":"TotalEnergies","maxPowerKw":11,"isMegawatt":false,"status":"UNAVAILABLE","source":"ndw"}},{"type":"Feature","geometry":{"type":"Point","coordinates":[4.747889,52.770275]},"properties":{"type":"charge","layer":"passenger","locationId":"8c4cc174-1b2e-485f-827f-dc0b364e0a9e","name":"PP005290 - De Peperbus 2, Sint Maarten","address":"2 De Peperbus","city":"Sint Maarten","operatorName":"TotalEnergies","maxPowerKw":11,"isMegawatt":false,"status":"UNAVAILABLE","source":"ndw"}},{"type":"Feature","geometry":{"type":"Point","coordinates":[4.799272,52.797803]},"properties":{"type":"charge","layer":"passenger","locationId":"72f4f7846bc1f4bb2240449e96a51118","name":"Iepenlaan 145","address":"Iepenlaan 145","city":"Schagen","operatorName":"Vattenfall InCharge","maxPowerKw":11,"isMegawatt":false,"status":"AVAILABLE","source":"ndw"}},{"type":"Feature","geometry":{"type":"Point","coordinates":[4.792125,52.793324]},"properties":{"type":"charge","layer":"passenger","locationId":"fe73366e-9667-4f04-902d-544dea72d78a","name":"TNLP009775 - Regioplein 1, Schagen","address":"1 Regioplein","city":"Schagen","operatorName":"TotalEnergies","maxPowerKw":17,"isMegawatt":false,"status":"UNAVAILABLE","source":"ndw"}},{"type":"Feature","geometry":{"type":"Point","coordinates":[4.81129,52.78637]},"properties":{"type":"charge","layer":"passenger","locationId":"6b3c1dc6-d33e-4583-b3f9-7f5cc6bf4e7a","name":"PP004254 - De Boog 112, Schagen","address":"112 De Boog","city":"Schagen","operatorName":"TotalEnergies","maxPowerKw":11,"isMegawatt":false,"status":"UNAVAILABLE","source":"ndw"}},{"type":"Feature","geometry":{"type":"Point","coordinates":[4.704804,52.841387]},"properties":{"type":"charge","layer":"passenger","locationId":"618e7c5a2c53f80985743366","name":"Op t Oog 1","address":"Kruisweg  5 -H1","city":"Callantsoog","operatorName":"E-Flux by Road","maxPowerKw":22,"isMegawatt":false,"status":"UNAVAILABLE","source":"ndw","priceKwh":0.63}},{"type":"Feature","geometry":{"type":"Point","coordinates":[4.729243,52.72074]},"properties":{"type":"charge","layer":"passenger","locationId":"a1b98ca1-15cf-4149-9315-087ee2150835","name":"TNLP008449 - Beuninge 31, Warmenhuizen","address":"31 Beuninge","city":"Warmenhuizen","operatorName":"TotalEnergies","maxPowerKw":14,"isMegawatt":false,"status":"AVAILABLE","source":"ndw"}},{"type":"Feature","geometry":{"type":"Point","coordinates":[4.676868,52.785414]},"properties":{"type":"charge","layer":"passenger","locationId":"69286eb77799a43a746465df","name":"38 (13+14)","address":"Westerduinweg 3","city":"Petten","operatorName":"E-Flux by Road","maxPowerKw":4,"isMegawatt":false,"status":"AVAILABLE","source":"ndw","priceKwh":0.53}},{"type":"Feature","geometry":{"type":"Point","coordinates":[4.762002,52.801349]},"properties":{"type":"charge","layer":"passenger","locationId":"0bc1520cb54cf7fa4809bdcabeacef0c","name":"Schagerweg 53","address":"Schagerweg 53","city":"Schagerbrug","operatorName":"Vattenfall InCharge","maxPowerKw":22,"isMegawatt":false,"status":"AVAILABLE","source":"ndw"}},{"type":"Feature","geometry":{"type":"Point","coordinates":[4.676868,52.785414]},"properties":{"type":"charge","layer":"passenger","locationId":"69286d7d461d79814b5a646e","name":"HFR (21 t/m 24)","address":"Westerduinweg  3","city":"Petten","operatorName":"E-Flux by Road","maxPowerKw":22,"isMegawatt":false,"status":"AVAILABLE","source":"ndw","priceKwh":0.53}},{"type":"Feature","geometry":{"type":"MultiPolygon","coordinates":[[[[4.759697184128683,52.84840246240503],[4.759697364632484,52.848402400446524],[4.78256156730034,52.8514359989375],[4.794421945728163,52.847374113856034],[4.799456450019947,52.843771599820975],[4.809872267719133,52.836261591016154],[4.810695297296162,52.83518740395805],[4.812822083173769,52.83263037120706],[4.812881323655593,52.83232004136113],[4.834572598528744,52.80777876533122],[4.834305716972578,52.80777964022102],[4.832206868560505,52.799394339553],[4.831255403160612,52.7838202170509],[4.827408335360454,52.78356555342019],[4.828995511232141,52.77535268996182],[4.828995701036849,52.77533778158809],[4.828995844620176,52.77532650370432],[4.828601728408133,52.77533329376169],[4.827127980572548,52.775039225024166],[4.819848510521107,52.77412977321702],[4.820753059274293,52.76960748038143],[4.815491842516855,52.770241602996194],[4.813335560494678,52.771333969922765],[4.806959754381336,52.77021458785518],[4.808526831813347,52.76674506940797],[4.812517923640342,52.76276537993666],[4.815630131571813,52.760045737681494],[4.830378623157825,52.74720305876193],[4.835285179925721,52.742080883488214],[4.838694520487806,52.73697235992298],[4.840064185591883,52.73443414928032],[4.844188549225514,52.73233440231461],[4.844875891294178,52.731018710038896],[4.8497249033161705,52.725693601145444],[4.849421217533223,52.7248850835614],[4.848389261402172,52.722137435879496],[4.8479650664880864,52.72100788338031],[4.847684118315277,52.720259740452164],[4.84374565284262,52.719654909118084],[4.841147578621733,52.71930205137271],[4.8288661489678075,52.71809640372696],[4.826241085577289,52.71743609730971],[4.824027319536021,52.716532224369196],[4.816626149585913,52.71528294453911],[4.813160444409477,52.71494244534438],[4.809169721900623,52.7151221911675],[4.805024682283449,52.71420926793291],[4.8039228307649955,52.714780081349005],[4.805010099733205,52.715070415418886],[4.804544554542204,52.7156750245848],[4.803182656737968,52.71541184700768],[4.801958758362994,52.715996262979154],[4.799468981499628,52.71829186322328],[4.797540751232633,52.71963655282137],[4.79760132814262,52.72084801627399],[4.7973954186247125,52.72090052450355],[4.795903923215506,52.72056281991225],[4.795546316667561,52.72054775237511],[4.795442413023469,52.720440826240825],[4.794037544378696,52.72071036044794],[4.793991569481948,52.71998648795263],[4.792730267888001,52.72049013543669],[4.790157140151348,52.720593641522576],[4.788829487977127,52.72084723750018],[4.786563958055353,52.7210344879192],[4.78541085056452,52.7224517545387],[4.786871852601412,52.726372775978625],[4.786564896971,52.727946184547015],[4.781767778820251,52.72986718306715],[4.779137072049769,52.73127769667128],[4.778831029564954,52.73141131118753],[4.778142605971088,52.730301612208855],[4.778264087432532,52.72963266515308],[4.777688733526272,52.72856233516901],[4.772985779619282,52.72004400082056],[4.7704582783851865,52.70872521151814],[4.770761091480187,52.70204377320519],[4.769645829587784,52.69879411423205],[4.7668717050733145,52.69813423293174],[4.751539639016863,52.69698891601859],[4.739574034787812,52.69419018831314],[4.732035296266031,52.692809837774256],[4.728852593218037,52.691404552571484],[4.725221067744228,52.693850367269306],[4.720597534554267,52.69711746083733],[4.719208784151764,52.69909669629013],[4.717861897483319,52.70263872964425],[4.716206867817061,52.70770759809603],[4.7158058719209475,52.710047984951906],[4.714456193922269,52.71127881563241],[4.710467244340133,52.7145303566875],[4.706983991081509,52.71870419799321],[4.704334110843994,52.720422508452316],[4.702309984492404,52.72167503561271],[4.699781532962567,52.72449227076177],[4.690350679484918,52.7326229516183],[4.689820971755255,52.732992553256565],[4.686895780020912,52.73264650996391],[4.683527199000321,52.733537099225344],[4.681019777340223,52.737675759285864],[4.679654392878586,52.73811039869097],[4.678893456844528,52.73916914899275],[4.671219031329244,52.7405820586076],[4.669254378843553,52.74166061577748],[4.6690129676045675,52.74196503497237],[4.668395661586372,52.742490898201225],[4.662433071335552,52.746736295565256],[4.660461788109783,52.74670521770988],[4.659189866268714,52.74730969525753],[4.658984506705446,52.74960109081319],[4.651038478761148,52.75584742143969],[4.645760598440532,52.75663866463843],[4.65493372811268,52.77201498705086],[4.660261437365587,52.77818859814998],[4.667479745234847,52.78671925015389],[4.675985788284742,52.801047554931024],[4.680332198087353,52.810246504690014],[4.686162210605099,52.82852289640456],[4.691731557807573,52.840832080133985],[4.702274727989713,52.86473293429403],[4.709041145079972,52.88362247271309],[4.726788774985097,52.882208465503666],[4.734172082974911,52.88165905718499],[4.742539400035657,52.8810202235798],[4.749806202942725,52.88045583353599],[4.769366134256184,52.878923304324715],[4.770937917318667,52.87862685711188],[4.758854137871228,52.84868977436905],[4.759697184128683,52.84840246240503]]]]},"properties":{"type":"boundary","gemeente":"Schagen","code":"GM0441"}}]}