{"type":"FeatureCollection","metadata":{"gemeente":"Smallingerland","slug":"smallingerland","code":"GM0090","generated_at":"2026-07-06T16:26:11.361Z","total_passenger":135,"total_freight":1,"bounds":[5.870312986197257,53.07087190473015,6.185716455705694,53.15950489570969],"operators":["Allego","Alva Charging Services","Blink Charging","ChargePoint","DAEN Mobility","E-Flux by Road","Eneco","Laadnet","Lidl","NXT Charging Solutions","Opcharge","Pluq","Tesla","TotalEnergies","Vattenfall InCharge","e-VOLTT"]},"features":[{"type":"Feature","geometry":{"type":"Point","coordinates":[6.064836,53.103844]},"properties":{"type":"charge","layer":"passenger","locationId":"3da917e2-3072-4ee8-b459-9b89900bbf86","name":"TNLP013227 - Gjalt de Jongstraat 20, Drachten","address":"20 Gjalt de Jongstraat","city":"Drachten","operatorName":"TotalEnergies","maxPowerKw":17,"isMegawatt":false,"status":"UNAVAILABLE","source":"ndw"}},{"type":"Feature","geometry":{"type":"Point","coordinates":[6.080345,53.098196]},"properties":{"type":"charge","layer":"passenger","locationId":"NLLOC000596","name":"NLD, Drachten, Tjonger 19","address":"Tjonger 19","city":"Drachten","operatorName":"Allego","maxPowerKw":11,"isMegawatt":false,"status":"AVAILABLE","source":"ndw","priceKwh":0.511}},{"type":"Feature","geometry":{"type":"Point","coordinates":[6.080886,53.101358]},"properties":{"type":"charge","layer":"passenger","locationId":"NLLOC011760","name":"NL, Hunze 105, 9204 BK Drachten","address":"Hunze 105","city":"Drachten","operatorName":"Allego","maxPowerKw":11,"isMegawatt":false,"status":"AVAILABLE","source":"ndw","priceKwh":0.511}},{"type":"Feature","geometry":{"type":"Point","coordinates":[6.099405,53.102913]},"properties":{"type":"charge","layer":"passenger","locationId":"1910cf3b-3344-4460-be54-f1cdda0ba76a","name":"TNLP013188 - Berglaan 8, Drachten","address":"8 Berglaan","city":"Drachten","operatorName":"TotalEnergies","maxPowerKw":15,"isMegawatt":false,"status":"AVAILABLE","source":"ndw"}},{"type":"Feature","geometry":{"type":"Point","coordinates":[6.069876,53.095284]},"properties":{"type":"charge","layer":"passenger","locationId":"a7fa022d-51e1-490b-a3ea-97d0c9eb30cd","name":"TNLP012202 - Ame 15, Drachten","address":"15 Ame","city":"Drachten","operatorName":"TotalEnergies","maxPowerKw":17,"isMegawatt":false,"status":"UNAVAILABLE","source":"ndw"}},{"type":"Feature","geometry":{"type":"Point","coordinates":[6.065711,53.095336]},"properties":{"type":"charge","layer":"passenger","locationId":"NLLOC002344","name":"NLD, Wimerts 28, 9204 GL Drachten","address":"NLD, Wimerts 28","city":"Drachten","operatorName":"Allego","maxPowerKw":11,"isMegawatt":false,"status":"AVAILABLE","source":"ndw","priceKwh":0.511}},{"type":"Feature","geometry":{"type":"Point","coordinates":[6.09825,53.103916]},"properties":{"type":"charge","layer":"passenger","locationId":"d7088644-d162-46da-8d2f-e3b8ec235023","name":"TNLP012042 - Museumplein 8, Drachten","address":"8 Museumplein","city":"Drachten","operatorName":"TotalEnergies","maxPowerKw":17,"isMegawatt":false,"status":"UNAVAILABLE","source":"ndw"}},{"type":"Feature","geometry":{"type":"Point","coordinates":[6.112292,53.113632]},"properties":{"type":"charge","layer":"passenger","locationId":"dcfae7ca-b6e0-4328-92e8-b91671b94ebb","name":"TNLP012151 - Engwerd 36, Drachten","address":"36 Engwerd","city":"Drachten","operatorName":"TotalEnergies","maxPowerKw":17,"isMegawatt":false,"status":"UNAVAILABLE","source":"ndw"}},{"type":"Feature","geometry":{"type":"Point","coordinates":[6.123664,53.105853]},"properties":{"type":"charge","layer":"passenger","locationId":"923222","name":"DAE_NL_2000888","address":"Zonnedauw 4","city":"Drachten","operatorName":"DAEN Mobility","maxPowerKw":11,"isMegawatt":false,"status":"AVAILABLE","source":"ndw","priceKwh":0.46}},{"type":"Feature","geometry":{"type":"Point","coordinates":[6.06835,53.109985]},"properties":{"type":"charge","layer":"passenger","locationId":"922714","name":"DAE-NL-2000264","address":"De Bolder 1","city":"Drachten","operatorName":"DAEN Mobility","maxPowerKw":11,"isMegawatt":false,"status":"AVAILABLE","source":"ndw","priceKwh":0.32}},{"type":"Feature","geometry":{"type":"Point","coordinates":[6.109252,53.109387]},"properties":{"type":"charge","layer":"passenger","locationId":"NLLOC017479","name":"NL, Middelwyk 9, 9202GN, Drachten","address":"Middelwyk 9","city":"Drachten","operatorName":"Allego","maxPowerKw":11,"isMegawatt":false,"status":"AVAILABLE","source":"ndw","priceKwh":0.511}},{"type":"Feature","geometry":{"type":"Point","coordinates":[6.098511,53.119322]},"properties":{"type":"charge","layer":"passenger","locationId":"6901f4c810e92e326fef7f32","name":"Mondzorgcentrum Fennepark","address":"Ringweg 11","city":"Drachten","operatorName":"E-Flux by Road","maxPowerKw":22,"isMegawatt":false,"status":"AVAILABLE","source":"ndw","priceKwh":0.41}},{"type":"Feature","geometry":{"type":"Point","coordinates":[6.040921,53.088037]},"properties":{"type":"charge","layer":"passenger","locationId":"ded411ec-8a37-40f5-b286-35554b751f73","name":"TNLP013378","address":"Bosschawei 92","city":"Boornbergum","operatorName":"TotalEnergies","maxPowerKw":17,"isMegawatt":false,"status":"AVAILABLE","source":"ndw"}},{"type":"Feature","geometry":{"type":"Point","coordinates":[6.106618,53.103584]},"properties":{"type":"charge","layer":"passenger","locationId":"686ce67a17ed701fd6bba413","name":"Berglaan linker station","address":"Berglaan 56","city":"Drachten","operatorName":"E-Flux by Road","maxPowerKw":11,"isMegawatt":false,"status":"AVAILABLE","source":"ndw","priceKwh":0.38}},{"type":"Feature","geometry":{"type":"Point","coordinates":[6.072081,53.104904]},"properties":{"type":"charge","layer":"passenger","locationId":"9872c732-3d0e-402b-858b-cb6e67a81a6b","name":"TNLP013435 - Rinze Wibbelinkstraat 99, Drachten","address":"99 Rinze Wibbelinkstraat","city":"Drachten","operatorName":"TotalEnergies","maxPowerKw":15,"isMegawatt":false,"status":"AVAILABLE","source":"ndw"}},{"type":"Feature","geometry":{"type":"Point","coordinates":[6.11904,53.10809]},"properties":{"type":"charge","layer":"passenger","locationId":"fa61b865-9fc9-4fb4-ab72-58eadb105030","name":"TNLP013288 - Steenkerk 4, Drachten","address":"4 Steenkerk","city":"Drachten","operatorName":"TotalEnergies","maxPowerKw":15,"isMegawatt":false,"status":"AVAILABLE","source":"ndw"}},{"type":"Feature","geometry":{"type":"Point","coordinates":[6.115348,53.1023]},"properties":{"type":"charge","layer":"passenger","locationId":"b1af0397-1ac7-4b9f-ad87-72fc511908d0","name":"TNLP013253 - De Bank 28, Drachten","address":"28 De Bank","city":"Drachten","operatorName":"TotalEnergies","maxPowerKw":17,"isMegawatt":false,"status":"UNAVAILABLE","source":"ndw"}},{"type":"Feature","geometry":{"type":"Point","coordinates":[6.10065,53.087498]},"properties":{"type":"charge","layer":"passenger","locationId":"63a47987090ad10012e71827","name":"J Henstra 's station","address":"Hoofdweg 32","city":"Steenbergen","operatorName":"E-Flux by Road","maxPowerKw":17,"isMegawatt":false,"status":"AVAILABLE","source":"ndw","priceKwh":1.03}},{"type":"Feature","geometry":{"type":"Point","coordinates":[6.081368,53.108687]},"properties":{"type":"charge","layer":"passenger","locationId":"e82d3077-35fb-430b-baee-bdffce509e20","name":"Omloop 54","address":"Omloop 54","city":"Drachten","operatorName":"Vattenfall InCharge","maxPowerKw":50,"isMegawatt":false,"status":"AVAILABLE","source":"ndw"}},{"type":"Feature","geometry":{"type":"Point","coordinates":[6.129673,53.105867]},"properties":{"type":"charge","layer":"passenger","locationId":"584956ff-8c04-4da3-ba21-63e4f747353c","name":"Drachten, Netherlands","address":"4, Lavendelheide","city":"Drachten","operatorName":"Tesla","maxPowerKw":250,"isMegawatt":false,"status":"AVAILABLE","source":"ndw","priceKwh":0.49}},{"type":"Feature","geometry":{"type":"Point","coordinates":[6.105335,53.10131]},"properties":{"type":"charge","layer":"passenger","locationId":"NLLOC007984","name":"NL. Klaverweide 21, 9203GB Drachten","address":"Klaverweide 21","city":"Drachten","operatorName":"Allego","maxPowerKw":11,"isMegawatt":false,"status":"AVAILABLE","source":"ndw","priceKwh":0.511}},{"type":"Feature","geometry":{"type":"Point","coordinates":[6.09437,53.107561]},"properties":{"type":"charge","layer":"passenger","locationId":"f8b4dd40-2ed1-40f0-8fae-55ed8d5187f5","name":"Lidl Drachten","address":"Oude Nering","city":"Drachten","operatorName":"Lidl","maxPowerKw":50,"isMegawatt":false,"status":"AVAILABLE","source":"ndw"}},{"type":"Feature","geometry":{"type":"Point","coordinates":[6.080826,53.118916]},"properties":{"type":"charge","layer":"passenger","locationId":"e543a02e-623b-4296-98c0-e8513947a08b","name":"TNLP013444 - de Twee Gebroeders 188, Drachten","address":"188 de Twee Gebroeders","city":"Drachten","operatorName":"TotalEnergies","maxPowerKw":15,"isMegawatt":false,"status":"AVAILABLE","source":"ndw"}},{"type":"Feature","geometry":{"type":"Point","coordinates":[6.078615,53.114446]},"properties":{"type":"charge","layer":"passenger","locationId":"68f60e1016853aa31820abee","name":"Datas kantoor kompleet","address":"het Anker 7a","city":"Drachten","operatorName":"E-Flux by Road","maxPowerKw":19,"isMegawatt":false,"status":"AVAILABLE","source":"ndw","priceKwh":0.38}},{"type":"Feature","geometry":{"type":"Point","coordinates":[6.139883,53.112259]},"properties":{"type":"charge","layer":"passenger","locationId":"611b71ae3062d162293c7365","name":"Laadstation Solar-systemen.nl","address":"Nipkowlaan  4","city":"Drachten","operatorName":"E-Flux by Road","maxPowerKw":22,"isMegawatt":false,"status":"AVAILABLE","source":"ndw","priceKwh":0.33}},{"type":"Feature","geometry":{"type":"Point","coordinates":[6.126535,53.107833]},"properties":{"type":"charge","layer":"passenger","locationId":"NLLOC018714","name":"NL, Tjaarda 290, 9202LA, Drachten","address":"Tjaarda 290","city":"Drachten","operatorName":"Allego","maxPowerKw":11,"isMegawatt":false,"status":"AVAILABLE","source":"ndw","priceKwh":0.511}},{"type":"Feature","geometry":{"type":"Point","coordinates":[6.074069,53.112972]},"properties":{"type":"charge","layer":"passenger","locationId":"02905659-9ab8-495d-a897-12242ce349cc","name":"Vakgarage Terpstra - Drachten","address":"De Giek 3","city":"Drachten","operatorName":"Blink Charging","maxPowerKw":12,"isMegawatt":false,"status":"UNAVAILABLE","source":"ndw","priceKwh":0.42}},{"type":"Feature","geometry":{"type":"Point","coordinates":[6.140738,53.113649]},"properties":{"type":"charge","layer":"passenger","locationId":"318ed5f0-7548-47f4-bcc6-2e42750cc528","name":"Nipkowlaan 9","address":"Nipkowlaan 9","city":"Drachten","operatorName":"Vattenfall InCharge","maxPowerKw":22,"isMegawatt":false,"status":"AVAILABLE","source":"ndw"}},{"type":"Feature","geometry":{"type":"Point","coordinates":[6.109544,53.110957]},"properties":{"type":"charge","layer":"passenger","locationId":"2997f845-b092-4e89-8b4e-f34c1ae430b0","name":"TNLP013017","address":"Claerkamp 39","city":"Drachten","operatorName":"TotalEnergies","maxPowerKw":17,"isMegawatt":false,"status":"UNAVAILABLE","source":"ndw"}},{"type":"Feature","geometry":{"type":"Point","coordinates":[5.951235,53.096725]},"properties":{"type":"charge","layer":"passenger","locationId":"b8e0d074-ae6e-43b4-94d3-bd7d48ad9db7","name":"TNLP013172 - het Stalt 1, Veenhoop","address":"1 het Stalt","city":"Veenhoop","operatorName":"TotalEnergies","maxPowerKw":17,"isMegawatt":false,"status":"UNAVAILABLE","source":"ndw"}},{"type":"Feature","geometry":{"type":"Point","coordinates":[6.06835,53.109985]},"properties":{"type":"charge","layer":"passenger","locationId":"922713","name":"DAE-NL-2000246","address":"De Bolder 1","city":"Drachten","operatorName":"DAEN Mobility","maxPowerKw":11,"isMegawatt":false,"status":"AVAILABLE","source":"ndw","priceKwh":0.32}},{"type":"Feature","geometry":{"type":"Point","coordinates":[6.067492,53.117892]},"properties":{"type":"charge","layer":"passenger","locationId":"NLCPIL6888095","name":"FOURCE BV DE KIEL 5","address":"22 De Kiel","city":"Drachten","operatorName":"ChargePoint","maxPowerKw":22,"isMegawatt":false,"status":"AVAILABLE","source":"ndw","priceKwh":0.5}},{"type":"Feature","geometry":{"type":"Point","coordinates":[6.076346,53.110041]},"properties":{"type":"charge","layer":"passenger","locationId":"67a36c103e626934c45f556c","name":"Witteveen Dakrendement station","address":"Loswal 10","city":"Drachten","operatorName":"E-Flux by Road","maxPowerKw":14,"isMegawatt":false,"status":"AVAILABLE","source":"ndw","priceKwh":0.63}},{"type":"Feature","geometry":{"type":"Point","coordinates":[6.077618,53.09712]},"properties":{"type":"charge","layer":"passenger","locationId":"983de55d-6f00-4312-bd2c-b14275b57dfe","name":"TNLP013408 - Marne 41, Drachten","address":"41 Marne","city":"Drachten","operatorName":"TotalEnergies","maxPowerKw":15,"isMegawatt":false,"status":"AVAILABLE","source":"ndw"}},{"type":"Feature","geometry":{"type":"Point","coordinates":[6.128901,53.105911]},"properties":{"type":"charge","layer":"passenger","locationId":"NLLOC027326","name":"Allego - Van der Valk Drachten A7","address":"Lavendelheide 4","city":"Drachten","operatorName":"Allego","maxPowerKw":300,"isMegawatt":false,"status":"AVAILABLE","source":"ndw","priceKwh":0.655}},{"type":"Feature","geometry":{"type":"Point","coordinates":[6.083544,53.094998]},"properties":{"type":"charge","layer":"passenger","locationId":"630bd396bc56f1d5a29fa509","name":"T Karwei","address":"Zuiderhogeweg 82","city":"Drachten","operatorName":"E-Flux by Road","maxPowerKw":22,"isMegawatt":false,"status":"AVAILABLE","source":"ndw","priceKwh":0.64}},{"type":"Feature","geometry":{"type":"Point","coordinates":[6.067715,53.117111]},"properties":{"type":"charge","layer":"passenger","locationId":"NLCPIL6877185","name":"FOURCE BV DE KIEL 1","address":"22 De Kiel","city":"Drachten","operatorName":"ChargePoint","maxPowerKw":22,"isMegawatt":false,"status":"AVAILABLE","source":"ndw","priceKwh":0.5}},{"type":"Feature","geometry":{"type":"Point","coordinates":[6.100293,53.112943]},"properties":{"type":"charge","layer":"passenger","locationId":"672e0e178b8f37b2b9932026","name":"VHS","address":"Van Haersmasingel 37","city":"Drachten","operatorName":"E-Flux by Road","maxPowerKw":22,"isMegawatt":false,"status":"AVAILABLE","source":"ndw","priceKwh":0.42}},{"type":"Feature","geometry":{"type":"Point","coordinates":[6.112063,53.10944]},"properties":{"type":"charge","layer":"passenger","locationId":"e792e6ae-ee42-45f9-94fe-251df6854275","name":"TNLP013446 - Middelwyk 39 D, Drachten","address":"39 D Middelwyk","city":"Drachten","operatorName":"TotalEnergies","maxPowerKw":15,"isMegawatt":false,"status":"AVAILABLE","source":"ndw"}},{"type":"Feature","geometry":{"type":"Point","coordinates":[6.088851,53.09953]},"properties":{"type":"charge","layer":"passenger","locationId":"6bf4affd-157d-4b45-8467-de2354ed003d","name":"TNLP012028 - Gerben Sondermanstraat 13 A, Drachten","address":"13 A Gerben Sondermanstraat","city":"Drachten","operatorName":"TotalEnergies","maxPowerKw":17,"isMegawatt":false,"status":"UNAVAILABLE","source":"ndw"}},{"type":"Feature","geometry":{"type":"Point","coordinates":[5.947277,53.098297]},"properties":{"type":"charge","layer":"passenger","locationId":"67c6d06695ccee4a39bebf8b","name":"Jachthaven de Veenhoop","address":"Slûswei 17","city":"De Veenhoop","operatorName":"Alva Charging Services","maxPowerKw":11,"isMegawatt":false,"status":"AVAILABLE","source":"ndw","priceKwh":0.34}},{"type":"Feature","geometry":{"type":"Point","coordinates":[6.12416,53.10534]},"properties":{"type":"charge","layer":"passenger","locationId":"43E63D03-C215-4CA9-B1CE-6A8FD0D7A2BA","name":"Eneco eMobility AB Vakwerk - Zonnedauw - Drachten","address":"Zonnedauw 16","city":"Drachten","operatorName":"Eneco","maxPowerKw":11,"isMegawatt":false,"status":"AVAILABLE","source":"ndw","priceKwh":0.32}},{"type":"Feature","geometry":{"type":"Point","coordinates":[6.049401,53.096898]},"properties":{"type":"charge","layer":"passenger","locationId":"923309","name":"DAE_NL_2001137","address":"Hanebalken 41","city":"Drachten","operatorName":"DAEN Mobility","maxPowerKw":11,"isMegawatt":false,"status":"UNAVAILABLE","source":"ndw"}},{"type":"Feature","geometry":{"type":"Point","coordinates":[6.119225,53.136236]},"properties":{"type":"charge","layer":"passenger","locationId":"6893304f9442b230dece46c1","name":"Het Landzicht","address":"Folgerster Loane  55","city":"Houtigehage","operatorName":"E-Flux by Road","maxPowerKw":11,"isMegawatt":false,"status":"AVAILABLE","source":"ndw","priceKwh":0.48}},{"type":"Feature","geometry":{"type":"Point","coordinates":[6.09513,53.106357]},"properties":{"type":"charge","layer":"passenger","locationId":"NLLOC010525","name":"NL, Moleneind ZZ, 67, 9203ZW, Drachten","address":"Moleneind ZZ 67","city":"Drachten","operatorName":"Allego","maxPowerKw":11,"isMegawatt":false,"status":"AVAILABLE","source":"ndw","priceKwh":0.511}},{"type":"Feature","geometry":{"type":"Point","coordinates":[6.097998,53.118404]},"properties":{"type":"charge","layer":"passenger","locationId":"679abe74-af26-40b9-9899-8d2df955eb72","name":"TNLP013286 - Ratelwacht 54, Drachten","address":"54 Ratelwacht","city":"Drachten","operatorName":"TotalEnergies","maxPowerKw":15,"isMegawatt":false,"status":"AVAILABLE","source":"ndw"}},{"type":"Feature","geometry":{"type":"Point","coordinates":[6.140555,53.114332]},"properties":{"type":"charge","layer":"passenger","locationId":"625ecfb10b4d101b43df6cba","name":"Van Linde Installatietechniek","address":"Janssenlaan 16","city":"Drachten","operatorName":"E-Flux by Road","maxPowerKw":22,"isMegawatt":false,"status":"AVAILABLE","source":"ndw","priceKwh":0.51}},{"type":"Feature","geometry":{"type":"Point","coordinates":[6.067122,53.104649]},"properties":{"type":"charge","layer":"passenger","locationId":"NLLOC020088","name":"NL, Gerben van Manenstraat 19, 9204 LN Drachten","address":"Gerben van Manenstraat 19","city":"Drachten","operatorName":"Allego","maxPowerKw":11,"isMegawatt":false,"status":"AVAILABLE","source":"ndw","priceKwh":0.511}},{"type":"Feature","geometry":{"type":"Point","coordinates":[6.106618,53.103584]},"properties":{"type":"charge","layer":"passenger","locationId":"686ce7898d29e69d3a4463e9","name":"Berglaan rechter station","address":"Berglaan 56","city":"Drachten","operatorName":"E-Flux by Road","maxPowerKw":11,"isMegawatt":false,"status":"AVAILABLE","source":"ndw","priceKwh":0.38}},{"type":"Feature","geometry":{"type":"Point","coordinates":[6.084731,53.11902]},"properties":{"type":"charge","layer":"passenger","locationId":"db78d484-f565-4082-babe-8a6f77e9457f","name":"TNLP013283 - de Frisia 30, Drachten","address":"30 de Frisia","city":"Drachten","operatorName":"TotalEnergies","maxPowerKw":15,"isMegawatt":false,"status":"AVAILABLE","source":"ndw"}},{"type":"Feature","geometry":{"type":"Point","coordinates":[6.143956,53.114422]},"properties":{"type":"charge","layer":"passenger","locationId":"68dfb1e42f344e99c4257eee","name":"JDV Drachten Beheer B.V.","address":"Nipkowlaan 24","city":"Drachten","operatorName":"E-Flux by Road","maxPowerKw":11,"isMegawatt":false,"status":"AVAILABLE","source":"ndw","priceKwh":0.43}},{"type":"Feature","geometry":{"type":"Point","coordinates":[6.057394,53.09317]},"properties":{"type":"charge","layer":"passenger","locationId":"af2c39c1-de2f-46b3-b818-96a25599435c","name":"TNLP013271 - Schuur 85, Drachten","address":"85 Schuur","city":"Drachten","operatorName":"TotalEnergies","maxPowerKw":17,"isMegawatt":false,"status":"UNAVAILABLE","source":"ndw"}},{"type":"Feature","geometry":{"type":"Point","coordinates":[6.083931,53.124779]},"properties":{"type":"charge","layer":"passenger","locationId":"efd5becd-548b-4265-8341-ca91e7fe7271","name":"TNLP013161","address":"Topaas 20","city":"Drachten","operatorName":"TotalEnergies","maxPowerKw":17,"isMegawatt":false,"status":"CHARGING","source":"ndw"}},{"type":"Feature","geometry":{"type":"Point","coordinates":[6.089732,53.102863]},"properties":{"type":"charge","layer":"passenger","locationId":"0ff16fd5-6f6f-461c-aa2a-5cd01e6f53a6","name":"TNLP013240 - Gauke Boelensstraat 101, Drachten","address":"101 Gauke Boelensstraat","city":"Drachten","operatorName":"TotalEnergies","maxPowerKw":17,"isMegawatt":false,"status":"AVAILABLE","source":"ndw"}},{"type":"Feature","geometry":{"type":"Point","coordinates":[6.077802,53.129546]},"properties":{"type":"charge","layer":"passenger","locationId":"66431142e4ca23001c44b6e0","name":"Campernet","address":"Florijn 3","city":"Drachten","operatorName":"E-Flux by Road","maxPowerKw":11,"isMegawatt":false,"status":"UNAVAILABLE","source":"ndw"}},{"type":"Feature","geometry":{"type":"Point","coordinates":[6.11262,53.10689]},"properties":{"type":"charge","layer":"passenger","locationId":"fa3aeb31-851d-4c86-89b3-51e9ed45c770","name":"TNLP012166 - Leidijk 30, Drachten","address":"30 Leidijk","city":"Drachten","operatorName":"TotalEnergies","maxPowerKw":17,"isMegawatt":false,"status":"UNAVAILABLE","source":"ndw"}},{"type":"Feature","geometry":{"type":"Point","coordinates":[6.10255,53.110837]},"properties":{"type":"charge","layer":"passenger","locationId":"672e2017cf6f0fd9ef78a7b5","name":"Drachtster Lyceum 1","address":"Torenstraat 28","city":"Drachten","operatorName":"E-Flux by Road","maxPowerKw":22,"isMegawatt":false,"status":"AVAILABLE","source":"ndw","priceKwh":0.42}},{"type":"Feature","geometry":{"type":"Point","coordinates":[6.062661,53.132491]},"properties":{"type":"charge","layer":"passenger","locationId":"6819e5700da4f31a0f403837","name":"Laadpaal Remco","address":"Dokter Siebingasingel 13","city":"Opeinde","operatorName":"E-Flux by Road","maxPowerKw":11,"isMegawatt":false,"status":"AVAILABLE","source":"ndw","priceKwh":0.43}},{"type":"Feature","geometry":{"type":"Point","coordinates":[6.123664,53.105853]},"properties":{"type":"charge","layer":"passenger","locationId":"923223","name":"DAE_NL_2000887","address":"Zonnedauw 4","city":"Drachten","operatorName":"DAEN Mobility","maxPowerKw":11,"isMegawatt":false,"status":"AVAILABLE","source":"ndw","priceKwh":0.46}},{"type":"Feature","geometry":{"type":"Point","coordinates":[6.073168,53.096125]},"properties":{"type":"charge","layer":"passenger","locationId":"NLLOC021860","name":"NL, Moezel 80, 9204 EH Drachten","address":"Moezel 80","city":"Drachten","operatorName":"Allego","maxPowerKw":11,"isMegawatt":false,"status":"AVAILABLE","source":"ndw","priceKwh":0.511}},{"type":"Feature","geometry":{"type":"Point","coordinates":[6.121264,53.105111]},"properties":{"type":"charge","layer":"passenger","locationId":"6752e49059ad1fdeb6ac180e","name":"PRO","address":"De Ring 4","city":"Drachten","operatorName":"E-Flux by Road","maxPowerKw":11,"isMegawatt":false,"status":"AVAILABLE","source":"ndw","priceKwh":0.42}},{"type":"Feature","geometry":{"type":"Point","coordinates":[6.088425,53.094718]},"properties":{"type":"charge","layer":"passenger","locationId":"da06b2ad-0788-4f46-84fa-ba59a8bbcb67","name":"TNLP013160","address":"Sportlaan 1","city":"Drachten","operatorName":"TotalEnergies","maxPowerKw":17,"isMegawatt":false,"status":"AVAILABLE","source":"ndw"}},{"type":"Feature","geometry":{"type":"Point","coordinates":[6.089273,53.09641]},"properties":{"type":"charge","layer":"passenger","locationId":"92c9a20c-4220-4bd0-919c-1cb4d887e7c9","name":"TNLP013292 - Bouriciuslaan 14, Drachten","address":"14 Bouriciuslaan","city":"Drachten","operatorName":"TotalEnergies","maxPowerKw":15,"isMegawatt":false,"status":"AVAILABLE","source":"ndw"}},{"type":"Feature","geometry":{"type":"Point","coordinates":[6.095769,53.120753]},"properties":{"type":"charge","layer":"passenger","locationId":"c4a0945c-a54a-46d6-9db9-2d1d061fe113","name":"TNLP013146","address":"Lisdodde 51","city":"Drachten","operatorName":"TotalEnergies","maxPowerKw":17,"isMegawatt":false,"status":"AVAILABLE","source":"ndw"}},{"type":"Feature","geometry":{"type":"Point","coordinates":[6.054507,53.094256]},"properties":{"type":"charge","layer":"passenger","locationId":"NLLOC002624","name":"NLD, Drachten, Melkkelder 84","address":"Melkkelder 84","city":"Drachten","operatorName":"Allego","maxPowerKw":11,"isMegawatt":false,"status":"AVAILABLE","source":"ndw","priceKwh":0.511}},{"type":"Feature","geometry":{"type":"Point","coordinates":[6.082257,53.111292]},"properties":{"type":"charge","layer":"passenger","locationId":"f7a82ba3-bf68-4218-ab10-fc5c6462d3c8","name":"TNLP013169","address":"De Geeuw 8","city":"Drachten","operatorName":"TotalEnergies","maxPowerKw":17,"isMegawatt":false,"status":"AVAILABLE","source":"ndw"}},{"type":"Feature","geometry":{"type":"Point","coordinates":[6.069507,53.09223]},"properties":{"type":"charge","layer":"passenger","locationId":"681069073bb3d92d0b222bb4","name":"HOS Oil reloading Laadpaal 4","address":"Morra 2","city":"Drachten","operatorName":"E-Flux by Road","maxPowerKw":11,"isMegawatt":false,"status":"AVAILABLE","source":"ndw","priceKwh":0.58}},{"type":"Feature","geometry":{"type":"Point","coordinates":[6.102023,53.115023]},"properties":{"type":"charge","layer":"passenger","locationId":"NLLOC014431","name":"NL, Lijsterstraat 180, 9201 TM Drachten","address":"Lijsterstraat 180","city":"Drachten","operatorName":"Allego","maxPowerKw":11,"isMegawatt":false,"status":"AVAILABLE","source":"ndw","priceKwh":0.511}},{"type":"Feature","geometry":{"type":"Point","coordinates":[6.124099,53.103378]},"properties":{"type":"charge","layer":"passenger","locationId":"624c5e07156b60562db85267","name":"e kuiper 's station","address":"lavendelheide 16","city":"drachten","operatorName":"E-Flux by Road","maxPowerKw":22,"isMegawatt":false,"status":"AVAILABLE","source":"ndw","priceKwh":0.38}},{"type":"Feature","geometry":{"type":"Point","coordinates":[6.086264,53.113279]},"properties":{"type":"charge","layer":"passenger","locationId":"NLLOC006900","name":"NL, De Ee 58 9201BJ Drachten","address":"De Ee 58","city":"Drachten","operatorName":"Allego","maxPowerKw":11,"isMegawatt":false,"status":"AVAILABLE","source":"ndw","priceKwh":0.511}},{"type":"Feature","geometry":{"type":"Point","coordinates":[6.06203,53.10453]},"properties":{"type":"charge","layer":"passenger","locationId":"22c63652-2397-4899-a67a-988bb74d7dab","name":"TNLP012196 - Gerben van Manenstraat 129, Drachten","address":"129 Gerben van Manenstraat","city":"Drachten","operatorName":"TotalEnergies","maxPowerKw":17,"isMegawatt":false,"status":"UNAVAILABLE","source":"ndw"}},{"type":"Feature","geometry":{"type":"Point","coordinates":[6.084904,53.1068]},"properties":{"type":"charge","layer":"passenger","locationId":"8695e34f-7a06-49c3-8dc9-b5a1c03ce45d","name":"Oliemolenstraat 5","address":"Oliemolenstraat 5","city":"Drachten","operatorName":"Vattenfall InCharge","maxPowerKw":22,"isMegawatt":false,"status":"AVAILABLE","source":"ndw"}},{"type":"Feature","geometry":{"type":"Point","coordinates":[6.071807,53.0913]},"properties":{"type":"charge","layer":"passenger","locationId":"9e20ceee-a8a0-41da-973c-064241a07199","name":"TNLP013272 - de Morra 14, Drachten","address":"14 de Morra","city":"Drachten","operatorName":"TotalEnergies","maxPowerKw":15,"isMegawatt":false,"status":"AVAILABLE","source":"ndw"}},{"type":"Feature","geometry":{"type":"Point","coordinates":[6.065288,53.087756]},"properties":{"type":"charge","layer":"passenger","locationId":"NLLOC012760","name":"NL, Grasland 70, 9205 EB Drachten","address":"Grasland 70","city":"Drachten","operatorName":"Allego","maxPowerKw":11,"isMegawatt":false,"status":"AVAILABLE","source":"ndw","priceKwh":0.511}},{"type":"Feature","geometry":{"type":"Point","coordinates":[6.061842,53.115673]},"properties":{"type":"charge","layer":"passenger","locationId":"4226393","name":"Laadnet Plant Solutions Noord-Oost BV","address":"Bakboord 5","city":"Drachten","operatorName":"Laadnet","maxPowerKw":22,"isMegawatt":false,"status":"AVAILABLE","source":"ndw"}},{"type":"Feature","geometry":{"type":"Point","coordinates":[6.069523,53.092217]},"properties":{"type":"charge","layer":"passenger","locationId":"68106dcae910093d3c9ee85d","name":"HOS Oil reloading Laadpaal 3","address":"Morra 2","city":"Drachten","operatorName":"E-Flux by Road","maxPowerKw":11,"isMegawatt":false,"status":"AVAILABLE","source":"ndw","priceKwh":0.58}},{"type":"Feature","geometry":{"type":"Point","coordinates":[5.947895,53.097218]},"properties":{"type":"charge","layer":"passenger","locationId":"62b2decc931f77747f3a177c","name":"Laadpaal Landal","address":"Eijzingapaed 6","city":"De Veenhoop","operatorName":"E-Flux by Road","maxPowerKw":11,"isMegawatt":false,"status":"UNAVAILABLE","source":"ndw","priceKwh":0.48}},{"type":"Feature","geometry":{"type":"Point","coordinates":[6.097593,53.109104]},"properties":{"type":"charge","layer":"passenger","locationId":"0581c9bb-9e9c-4a30-aa56-9c13a4a8b2a0","name":"TNLP013320 - Noorderbuurt 66, Drachten","address":"66 Noorderbuurt","city":"Drachten","operatorName":"TotalEnergies","maxPowerKw":15,"isMegawatt":false,"status":"AVAILABLE","source":"ndw"}},{"type":"Feature","geometry":{"type":"Point","coordinates":[6.070147,53.098412]},"properties":{"type":"charge","layer":"passenger","locationId":"NLLOC023681","name":"NL, Dollard 31, 9204 CK Drachten","address":"Dollard 31","city":"Drachten","operatorName":"Allego","maxPowerKw":11,"isMegawatt":false,"status":"AVAILABLE","source":"ndw","priceKwh":0.511}},{"type":"Feature","geometry":{"type":"Point","coordinates":[6.089982,53.118755]},"properties":{"type":"charge","layer":"passenger","locationId":"9cca84c4-67bc-472d-beff-9bb1f8eff7f4","name":"TNLP013268 - De Orion 127, Drachten","address":"127 De Orion","city":"Drachten","operatorName":"TotalEnergies","maxPowerKw":17,"isMegawatt":false,"status":"UNAVAILABLE","source":"ndw"}},{"type":"Feature","geometry":{"type":"Point","coordinates":[6.086671,53.111176]},"properties":{"type":"charge","layer":"passenger","locationId":"243fa3ad-9c6a-4ee6-8a96-8bdbf6a089d8","name":"TNLP013294 - Het Deel 20, Drachten","address":"20 Het Deel","city":"Drachten","operatorName":"TotalEnergies","maxPowerKw":15,"isMegawatt":false,"status":"AVAILABLE","source":"ndw"}},{"type":"Feature","geometry":{"type":"Point","coordinates":[6.05846,53.105938]},"properties":{"type":"charge","layer":"passenger","locationId":"4226279","name":"Laadnet Montapanel (Kebla B.V.)","address":"Tussendiepen 80","city":"Drachten","operatorName":"Laadnet","maxPowerKw":22,"isMegawatt":false,"status":"AVAILABLE","source":"ndw"}},{"type":"Feature","geometry":{"type":"Point","coordinates":[6.121102,53.10234]},"properties":{"type":"charge","layer":"passenger","locationId":"dbe7413b-691a-41ab-867a-d6e8d0eaf63d","name":"TNLP013174 - Veenscheiding 37, Drachten","address":"37 Veenscheiding","city":"Drachten","operatorName":"TotalEnergies","maxPowerKw":15,"isMegawatt":false,"status":"AVAILABLE","source":"ndw"}},{"type":"Feature","geometry":{"type":"Point","coordinates":[6.06954,53.092359]},"properties":{"type":"charge","layer":"passenger","locationId":"68106b808baf30a15ff8eab0","name":"HOS Oil reloading Laadpaal 1","address":"Morra 2","city":"Drachten","operatorName":"E-Flux by Road","maxPowerKw":11,"isMegawatt":false,"status":"AVAILABLE","source":"ndw","priceKwh":0.58}},{"type":"Feature","geometry":{"type":"Point","coordinates":[6.051233,53.09796]},"properties":{"type":"charge","layer":"passenger","locationId":"900b7370-6c45-41b2-8bff-be31427d6b58","name":"TNLP012024 - Hanebalken 262, Drachten","address":"262 Hanebalken","city":"Drachten","operatorName":"TotalEnergies","maxPowerKw":17,"isMegawatt":false,"status":"UNAVAILABLE","source":"ndw"}},{"type":"Feature","geometry":{"type":"Point","coordinates":[6.098135,53.110336]},"properties":{"type":"charge","layer":"passenger","locationId":"NLLOC007369","name":"NL, H.B.S.-straat 3, 9201 KR, Drachten","address":"H.B.S.-straat 3","city":"Drachten","operatorName":"Allego","maxPowerKw":11,"isMegawatt":false,"status":"AVAILABLE","source":"ndw","priceKwh":0.511}},{"type":"Feature","geometry":{"type":"Point","coordinates":[6.108317,53.115994]},"properties":{"type":"charge","layer":"passenger","locationId":"NLLOC007214","name":"NL, De Knobben 12, 9202 XJ, Drachten","address":"De Knobben 12","city":"Drachten","operatorName":"Allego","maxPowerKw":11,"isMegawatt":false,"status":"AVAILABLE","source":"ndw","priceKwh":0.511}},{"type":"Feature","geometry":{"type":"Point","coordinates":[6.098511,53.119322]},"properties":{"type":"charge","layer":"passenger","locationId":"6901f4362ba1fe65821ab5cc","name":"Mondzorgcentrum Fennepark","address":"Ringweg 11","city":"Drachten","operatorName":"E-Flux by Road","maxPowerKw":22,"isMegawatt":false,"status":"AVAILABLE","source":"ndw","priceKwh":0.41}},{"type":"Feature","geometry":{"type":"Point","coordinates":[6.104635,53.096778]},"properties":{"type":"charge","layer":"passenger","locationId":"922884","name":"ML kingsingel 3-10","address":"ML Kingsingel","city":"Drachten","operatorName":"DAEN Mobility","maxPowerKw":11,"isMegawatt":false,"status":"UNAVAILABLE","source":"ndw"}},{"type":"Feature","geometry":{"type":"Point","coordinates":[6.055148,53.09622]},"properties":{"type":"charge","layer":"passenger","locationId":"d5bdfbfa-6a0d-4edb-bc57-12e6a08f2987","name":"TNLP012060 - Hooizolder 352, Drachten","address":"352 Hooizolder","city":"Drachten","operatorName":"TotalEnergies","maxPowerKw":17,"isMegawatt":false,"status":"UNAVAILABLE","source":"ndw"}},{"type":"Feature","geometry":{"type":"Point","coordinates":[6.099207,53.113508]},"properties":{"type":"charge","layer":"passenger","locationId":"NLLOC012541","name":"NL, Geelgorsstraat 18, 9201TW, Drachten","address":"Geelgorsstraat 18","city":"Drachten","operatorName":"Allego","maxPowerKw":11,"isMegawatt":false,"status":"AVAILABLE","source":"ndw","priceKwh":0.511}},{"type":"Feature","geometry":{"type":"Point","coordinates":[6.08115,53.09727]},"properties":{"type":"charge","layer":"passenger","locationId":"f755e449-3c00-4607-bab8-8b26d6e4aa86","name":"TNLP012046 - Kuinder 11, Drachten","address":"11 Kuinder","city":"Drachten","operatorName":"TotalEnergies","maxPowerKw":17,"isMegawatt":false,"status":"UNAVAILABLE","source":"ndw"}},{"type":"Feature","geometry":{"type":"Point","coordinates":[6.104553,53.111515]},"properties":{"type":"charge","layer":"passenger","locationId":"c20aeb25-bc11-47ab-9b5b-7361acb989f7","name":"TNLP012191 - Leeuwerikstraat 73, Drachten","address":"73 Leeuwerikstraat","city":"Drachten","operatorName":"TotalEnergies","maxPowerKw":17,"isMegawatt":false,"status":"UNAVAILABLE","source":"ndw"}},{"type":"Feature","geometry":{"type":"Point","coordinates":[6.105085,53.145562]},"properties":{"type":"charge","layer":"passenger","locationId":"9efe1cd3-d766-4240-9e2c-ae8e3f4a0236","name":"TNLP013034","address":"Master Kuiperswei 2","city":"Rottevalle","operatorName":"TotalEnergies","maxPowerKw":17,"isMegawatt":false,"status":"AVAILABLE","source":"ndw"}},{"type":"Feature","geometry":{"type":"Point","coordinates":[6.090428,53.120487]},"properties":{"type":"charge","layer":"passenger","locationId":"c313ed7a-7d22-43e4-938d-406439173e20","name":"TNLP013190 - de Nova Cura 225, Drachten","address":"225 de Nova Cura","city":"Drachten","operatorName":"TotalEnergies","maxPowerKw":15,"isMegawatt":false,"status":"AVAILABLE","source":"ndw"}},{"type":"Feature","geometry":{"type":"Point","coordinates":[6.113562,53.116083]},"properties":{"type":"charge","layer":"passenger","locationId":"d2cf9340-310e-4a61-b1bd-a095e35fa07b","name":"TNLP013351","address":"Hooglandswyk 119","city":"Drachten","operatorName":"TotalEnergies","maxPowerKw":17,"isMegawatt":false,"status":"AVAILABLE","source":"ndw"}},{"type":"Feature","geometry":{"type":"Point","coordinates":[6.088608,53.1215]},"properties":{"type":"charge","layer":"passenger","locationId":"7670c052-8af0-4d7f-8ead-2622a8f53976","name":"TNLP012197 - De Excelsior 71, Drachten","address":"71 De Excelsior","city":"Drachten","operatorName":"TotalEnergies","maxPowerKw":17,"isMegawatt":false,"status":"UNAVAILABLE","source":"ndw"}},{"type":"Feature","geometry":{"type":"Point","coordinates":[6.096548,53.107246]},"properties":{"type":"charge","layer":"passenger","locationId":"237b607d-58f5-435e-ab1e-7b0037532acb","name":"TNLP013337 - Markt 74, Drachten","address":"74 Markt","city":"Drachten","operatorName":"TotalEnergies","maxPowerKw":17,"isMegawatt":false,"status":"UNAVAILABLE","source":"ndw"}},{"type":"Feature","geometry":{"type":"Point","coordinates":[6.067698,53.09665]},"properties":{"type":"charge","layer":"passenger","locationId":"1ddbd28f-4401-4e0b-a428-e578c6557565","name":"TNLP013228 - Wimerts 150, Drachten","address":"150 Wimerts","city":"Drachten","operatorName":"TotalEnergies","maxPowerKw":17,"isMegawatt":false,"status":"UNAVAILABLE","source":"ndw"}},{"type":"Feature","geometry":{"type":"Point","coordinates":[6.105899,53.109516]},"properties":{"type":"charge","layer":"passenger","locationId":"f4103aab-7475-4a40-a0c1-0a252cb40a1e","name":"TNLP012178 - Winterkoninkjestraat 2, Drachten","address":"2 Winterkoninkjestraat","city":"Drachten","operatorName":"TotalEnergies","maxPowerKw":17,"isMegawatt":false,"status":"UNAVAILABLE","source":"ndw"}},{"type":"Feature","geometry":{"type":"Point","coordinates":[6.123607,53.114787]},"properties":{"type":"charge","layer":"passenger","locationId":"1e69e42db21841e9814b","name":"NTS Norma Drachten","address":"Scholtenlaan 1","city":"Drachten","operatorName":"Opcharge","maxPowerKw":22,"isMegawatt":false,"status":"AVAILABLE","source":"ndw","priceKwh":0.45}},{"type":"Feature","geometry":{"type":"Point","coordinates":[6.07602,53.10065]},"properties":{"type":"charge","layer":"passenger","locationId":"aa1294ee-bc04-4dfa-8f26-d64711d5ab11","name":"TNLP012102 - Hunze 240, Drachten","address":"240 Hunze","city":"Drachten","operatorName":"TotalEnergies","maxPowerKw":17,"isMegawatt":false,"status":"UNAVAILABLE","source":"ndw"}},{"type":"Feature","geometry":{"type":"Point","coordinates":[6.093302,53.105392]},"properties":{"type":"charge","layer":"passenger","locationId":"b8731c7b-b497-4a9c-a6d9-7da9e0ca0b91","name":"TNLP013316 - J.G. van Blomstraat 20, Drachten","address":"20 J.G. van Blomstraat","city":"Drachten","operatorName":"TotalEnergies","maxPowerKw":15,"isMegawatt":false,"status":"CHARGING","source":"ndw"}},{"type":"Feature","geometry":{"type":"Point","coordinates":[6.077042,53.106758]},"properties":{"type":"charge","layer":"passenger","locationId":"9fc86ad0-cdba-4dbe-b72f-404994138173","name":"Tussendiepen 4","address":"Tussendiepen 4","city":"Drachten","operatorName":"Vattenfall InCharge","maxPowerKw":22,"isMegawatt":false,"status":"AVAILABLE","source":"ndw"}},{"type":"Feature","geometry":{"type":"Point","coordinates":[6.101189,53.096202]},"properties":{"type":"charge","layer":"passenger","locationId":"922652","name":"DAE-NL-2000132","address":"ML Kingsingel 3-9","city":"Drachten","operatorName":"DAEN Mobility","maxPowerKw":11,"isMegawatt":false,"status":"UNAVAILABLE","source":"ndw","priceKwh":0.25}},{"type":"Feature","geometry":{"type":"Point","coordinates":[6.135973,53.109959]},"properties":{"type":"charge","layer":"passenger","locationId":"68e37d19b61a698a2a6fe779","name":"TPD","address":"Amperelaan 1","city":"Drachten","operatorName":"E-Flux by Road","maxPowerKw":11,"isMegawatt":false,"status":"CHARGING","source":"ndw","priceKwh":0.38}},{"type":"Feature","geometry":{"type":"Point","coordinates":[6.106121,53.107173]},"properties":{"type":"charge","layer":"passenger","locationId":"NLLOC016469","name":"NL, Noordkade 78, 9203CG, Drachten","address":"Noordkade 78","city":"Drachten","operatorName":"Allego","maxPowerKw":11,"isMegawatt":false,"status":"AVAILABLE","source":"ndw","priceKwh":0.511}},{"type":"Feature","geometry":{"type":"Point","coordinates":[6.086591,53.09886]},"properties":{"type":"charge","layer":"passenger","locationId":"080d1310-570a-4168-acec-665c8d739df6","name":"TNLP013020 - Burmanialaan 70, Drachten","address":"70 Burmanialaan","city":"Drachten","operatorName":"TotalEnergies","maxPowerKw":17,"isMegawatt":false,"status":"UNAVAILABLE","source":"ndw"}},{"type":"Feature","geometry":{"type":"Point","coordinates":[6.073356,53.097588]},"properties":{"type":"charge","layer":"passenger","locationId":"0b3d58e9-46f2-42b8-9e88-75537cd0d662","name":"TNLP013029 - Dollard 125, Drachten","address":"125 Dollard","city":"Drachten","operatorName":"TotalEnergies","maxPowerKw":17,"isMegawatt":false,"status":"AVAILABLE","source":"ndw"}},{"type":"Feature","geometry":{"type":"Point","coordinates":[6.103913,53.098206]},"properties":{"type":"charge","layer":"passenger","locationId":"53d1611e-f3e0-472c-a07a-b076a1b3b42d","name":"TNLP013278 - John. F. Kennedylaan 21, Drachten","address":"21 John. F. Kennedylaan","city":"Drachten","operatorName":"TotalEnergies","maxPowerKw":17,"isMegawatt":false,"status":"UNAVAILABLE","source":"ndw"}},{"type":"Feature","geometry":{"type":"Point","coordinates":[6.053835,53.103642]},"properties":{"type":"charge","layer":"passenger","locationId":"NLLOC007450","name":"NL, Thijs Rinsemastraat 85, 9204 LD, Smallingerland","address":"Thijs Rinsemastraat 85","city":"Smallingerland","operatorName":"Allego","maxPowerKw":11,"isMegawatt":false,"status":"AVAILABLE","source":"ndw","priceKwh":0.511}},{"type":"Feature","geometry":{"type":"Point","coordinates":[6.088716,53.115041]},"properties":{"type":"charge","layer":"passenger","locationId":"NLLOC019792","name":"NL, Oud Ambacht 281, 9201 VW Drachten","address":"Oud Ambacht 281","city":"Drachten","operatorName":"Allego","maxPowerKw":11,"isMegawatt":false,"status":"AVAILABLE","source":"ndw","priceKwh":0.511}},{"type":"Feature","geometry":{"type":"Point","coordinates":[6.069513,53.092301]},"properties":{"type":"charge","layer":"passenger","locationId":"68106c747ca1382eb31434d1","name":"HOS Oil reloading Laadpaal 2","address":"Morra 2","city":"Drachten","operatorName":"E-Flux by Road","maxPowerKw":11,"isMegawatt":false,"status":"AVAILABLE","source":"ndw","priceKwh":0.58}},{"type":"Feature","geometry":{"type":"Point","coordinates":[6.10229,53.11687]},"properties":{"type":"charge","layer":"passenger","locationId":"6b468516-a45a-4ae5-9e78-040392048d0a","name":"TNLP013413 - Klokhuislaan 77, Drachten","address":"77 Klokhuislaan","city":"Drachten","operatorName":"TotalEnergies","maxPowerKw":17,"isMegawatt":false,"status":"UNAVAILABLE","source":"ndw"}},{"type":"Feature","geometry":{"type":"Point","coordinates":[6.08149,53.09136]},"properties":{"type":"charge","layer":"passenger","locationId":"NLLOC007130","name":"NL, De Velden 1, 9204 WH, Drachten","address":"De Velden 1","city":"Drachten","operatorName":"Allego","maxPowerKw":11,"isMegawatt":false,"status":"CHARGING","source":"ndw","priceKwh":0.511}},{"type":"Feature","geometry":{"type":"Point","coordinates":[6.064746,53.11321]},"properties":{"type":"charge","layer":"passenger","locationId":"c7c3f85f32b745fd8b48","name":"L&O Computers","address":"Het Gangboord 37","city":"Drachten","operatorName":"Opcharge","maxPowerKw":22,"isMegawatt":false,"status":"AVAILABLE","source":"ndw","priceKwh":0.49}},{"type":"Feature","geometry":{"type":"Point","coordinates":[6.041271,53.089229]},"properties":{"type":"charge","layer":"passenger","locationId":"NLLOC007073","name":"NL, Helmblom 2, 9212 RS, Boornbergum","address":"Helmblom 2","city":"Boornbergum","operatorName":"Allego","maxPowerKw":11,"isMegawatt":false,"status":"AVAILABLE","source":"ndw","priceKwh":0.511}},{"type":"Feature","geometry":{"type":"Point","coordinates":[6.089576,53.112328]},"properties":{"type":"charge","layer":"passenger","locationId":"8f5ccb48-2365-4a33-9a99-642b7b81faa1","name":"TNLP012059 - Brouwerssingel 13, Drachten","address":"13 Brouwerssingel","city":"Drachten","operatorName":"TotalEnergies","maxPowerKw":17,"isMegawatt":false,"status":"UNAVAILABLE","source":"ndw"}},{"type":"Feature","geometry":{"type":"Point","coordinates":[5.906315,53.091242]},"properties":{"type":"charge","layer":"passenger","locationId":"NLLOC003819","name":"NLD, Goengahuizen, Kobbewei 5","address":"Kobbewei 5","city":"Goengahuizen","operatorName":"Allego","maxPowerKw":11,"isMegawatt":false,"status":"AVAILABLE","source":"ndw","priceKwh":0.511}},{"type":"Feature","geometry":{"type":"Point","coordinates":[6.082248,53.09527]},"properties":{"type":"charge","layer":"passenger","locationId":"8f4fd961-85e8-474f-8373-ddf95587786f","name":"TNLP013358 - Zuiderhogeweg 82, Drachten","address":"82 Zuiderhogeweg","city":"Drachten","operatorName":"TotalEnergies","maxPowerKw":17,"isMegawatt":false,"status":"UNAVAILABLE","source":"ndw"}},{"type":"Feature","geometry":{"type":"Point","coordinates":[6.142616,53.152214]},"properties":{"type":"charge","layer":"passenger","locationId":"47b85bae-faaf-4d51-9460-508b62dd5bb5","name":"TNLP013243 - Dwarstak 15, Houtigehage","address":"15 Dwarstak","city":"Houtigehage","operatorName":"TotalEnergies","maxPowerKw":17,"isMegawatt":false,"status":"AVAILABLE","source":"ndw"}},{"type":"Feature","geometry":{"type":"Point","coordinates":[6.074023,53.10012]},"properties":{"type":"charge","layer":"passenger","locationId":"NLLOC002279","name":"Eems 8, 9204 JX, Drachten","address":"Eems 8","city":"Drachten","operatorName":"Allego","maxPowerKw":11,"isMegawatt":false,"status":"AVAILABLE","source":"ndw","priceKwh":0.511}},{"type":"Feature","geometry":{"type":"Point","coordinates":[6.078647,53.111645]},"properties":{"type":"charge","layer":"passenger","locationId":"OST23P0063_0023_1","name":"OST23P0063_0023_1","address":"De Hemmen 12","city":"Drachten","operatorName":"e-VOLTT","maxPowerKw":38,"isMegawatt":false,"status":"AVAILABLE","source":"ndw","priceKwh":0.48}},{"type":"Feature","geometry":{"type":"Point","coordinates":[6.065357,53.099042]},"properties":{"type":"charge","layer":"passenger","locationId":"NLLOC011943","name":"NL, Fluessen 92, 9204 HM, Drachten","address":"Fluessen 92","city":"Drachten","operatorName":"Allego","maxPowerKw":11,"isMegawatt":false,"status":"AVAILABLE","source":"ndw","priceKwh":0.511}},{"type":"Feature","geometry":{"type":"Point","coordinates":[5.984555,53.125623]},"properties":{"type":"charge","layer":"passenger","locationId":"6852720310fb8761a09b1d9c","name":"Camping ''De Stjelp''","address":"It West 48","city":"Oudega","operatorName":"Alva Charging Services","maxPowerKw":22,"isMegawatt":false,"status":"AVAILABLE","source":"ndw","priceKwh":0.53}},{"type":"Feature","geometry":{"type":"Point","coordinates":[6.119751,53.109817]},"properties":{"type":"charge","layer":"passenger","locationId":"NLLOC007453","name":"NL, Ludingakerke 69, 9202 HJ, Drachten","address":"Ludingakerke 69","city":"Drachten","operatorName":"Allego","maxPowerKw":11,"isMegawatt":false,"status":"AVAILABLE","source":"ndw","priceKwh":0.511}},{"type":"Feature","geometry":{"type":"Point","coordinates":[6.071647,53.102225]},"properties":{"type":"charge","layer":"passenger","locationId":"NLLOC019210","name":"NL, Flevo 7, 9204JK, Drachten","address":"Flevo 7","city":"Drachten","operatorName":"Allego","maxPowerKw":11,"isMegawatt":false,"status":"AVAILABLE","source":"ndw","priceKwh":0.511}},{"type":"Feature","geometry":{"type":"Point","coordinates":[6.113082,53.104553]},"properties":{"type":"charge","layer":"passenger","locationId":"2e2b3f98-d0c4-4850-8bc8-d7fa4e9d8f64","name":"TNLP013018 - Leidijk 98, Drachten","address":"98 Leidijk","city":"Drachten","operatorName":"TotalEnergies","maxPowerKw":17,"isMegawatt":false,"status":"UNAVAILABLE","source":"ndw"}},{"type":"Feature","geometry":{"type":"Point","coordinates":[6.072786,53.117944]},"properties":{"type":"charge","layer":"passenger","locationId":"6426cee316522800120952eb","name":"Timboco Laadpaal","address":"de kiel 2","city":"Drachten","operatorName":"E-Flux by Road","maxPowerKw":11,"isMegawatt":false,"status":"AVAILABLE","source":"ndw","priceKwh":0.28}},{"type":"Feature","geometry":{"type":"Point","coordinates":[6.104926,53.114147]},"properties":{"type":"charge","layer":"passenger","locationId":"c4f3bb8f-a1df-4235-a841-c5ba98f68290","name":"TNLP013333 - Geelgorsstraat 117, Drachten","address":"117 Geelgorsstraat","city":"Drachten","operatorName":"TotalEnergies","maxPowerKw":17,"isMegawatt":false,"status":"UNAVAILABLE","source":"ndw"}},{"type":"Feature","geometry":{"type":"Point","coordinates":[6.084125,53.1223]},"properties":{"type":"charge","layer":"passenger","locationId":"b17ca890-1ab1-4d92-87f5-e7b4998bda42","name":"TNLP012139 - De Frisia 164, Drachten","address":"164 De Frisia","city":"Drachten","operatorName":"TotalEnergies","maxPowerKw":17,"isMegawatt":false,"status":"UNAVAILABLE","source":"ndw"}},{"type":"Feature","geometry":{"type":"Point","coordinates":[6.108919,53.105893]},"properties":{"type":"charge","layer":"passenger","locationId":"244647da-6a9d-48be-a674-2e888c84bfa3","name":"TNLP013175","address":"Zuiderdwarsvaart 23","city":"Drachten","operatorName":"TotalEnergies","maxPowerKw":17,"isMegawatt":false,"status":"AVAILABLE","source":"ndw"}},{"type":"Feature","geometry":{"type":"Point","coordinates":[6.054533,53.10442]},"properties":{"type":"charge","layer":"passenger","locationId":"a96ad517-b8ba-4d27-b932-96973381168e","name":"TNLP012093 - Cornelis Rienks de Boerstraat 61, Drachten","address":"61 Cornelis Rienks de Boerstraat","city":"Drachten","operatorName":"TotalEnergies","maxPowerKw":17,"isMegawatt":false,"status":"UNAVAILABLE","source":"ndw"}},{"type":"Feature","geometry":{"type":"Point","coordinates":[6.069683,53.09638]},"properties":{"type":"charge","layer":"passenger","locationId":"d9ab7246-3011-4861-a601-0f18e520391d","name":"TNLP013318 - Moezel 43, Drachten","address":"43 Moezel","city":"Drachten","operatorName":"TotalEnergies","maxPowerKw":15,"isMegawatt":false,"status":"AVAILABLE","source":"ndw"}},{"type":"Feature","geometry":{"type":"Point","coordinates":[6.055426,53.134734]},"properties":{"type":"charge","layer":"passenger","locationId":"668e520fa224d7001c0ef774","name":"Golden Wokpaleis Noordeinde","address":"Kommisjewei 123","city":"Opeinde","operatorName":"Pluq","maxPowerKw":22,"isMegawatt":false,"status":"AVAILABLE","source":"ndw","priceKwh":0.51}},{"type":"Feature","geometry":{"type":"Point","coordinates":[6.133654,53.110323]},"properties":{"type":"charge","layer":"freight","locationId":"646cab99ce6f760012214ece","name":"NXT Charge - Drachten - Noorderend 13 - DC","address":"Noorderend 13","city":"Drachten","operatorName":"NXT Charging Solutions","maxPowerKw":360,"isMegawatt":false,"status":"AVAILABLE","source":"ndw","priceKwh":0.63,"freightKind":"hpc","freightReason":"power"}},{"type":"Feature","geometry":{"type":"MultiPolygon","coordinates":[[[[6.176306401588453,53.15282820593309],[6.175620737656136,53.14420264082304],[6.175234569970484,53.13590310364614],[6.175677278971364,53.135076855720015],[6.179068999331184,53.13399250630133],[6.185716455705694,53.12921393774217],[6.175421078723248,53.12536738681636],[6.163946144606008,53.12076383604989],[6.15025117284275,53.1116763368086],[6.144891659398813,53.10857112099404],[6.134848331043126,53.104797577255894],[6.130684702713534,53.10291026989796],[6.1291169492918485,53.102724122431674],[6.12565928296808,53.10147027297478],[6.124961362642923,53.10121196575758],[6.114180786739748,53.0868656293377],[6.109609381459067,53.082210878987304],[6.103593681016836,53.07700593897355],[6.097689759425478,53.074913686114584],[6.08925654989381,53.070990719517354],[6.088558873643734,53.07087190473015],[6.088459977722329,53.07088995863439],[6.083426658817832,53.07098738882393],[6.076129010154924,53.07115949482018],[6.069401832036147,53.07210051937589],[6.051049200592785,53.07275171124458],[6.031736632440466,53.073862455288996],[6.024399399310812,53.07336143989723],[6.0198162608965085,53.07682589312525],[6.017467165747124,53.07610551878748],[6.002470713334114,53.080653263995345],[5.997666577563548,53.08068817983455],[5.996366865805596,53.08087578105536],[5.988055879967576,53.08075745521959],[5.980944171213114,53.07756591243885],[5.932799947640171,53.08118080148727],[5.930313798077253,53.08101842794735],[5.927580928104836,53.078395267865645],[5.926706990877152,53.0784868335524],[5.906412657796378,53.07844661896074],[5.903770237419701,53.07924809155209],[5.897039629410504,53.079006007792415],[5.895418165822653,53.078837876133285],[5.89497437481968,53.07622902149275],[5.87301930900566,53.07434945534848],[5.871502368284903,53.07421058944639],[5.870312986197257,53.081432731815134],[5.871781360774212,53.08182394201829],[5.872056057216905,53.08399068970871],[5.874643714278594,53.085070770901794],[5.877246367963904,53.08538259429289],[5.883114864376945,53.08896387485064],[5.883119375269501,53.09097620150246],[5.88084813963248,53.09016795071799],[5.878248048087598,53.09095991075162],[5.8822980249112,53.09332877274147],[5.885983475499655,53.09444608563549],[5.885983532420025,53.09444610247172],[5.882006466816939,53.10694014640717],[5.910491188156931,53.10915527489425],[5.915404919374265,53.10907443489317],[5.926512972127988,53.10895239791131],[5.930444761856534,53.10992749756647],[5.933734566865922,53.109124838138136],[5.945944290303136,53.10367646662202],[5.9496571883413365,53.10489218724175],[5.945685041265293,53.117220364896504],[5.94346027359731,53.121614552437435],[5.942943547691385,53.12379257316226],[5.944025282998529,53.124712840826916],[5.948345085179577,53.12625813383882],[5.950158364264827,53.12624640577559],[5.950954475806161,53.12657817948175],[5.950968981093509,53.127447764193754],[5.9618717902169145,53.131126845832476],[5.974007816323413,53.13451681237774],[5.986844577237977,53.141835143216824],[5.997843364130593,53.14798382737687],[6.000866662272122,53.149462192149635],[6.012888664088026,53.15449623744528],[6.019920976879648,53.15537255642179],[6.040208439690227,53.15646071138211],[6.049034672433211,53.15641806881127],[6.062904159759519,53.15662025385545],[6.06290421807187,53.15662025442521],[6.079792126231263,53.15688839964172],[6.085204463378629,53.15898875759962],[6.087142643484127,53.15783784311809],[6.085758305090632,53.15648420388929],[6.08879913549419,53.15392869944337],[6.088940654780903,53.154097535202766],[6.09029510668487,53.154629896384236],[6.090468443244915,53.15428572246085],[6.091199658187884,53.154958360345226],[6.0939426535219,53.15613479947908],[6.10452933552925,53.15042187261805],[6.105012538980354,53.151799831435795],[6.10934106800099,53.15162780364052],[6.119338035332545,53.14942039546912],[6.121632408310289,53.14499385838473],[6.143062965375927,53.15535242458468],[6.148117833112161,53.15782781518948],[6.148582830186508,53.15699337279893],[6.1519860502094215,53.15083319315548],[6.166762898414687,53.15599606961889],[6.176750056567582,53.15950489570969],[6.176306401588453,53.15282820593309]]]]},"properties":{"type":"boundary","gemeente":"Smallingerland","code":"GM0090"}}]}