{"type":"FeatureCollection","metadata":{"gemeente":"Soest","slug":"soest","code":"GM0342","generated_at":"2026-07-06T16:26:11.361Z","total_passenger":191,"total_freight":0,"bounds":[5.2431724698073,52.110271768974265,5.34992559844871,52.20454935291548],"operators":["ChargePoint","DAEN Mobility","E-Flux by Road","EQUANS","Greenchoice B.V.","Laadnet","Laadsnel","PureCharged","TotalEnergies","Ubitricity","Vattenfall InCharge","e-VOLTT"]},"features":[{"type":"Feature","geometry":{"type":"Point","coordinates":[5.267524,52.17375]},"properties":{"type":"charge","layer":"passenger","locationId":"5f717f79-f625-4c91-aa2d-b622c5a153ed","name":"TNLP006530 - Hofstedering 327, Soest","address":"327 Hofstedering","city":"Soest","operatorName":"TotalEnergies","maxPowerKw":17,"isMegawatt":false,"status":"CHARGING","source":"ndw"}},{"type":"Feature","geometry":{"type":"Point","coordinates":[5.280031,52.119728]},"properties":{"type":"charge","layer":"passenger","locationId":"02903cd6-6637-4701-b51c-7ec2e24fc4d7","name":"TNLP006317 - Rademakerstraat 48, Soesterberg","address":"48 Rademakerstraat","city":"Soesterberg","operatorName":"TotalEnergies","maxPowerKw":17,"isMegawatt":false,"status":"AVAILABLE","source":"ndw"}},{"type":"Feature","geometry":{"type":"Point","coordinates":[5.28159,52.16623]},"properties":{"type":"charge","layer":"passenger","locationId":"d85760f486971a6919f051d356955995","name":"Pijperpad 22","address":"Pijperpad 22","city":"Soest","operatorName":"Vattenfall InCharge","maxPowerKw":11,"isMegawatt":false,"status":"AVAILABLE","source":"ndw"}},{"type":"Feature","geometry":{"type":"Point","coordinates":[5.263866,52.178821]},"properties":{"type":"charge","layer":"passenger","locationId":"922966","name":"DAE_NL_2000681","address":"Nieuwegracht 22","city":"Soest","operatorName":"DAEN Mobility","maxPowerKw":11,"isMegawatt":false,"status":"AVAILABLE","source":"ndw","priceKwh":0.45}},{"type":"Feature","geometry":{"type":"Point","coordinates":[5.29371,52.11731]},"properties":{"type":"charge","layer":"passenger","locationId":"28db2fd2-d653-431d-874c-09d1479d3815","name":"PP001262 - Farman 16, Soesterberg","address":"16 Farman","city":"Soesterberg","operatorName":"TotalEnergies","maxPowerKw":13,"isMegawatt":false,"status":"AVAILABLE","source":"ndw"}},{"type":"Feature","geometry":{"type":"Point","coordinates":[5.280895,52.11708]},"properties":{"type":"charge","layer":"passenger","locationId":"c4345122-c21b-4f18-bea9-945aa1f8525f","name":"PP005490 - Christiaan Huygenslaan 35, Soesterberg","address":"35 Christiaan Huygenslaan","city":"Soesterberg","operatorName":"TotalEnergies","maxPowerKw":11,"isMegawatt":false,"status":"AVAILABLE","source":"ndw"}},{"type":"Feature","geometry":{"type":"Point","coordinates":[5.292663,52.186172]},"properties":{"type":"charge","layer":"passenger","locationId":"2eba9ba7-a04c-4c8d-87fa-e9e21a57347f","name":"PP005505 - Beatrixlaan 54, Soest","address":"54 Beatrixlaan","city":"Soest","operatorName":"TotalEnergies","maxPowerKw":11,"isMegawatt":false,"status":"CHARGING","source":"ndw"}},{"type":"Feature","geometry":{"type":"Point","coordinates":[5.301844,52.160187]},"properties":{"type":"charge","layer":"passenger","locationId":"85a5efad-0138-4d0e-9b35-8cc920149535","name":"PP005507 - Meidoornweg 5, Soest","address":"5 Meidoornweg","city":"Soest","operatorName":"TotalEnergies","maxPowerKw":11,"isMegawatt":false,"status":"AVAILABLE","source":"ndw"}},{"type":"Feature","geometry":{"type":"Point","coordinates":[5.281143,52.12515]},"properties":{"type":"charge","layer":"passenger","locationId":"5e3c6269-cbd6-4d89-a9bc-0786c96adf4b","name":"PP005479 - Batenburgweg 3, Soesterberg","address":"3 Batenburgweg","city":"Soesterberg","operatorName":"TotalEnergies","maxPowerKw":11,"isMegawatt":false,"status":"AVAILABLE","source":"ndw"}},{"type":"Feature","geometry":{"type":"Point","coordinates":[5.285297,52.17735]},"properties":{"type":"charge","layer":"passenger","locationId":"b91d52aa-d7fe-4482-93f4-6c9b2f3f109c","name":"TNLP006799 - Wiardi Beckmanstraat 15, Soest","address":"15 Wiardi Beckmanstraat","city":"Soest","operatorName":"TotalEnergies","maxPowerKw":17,"isMegawatt":false,"status":"AVAILABLE","source":"ndw"}},{"type":"Feature","geometry":{"type":"Point","coordinates":[5.290281,52.16699]},"properties":{"type":"charge","layer":"passenger","locationId":"0516beb3-b4d5-43a1-a0d6-2521aaebdf29","name":"TNLP007335 - Valeriaanstraat 169, Soest","address":"169 Valeriaanstraat","city":"Soest","operatorName":"TotalEnergies","maxPowerKw":17,"isMegawatt":false,"status":"CHARGING","source":"ndw"}},{"type":"Feature","geometry":{"type":"Point","coordinates":[5.280738,52.11453]},"properties":{"type":"charge","layer":"passenger","locationId":"9edf2e4b-4a73-457a-a407-61965592723b","name":"TNLP007236 - Antonie van Leeuwenhoeklaan 89, Soesterberg","address":"89 Antonie van Leeuwenhoeklaan","city":"Soesterberg","operatorName":"TotalEnergies","maxPowerKw":17,"isMegawatt":false,"status":"AVAILABLE","source":"ndw"}},{"type":"Feature","geometry":{"type":"Point","coordinates":[5.3111039,52.1715513]},"properties":{"type":"charge","layer":"passenger","locationId":"781","name":"Shell Recharge NL Torenstraat 22","address":"Torenstraat 22","city":"Soest","operatorName":"Ubitricity","maxPowerKw":22,"isMegawatt":false,"status":"CHARGING","source":"ndw","priceKwh":0.266}},{"type":"Feature","geometry":{"type":"Point","coordinates":[5.273515,52.175766]},"properties":{"type":"charge","layer":"passenger","locationId":"0505444e-22f1-4cea-a033-a13f2b1a6fa0","name":"TNLP007827 - Gareel 58, Soest","address":"58 Gareel","city":"Soest","operatorName":"TotalEnergies","maxPowerKw":17,"isMegawatt":false,"status":"AVAILABLE","source":"ndw"}},{"type":"Feature","geometry":{"type":"Point","coordinates":[5.287735,52.163555]},"properties":{"type":"charge","layer":"passenger","locationId":"6ca5b1e2-f60b-4b54-9fa2-14c9cdfa71c8","name":"PP005477 - Wielewaal 2, Soest","address":"2 Wielewaal","city":"Soest","operatorName":"TotalEnergies","maxPowerKw":11,"isMegawatt":false,"status":"AVAILABLE","source":"ndw"}},{"type":"Feature","geometry":{"type":"Point","coordinates":[5.293607,52.177876]},"properties":{"type":"charge","layer":"passenger","locationId":"6d4c89ed-4640-4635-b9ef-70e35ebdbf03","name":"Laadplein - PP005486 - Heetakker 22, Soest","address":"22 Heetakker","city":"Soest","operatorName":"TotalEnergies","maxPowerKw":15,"isMegawatt":false,"status":"AVAILABLE","source":"ndw"}},{"type":"Feature","geometry":{"type":"Point","coordinates":[5.288622,52.179906]},"properties":{"type":"charge","layer":"passenger","locationId":"afdc6b6a-12bf-4791-9420-706861e93cb8","name":"TNLP034180","address":"Chalonhof 185","city":"Soest","operatorName":"TotalEnergies","maxPowerKw":14,"isMegawatt":false,"status":"UNAVAILABLE","source":"ndw"}},{"type":"Feature","geometry":{"type":"Point","coordinates":[5.275503,52.171978]},"properties":{"type":"charge","layer":"passenger","locationId":"d50d4d61-75c0-4b56-9759-c5c9de2ebf4f","name":"TNLP007325 - Klarinet 391, Soest","address":"391 Klarinet","city":"Soest","operatorName":"TotalEnergies","maxPowerKw":17,"isMegawatt":false,"status":"AVAILABLE","source":"ndw"}},{"type":"Feature","geometry":{"type":"Point","coordinates":[5.2853084,52.1652383]},"properties":{"type":"charge","layer":"passenger","locationId":"1173","name":"Shell Recharge NL Harperpad 16","address":"Harperpad 16","city":"Soest","operatorName":"Ubitricity","maxPowerKw":22,"isMegawatt":false,"status":"AVAILABLE","source":"ndw","priceKwh":0.266}},{"type":"Feature","geometry":{"type":"Point","coordinates":[5.267846,52.177091]},"properties":{"type":"charge","layer":"passenger","locationId":"69a1781b3fb881dfdb3b0741","name":"Oostergracht 13-15","address":"Oostergracht  13-15","city":"Soest","operatorName":"E-Flux by Road","maxPowerKw":21,"isMegawatt":false,"status":"AVAILABLE","source":"ndw","priceKwh":0.48}},{"type":"Feature","geometry":{"type":"Point","coordinates":[5.292505,52.121733]},"properties":{"type":"charge","layer":"passenger","locationId":"90980656","name":"EQUANS De Oude Tempel MVGM","address":"Oude Tempellaan 1A-1B","city":"Soesterberg","operatorName":"EQUANS","maxPowerKw":22,"isMegawatt":false,"status":"AVAILABLE","source":"ndw"}},{"type":"Feature","geometry":{"type":"Point","coordinates":[5.295177,52.185184]},"properties":{"type":"charge","layer":"passenger","locationId":"e089df39-b043-41f4-b84e-9192d66a0eff","name":"TNLP006368 - TNLP008498 - Nassauplantsoen 8, Soest","address":"8 Nassauplantsoen","city":"Soest","operatorName":"TotalEnergies","maxPowerKw":17,"isMegawatt":false,"status":"CHARGING","source":"ndw"}},{"type":"Feature","geometry":{"type":"Point","coordinates":[5.30504,52.16597]},"properties":{"type":"charge","layer":"passenger","locationId":"df496a12-07fa-4daf-9db4-d0bc54ff2f32","name":"PP002346 - Eikenlaan 63, Soest","address":"63 Eikenlaan","city":"Soest","operatorName":"TotalEnergies","maxPowerKw":17,"isMegawatt":false,"status":"AVAILABLE","source":"ndw"}},{"type":"Feature","geometry":{"type":"Point","coordinates":[5.28247,52.1683]},"properties":{"type":"charge","layer":"passenger","locationId":"860b67f2-d301-4328-b061-ef9641854b63","name":"TNLP003575 - Willaertstraat 51, Soest","address":"51 Willaertstraat","city":"Soest","operatorName":"TotalEnergies","maxPowerKw":17,"isMegawatt":false,"status":"AVAILABLE","source":"ndw"}},{"type":"Feature","geometry":{"type":"Point","coordinates":[5.300481,52.12045]},"properties":{"type":"charge","layer":"passenger","locationId":"179e31d3-26e3-4cc7-92ac-66eebc848a4b","name":"PP005496 - Hilgerslaan 14, Soesterberg","address":"14 Hilgerslaan","city":"Soesterberg","operatorName":"TotalEnergies","maxPowerKw":11,"isMegawatt":false,"status":"AVAILABLE","source":"ndw"}},{"type":"Feature","geometry":{"type":"Point","coordinates":[5.263866,52.178821]},"properties":{"type":"charge","layer":"passenger","locationId":"922963","name":"DAE_NL_2000679","address":"Nieuwegracht 22","city":"Soest","operatorName":"DAEN Mobility","maxPowerKw":11,"isMegawatt":false,"status":"AVAILABLE","source":"ndw","priceKwh":0.45}},{"type":"Feature","geometry":{"type":"Point","coordinates":[5.26932,52.17254]},"properties":{"type":"charge","layer":"passenger","locationId":"2035374c-889b-4b5b-bc0b-234eae67fb43","name":"PP001470 - Herdersstaf 2, Soest","address":"2 Herdersstaf","city":"Soest","operatorName":"TotalEnergies","maxPowerKw":11,"isMegawatt":false,"status":"AVAILABLE","source":"ndw"}},{"type":"Feature","geometry":{"type":"Point","coordinates":[5.298483,52.117344]},"properties":{"type":"charge","layer":"passenger","locationId":"e1c9f427-371e-4373-929e-b876beb5ef3f","name":"TNLP009106 - Apollo 51, Soesterberg","address":"51 Apollo","city":"Soesterberg","operatorName":"TotalEnergies","maxPowerKw":17,"isMegawatt":false,"status":"AVAILABLE","source":"ndw"}},{"type":"Feature","geometry":{"type":"Point","coordinates":[5.29381,52.18847]},"properties":{"type":"charge","layer":"passenger","locationId":"ad431d42-5c56-43b9-a543-ff288d253bf2","name":"PP001263 - Wilgenblik 16, Soest","address":"16 Wilgenblik","city":"Soest","operatorName":"TotalEnergies","maxPowerKw":11,"isMegawatt":false,"status":"AVAILABLE","source":"ndw"}},{"type":"Feature","geometry":{"type":"Point","coordinates":[5.302605,52.12089]},"properties":{"type":"charge","layer":"passenger","locationId":"00b2b4d8-42ea-492b-ad2d-b9ee7f98c181","name":"TNLP005783 - Van Meellaan 57, Soesterberg","address":"57 Van Meellaan","city":"Soesterberg","operatorName":"TotalEnergies","maxPowerKw":11,"isMegawatt":false,"status":"AVAILABLE","source":"ndw"}},{"type":"Feature","geometry":{"type":"Point","coordinates":[5.291365,52.132714]},"properties":{"type":"charge","layer":"passenger","locationId":"NLCPIL6676825","name":"CHARGEPOINT NL CARLAB ACB","address":"N413","city":"Soest","operatorName":"ChargePoint","maxPowerKw":12,"isMegawatt":false,"status":"UNAVAILABLE","source":"ndw"}},{"type":"Feature","geometry":{"type":"Point","coordinates":[5.283134,52.176746]},"properties":{"type":"charge","layer":"passenger","locationId":"9dd1868b-f877-41c9-9448-1db13bf56775","name":"PP005328 - Wiardi Beckmanstraat 222, Soest","address":"222 Wiardi Beckmanstraat","city":"Soest","operatorName":"TotalEnergies","maxPowerKw":11,"isMegawatt":false,"status":"AVAILABLE","source":"ndw"}},{"type":"Feature","geometry":{"type":"Point","coordinates":[5.29996,52.17864]},"properties":{"type":"charge","layer":"passenger","locationId":"457","name":"Shell Recharge NL Rubenslaan 9","address":"Rubenslaan 9","city":"Soest","operatorName":"Ubitricity","maxPowerKw":11,"isMegawatt":false,"status":"AVAILABLE","source":"ndw","priceKwh":0.388}},{"type":"Feature","geometry":{"type":"Point","coordinates":[5.280508,52.125254]},"properties":{"type":"charge","layer":"passenger","locationId":"NLENV693","name":"Soesterberg, Batenburgweg 3A - Flight Deck","address":"Batenburgweg 5A","city":"Soest","operatorName":"","maxPowerKw":11,"isMegawatt":false,"status":"AVAILABLE","source":"ndw","priceKwh":0.5}},{"type":"Feature","geometry":{"type":"Point","coordinates":[5.2729699,52.1845488]},"properties":{"type":"charge","layer":"passenger","locationId":"2532","name":"Shell Recharge NL Koninginnelaan 125","address":"Koninginnelaan 125","city":"Soest","operatorName":"Ubitricity","maxPowerKw":22,"isMegawatt":false,"status":"AVAILABLE","source":"ndw","priceKwh":0.266}},{"type":"Feature","geometry":{"type":"Point","coordinates":[5.263866,52.178821]},"properties":{"type":"charge","layer":"passenger","locationId":"922964","name":"DAE_NL_2000680","address":"Nieuwegracht 22","city":"Soest","operatorName":"DAEN Mobility","maxPowerKw":11,"isMegawatt":false,"status":"AVAILABLE","source":"ndw","priceKwh":0.45}},{"type":"Feature","geometry":{"type":"Point","coordinates":[5.265943,52.176187]},"properties":{"type":"charge","layer":"passenger","locationId":"65b230a12f7a54001c1cde28","name":"Clemens van Erp","address":"Zuidergracht 21-32","city":"Soest","operatorName":"E-Flux by Road","maxPowerKw":22,"isMegawatt":false,"status":"AVAILABLE","source":"ndw","priceKwh":0.42}},{"type":"Feature","geometry":{"type":"Point","coordinates":[5.2872495,52.1648464]},"properties":{"type":"charge","layer":"passenger","locationId":"780","name":"Shell Recharge NL Claroenstekerpad 49","address":"Claroenstekerpad 49","city":"Soest","operatorName":"Ubitricity","maxPowerKw":22,"isMegawatt":false,"status":"AVAILABLE","source":"ndw","priceKwh":0.266}},{"type":"Feature","geometry":{"type":"Point","coordinates":[5.2865763,52.1700585]},"properties":{"type":"charge","layer":"passenger","locationId":"857","name":"Shell Recharge NL Veenbesstraat 292","address":"Veenbesstraat 292","city":"Soest","operatorName":"Ubitricity","maxPowerKw":22,"isMegawatt":false,"status":"AVAILABLE","source":"ndw","priceKwh":0.266}},{"type":"Feature","geometry":{"type":"Point","coordinates":[5.335078,52.158682]},"properties":{"type":"charge","layer":"passenger","locationId":"6a3e6409ac7f793a4c3568e3","name":"Duynparc Soest","address":"Birkstraat","city":"Soest","operatorName":"PureCharged","maxPowerKw":22,"isMegawatt":false,"status":"AVAILABLE","source":"ndw","priceKwh":0.53}},{"type":"Feature","geometry":{"type":"Point","coordinates":[5.2846506,52.1154746]},"properties":{"type":"charge","layer":"passenger","locationId":"1004","name":"Shell Recharge NL Plesmanstraat 169","address":"Plesmanstraat 169","city":"Soesterberg","operatorName":"Ubitricity","maxPowerKw":22,"isMegawatt":false,"status":"AVAILABLE","source":"ndw","priceKwh":0.266}},{"type":"Feature","geometry":{"type":"Point","coordinates":[5.290451,52.143044]},"properties":{"type":"charge","layer":"passenger","locationId":"651fa95f3b78a80020b8b527","name":"Royal Parc I","address":"Van Weerden Poelmanweg 32","city":"Soest","operatorName":"Laadsnel","maxPowerKw":22,"isMegawatt":false,"status":"AVAILABLE","source":"ndw","priceKwh":0.325}},{"type":"Feature","geometry":{"type":"Point","coordinates":[5.281109,52.17017]},"properties":{"type":"charge","layer":"passenger","locationId":"adc40330-80de-45b5-80c5-61c4c8e7686d","name":"TNLP006358 - Gemshoorn 16, Soest","address":"16 Gemshoorn","city":"Soest","operatorName":"TotalEnergies","maxPowerKw":17,"isMegawatt":false,"status":"AVAILABLE","source":"ndw"}},{"type":"Feature","geometry":{"type":"Point","coordinates":[5.3041756,52.1613306]},"properties":{"type":"charge","layer":"passenger","locationId":"1068","name":"Shell Recharge NL Braamweg 37","address":"Braamweg 37","city":"Soest","operatorName":"Ubitricity","maxPowerKw":22,"isMegawatt":false,"status":"AVAILABLE","source":"ndw","priceKwh":0.266}},{"type":"Feature","geometry":{"type":"Point","coordinates":[5.293564,52.142121]},"properties":{"type":"charge","layer":"passenger","locationId":"63a16eeec54a59001251c5ee","name":"Double tree by hilton","address":"van weerden poelmanweg 4","city":"soestduinen","operatorName":"E-Flux by Road","maxPowerKw":22,"isMegawatt":false,"status":"AVAILABLE","source":"ndw","priceKwh":0.68}},{"type":"Feature","geometry":{"type":"Point","coordinates":[5.28248,52.17271]},"properties":{"type":"charge","layer":"passenger","locationId":"e2e621a0-e92c-4b63-8f29-c620cf52fcec","name":"PP005508 - Johannes Poststraat 67, Soest","address":"67 Johannes Poststraat","city":"Soest","operatorName":"TotalEnergies","maxPowerKw":11,"isMegawatt":false,"status":"AVAILABLE","source":"ndw"}},{"type":"Feature","geometry":{"type":"Point","coordinates":[5.304958,52.178135]},"properties":{"type":"charge","layer":"passenger","locationId":"a50eb7db62d2070379c5ff9750ee4d1c","name":"Molenstraat 8","address":"Molenstraat 8","city":"Kinderdijk","operatorName":"Vattenfall InCharge","maxPowerKw":11,"isMegawatt":false,"status":"AVAILABLE","source":"ndw"}},{"type":"Feature","geometry":{"type":"Point","coordinates":[5.2753822,52.1690791]},"properties":{"type":"charge","layer":"passenger","locationId":"2667","name":"Shell Recharge NL Turfstreek 37","address":"Turfstreek 37","city":"Soest","operatorName":"Ubitricity","maxPowerKw":22,"isMegawatt":false,"status":"AVAILABLE","source":"ndw","priceKwh":0.266}},{"type":"Feature","geometry":{"type":"Point","coordinates":[5.286949,52.120567]},"properties":{"type":"charge","layer":"passenger","locationId":"b96d1529-1d11-4a08-b86c-bba2245f82e1","name":"PP005170 - Noorduyn 11, Soesterberg","address":"11 Noorduyn","city":"Soesterberg","operatorName":"TotalEnergies","maxPowerKw":11,"isMegawatt":false,"status":"AVAILABLE","source":"ndw"}},{"type":"Feature","geometry":{"type":"Point","coordinates":[5.285443,52.120625]},"properties":{"type":"charge","layer":"passenger","locationId":"0c86b1be-7e6f-4586-a203-fe7b5bc20d1e","name":"TNLP006602 - Den Berghplein 17, Soesterberg","address":"17 Den Berghplein","city":"Soesterberg","operatorName":"TotalEnergies","maxPowerKw":17,"isMegawatt":false,"status":"AVAILABLE","source":"ndw"}},{"type":"Feature","geometry":{"type":"Point","coordinates":[5.281333,52.1867303]},"properties":{"type":"charge","layer":"passenger","locationId":"1148","name":"Shell Recharge NL Koninginnelaan 25","address":"Koninginnelaan 25","city":"Soest","operatorName":"Ubitricity","maxPowerKw":22,"isMegawatt":false,"status":"AVAILABLE","source":"ndw","priceKwh":0.266}},{"type":"Feature","geometry":{"type":"Point","coordinates":[5.3030827,52.121312]},"properties":{"type":"charge","layer":"passenger","locationId":"1814","name":"Shell Recharge NL Wijnmalenlaan 21","address":"Wijnmalenlaan 21","city":"Soesterberg","operatorName":"Ubitricity","maxPowerKw":22,"isMegawatt":false,"status":"AVAILABLE","source":"ndw","priceKwh":0.266}},{"type":"Feature","geometry":{"type":"Point","coordinates":[5.285325,52.118843]},"properties":{"type":"charge","layer":"passenger","locationId":"3c393b5b-3d63-457c-82e5-134eb9778681","name":"TNLP006505 - Van Maarenplein 25, Soesterberg","address":"25 Van Maarenplein","city":"Soesterberg","operatorName":"TotalEnergies","maxPowerKw":17,"isMegawatt":false,"status":"AVAILABLE","source":"ndw"}},{"type":"Feature","geometry":{"type":"Point","coordinates":[5.282301,52.12391]},"properties":{"type":"charge","layer":"passenger","locationId":"7b07f6e2-1290-41db-8e3c-a4021d2f5450","name":"PP005340 - Brievengaarder 11, Soesterberg","address":"11 Brievengaarder","city":"Soesterberg","operatorName":"TotalEnergies","maxPowerKw":11,"isMegawatt":false,"status":"AVAILABLE","source":"ndw"}},{"type":"Feature","geometry":{"type":"Point","coordinates":[5.268382,52.17872]},"properties":{"type":"charge","layer":"passenger","locationId":"ce5a1e08-0361-430d-98b0-7b75abf743a5","name":"TNLP009429 - Oostergracht 1, Soest","address":"1 Oostergracht","city":"Soest","operatorName":"TotalEnergies","maxPowerKw":17,"isMegawatt":false,"status":"AVAILABLE","source":"ndw"}},{"type":"Feature","geometry":{"type":"Point","coordinates":[5.293834,52.169921]},"properties":{"type":"charge","layer":"passenger","locationId":"e47477724f6a51236152ab73900075df","name":"Weegbreestraat 361","address":"Weegbreestraat 361","city":"Soest","operatorName":"Vattenfall InCharge","maxPowerKw":11,"isMegawatt":false,"status":"AVAILABLE","source":"ndw"}},{"type":"Feature","geometry":{"type":"Point","coordinates":[5.302227,52.164497]},"properties":{"type":"charge","layer":"passenger","locationId":"15182864-6cc3-4ba2-8fdc-fb8a44bc7e3a","name":"TNLP009987 - Ossendamweg 4, Soest","address":"4 Ossendamweg","city":"Soest","operatorName":"TotalEnergies","maxPowerKw":17,"isMegawatt":false,"status":"AVAILABLE","source":"ndw"}},{"type":"Feature","geometry":{"type":"Point","coordinates":[5.277559,52.120848]},"properties":{"type":"charge","layer":"passenger","locationId":"671235122192c8001db59abc","name":"Indoorspeeltuin Plezier - Soesterberg","address":"Stemerdingweg 1A","city":"Soesterberg","operatorName":"Greenchoice B.V.","maxPowerKw":14,"isMegawatt":false,"status":"AVAILABLE","source":"ndw","priceKwh":0.58}},{"type":"Feature","geometry":{"type":"Point","coordinates":[5.28284,52.19011]},"properties":{"type":"charge","layer":"passenger","locationId":"f1496fae-f622-4747-94d4-b4b229fa3c7c","name":"TNLP008319 - Vredehofstraat 14, Soest","address":"14 Vredehofstraat","city":"Soest","operatorName":"TotalEnergies","maxPowerKw":13,"isMegawatt":false,"status":"AVAILABLE","source":"ndw"}},{"type":"Feature","geometry":{"type":"Point","coordinates":[5.283805,52.167908]},"properties":{"type":"charge","layer":"passenger","locationId":"e654c956-180f-4d8f-9f3e-1c3f492276d8","name":"PP005540 - Minstreelpad 38, Soest","address":"38 Minstreelpad","city":"Soest","operatorName":"TotalEnergies","maxPowerKw":11,"isMegawatt":false,"status":"AVAILABLE","source":"ndw"}},{"type":"Feature","geometry":{"type":"Point","coordinates":[5.287869,52.176391]},"properties":{"type":"charge","layer":"passenger","locationId":"9004993f96bb41498fbcde23c9d03af4","name":"Titus Brandsmastraat 35","address":"Titus Brandsmastraat 35","city":"Soest","operatorName":"Vattenfall InCharge","maxPowerKw":11,"isMegawatt":false,"status":"CHARGING","source":"ndw"}},{"type":"Feature","geometry":{"type":"Point","coordinates":[5.292848,52.1839663]},"properties":{"type":"charge","layer":"passenger","locationId":"1931","name":"Shell Recharge NL Prins Hendriklaan 5","address":"Prins Hendriklaan 5","city":"Soest","operatorName":"Ubitricity","maxPowerKw":22,"isMegawatt":false,"status":"AVAILABLE","source":"ndw","priceKwh":0.266}},{"type":"Feature","geometry":{"type":"Point","coordinates":[5.3078,52.164143]},"properties":{"type":"charge","layer":"passenger","locationId":"91e5a480-0468-4bc8-9e99-4b0396fc5b65","name":"PP005172 - Tensenhof 1, Soest","address":"1 Tensenhof","city":"Soest","operatorName":"TotalEnergies","maxPowerKw":11,"isMegawatt":false,"status":"AVAILABLE","source":"ndw"}},{"type":"Feature","geometry":{"type":"Point","coordinates":[5.28422,52.16536]},"properties":{"type":"charge","layer":"passenger","locationId":"cf567f82-e984-4cc0-a780-2ffcf0a2ecdf","name":"TNLP006518 - Harperpad 39, Soest","address":"39 Harperpad","city":"Soest","operatorName":"TotalEnergies","maxPowerKw":17,"isMegawatt":false,"status":"AVAILABLE","source":"ndw"}},{"type":"Feature","geometry":{"type":"Point","coordinates":[5.27902,52.171818]},"properties":{"type":"charge","layer":"passenger","locationId":"5aa975e7-7383-4647-a6b3-21fbef882ac9","name":"TNLP008330 - Citer 1, Soest","address":"1 Citer","city":"Soest","operatorName":"TotalEnergies","maxPowerKw":13,"isMegawatt":false,"status":"AVAILABLE","source":"ndw"}},{"type":"Feature","geometry":{"type":"Point","coordinates":[5.281978,52.184826]},"properties":{"type":"charge","layer":"passenger","locationId":"f45bb2c8-8c48-4bb9-8581-c9562337fd9d","name":"TNLP006804 - St. Theresiastraat 26, Soest","address":"26 St. Theresiastraat","city":"Soest","operatorName":"TotalEnergies","maxPowerKw":17,"isMegawatt":false,"status":"AVAILABLE","source":"ndw"}},{"type":"Feature","geometry":{"type":"Point","coordinates":[5.271924,52.172567]},"properties":{"type":"charge","layer":"passenger","locationId":"7d0e3c32c1d4cebb08e2d6e19fa683f9","name":"Morgen 18","address":"Morgen 18","city":"Soest","operatorName":"Vattenfall InCharge","maxPowerKw":11,"isMegawatt":false,"status":"AVAILABLE","source":"ndw"}},{"type":"Feature","geometry":{"type":"Point","coordinates":[5.2938092,52.1777122]},"properties":{"type":"charge","layer":"passenger","locationId":"1439","name":"Shell Recharge NL Heetakker 22","address":"Heetakker 22","city":"Soest","operatorName":"Ubitricity","maxPowerKw":22,"isMegawatt":false,"status":"AVAILABLE","source":"ndw","priceKwh":0.266}},{"type":"Feature","geometry":{"type":"Point","coordinates":[5.2838317,52.1718449]},"properties":{"type":"charge","layer":"passenger","locationId":"764","name":"Shell Recharge NL Haverweerd 29","address":"Haverweerd 29","city":"Soest","operatorName":"Ubitricity","maxPowerKw":22,"isMegawatt":false,"status":"AVAILABLE","source":"ndw","priceKwh":0.266}},{"type":"Feature","geometry":{"type":"Point","coordinates":[5.28623,52.191917]},"properties":{"type":"charge","layer":"passenger","locationId":"cdfc207f-ac74-4838-9591-bb19764606d3","name":"TNLP034517","address":"Colenso 114","city":"Soest","operatorName":"TotalEnergies","maxPowerKw":14,"isMegawatt":false,"status":"AVAILABLE","source":"ndw"}},{"type":"Feature","geometry":{"type":"Point","coordinates":[5.275709,52.182953]},"properties":{"type":"charge","layer":"passenger","locationId":"74703e80-83d0-460a-9098-ae09ee0f048c","name":"PP005501 - Thorbeckestraat 36, Soest","address":"36 Thorbeckestraat","city":"Soest","operatorName":"TotalEnergies","maxPowerKw":15,"isMegawatt":false,"status":"AVAILABLE","source":"ndw"}},{"type":"Feature","geometry":{"type":"Point","coordinates":[5.298172,52.181915]},"properties":{"type":"charge","layer":"passenger","locationId":"4a7850aa-d7c9-4bc9-ae92-71c9233b07d9","name":"PP005333 - Pieter de Hooghlaan 14, Soest","address":"14 Pieter de Hooghlaan","city":"Soest","operatorName":"TotalEnergies","maxPowerKw":11,"isMegawatt":false,"status":"AVAILABLE","source":"ndw"}},{"type":"Feature","geometry":{"type":"Point","coordinates":[5.2874223,52.1219203]},"properties":{"type":"charge","layer":"passenger","locationId":"1005","name":"Shell Recharge NL Banningstraat 3A","address":"Banningstraat 3A","city":"Soesterberg","operatorName":"Ubitricity","maxPowerKw":22,"isMegawatt":false,"status":"AVAILABLE","source":"ndw","priceKwh":0.266}},{"type":"Feature","geometry":{"type":"Point","coordinates":[5.280532,52.182682]},"properties":{"type":"charge","layer":"passenger","locationId":"765d403886c305c20fb48ec3f5805875","name":"Mezenhof 2","address":"Mezenhof 2","city":"Soest","operatorName":"Vattenfall InCharge","maxPowerKw":11,"isMegawatt":false,"status":"AVAILABLE","source":"ndw"}},{"type":"Feature","geometry":{"type":"Point","coordinates":[5.3013819,52.1771607]},"properties":{"type":"charge","layer":"passenger","locationId":"1002","name":"Shell Recharge NL Rubenslaan 174","address":"Rubenslaan 174","city":"Soest","operatorName":"Ubitricity","maxPowerKw":22,"isMegawatt":false,"status":"AVAILABLE","source":"ndw","priceKwh":0.266}},{"type":"Feature","geometry":{"type":"Point","coordinates":[5.283374,52.16873]},"properties":{"type":"charge","layer":"passenger","locationId":"754b3830-92c5-4de6-8322-3617c589fec9","name":"TNLP009522 - Willaertstraat 34, Soest","address":"34 Willaertstraat","city":"Soest","operatorName":"TotalEnergies","maxPowerKw":17,"isMegawatt":false,"status":"AVAILABLE","source":"ndw"}},{"type":"Feature","geometry":{"type":"Point","coordinates":[5.310914,52.117629]},"properties":{"type":"charge","layer":"passenger","locationId":"4036159","name":"Laadnet Burgth Vastgoed B.V.","address":"Centurionbaan 102","city":"Soesterberg","operatorName":"Laadnet","maxPowerKw":22,"isMegawatt":false,"status":"AVAILABLE","source":"ndw"}},{"type":"Feature","geometry":{"type":"Point","coordinates":[5.28888,52.183399]},"properties":{"type":"charge","layer":"passenger","locationId":"9ac81bb129c68d81773784ed5e9b77e2","name":"Julianalaan 60","address":"Julianalaan 60","city":"Soest","operatorName":"Vattenfall InCharge","maxPowerKw":11,"isMegawatt":false,"status":"AVAILABLE","source":"ndw"}},{"type":"Feature","geometry":{"type":"Point","coordinates":[5.297452,52.140955]},"properties":{"type":"charge","layer":"passenger","locationId":"649af7716ae345001c059e07","name":"Dire sport station 1","address":"van Weerdenpoelmanweg  23","city":"Soest","operatorName":"E-Flux by Road","maxPowerKw":22,"isMegawatt":false,"status":"AVAILABLE","source":"ndw","priceKwh":0.41}},{"type":"Feature","geometry":{"type":"Point","coordinates":[5.283769,52.114395]},"properties":{"type":"charge","layer":"passenger","locationId":"72007dd1-0a7e-4fdb-985b-e8f2fcae0373","name":"TNLP006429 - Professor Lorentzlaan 165, Soesterberg","address":"165 Professor Lorentzlaan","city":"Soesterberg","operatorName":"TotalEnergies","maxPowerKw":17,"isMegawatt":false,"status":"AVAILABLE","source":"ndw"}},{"type":"Feature","geometry":{"type":"Point","coordinates":[5.284046,52.166801]},"properties":{"type":"charge","layer":"passenger","locationId":"0b35d673e97e2020b51856f6c002c6e1","name":"Choristenpad 16","address":"Choristenpad 16","city":"Soest","operatorName":"Vattenfall InCharge","maxPowerKw":11,"isMegawatt":false,"status":"AVAILABLE","source":"ndw"}},{"type":"Feature","geometry":{"type":"Point","coordinates":[5.28574,52.113939]},"properties":{"type":"charge","layer":"passenger","locationId":"e4675f58-7189-4c0d-9285-11b44246b683","name":"TNLP015213","address":"Plesmanstraat 251","city":"Soesterberg","operatorName":"TotalEnergies","maxPowerKw":17,"isMegawatt":false,"status":"CHARGING","source":"ndw"}},{"type":"Feature","geometry":{"type":"Point","coordinates":[5.284094,52.179653]},"properties":{"type":"charge","layer":"passenger","locationId":"f5451531-8f2a-44c1-a075-13f0659d9bc2","name":"TNLP007068 - Beetzlaan 118, Soest","address":"118 Beetzlaan","city":"Soest","operatorName":"TotalEnergies","maxPowerKw":17,"isMegawatt":false,"status":"AVAILABLE","source":"ndw"}},{"type":"Feature","geometry":{"type":"Point","coordinates":[5.30795,52.16226]},"properties":{"type":"charge","layer":"passenger","locationId":"ae346987-a77b-44a3-b51d-897ec382b4ec","name":"PP001351 - Oude Utrechtseweg 7, Soest","address":"7 Oude Utrechtseweg","city":"Soest","operatorName":"TotalEnergies","maxPowerKw":11,"isMegawatt":false,"status":"AVAILABLE","source":"ndw"}},{"type":"Feature","geometry":{"type":"Point","coordinates":[5.309611,52.16111]},"properties":{"type":"charge","layer":"passenger","locationId":"492dc801-37ac-4d67-a057-6ebf61cf980f","name":"TNLP009534 - P.C. Hooftlaan 17, Soest","address":"17 P.C. Hooftlaan","city":"Soest","operatorName":"TotalEnergies","maxPowerKw":17,"isMegawatt":false,"status":"CHARGING","source":"ndw"}},{"type":"Feature","geometry":{"type":"Point","coordinates":[5.281134,52.18519]},"properties":{"type":"charge","layer":"passenger","locationId":"74d9f670-34fa-43d8-9436-e6074daa4ccc","name":"PP005337 - Beetzlaan 1, Soest","address":"1 Beetzlaan","city":"Soest","operatorName":"TotalEnergies","maxPowerKw":11,"isMegawatt":false,"status":"AVAILABLE","source":"ndw"}},{"type":"Feature","geometry":{"type":"Point","coordinates":[5.287432,52.120391]},"properties":{"type":"charge","layer":"passenger","locationId":"e53f9e2b500fe02dfba5473b2ec5e5cb","name":"Noorduyn 21","address":"Noorduyn 21","city":"Soesterberg","operatorName":"Vattenfall InCharge","maxPowerKw":11,"isMegawatt":false,"status":"AVAILABLE","source":"ndw"}},{"type":"Feature","geometry":{"type":"Point","coordinates":[5.281154,52.124508]},"properties":{"type":"charge","layer":"passenger","locationId":"704e5557-1f06-4efd-b729-a505e93e6ee4","name":"PP005487 - Posthoorn 15, Soesterberg","address":"15 Posthoorn","city":"Soesterberg","operatorName":"TotalEnergies","maxPowerKw":11,"isMegawatt":false,"status":"AVAILABLE","source":"ndw"}},{"type":"Feature","geometry":{"type":"Point","coordinates":[5.312335,52.16488]},"properties":{"type":"charge","layer":"passenger","locationId":"05ca2b4a-415f-4d66-a4e0-ea59c26ade5c","name":"TNLP006219 - Jan Wolkershof 15, Soest","address":"15 Jan Wolkershof","city":"Soest","operatorName":"TotalEnergies","maxPowerKw":17,"isMegawatt":false,"status":"AVAILABLE","source":"ndw"}},{"type":"Feature","geometry":{"type":"Point","coordinates":[5.284848,52.191456]},"properties":{"type":"charge","layer":"passenger","locationId":"e146c5d6-6851-435d-ab53-a5304f904f75","name":"TNLP005704 - Colenso 54, Soest","address":"54 Colenso","city":"Soest","operatorName":"TotalEnergies","maxPowerKw":11,"isMegawatt":false,"status":"AVAILABLE","source":"ndw"}},{"type":"Feature","geometry":{"type":"Point","coordinates":[5.2878385,52.190613]},"properties":{"type":"charge","layer":"passenger","locationId":"1069","name":"Shell Recharge NL Noorderweg 48","address":"Noorderweg 48","city":"Soest","operatorName":"Ubitricity","maxPowerKw":22,"isMegawatt":false,"status":"CHARGING","source":"ndw","priceKwh":0.266}},{"type":"Feature","geometry":{"type":"Point","coordinates":[5.2900599,52.1628872]},"properties":{"type":"charge","layer":"passenger","locationId":"2666","name":"Shell Recharge NL Koperwiek 1","address":"Koperwiek 1","city":"Soest","operatorName":"Ubitricity","maxPowerKw":22,"isMegawatt":false,"status":"AVAILABLE","source":"ndw","priceKwh":0.266}},{"type":"Feature","geometry":{"type":"Point","coordinates":[5.282853,52.117905]},"properties":{"type":"charge","layer":"passenger","locationId":"bffcfd20-b2a6-4c94-9844-da57fb767115","name":"TNLP005725 - Fokkerstraat 27, Soesterberg","address":"27 Fokkerstraat","city":"Soesterberg","operatorName":"TotalEnergies","maxPowerKw":11,"isMegawatt":false,"status":"CHARGING","source":"ndw"}},{"type":"Feature","geometry":{"type":"Point","coordinates":[5.3063057,52.1821617]},"properties":{"type":"charge","layer":"passenger","locationId":"2107","name":"Shell Recharge NL Lange Brinkweg 73","address":"Lange Brinkweg 73","city":"Soest","operatorName":"Ubitricity","maxPowerKw":22,"isMegawatt":false,"status":"AVAILABLE","source":"ndw","priceKwh":0.266}},{"type":"Feature","geometry":{"type":"Point","coordinates":[5.2993716,52.1159922]},"properties":{"type":"charge","layer":"passenger","locationId":"1678","name":"Shell Recharge NL Mercury 132","address":"Mercury 132","city":"Soesterberg","operatorName":"Ubitricity","maxPowerKw":22,"isMegawatt":false,"status":"AVAILABLE","source":"ndw","priceKwh":0.266}},{"type":"Feature","geometry":{"type":"Point","coordinates":[5.302846,52.18165]},"properties":{"type":"charge","layer":"passenger","locationId":"75b4a526-8b75-4841-8454-60c21113e41d","name":"TNLP015176","address":"Sint Annahof 24","city":"Soest","operatorName":"TotalEnergies","maxPowerKw":17,"isMegawatt":false,"status":"AVAILABLE","source":"ndw"}},{"type":"Feature","geometry":{"type":"Point","coordinates":[5.28586,52.17551]},"properties":{"type":"charge","layer":"passenger","locationId":"6c42c0cd-c9d4-4429-9a7b-bd4c04f45c2e","name":"PP001431 - Van Hamelstraat 78, Soest","address":"78 Van Hamelstraat","city":"Soest","operatorName":"TotalEnergies","maxPowerKw":11,"isMegawatt":false,"status":"UNAVAILABLE","source":"ndw"}},{"type":"Feature","geometry":{"type":"Point","coordinates":[5.283559,52.176175]},"properties":{"type":"charge","layer":"passenger","locationId":"2cdfad397e1afcb4ec73ef535d2e7913","name":"Willem Speelmanhof 1","address":"Willem Speelmanhof 1","city":"Soest","operatorName":"Vattenfall InCharge","maxPowerKw":11,"isMegawatt":false,"status":"CHARGING","source":"ndw"}},{"type":"Feature","geometry":{"type":"Point","coordinates":[5.280712,52.174267]},"properties":{"type":"charge","layer":"passenger","locationId":"0227a967-1947-4cb3-9f77-e96e378c85b0","name":"TNLP008429 - Johannes Poststraat 3a, Soest","address":"3a Johannes Poststraat","city":"Soest","operatorName":"TotalEnergies","maxPowerKw":13,"isMegawatt":false,"status":"AVAILABLE","source":"ndw"}},{"type":"Feature","geometry":{"type":"Point","coordinates":[5.2819,52.11664]},"properties":{"type":"charge","layer":"passenger","locationId":"196","name":"Shell Recharge NL Prof. Lorentzlaan 48","address":"Prof. Lorentzlaan 48","city":"Soesterberg","operatorName":"Ubitricity","maxPowerKw":11,"isMegawatt":false,"status":"AVAILABLE","source":"ndw","priceKwh":0.388}},{"type":"Feature","geometry":{"type":"Point","coordinates":[5.282478,52.166573]},"properties":{"type":"charge","layer":"passenger","locationId":"6ad744be-1a2a-4cb3-9175-57bc9a0ba0ec","name":"TNLP007873 - Vedelaarpad 29, Soest","address":"29 Vedelaarpad","city":"Soest","operatorName":"TotalEnergies","maxPowerKw":17,"isMegawatt":false,"status":"AVAILABLE","source":"ndw"}},{"type":"Feature","geometry":{"type":"Point","coordinates":[5.312442,52.17295]},"properties":{"type":"charge","layer":"passenger","locationId":"4e4f61dc-4dc3-4728-a9f2-d97a914602b1","name":"PP005339 - Kerkstraat 10, Soest","address":"10 Kerkstraat","city":"Soest","operatorName":"TotalEnergies","maxPowerKw":11,"isMegawatt":false,"status":"AVAILABLE","source":"ndw"}},{"type":"Feature","geometry":{"type":"Point","coordinates":[5.279942,52.120014]},"properties":{"type":"charge","layer":"passenger","locationId":"8c8f00c8-e0a3-4f29-8e2a-9b7808ed51c6","name":"TNLP007942 - Rademakerstraat 48B, Soesterberg","address":"48B Rademakerstraat","city":"Soesterberg","operatorName":"TotalEnergies","maxPowerKw":17,"isMegawatt":false,"status":"AVAILABLE","source":"ndw"}},{"type":"Feature","geometry":{"type":"Point","coordinates":[5.291289,52.172813]},"properties":{"type":"charge","layer":"passenger","locationId":"21637d4e-4e32-4499-9c7b-fa1be3d89f09","name":"TNLP006465 - Weegbreestraat 17, Soest","address":"17 Weegbreestraat","city":"Soest","operatorName":"TotalEnergies","maxPowerKw":17,"isMegawatt":false,"status":"AVAILABLE","source":"ndw"}},{"type":"Feature","geometry":{"type":"Point","coordinates":[5.272317,52.178665]},"properties":{"type":"charge","layer":"passenger","locationId":"65a92671d06f0c001cabdf5e","name":"DenG Solar","address":"Weteringpad  15","city":"SOEST","operatorName":"E-Flux by Road","maxPowerKw":22,"isMegawatt":false,"status":"AVAILABLE","source":"ndw","priceKwh":0.48}},{"type":"Feature","geometry":{"type":"Point","coordinates":[5.272153,52.174076]},"properties":{"type":"charge","layer":"passenger","locationId":"516dc489-5567-47c0-9e61-85b47c0faf42","name":"PP005166 - Disselboom 42-01, Soest","address":"42-01 Disselboom","city":"Soest","operatorName":"TotalEnergies","maxPowerKw":11,"isMegawatt":false,"status":"AVAILABLE","source":"ndw"}},{"type":"Feature","geometry":{"type":"Point","coordinates":[5.298372,52.1796]},"properties":{"type":"charge","layer":"passenger","locationId":"4afefc52-d1f4-45b4-8282-de1836d5fab2","name":"TNLP006335 - Vermeerlaan 30 01, Soest","address":"30 01 Vermeerlaan","city":"Soest","operatorName":"TotalEnergies","maxPowerKw":17,"isMegawatt":false,"status":"CHARGING","source":"ndw"}},{"type":"Feature","geometry":{"type":"Point","coordinates":[5.285983,52.163097]},"properties":{"type":"charge","layer":"passenger","locationId":"5f5bebee852deed9c776a3da60d97c29","name":"Wielewaal 27","address":"Wielewaal 27","city":"Soest","operatorName":"Vattenfall InCharge","maxPowerKw":11,"isMegawatt":false,"status":"AVAILABLE","source":"ndw"}},{"type":"Feature","geometry":{"type":"Point","coordinates":[5.310484,52.174557]},"properties":{"type":"charge","layer":"passenger","locationId":"68a02a82-ad36-4602-a70a-623f452ffa61","name":"PP005482 - De Gouden Ploeg 13, Soest","address":"13 De Gouden Ploeg","city":"Soest","operatorName":"TotalEnergies","maxPowerKw":11,"isMegawatt":false,"status":"AVAILABLE","source":"ndw"}},{"type":"Feature","geometry":{"type":"Point","coordinates":[5.290031,52.164903]},"properties":{"type":"charge","layer":"passenger","locationId":"a1c85c2e5f2185244157a970439c0a0f","name":"Eigendomweg 101","address":"Eigendomweg 101","city":"Soest","operatorName":"Vattenfall InCharge","maxPowerKw":11,"isMegawatt":false,"status":"AVAILABLE","source":"ndw"}},{"type":"Feature","geometry":{"type":"Point","coordinates":[5.289875,52.17382]},"properties":{"type":"charge","layer":"passenger","locationId":"75944586-1483-4b66-a76c-ca89af29e541","name":"PP005517 - Kamperfoeliestraat 1, Soest","address":"1 Kamperfoeliestraat","city":"Soest","operatorName":"TotalEnergies","maxPowerKw":11,"isMegawatt":false,"status":"AVAILABLE","source":"ndw"}},{"type":"Feature","geometry":{"type":"Point","coordinates":[5.278427,52.174507]},"properties":{"type":"charge","layer":"passenger","locationId":"645e04819ba2e10012827d8f","name":"ISN Soest Fatih Moskee 's station","address":"Verbindingsweg  2","city":"Soest","operatorName":"E-Flux by Road","maxPowerKw":22,"isMegawatt":false,"status":"AVAILABLE","source":"ndw","priceKwh":0.43}},{"type":"Feature","geometry":{"type":"Point","coordinates":[5.275806,52.180546]},"properties":{"type":"charge","layer":"passenger","locationId":"350a1879-1846-4a8c-9e63-fb03734a4c33","name":"PP005322 - Weteringpad 2, Soest","address":"2 Weteringpad","city":"Soest","operatorName":"TotalEnergies","maxPowerKw":11,"isMegawatt":false,"status":"AVAILABLE","source":"ndw"}},{"type":"Feature","geometry":{"type":"Point","coordinates":[5.303634,52.17771]},"properties":{"type":"charge","layer":"passenger","locationId":"a28d14e7-1192-4050-8564-83a8118c5c7f","name":"TNLP009533 - van Goyenlaan 201, Soest","address":"201 van Goyenlaan","city":"Soest","operatorName":"TotalEnergies","maxPowerKw":17,"isMegawatt":false,"status":"AVAILABLE","source":"ndw"}},{"type":"Feature","geometry":{"type":"Point","coordinates":[5.286162,52.17097]},"properties":{"type":"charge","layer":"passenger","locationId":"805f69c3-8284-413e-b8bf-74ff7655718a","name":"TNLP006396 - Ereprijsstraat 108, Soest","address":"108 Ereprijsstraat","city":"Soest","operatorName":"TotalEnergies","maxPowerKw":17,"isMegawatt":false,"status":"AVAILABLE","source":"ndw"}},{"type":"Feature","geometry":{"type":"Point","coordinates":[5.279513,52.177611]},"properties":{"type":"charge","layer":"passenger","locationId":"621f5aab855d0df37f6d7b47","name":"Probin Soest","address":"Nijverheidsweg 11","city":"Soest","operatorName":"E-Flux by Road","maxPowerKw":22,"isMegawatt":false,"status":"AVAILABLE","source":"ndw","priceKwh":0.42}},{"type":"Feature","geometry":{"type":"Point","coordinates":[5.288092,52.1727043]},"properties":{"type":"charge","layer":"passenger","locationId":"1134","name":"Shell Recharge NL Speenkruidstraat 23","address":"Speenkruidstraat 23","city":"Soest","operatorName":"Ubitricity","maxPowerKw":22,"isMegawatt":false,"status":"AVAILABLE","source":"ndw","priceKwh":0.266}},{"type":"Feature","geometry":{"type":"Point","coordinates":[5.27398,52.18251]},"properties":{"type":"charge","layer":"passenger","locationId":"f2ef088d33c0cbc00d37cc0b07208292","name":"Beckeringhstraat 20","address":"Beckeringhstraat 20","city":"Soest","operatorName":"Vattenfall InCharge","maxPowerKw":11,"isMegawatt":false,"status":"AVAILABLE","source":"ndw"}},{"type":"Feature","geometry":{"type":"Point","coordinates":[5.301462,52.18444]},"properties":{"type":"charge","layer":"passenger","locationId":"a6a95ef6-edf5-4f04-9474-d666c4870641","name":"PP005341 - Kerkpad NZ 22, Soest","address":"22 Kerkpad NZ","city":"Soest","operatorName":"TotalEnergies","maxPowerKw":11,"isMegawatt":false,"status":"UNAVAILABLE","source":"ndw"}},{"type":"Feature","geometry":{"type":"Point","coordinates":[5.279886,52.175728]},"properties":{"type":"charge","layer":"passenger","locationId":"d67d6080-3c4d-4162-a125-cd0d207e2c5f","name":"TNLP007745 - Industrieweg 38, Soest","address":"38 Industrieweg","city":"Soest","operatorName":"TotalEnergies","maxPowerKw":17,"isMegawatt":false,"status":"AVAILABLE","source":"ndw"}},{"type":"Feature","geometry":{"type":"Point","coordinates":[5.27332,52.17283]},"properties":{"type":"charge","layer":"passenger","locationId":"e115289e-9750-4f93-83d7-d15f80f9e2fe","name":"TNLP007062 - Hofstedering 96, Soest","address":"96 Hofstedering","city":"Soest","operatorName":"TotalEnergies","maxPowerKw":17,"isMegawatt":false,"status":"AVAILABLE","source":"ndw"}},{"type":"Feature","geometry":{"type":"Point","coordinates":[5.28992,52.17494]},"properties":{"type":"charge","layer":"passenger","locationId":"e94e3cf4-1f04-4ad2-88ad-aaf53bb8c421","name":"PP005463 - De Bongerd 12, Soest","address":"12 De Bongerd","city":"Soest","operatorName":"TotalEnergies","maxPowerKw":11,"isMegawatt":false,"status":"AVAILABLE","source":"ndw"}},{"type":"Feature","geometry":{"type":"Point","coordinates":[5.28717,52.18885]},"properties":{"type":"charge","layer":"passenger","locationId":"507","name":"Shell Recharge NL Dokter Rupertlaan 31","address":"Dokter Rupertlaan 31","city":"Soest","operatorName":"Ubitricity","maxPowerKw":11,"isMegawatt":false,"status":"AVAILABLE","source":"ndw","priceKwh":0.388}},{"type":"Feature","geometry":{"type":"Point","coordinates":[5.287757,52.123076]},"properties":{"type":"charge","layer":"passenger","locationId":"1869","name":"Shell Recharge NL Banningstraat 47","address":"Banningstraat 47","city":"Soesterberg","operatorName":"Ubitricity","maxPowerKw":22,"isMegawatt":false,"status":"AVAILABLE","source":"ndw","priceKwh":0.266}},{"type":"Feature","geometry":{"type":"Point","coordinates":[5.275902,52.16806]},"properties":{"type":"charge","layer":"passenger","locationId":"de19ac5c-8829-475c-a5f1-e880f2c6303a","name":"PP005348 - Lisdodde 11, Soest","address":"11 Lisdodde","city":"Soest","operatorName":"TotalEnergies","maxPowerKw":11,"isMegawatt":false,"status":"AVAILABLE","source":"ndw"}},{"type":"Feature","geometry":{"type":"Point","coordinates":[5.29533,52.17668]},"properties":{"type":"charge","layer":"passenger","locationId":"f563f2dcf6f53b2b98ec6fb6f73da720","name":"Dalweg 183","address":"Dalweg 183","city":"Soest","operatorName":"Vattenfall InCharge","maxPowerKw":11,"isMegawatt":false,"status":"AVAILABLE","source":"ndw"}},{"type":"Feature","geometry":{"type":"Point","coordinates":[5.296103,52.179146]},"properties":{"type":"charge","layer":"passenger","locationId":"d8dee68a-8da7-431d-8b1a-cd9af352655a","name":"TNLP007144 - Boekweitland 42, Soest","address":"42 Boekweitland","city":"Soest","operatorName":"TotalEnergies","maxPowerKw":17,"isMegawatt":false,"status":"AVAILABLE","source":"ndw"}},{"type":"Feature","geometry":{"type":"Point","coordinates":[5.2702164,52.1738318]},"properties":{"type":"charge","layer":"passenger","locationId":"1150","name":"Shell Recharge NL Dorsvlegel 60","address":"Dorsvlegel 60","city":"Soest","operatorName":"Ubitricity","maxPowerKw":22,"isMegawatt":false,"status":"AVAILABLE","source":"ndw","priceKwh":0.266}},{"type":"Feature","geometry":{"type":"Point","coordinates":[5.310333,52.169083]},"properties":{"type":"charge","layer":"passenger","locationId":"ca7b6bf9-48ef-44f8-8ab6-08566fb42fe9","name":"TNLP006038 - Kerkstraat 85, Soest","address":"85 Kerkstraat","city":"Soest","operatorName":"TotalEnergies","maxPowerKw":17,"isMegawatt":false,"status":"CHARGING","source":"ndw"}},{"type":"Feature","geometry":{"type":"Point","coordinates":[5.298417,52.120644]},"properties":{"type":"charge","layer":"passenger","locationId":"d9187da4-2fcd-4aad-a961-c16a1c66274d","name":"TNLP007130 - Frits Koolhovenweg 57, Soesterberg","address":"57 Frits Koolhovenweg","city":"Soesterberg","operatorName":"TotalEnergies","maxPowerKw":17,"isMegawatt":false,"status":"AVAILABLE","source":"ndw"}},{"type":"Feature","geometry":{"type":"Point","coordinates":[5.274366,52.173623]},"properties":{"type":"charge","layer":"passenger","locationId":"6776809d0a6db266a2deb8da","name":"Michaël Berger 's station","address":"Bunder 20","city":"Soest","operatorName":"E-Flux by Road","maxPowerKw":11,"isMegawatt":false,"status":"AVAILABLE","source":"ndw","priceKwh":0.4432}},{"type":"Feature","geometry":{"type":"Point","coordinates":[5.275636,52.174442]},"properties":{"type":"charge","layer":"passenger","locationId":"cfa17005-18a3-4fc6-88b0-7048d5428861","name":"PP005578 - Oude Grachtje 32, Soest","address":"32 Oude Grachtje","city":"Soest","operatorName":"TotalEnergies","maxPowerKw":11,"isMegawatt":false,"status":"CHARGING","source":"ndw"}},{"type":"Feature","geometry":{"type":"Point","coordinates":[5.295512,52.16595]},"properties":{"type":"charge","layer":"passenger","locationId":"98cf8da5-c29a-49f1-918a-9502f7ad75e4","name":"TNLP008520 - Winterkoning 44, Soest","address":"44 Winterkoning","city":"Soest","operatorName":"TotalEnergies","maxPowerKw":13,"isMegawatt":false,"status":"AVAILABLE","source":"ndw"}},{"type":"Feature","geometry":{"type":"Point","coordinates":[5.30301,52.18057]},"properties":{"type":"charge","layer":"passenger","locationId":"8137ca60-250c-4fac-8693-263023b781d9","name":"PP001256 - Gaesbeekerhof 1A, Soest","address":"1A Gaesbeekerhof","city":"Soest","operatorName":"TotalEnergies","maxPowerKw":11,"isMegawatt":false,"status":"AVAILABLE","source":"ndw"}},{"type":"Feature","geometry":{"type":"Point","coordinates":[5.298121,52.176411]},"properties":{"type":"charge","layer":"passenger","locationId":"9203667e7a20a8d252b2b91df0779f78","name":"Soesterengweg 11","address":"Soesterengweg 11","city":"Soest","operatorName":"Vattenfall InCharge","maxPowerKw":11,"isMegawatt":false,"status":"AVAILABLE","source":"ndw"}},{"type":"Feature","geometry":{"type":"Point","coordinates":[5.292044,52.116066]},"properties":{"type":"charge","layer":"passenger","locationId":"33b8c353-b2a5-4132-912f-f2b2c78bdd84","name":"TNLP006802 - Vliegtuiglaan 24, Soesterberg","address":"24 Vliegtuiglaan","city":"Soesterberg","operatorName":"TotalEnergies","maxPowerKw":17,"isMegawatt":false,"status":"AVAILABLE","source":"ndw"}},{"type":"Feature","geometry":{"type":"Point","coordinates":[5.267045,52.179823]},"properties":{"type":"charge","layer":"passenger","locationId":"6989f217f04032fb6f4eadc2","name":"Nieuwegracht 5","address":"Nieuwegracht 5","city":"Soest","operatorName":"E-Flux by Road","maxPowerKw":11,"isMegawatt":false,"status":"AVAILABLE","source":"ndw","priceKwh":0.49}},{"type":"Feature","geometry":{"type":"Point","coordinates":[5.282585,52.181283]},"properties":{"type":"charge","layer":"passenger","locationId":"2130dde8e48dcd0cc2ca3e24a7d4d801","name":"Schrikslaan 7","address":"Schrikslaan 7","city":"Soest","operatorName":"Vattenfall InCharge","maxPowerKw":11,"isMegawatt":false,"status":"CHARGING","source":"ndw"}},{"type":"Feature","geometry":{"type":"Point","coordinates":[5.2992409,52.1806218]},"properties":{"type":"charge","layer":"passenger","locationId":"1121","name":"Shell Recharge NL Jan Steenlaan 29","address":"Jan Steenlaan 29","city":"Soest","operatorName":"Ubitricity","maxPowerKw":22,"isMegawatt":false,"status":"AVAILABLE","source":"ndw","priceKwh":0.266}},{"type":"Feature","geometry":{"type":"Point","coordinates":[5.2981733,52.1659256]},"properties":{"type":"charge","layer":"passenger","locationId":"1079","name":"Shell Recharge NL Goudvink 41","address":"Goudvink 41","city":"Soest","operatorName":"Ubitricity","maxPowerKw":22,"isMegawatt":false,"status":"AVAILABLE","source":"ndw","priceKwh":0.266}},{"type":"Feature","geometry":{"type":"Point","coordinates":[5.29403,52.17713]},"properties":{"type":"charge","layer":"passenger","locationId":"b356383b-430e-45b2-95c4-1406f38ffd6d","name":"TNLP003579 - Raadhuisplein 1, Soest","address":"1 Raadhuisplein","city":"Soest","operatorName":"TotalEnergies","maxPowerKw":17,"isMegawatt":false,"status":"AVAILABLE","source":"ndw"}},{"type":"Feature","geometry":{"type":"Point","coordinates":[5.2922203,52.1853162]},"properties":{"type":"charge","layer":"passenger","locationId":"1832","name":"Shell Recharge NL Irenelaan 58","address":"Irenelaan 58","city":"Soest","operatorName":"Ubitricity","maxPowerKw":22,"isMegawatt":false,"status":"AVAILABLE","source":"ndw","priceKwh":0.266}},{"type":"Feature","geometry":{"type":"Point","coordinates":[5.3082338,52.1665951]},"properties":{"type":"charge","layer":"passenger","locationId":"1133","name":"Shell Recharge NL Soesterbergsestraat 32","address":"Soesterbergsestraat 32","city":"Soest","operatorName":"Ubitricity","maxPowerKw":22,"isMegawatt":false,"status":"CHARGING","source":"ndw","priceKwh":0.266}},{"type":"Feature","geometry":{"type":"Point","coordinates":[5.292578,52.170692]},"properties":{"type":"charge","layer":"passenger","locationId":"12e3b9fc-442d-45b0-9c4f-c25bfbfea8bc","name":"TNLP007920 - Weegbreestraat 205, Soest","address":"205 Weegbreestraat","city":"Soest","operatorName":"TotalEnergies","maxPowerKw":17,"isMegawatt":false,"status":"AVAILABLE","source":"ndw"}},{"type":"Feature","geometry":{"type":"Point","coordinates":[5.282969,52.164414]},"properties":{"type":"charge","layer":"passenger","locationId":"f39d82620831ba00a3ee58816ab1d6fb","name":"Luytenaarpad 36","address":"Luytenaarpad 36","city":"Soest","operatorName":"Vattenfall InCharge","maxPowerKw":11,"isMegawatt":false,"status":"AVAILABLE","source":"ndw"}},{"type":"Feature","geometry":{"type":"Point","coordinates":[5.27715,52.172611]},"properties":{"type":"charge","layer":"passenger","locationId":"7200f4fae09ab09187bc182e2422990a","name":"Spinet 112","address":"Spinet 112","city":"Soest","operatorName":"Vattenfall InCharge","maxPowerKw":11,"isMegawatt":false,"status":"AVAILABLE","source":"ndw"}},{"type":"Feature","geometry":{"type":"Point","coordinates":[5.301603,52.17569]},"properties":{"type":"charge","layer":"passenger","locationId":"00500b8e-c242-433d-bbec-ba6997317335","name":"TNLP006360 - Albert Cuyplaan 210, Soest","address":"210 Albert Cuyplaan","city":"Soest","operatorName":"TotalEnergies","maxPowerKw":17,"isMegawatt":false,"status":"AVAILABLE","source":"ndw"}},{"type":"Feature","geometry":{"type":"Point","coordinates":[5.286499,52.179268]},"properties":{"type":"charge","layer":"passenger","locationId":"2b9ae861-54fe-4a8b-a282-f676d235537a","name":"TNLP005668 - Chalonhof 36, Soest","address":"36 Chalonhof","city":"Soest","operatorName":"TotalEnergies","maxPowerKw":11,"isMegawatt":false,"status":"AVAILABLE","source":"ndw"}},{"type":"Feature","geometry":{"type":"Point","coordinates":[5.28103,52.17429]},"properties":{"type":"charge","layer":"passenger","locationId":"36997ad2-29fb-4c31-be45-1757bc275bdc","name":"PP005461 - Johannes Poststraat 3, Soest","address":"3 Johannes Poststraat","city":"Soest","operatorName":"TotalEnergies","maxPowerKw":11,"isMegawatt":false,"status":"AVAILABLE","source":"ndw"}},{"type":"Feature","geometry":{"type":"Point","coordinates":[5.302885,52.117306]},"properties":{"type":"charge","layer":"passenger","locationId":"18af2912c5d33cb927e2ed6d5eb89559","name":"Mercury 210","address":"Mercury 210","city":"Soesterberg","operatorName":"Vattenfall InCharge","maxPowerKw":11,"isMegawatt":false,"status":"AVAILABLE","source":"ndw"}},{"type":"Feature","geometry":{"type":"Point","coordinates":[5.2915773,52.1687113]},"properties":{"type":"charge","layer":"passenger","locationId":"1383","name":"Shell Recharge NL Varenstraat 27","address":"Varenstraat 27","city":"Soest","operatorName":"Ubitricity","maxPowerKw":22,"isMegawatt":false,"status":"CHARGING","source":"ndw","priceKwh":0.266}},{"type":"Feature","geometry":{"type":"Point","coordinates":[5.338188,52.159692]},"properties":{"type":"charge","layer":"passenger","locationId":"88924722","name":"EQUANS Fletcher Fletcher Hotel-Restaurant Het Witte Huis","address":"Birkstraat 138","city":"Soest","operatorName":"EQUANS","maxPowerKw":11,"isMegawatt":false,"status":"AVAILABLE","source":"ndw"}},{"type":"Feature","geometry":{"type":"Point","coordinates":[5.288168,52.175766]},"properties":{"type":"charge","layer":"passenger","locationId":"d5bf26e8-5f92-46b0-9a16-b6e2b7724fb9","name":"TNLP007075 - Wijnand Toplaan 20, Soest","address":"20 Wijnand Toplaan","city":"Soest","operatorName":"TotalEnergies","maxPowerKw":17,"isMegawatt":false,"status":"AVAILABLE","source":"ndw"}},{"type":"Feature","geometry":{"type":"Point","coordinates":[5.2992006,52.1838594]},"properties":{"type":"charge","layer":"passenger","locationId":"2115","name":"Shell Recharge NL Spoorstraat 3, Parkeerplaats Soestdijk","address":"Spoorstraat 3, Parkeerplaats Soestdijk","city":"Soest","operatorName":"Ubitricity","maxPowerKw":22,"isMegawatt":false,"status":"AVAILABLE","source":"ndw","priceKwh":0.266}},{"type":"Feature","geometry":{"type":"Point","coordinates":[5.286674,52.174435]},"properties":{"type":"charge","layer":"passenger","locationId":"72426e17-6455-4349-9adc-680a1435476f","name":"PP005516 - van Hamelstraat 79, Soest","address":"79 van Hamelstraat","city":"Soest","operatorName":"TotalEnergies","maxPowerKw":11,"isMegawatt":false,"status":"AVAILABLE","source":"ndw"}},{"type":"Feature","geometry":{"type":"Point","coordinates":[5.277965,52.164024]},"properties":{"type":"charge","layer":"passenger","locationId":"aee4b781-4526-45f1-a093-07901390d880","name":"TNLP006169 - Patrijsgang 11, Soest","address":"11 Patrijsgang","city":"Soest","operatorName":"TotalEnergies","maxPowerKw":17,"isMegawatt":false,"status":"AVAILABLE","source":"ndw"}},{"type":"Feature","geometry":{"type":"Point","coordinates":[5.295421,52.16743]},"properties":{"type":"charge","layer":"passenger","locationId":"f3a2f559-6a1b-44d9-aa74-e063f0927d73","name":"TNLP007923 - Weegbreestraat 130, Soest","address":"130 Weegbreestraat","city":"Soest","operatorName":"TotalEnergies","maxPowerKw":17,"isMegawatt":false,"status":"AVAILABLE","source":"ndw"}},{"type":"Feature","geometry":{"type":"Point","coordinates":[5.304073,52.182293]},"properties":{"type":"charge","layer":"passenger","locationId":"965d712e-52a5-430a-97cb-c120777af2e6","name":"PP005345 - Kerkplein 9, Soest","address":"9 Kerkplein","city":"Soest","operatorName":"TotalEnergies","maxPowerKw":11,"isMegawatt":false,"status":"AVAILABLE","source":"ndw"}},{"type":"Feature","geometry":{"type":"Point","coordinates":[5.291199,52.169193]},"properties":{"type":"charge","layer":"passenger","locationId":"ce687caf-6809-40fe-9aca-2ab0c4fa253f","name":"PP005324 - Varenstraat 62, Soest","address":"62 Varenstraat","city":"Soest","operatorName":"TotalEnergies","maxPowerKw":11,"isMegawatt":false,"status":"AVAILABLE","source":"ndw"}},{"type":"Feature","geometry":{"type":"Point","coordinates":[5.28138,52.1651]},"properties":{"type":"charge","layer":"passenger","locationId":"efb84074-d7fb-441b-ab28-69da606dc525","name":"PP005329 - Van der Weydenstraat 33, Soest","address":"33 Van der Weydenstraat","city":"Soest","operatorName":"TotalEnergies","maxPowerKw":13,"isMegawatt":false,"status":"AVAILABLE","source":"ndw"}},{"type":"Feature","geometry":{"type":"Point","coordinates":[5.284702,52.1157]},"properties":{"type":"charge","layer":"passenger","locationId":"95f8c281-8f0e-4365-a7f8-0fa3778707ac","name":"PP005342 - Buys Ballotlaan 17, Soesterberg","address":"17 Buys Ballotlaan","city":"Soesterberg","operatorName":"TotalEnergies","maxPowerKw":11,"isMegawatt":false,"status":"AVAILABLE","source":"ndw"}},{"type":"Feature","geometry":{"type":"Point","coordinates":[5.281867,52.11511]},"properties":{"type":"charge","layer":"passenger","locationId":"52c8fa84-8003-42ad-86e0-baccdab1083a","name":"TNLP034173","address":"Christiaan Huygenslaan 123","city":"Soesterberg","operatorName":"TotalEnergies","maxPowerKw":14,"isMegawatt":false,"status":"CHARGING","source":"ndw"}},{"type":"Feature","geometry":{"type":"Point","coordinates":[5.302824,52.161585]},"properties":{"type":"charge","layer":"passenger","locationId":"15593ae8e1b1a6b17a0bbf31437b0d7f","name":"Sint Willibrordusstraat 10","address":"Sint Willibrordusstraat 10","city":"Soest","operatorName":"Vattenfall InCharge","maxPowerKw":11,"isMegawatt":false,"status":"CHARGING","source":"ndw"}},{"type":"Feature","geometry":{"type":"Point","coordinates":[5.276228,52.1736739]},"properties":{"type":"charge","layer":"passenger","locationId":"760","name":"Shell Recharge NL Het Bunder 43","address":"Het Bunder 43","city":"Soest","operatorName":"Ubitricity","maxPowerKw":22,"isMegawatt":false,"status":"AVAILABLE","source":"ndw","priceKwh":0.266}},{"type":"Feature","geometry":{"type":"Point","coordinates":[5.287334,52.186115]},"properties":{"type":"charge","layer":"passenger","locationId":"3117ff2d-9648-40ae-909f-5a778da2b339","name":"PP005491 - Willem de Zwijgerlaan 19, Soest","address":"19 Willem de Zwijgerlaan","city":"Soest","operatorName":"TotalEnergies","maxPowerKw":11,"isMegawatt":false,"status":"CHARGING","source":"ndw"}},{"type":"Feature","geometry":{"type":"Point","coordinates":[5.3000666,52.1632281]},"properties":{"type":"charge","layer":"passenger","locationId":"1030","name":"Shell Recharge NL Kastanjelaan 21","address":"Kastanjelaan 21","city":"Soest","operatorName":"Ubitricity","maxPowerKw":22,"isMegawatt":false,"status":"AVAILABLE","source":"ndw","priceKwh":0.266}},{"type":"Feature","geometry":{"type":"Point","coordinates":[5.2811202,52.1734645]},"properties":{"type":"charge","layer":"passenger","locationId":"1743","name":"Shell Recharge NL Johannes Poststraat 284","address":"Johannes Poststraat 284","city":"Soest","operatorName":"Ubitricity","maxPowerKw":22,"isMegawatt":false,"status":"AVAILABLE","source":"ndw","priceKwh":0.266}},{"type":"Feature","geometry":{"type":"Point","coordinates":[5.286176,52.169235]},"properties":{"type":"charge","layer":"passenger","locationId":"01b93304-1a03-4b59-bb94-e1b91f7d67f6","name":"PP005478 - Veenbesstraat 388 01, Soest","address":"388 01 Veenbesstraat","city":"Soest","operatorName":"TotalEnergies","maxPowerKw":11,"isMegawatt":false,"status":"CHARGING","source":"ndw"}},{"type":"Feature","geometry":{"type":"Point","coordinates":[5.2810338,52.1691347]},"properties":{"type":"charge","layer":"passenger","locationId":"2200","name":"Shell Recharge NL J.H. Isingserf 37","address":"J.H. Isingserf 37","city":"Soest","operatorName":"Ubitricity","maxPowerKw":22,"isMegawatt":false,"status":"AVAILABLE","source":"ndw","priceKwh":0.266}},{"type":"Feature","geometry":{"type":"Point","coordinates":[5.306556,52.158692]},"properties":{"type":"charge","layer":"passenger","locationId":"623aede90cb7e9d7c676c7ee","name":"Restaurant de Eetvilla","address":"Soesterbergsestraat 122","city":"Soest","operatorName":"E-Flux by Road","maxPowerKw":22,"isMegawatt":false,"status":"AVAILABLE","source":"ndw","priceKwh":0.48}},{"type":"Feature","geometry":{"type":"Point","coordinates":[5.278645,52.169975]},"properties":{"type":"charge","layer":"passenger","locationId":"52d68913-d74f-44d2-8e0a-d69dce0279b8","name":"TNLP007149 - Cimbaal 42, Soest","address":"42 Cimbaal","city":"Soest","operatorName":"TotalEnergies","maxPowerKw":17,"isMegawatt":false,"status":"AVAILABLE","source":"ndw"}},{"type":"Feature","geometry":{"type":"Point","coordinates":[5.291559,52.18747]},"properties":{"type":"charge","layer":"passenger","locationId":"25173d51-fdbb-4741-bd7e-88945fd4efcb","name":"TNLP007573 - Inspecteur Schreuderlaan 1, Soest","address":"1 Inspecteur Schreuderlaan","city":"Soest","operatorName":"TotalEnergies","maxPowerKw":17,"isMegawatt":false,"status":"AVAILABLE","source":"ndw"}},{"type":"Feature","geometry":{"type":"Point","coordinates":[5.27028,52.17545]},"properties":{"type":"charge","layer":"passenger","locationId":"4c37815f-bf8a-4d17-a33e-ff90499c46d3","name":"TNLP003577 - Sloothaak 7, Soest","address":"7 Sloothaak","city":"Soest","operatorName":"TotalEnergies","maxPowerKw":17,"isMegawatt":false,"status":"AVAILABLE","source":"ndw"}},{"type":"Feature","geometry":{"type":"Point","coordinates":[5.316445,52.162073]},"properties":{"type":"charge","layer":"passenger","locationId":"OST25P0027_0154_0","name":"OST25P0027_0154_0","address":"Birkstraat 101","city":"Soest","operatorName":"e-VOLTT","maxPowerKw":38,"isMegawatt":false,"status":"AVAILABLE","source":"ndw","priceKwh":0.456}},{"type":"Feature","geometry":{"type":"Point","coordinates":[5.263866,52.178821]},"properties":{"type":"charge","layer":"passenger","locationId":"922965","name":"DAE_NL_2000682","address":"Nieuwegracht 22","city":"Soest","operatorName":"DAEN Mobility","maxPowerKw":11,"isMegawatt":false,"status":"AVAILABLE","source":"ndw","priceKwh":0.45}},{"type":"Feature","geometry":{"type":"Point","coordinates":[5.300805,52.11648]},"properties":{"type":"charge","layer":"passenger","locationId":"f7972a8c-ef0f-4350-9003-7829c291eb01","name":"PP005475 - Gemini 33, Soesterberg","address":"33 Gemini","city":"Soesterberg","operatorName":"TotalEnergies","maxPowerKw":11,"isMegawatt":false,"status":"AVAILABLE","source":"ndw"}},{"type":"Feature","geometry":{"type":"Point","coordinates":[5.27134,52.183064]},"properties":{"type":"charge","layer":"passenger","locationId":"d84c42f2-ba61-40bb-a982-6fecb3c9dd9c","name":"PP005310 - Beckeringhstraat 38, Soest","address":"38 Beckeringhstraat","city":"Soest","operatorName":"TotalEnergies","maxPowerKw":11,"isMegawatt":false,"status":"AVAILABLE","source":"ndw"}},{"type":"Feature","geometry":{"type":"Point","coordinates":[5.288533,52.162949]},"properties":{"type":"charge","layer":"passenger","locationId":"691b46ad1fbaaddb01a2bd99","name":"Koperwiek35","address":"Koperwiek 35","city":"Soest","operatorName":"E-Flux by Road","maxPowerKw":11,"isMegawatt":false,"status":"CHARGING","source":"ndw","priceKwh":0.33}},{"type":"Feature","geometry":{"type":"Point","coordinates":[5.301811,52.179214]},"properties":{"type":"charge","layer":"passenger","locationId":"a8887d12-d59d-461d-8ca4-0ee085d0138a","name":"TNLP005731 - Van Goyenlaan 40, Soest","address":"40 Van Goyenlaan","city":"Soest","operatorName":"TotalEnergies","maxPowerKw":17,"isMegawatt":false,"status":"AVAILABLE","source":"ndw"}},{"type":"Feature","geometry":{"type":"Point","coordinates":[5.287334,52.192142]},"properties":{"type":"charge","layer":"passenger","locationId":"87445979-bfb0-4a7f-97d2-0d589a38a23e","name":"TNLP007291 - Colenso 159, Soest","address":"159 Colenso","city":"Soest","operatorName":"TotalEnergies","maxPowerKw":17,"isMegawatt":false,"status":"AVAILABLE","source":"ndw"}},{"type":"Feature","geometry":{"type":"Point","coordinates":[5.283861,52.1813]},"properties":{"type":"charge","layer":"passenger","locationId":"432c7123-47b9-4e3b-920d-560fd99765a4","name":"TNLP005698 - Schrikslaan 32, Soest","address":"32 Schrikslaan","city":"Soest","operatorName":"TotalEnergies","maxPowerKw":13,"isMegawatt":false,"status":"AVAILABLE","source":"ndw"}},{"type":"Feature","geometry":{"type":"Point","coordinates":[5.29434,52.164795]},"properties":{"type":"charge","layer":"passenger","locationId":"893dde0059d7f133f1c7250d0ee37dfa","name":"Specht 17","address":"Specht 17","city":"Soest","operatorName":"Vattenfall InCharge","maxPowerKw":11,"isMegawatt":false,"status":"AVAILABLE","source":"ndw"}},{"type":"Feature","geometry":{"type":"Point","coordinates":[5.278816,52.176233]},"properties":{"type":"charge","layer":"passenger","locationId":"63a5b606f5c54e0012c4331e","name":"Industrieweg 34","address":"Industrieweg 34","city":"Soest","operatorName":"E-Flux by Road","maxPowerKw":120,"isMegawatt":false,"status":"AVAILABLE","source":"ndw","priceKwh":0.64}},{"type":"Feature","geometry":{"type":"Point","coordinates":[5.281623,52.1828]},"properties":{"type":"charge","layer":"passenger","locationId":"a95f09e7-470c-40b8-88f6-17f47ea212cb","name":"TNLP007744 - Beetzlaan 46, Soest","address":"46 Beetzlaan","city":"Soest","operatorName":"TotalEnergies","maxPowerKw":17,"isMegawatt":false,"status":"AVAILABLE","source":"ndw"}},{"type":"Feature","geometry":{"type":"Point","coordinates":[5.299037,52.161182]},"properties":{"type":"charge","layer":"passenger","locationId":"b03f9352-936d-4e70-ba24-5fddd2dd7114","name":"PP005358 - Schoutenkampweg 123, Soest","address":"123 Schoutenkampweg","city":"Soest","operatorName":"TotalEnergies","maxPowerKw":11,"isMegawatt":false,"status":"AVAILABLE","source":"ndw"}},{"type":"Feature","geometry":{"type":"Point","coordinates":[5.287636,52.168889]},"properties":{"type":"charge","layer":"passenger","locationId":"f0952fc6db1a4a0253ff3ae663d18b1a","name":"Veenbesstraat 576","address":"Veenbesstraat 576","city":"Soest","operatorName":"Vattenfall InCharge","maxPowerKw":11,"isMegawatt":false,"status":"CHARGING","source":"ndw"}},{"type":"Feature","geometry":{"type":"Point","coordinates":[5.280526,52.12523]},"properties":{"type":"charge","layer":"passenger","locationId":"c050109d-b0ec-4746-8707-2094d79cabc3","name":"PP005471 - Batenburgweg 5, Soesterberg","address":"5 Batenburgweg","city":"Soesterberg","operatorName":"TotalEnergies","maxPowerKw":11,"isMegawatt":false,"status":"AVAILABLE","source":"ndw"}},{"type":"Feature","geometry":{"type":"Point","coordinates":[5.296484,52.11601]},"properties":{"type":"charge","layer":"passenger","locationId":"3a787a75-3f2b-4b35-a397-ac93696cf126","name":"TNLP006187 - Apollo 26, Soesterberg","address":"26 Apollo","city":"Soesterberg","operatorName":"TotalEnergies","maxPowerKw":17,"isMegawatt":false,"status":"AVAILABLE","source":"ndw"}},{"type":"Feature","geometry":{"type":"Point","coordinates":[5.274046,52.184704]},"properties":{"type":"charge","layer":"passenger","locationId":"01e8932059fe287b4a37bb498b66ce9c","name":"Koninginnelaan 119","address":"Koninginnelaan 119","city":"Soest","operatorName":"Vattenfall InCharge","maxPowerKw":11,"isMegawatt":false,"status":"AVAILABLE","source":"ndw"}},{"type":"Feature","geometry":{"type":"Point","coordinates":[5.302713,52.176351]},"properties":{"type":"charge","layer":"passenger","locationId":"ca5dcf1fb0beb7d35c1aaa8de2d2c639","name":"Pieter de Molijnlaan 25","address":"Pieter de Molijnlaan 25","city":"Soest","operatorName":"Vattenfall InCharge","maxPowerKw":11,"isMegawatt":false,"status":"AVAILABLE","source":"ndw"}},{"type":"Feature","geometry":{"type":"Point","coordinates":[5.282857,52.173341]},"properties":{"type":"charge","layer":"passenger","locationId":"cbe32eac92cbc4f78d578c3dd3d7b891","name":"Walraven van Hallhof 2","address":"Walraven van Hallhof 2","city":"Soest","operatorName":"Vattenfall InCharge","maxPowerKw":11,"isMegawatt":false,"status":"AVAILABLE","source":"ndw"}},{"type":"Feature","geometry":{"type":"MultiPolygon","coordinates":[[[[5.308791978423863,52.20454935291548],[5.310664549075889,52.203484574475624],[5.31218364408267,52.2042455871759],[5.313626044922806,52.20421993764007],[5.3142822056513115,52.20302349265915],[5.3093384848043,52.19472952749419],[5.310216751115579,52.192016826915975],[5.311640278694671,52.19103616806841],[5.314668203709814,52.19158449416879],[5.320682750944489,52.19022215917355],[5.323844745716889,52.18849619597171],[5.3246518360982265,52.18728942935198],[5.323696697723282,52.18258916739375],[5.326708730627505,52.18181171861278],[5.333563787729262,52.183174954107685],[5.336439842094033,52.182718360830535],[5.340663032266009,52.17818000806947],[5.344322068131943,52.17703829299848],[5.349897794050251,52.17560572693396],[5.349099983102453,52.17467870012258],[5.34992559844871,52.173857348502565],[5.348505959930018,52.17353134099924],[5.348683878860396,52.17295492129153],[5.347314938206908,52.17278557573433],[5.3468838664795495,52.17167992151025],[5.34761390711074,52.17072948572152],[5.344673694344059,52.16362890094233],[5.34348379939434,52.1602711570247],[5.338720341861913,52.160057121834114],[5.3363353323528715,52.146049495103185],[5.3363164419779086,52.14595145405417],[5.330643420374137,52.13570381244611],[5.332048852583973,52.133786906347375],[5.333851565586326,52.131345808178835],[5.331267718761736,52.126630630740436],[5.311582970597161,52.1141434254612],[5.306458375005827,52.110271768974265],[5.298965499790052,52.111800000550666],[5.294599207924281,52.11347425895429],[5.291802945078316,52.114538870063626],[5.290533388072204,52.11421291655793],[5.282212723719232,52.11208325630957],[5.277559807754134,52.11881919783418],[5.277146693538042,52.11945385991881],[5.274212776739274,52.12374042151384],[5.271935813239148,52.12704581980634],[5.264101489512795,52.1250803121389],[5.256183054239682,52.13637825551376],[5.255267040981744,52.13888556063464],[5.256421621303732,52.144056315596],[5.2563860458112,52.1441722163204],[5.254793723292914,52.14951633652394],[5.250994707375583,52.15634007363828],[5.249666186289253,52.158755954915414],[5.2431724698073,52.170076981348714],[5.246956651755834,52.174226391796815],[5.249259746914882,52.17573067902918],[5.2572301851339835,52.18087045912934],[5.262080715739358,52.18393929293777],[5.270215499566841,52.18852626143611],[5.281582975158751,52.19260917960677],[5.2823351269113825,52.19286170885897],[5.2824989556865525,52.192074909343916],[5.297119376013651,52.19750469856947],[5.297266721698095,52.197557975134536],[5.304017934865207,52.20001143736911],[5.308791978423863,52.20454935291548]]]]},"properties":{"type":"boundary","gemeente":"Soest","code":"GM0342"}}]}