{"type":"FeatureCollection","metadata":{"gemeente":"Stede Broec","slug":"stede-broec","code":"GM0532","generated_at":"2026-07-06T16:26:11.361Z","total_passenger":50,"total_freight":0,"bounds":[5.1853730941733085,52.67761344972595,5.259248539016487,52.71769631700166],"operators":["DAEN Mobility","E-Flux by Road","PureCharged","TotalEnergies","Ubitricity","Vattenfall InCharge"]},"features":[{"type":"Feature","geometry":{"type":"Point","coordinates":[5.21648,52.687428]},"properties":{"type":"charge","layer":"passenger","locationId":"f3be5961-db2c-4cd4-9221-2251a5af9fe3","name":"TNLP008310 - Eergetouw 7, Grootebroek","address":"7 Eergetouw","city":"Grootebroek","operatorName":"TotalEnergies","maxPowerKw":14,"isMegawatt":false,"status":"AVAILABLE","source":"ndw"}},{"type":"Feature","geometry":{"type":"Point","coordinates":[5.253145,52.695866]},"properties":{"type":"charge","layer":"passenger","locationId":"671ffc0c-85da-47c3-b436-971cd4f9a4c5","name":"TNLP009075 - Burgemeester van Bredastraat 9, Bovenkarspel","address":"9 Burgemeester van Bredastraat","city":"Bovenkarspel","operatorName":"TotalEnergies","maxPowerKw":15,"isMegawatt":false,"status":"AVAILABLE","source":"ndw"}},{"type":"Feature","geometry":{"type":"Point","coordinates":[5.211665,52.702065]},"properties":{"type":"charge","layer":"passenger","locationId":"1d5f4f5e-793c-4449-88a1-28e16817b267","name":"PP005039 - Theo Thijssenweg 28, Grootebroek","address":"28 Theo Thijssenweg","city":"Grootebroek","operatorName":"TotalEnergies","maxPowerKw":15,"isMegawatt":false,"status":"CHARGING","source":"ndw"}},{"type":"Feature","geometry":{"type":"Point","coordinates":[5.24692,52.69125]},"properties":{"type":"charge","layer":"passenger","locationId":"9a51b7b1-6b00-494e-9476-8103b6d12354","name":"PP004257 - Boerhaaveplein 6, Bovenkarspel","address":"6 Boerhaaveplein","city":"Bovenkarspel","operatorName":"TotalEnergies","maxPowerKw":13,"isMegawatt":false,"status":"AVAILABLE","source":"ndw"}},{"type":"Feature","geometry":{"type":"Point","coordinates":[5.254392,52.69921]},"properties":{"type":"charge","layer":"passenger","locationId":"ce77c333-7ff2-4673-89d8-a07f690d29e9","name":"TNLP009078 - Hoofdstraat 278, Bovenkarspel","address":"278 Hoofdstraat","city":"Bovenkarspel","operatorName":"TotalEnergies","maxPowerKw":15,"isMegawatt":false,"status":"AVAILABLE","source":"ndw"}},{"type":"Feature","geometry":{"type":"Point","coordinates":[5.250468,52.697888]},"properties":{"type":"charge","layer":"passenger","locationId":"a7b7e3db-f693-48ba-8aba-19b5674363aa","name":"TNLP015418","address":"Raadhuisplein 9","city":"Bovenkarspel","operatorName":"TotalEnergies","maxPowerKw":17,"isMegawatt":false,"status":"AVAILABLE","source":"ndw"}},{"type":"Feature","geometry":{"type":"Point","coordinates":[5.23838,52.68836]},"properties":{"type":"charge","layer":"passenger","locationId":"8a06ecf7-5884-4aed-9641-31bad16163bc","name":"TNLP005905 - Princenhof 6, Bovenkarspel","address":"6 Princenhof","city":"Bovenkarspel","operatorName":"TotalEnergies","maxPowerKw":13,"isMegawatt":false,"status":"CHARGING","source":"ndw"}},{"type":"Feature","geometry":{"type":"Point","coordinates":[5.226674,52.686613]},"properties":{"type":"charge","layer":"passenger","locationId":"1028","name":"Shell Recharge NL Schouwwagen 22","address":"Schouwwagen 22","city":"Grootebroek","operatorName":"Ubitricity","maxPowerKw":22,"isMegawatt":false,"status":"AVAILABLE","source":"ndw","priceKwh":0.266}},{"type":"Feature","geometry":{"type":"Point","coordinates":[5.2501,52.69147]},"properties":{"type":"charge","layer":"passenger","locationId":"685","name":"Shell Recharge NL Madame Curiestraat 10","address":"Madame Curiestraat 10","city":"Bovenkarspel","operatorName":"Ubitricity","maxPowerKw":11,"isMegawatt":false,"status":"CHARGING","source":"ndw","priceKwh":0.388}},{"type":"Feature","geometry":{"type":"Point","coordinates":[5.215332,52.697567]},"properties":{"type":"charge","layer":"passenger","locationId":"d51c2263-8085-45e9-8fe9-724bf539abc4","name":"TNLP008468 - Zesstedenweg 223, Grootebroek","address":"223 Zesstedenweg","city":"Grootebroek","operatorName":"TotalEnergies","maxPowerKw":14,"isMegawatt":false,"status":"AVAILABLE","source":"ndw"}},{"type":"Feature","geometry":{"type":"Point","coordinates":[5.25435,52.706331]},"properties":{"type":"charge","layer":"passenger","locationId":"68b56c38329e2b6065117183","name":"Camping de Gouwe Stek","address":"De Gouw 11","city":"Bovenkarspel","operatorName":"PureCharged","maxPowerKw":11,"isMegawatt":false,"status":"AVAILABLE","source":"ndw","priceKwh":0.63}},{"type":"Feature","geometry":{"type":"Point","coordinates":[5.22587,52.69589]},"properties":{"type":"charge","layer":"passenger","locationId":"ad46bdd5-9c11-46e5-bc24-28fe3bd0fac1","name":"TNLP008642 - Waterhoen 35, Grootebroek","address":"35 Waterhoen","city":"Grootebroek","operatorName":"TotalEnergies","maxPowerKw":14,"isMegawatt":false,"status":"AVAILABLE","source":"ndw"}},{"type":"Feature","geometry":{"type":"Point","coordinates":[5.208277,52.696743]},"properties":{"type":"charge","layer":"passenger","locationId":"ccd46d02-8afd-4040-9b68-a91c1ba30735","name":"TNLP009581 - Pastoor Gielenstraat 26a, Lutjebroek","address":"26a Pastoor Gielenstraat","city":"Lutjebroek","operatorName":"TotalEnergies","maxPowerKw":15,"isMegawatt":false,"status":"AVAILABLE","source":"ndw"}},{"type":"Feature","geometry":{"type":"Point","coordinates":[5.231445,52.691563]},"properties":{"type":"charge","layer":"passenger","locationId":"97c741ce-efbe-403e-a091-5f4a5c8e8f47","name":"TNLP009517 - Gemaal 30, Grootebroek","address":"30 Gemaal","city":"Grootebroek","operatorName":"TotalEnergies","maxPowerKw":15,"isMegawatt":false,"status":"AVAILABLE","source":"ndw"}},{"type":"Feature","geometry":{"type":"Point","coordinates":[5.219785,52.696974]},"properties":{"type":"charge","layer":"passenger","locationId":"6974c103b4dcdbae8ecdcb54","name":"RuvaVo Beheer","address":"Burgemeester Schrijnderlaan 6","city":"Grootebroek","operatorName":"E-Flux by Road","maxPowerKw":11,"isMegawatt":false,"status":"AVAILABLE","source":"ndw","priceKwh":0.57}},{"type":"Feature","geometry":{"type":"Point","coordinates":[5.228032,52.693712]},"properties":{"type":"charge","layer":"passenger","locationId":"6322f9fbc6795540ed655ecb","name":"Auto Totaal","address":"Industrieweg 15e","city":"Grootebroek","operatorName":"E-Flux by Road","maxPowerKw":22,"isMegawatt":false,"status":"AVAILABLE","source":"ndw","priceKwh":0.48}},{"type":"Feature","geometry":{"type":"Point","coordinates":[5.216834,52.699905]},"properties":{"type":"charge","layer":"passenger","locationId":"13a6f2d4-a18f-4719-a934-4a4de4781b63","name":"PP005448 - Annie M.G. Schmidtweg 10, Grootebroek","address":"10 Annie M.G. Schmidtweg","city":"Grootebroek","operatorName":"TotalEnergies","maxPowerKw":13,"isMegawatt":false,"status":"AVAILABLE","source":"ndw"}},{"type":"Feature","geometry":{"type":"Point","coordinates":[5.251891,52.689673]},"properties":{"type":"charge","layer":"passenger","locationId":"cfc51885-27ed-4363-ab3b-a019181d3de0","name":"TNLP034006","address":"Oranje Nassaustraat 25","city":"Bovenkarspel","operatorName":"TotalEnergies","maxPowerKw":14,"isMegawatt":false,"status":"AVAILABLE","source":"ndw"}},{"type":"Feature","geometry":{"type":"Point","coordinates":[5.2418948,52.6893429]},"properties":{"type":"charge","layer":"passenger","locationId":"899","name":"Shell Recharge NL Hertog Albrechtstraat 36","address":"Hertog Albrechtstraat 36","city":"Bovenkarspel","operatorName":"Ubitricity","maxPowerKw":22,"isMegawatt":false,"status":"AVAILABLE","source":"ndw","priceKwh":0.266}},{"type":"Feature","geometry":{"type":"Point","coordinates":[5.2326681,52.6987471]},"properties":{"type":"charge","layer":"passenger","locationId":"2345","name":"Shell Recharge NL De Tuin 1","address":"De Tuin 1","city":"Bovenkarspel","operatorName":"Ubitricity","maxPowerKw":22,"isMegawatt":false,"status":"AVAILABLE","source":"ndw","priceKwh":0.266}},{"type":"Feature","geometry":{"type":"Point","coordinates":[5.230834,52.687634]},"properties":{"type":"charge","layer":"passenger","locationId":"4cf54d3d-03ee-40a1-8b85-7d99806aedee","name":"TNLP008187 - Waterrad 5, Grootebroek","address":"5 Waterrad","city":"Grootebroek","operatorName":"TotalEnergies","maxPowerKw":15,"isMegawatt":false,"status":"CHARGING","source":"ndw"}},{"type":"Feature","geometry":{"type":"Point","coordinates":[5.2268,52.69103]},"properties":{"type":"charge","layer":"passenger","locationId":"721","name":"Shell Recharge NL Overstort 69","address":"Overstort 69","city":"Grootebroek","operatorName":"Ubitricity","maxPowerKw":11,"isMegawatt":false,"status":"AVAILABLE","source":"ndw","priceKwh":0.388}},{"type":"Feature","geometry":{"type":"Point","coordinates":[5.24212,52.69572]},"properties":{"type":"charge","layer":"passenger","locationId":"624","name":"Shell Recharge NL Spoorsingel 108","address":"Spoorsingel 108","city":"Bovenkarspel","operatorName":"Ubitricity","maxPowerKw":11,"isMegawatt":false,"status":"AVAILABLE","source":"ndw","priceKwh":0.388}},{"type":"Feature","geometry":{"type":"Point","coordinates":[5.231111,52.698757]},"properties":{"type":"charge","layer":"passenger","locationId":"e4c0e490-6561-47a3-8dba-92bb9341a3fa","name":"TNLP009386 - Esdoornlaan 9, Grootebroek","address":"9 Esdoornlaan","city":"Grootebroek","operatorName":"TotalEnergies","maxPowerKw":15,"isMegawatt":false,"status":"AVAILABLE","source":"ndw"}},{"type":"Feature","geometry":{"type":"Point","coordinates":[5.20408,52.69654]},"properties":{"type":"charge","layer":"passenger","locationId":"4d205285-69fb-438d-8a7e-a9f2a6174d6b","name":"PP004259 - Asterlaan 1, Lutjebroek","address":"1 Asterlaan","city":"Lutjebroek","operatorName":"TotalEnergies","maxPowerKw":15,"isMegawatt":false,"status":"CHARGING","source":"ndw"}},{"type":"Feature","geometry":{"type":"Point","coordinates":[5.215925,52.692443]},"properties":{"type":"charge","layer":"passenger","locationId":"d8d8d98b-42e7-4929-831d-d6c52c6bb38a","name":"TNLP034267","address":"Raadhuislaan 16","city":"Grootebroek","operatorName":"TotalEnergies","maxPowerKw":14,"isMegawatt":false,"status":"AVAILABLE","source":"ndw"}},{"type":"Feature","geometry":{"type":"Point","coordinates":[5.217973,52.686222]},"properties":{"type":"charge","layer":"passenger","locationId":"9cc16467-47e5-495d-b0bf-005a8bda53bb","name":"TNLP007350 - Huisplaats 30, Grootebroek","address":"30 Huisplaats","city":"Grootebroek","operatorName":"TotalEnergies","maxPowerKw":13,"isMegawatt":false,"status":"CHARGING","source":"ndw"}},{"type":"Feature","geometry":{"type":"Point","coordinates":[5.23821,52.69868]},"properties":{"type":"charge","layer":"passenger","locationId":"16c6c6f7-e358-4f10-901c-25939be399e6","name":"PP004303 - Juk 5, Bovenkarspel","address":"5 Juk","city":"Bovenkarspel","operatorName":"TotalEnergies","maxPowerKw":13,"isMegawatt":false,"status":"AVAILABLE","source":"ndw"}},{"type":"Feature","geometry":{"type":"Point","coordinates":[5.222442,52.696476]},"properties":{"type":"charge","layer":"passenger","locationId":"10defc22-6665-4789-8f63-6a667b0d8800","name":"TNLP009606 - Sint Elisabethstraat 16, Grootebroek","address":"16 Sint Elisabethstraat","city":"Grootebroek","operatorName":"TotalEnergies","maxPowerKw":15,"isMegawatt":false,"status":"AVAILABLE","source":"ndw"}},{"type":"Feature","geometry":{"type":"Point","coordinates":[5.248986,52.696825]},"properties":{"type":"charge","layer":"passenger","locationId":"166a400f-f17c-4744-b794-bb8b10a1505d","name":"TNLP034022","address":"Outger Jacobszstraat 38","city":"Bovenkarspel","operatorName":"TotalEnergies","maxPowerKw":14,"isMegawatt":false,"status":"AVAILABLE","source":"ndw"}},{"type":"Feature","geometry":{"type":"Point","coordinates":[5.237635,52.696682]},"properties":{"type":"charge","layer":"passenger","locationId":"458dfbc2-ea0c-4f1f-8b00-a909b306ff81","name":"TNLP009871 - Zonnedauw 10, Bovenkarspel","address":"10 Zonnedauw","city":"Bovenkarspel","operatorName":"TotalEnergies","maxPowerKw":17,"isMegawatt":false,"status":"UNAVAILABLE","source":"ndw"}},{"type":"Feature","geometry":{"type":"Point","coordinates":[5.221263,52.6911371]},"properties":{"type":"charge","layer":"passenger","locationId":"1902","name":"Shell Recharge NL Abdij 4","address":"Abdij 4","city":"Grootebroek","operatorName":"Ubitricity","maxPowerKw":22,"isMegawatt":false,"status":"CHARGING","source":"ndw","priceKwh":0.266}},{"type":"Feature","geometry":{"type":"Point","coordinates":[5.223522,52.68821]},"properties":{"type":"charge","layer":"passenger","locationId":"8f32510a-58f3-418f-a7b0-119cb995ad24","name":"TNLP009600 - Kruisgang 30, Grootebroek","address":"30 Kruisgang","city":"Grootebroek","operatorName":"TotalEnergies","maxPowerKw":13,"isMegawatt":false,"status":"AVAILABLE","source":"ndw"}},{"type":"Feature","geometry":{"type":"Point","coordinates":[5.243193,52.6919]},"properties":{"type":"charge","layer":"passenger","locationId":"b3851ae6-81e3-4d29-86c3-83e636d8eb88","name":"TNLP006314 - Houtzaagmolensingel 2, Bovenkarspel","address":"2 Houtzaagmolensingel","city":"Bovenkarspel","operatorName":"TotalEnergies","maxPowerKw":13,"isMegawatt":false,"status":"AVAILABLE","source":"ndw"}},{"type":"Feature","geometry":{"type":"Point","coordinates":[5.211998,52.69965]},"properties":{"type":"charge","layer":"passenger","locationId":"9ac6fbd1-0491-43df-a6a0-1eab51d63bb3","name":"TNLP008163 - Annie M.G. Schmidtweg 75, Grootebroek","address":"75 Annie M.G. Schmidtweg","city":"Grootebroek","operatorName":"TotalEnergies","maxPowerKw":15,"isMegawatt":false,"status":"CHARGING","source":"ndw"}},{"type":"Feature","geometry":{"type":"Point","coordinates":[5.226846,52.699764]},"properties":{"type":"charge","layer":"passenger","locationId":"551b9cc9-d8b2-4aa4-9006-855e3f5a1907","name":"PP005162 - Beukenlaan 68, Grootebroek","address":"68 Beukenlaan","city":"Grootebroek","operatorName":"TotalEnergies","maxPowerKw":13,"isMegawatt":false,"status":"AVAILABLE","source":"ndw"}},{"type":"Feature","geometry":{"type":"Point","coordinates":[5.2340754,52.6881347]},"properties":{"type":"charge","layer":"passenger","locationId":"1132","name":"Shell Recharge NL Hertog Albrechtstraat 328","address":"Hertog Albrechtstraat 328","city":"Grootebroek","operatorName":"Ubitricity","maxPowerKw":22,"isMegawatt":false,"status":"AVAILABLE","source":"ndw","priceKwh":0.266}},{"type":"Feature","geometry":{"type":"Point","coordinates":[5.245498,52.694412]},"properties":{"type":"charge","layer":"passenger","locationId":"5f42efb0524e4f34b445cad0812cd9a1","name":"Korenmolenlaan 48","address":"Korenmolenlaan 48","city":"Bovenkarspel","operatorName":"Vattenfall InCharge","maxPowerKw":11,"isMegawatt":false,"status":"AVAILABLE","source":"ndw"}},{"type":"Feature","geometry":{"type":"Point","coordinates":[5.2357019,52.6999683]},"properties":{"type":"charge","layer":"passenger","locationId":"1064","name":"Shell Recharge NL Het Bunder 35","address":"Het Bunder 35","city":"Bovenkarspel","operatorName":"Ubitricity","maxPowerKw":22,"isMegawatt":false,"status":"AVAILABLE","source":"ndw","priceKwh":0.266}},{"type":"Feature","geometry":{"type":"Point","coordinates":[5.222471,52.68704]},"properties":{"type":"charge","layer":"passenger","locationId":"3a9e06ef-fe7f-44f0-8d96-65c5d0822811","name":"TNLP009717 - Koorkap 19, Grootebroek","address":"19 Koorkap","city":"Grootebroek","operatorName":"TotalEnergies","maxPowerKw":15,"isMegawatt":false,"status":"AVAILABLE","source":"ndw"}},{"type":"Feature","geometry":{"type":"Point","coordinates":[5.233316,52.691284]},"properties":{"type":"charge","layer":"passenger","locationId":"ed63bb63-65d4-4829-9379-7e295b2ae14b","name":"TNLP008495 - Graaf Willemstraat 324, Grootebroek","address":"324 Graaf Willemstraat","city":"Grootebroek","operatorName":"TotalEnergies","maxPowerKw":14,"isMegawatt":false,"status":"AVAILABLE","source":"ndw"}},{"type":"Feature","geometry":{"type":"Point","coordinates":[5.21827,52.693217]},"properties":{"type":"charge","layer":"passenger","locationId":"923452","name":"DAE_NL_2000911","address":"Nijverheidsweg 1","city":"Grootebroek","operatorName":"DAEN Mobility","maxPowerKw":11,"isMegawatt":false,"status":"AVAILABLE","source":"ndw","priceKwh":0.29}},{"type":"Feature","geometry":{"type":"Point","coordinates":[5.218608,52.70141]},"properties":{"type":"charge","layer":"passenger","locationId":"f560819d-cb96-4aa8-91dd-4d29ba19dd8e","name":"TNLP009525 - Renate Rubinsteinlaan 41, Grootebroek","address":"41 Renate Rubinsteinlaan","city":"Grootebroek","operatorName":"TotalEnergies","maxPowerKw":15,"isMegawatt":false,"status":"AVAILABLE","source":"ndw"}},{"type":"Feature","geometry":{"type":"Point","coordinates":[5.239563,52.689606]},"properties":{"type":"charge","layer":"passenger","locationId":"5bef20fe-8e24-4d6d-b60d-7529c49e9799","name":"TNLP005809 - Bourgondiëweg 133, Bovenkarspel","address":"133 Bourgondiëweg","city":"Bovenkarspel","operatorName":"TotalEnergies","maxPowerKw":15,"isMegawatt":false,"status":"AVAILABLE","source":"ndw"}},{"type":"Feature","geometry":{"type":"Point","coordinates":[5.246041,52.690867]},"properties":{"type":"charge","layer":"passenger","locationId":"b23c8055330de58d5bc2d632ab4f119a","name":"Piet van Egmondweg 2","address":"Piet van Egmondweg 2","city":"Bovenkarspel","operatorName":"Vattenfall InCharge","maxPowerKw":11,"isMegawatt":false,"status":"CHARGING","source":"ndw"}},{"type":"Feature","geometry":{"type":"Point","coordinates":[5.204097,52.698937]},"properties":{"type":"charge","layer":"passenger","locationId":"687fcd36dcbb2076ea6b937e","name":"Bureau KB","address":"Odulphushof 9","city":"Lutjebroek","operatorName":"E-Flux by Road","maxPowerKw":22,"isMegawatt":false,"status":"UNAVAILABLE","source":"ndw","priceKwh":0.47}},{"type":"Feature","geometry":{"type":"Point","coordinates":[5.23791,52.69538]},"properties":{"type":"charge","layer":"passenger","locationId":"c0437de1-22a1-41a8-b5b3-ee858fe9f21c","name":"TNLP003586 - Middenweg 2, Bovenkarspel","address":"2 Middenweg","city":"Bovenkarspel","operatorName":"TotalEnergies","maxPowerKw":17,"isMegawatt":false,"status":"AVAILABLE","source":"ndw"}},{"type":"Feature","geometry":{"type":"Point","coordinates":[5.24966,52.69447]},"properties":{"type":"charge","layer":"passenger","locationId":"2e70d762-e7b6-4bf5-899d-7a33fa981ec4","name":"PP005075 - Keizerskroonweg 39, Bovenkarspel","address":"39 Keizerskroonweg","city":"Bovenkarspel","operatorName":"TotalEnergies","maxPowerKw":13,"isMegawatt":false,"status":"AVAILABLE","source":"ndw"}},{"type":"Feature","geometry":{"type":"Point","coordinates":[5.248247,52.692522]},"properties":{"type":"charge","layer":"passenger","locationId":"5f0e471cb9094c423cfc500c150cfb46","name":"Krelagehof 26","address":"Krelagehof 26","city":"Bovenkarspel","operatorName":"Vattenfall InCharge","maxPowerKw":11,"isMegawatt":false,"status":"AVAILABLE","source":"ndw"}},{"type":"Feature","geometry":{"type":"Point","coordinates":[5.230679,52.693195]},"properties":{"type":"charge","layer":"passenger","locationId":"d59943ccd3c7c1556e21cc7ae911b192","name":"Industrieweg 37","address":"Industrieweg 37","city":"Grootebroek","operatorName":"Vattenfall InCharge","maxPowerKw":11,"isMegawatt":false,"status":"AVAILABLE","source":"ndw"}},{"type":"Feature","geometry":{"type":"MultiPolygon","coordinates":[[[[5.256724411280559,52.68671282989687],[5.256363866607332,52.686011526809914],[5.254265300561373,52.68665657461468],[5.246480051971645,52.68551182985405],[5.246055887796709,52.68584370076229],[5.246017101006418,52.686393110507375],[5.243421206028294,52.68624347528763],[5.235432526192401,52.68602905205993],[5.233168850254991,52.68589901996744],[5.224861327094485,52.68523648788418],[5.215235838779568,52.68442191079532],[5.214435221543939,52.68434619092658],[5.208790128931569,52.68380904045498],[5.206231240645117,52.68259433131849],[5.2046996984105744,52.67794038948038],[5.204594768582464,52.67761344972595],[5.195694510066434,52.69221464737095],[5.195999267001417,52.692277363473195],[5.195805348449234,52.69260806566132],[5.195729940691309,52.692746652114295],[5.1934362871273665,52.69659427381794],[5.192766143140535,52.69784350123337],[5.190337263530942,52.70190289034105],[5.190246904630498,52.702056793577874],[5.1870227804555125,52.70745171884734],[5.1853730941733085,52.71022801200596],[5.210385501060325,52.716776213851595],[5.220133451938406,52.71769631700166],[5.230251086423487,52.717369801142944],[5.2575015871224995,52.716180698842685],[5.258158440555373,52.70904785232171],[5.258459810462873,52.70470089619539],[5.258743084381224,52.7006880683817],[5.258956767374656,52.69675557772649],[5.258959209113196,52.696616078753664],[5.258979874171352,52.695956735304016],[5.259248539016487,52.68690538523413],[5.256724411280559,52.68671282989687]]]]},"properties":{"type":"boundary","gemeente":"Stede Broec","code":"GM0532"}}]}