{"type":"FeatureCollection","metadata":{"gemeente":"Teylingen","slug":"teylingen","code":"GM1525","generated_at":"2026-07-06T16:26:11.361Z","total_passenger":160,"total_freight":0,"bounds":[4.455648013370849,52.17985128488418,4.561661318917723,52.25499180732609],"operators":["Allego","DAEN Mobility","E-Flux by Road","Eneco","Laadnet","Mobiflow","Opcharge","Pluq","Spirii","StellaPower®","Tesla","Vattenfall InCharge"]},"features":[{"type":"Feature","geometry":{"type":"Point","coordinates":[4.481237,52.228746]},"properties":{"type":"charge","layer":"passenger","locationId":"NLCCH00613","name":"Teylingen - Voorhout - Meidoornrode 18","address":"Meidoornrode 18","city":"Teylingen","operatorName":"","maxPowerKw":11,"isMegawatt":false,"status":"AVAILABLE","source":"ndw","priceKwh":0.5549}},{"type":"Feature","geometry":{"type":"Point","coordinates":[4.51778,52.2217]},"properties":{"type":"charge","layer":"passenger","locationId":"NL000081","name":"Hoekstraat 5  Sassenheim","address":"Hoekstraat 5","city":"Teylingen","operatorName":"StellaPower®","maxPowerKw":17,"isMegawatt":false,"status":"AVAILABLE","source":"ndw","priceKwh":0.471}},{"type":"Feature","geometry":{"type":"Point","coordinates":[4.531463,52.22391]},"properties":{"type":"charge","layer":"passenger","locationId":"NLLOC006892","name":"NL, Kagertuinen 8, 2172XM, Sassenheim","address":"Kagertuinen 8","city":"Sassenheim","operatorName":"Allego","maxPowerKw":11,"isMegawatt":false,"status":"AVAILABLE","source":"ndw","priceKwh":0.511}},{"type":"Feature","geometry":{"type":"Point","coordinates":[4.512442,52.221315]},"properties":{"type":"charge","layer":"passenger","locationId":"NLLOC018811","name":"NL, Kerkeland 2, 2171PS, Sassenheim","address":"Kerkeland 2","city":"Sassenheim","operatorName":"Allego","maxPowerKw":11,"isMegawatt":false,"status":"AVAILABLE","source":"ndw","priceKwh":0.511}},{"type":"Feature","geometry":{"type":"Point","coordinates":[4.49474,52.211]},"properties":{"type":"charge","layer":"passenger","locationId":"DEA84ACB-694A-48EC-A4D6-F808B21796F1","name":"Eneco eMobility Wattstraat 20, Sassenheim,","address":"Wattstraat 20","city":"Sassenheim","operatorName":"Eneco","maxPowerKw":22,"isMegawatt":false,"status":"CHARGING","source":"ndw","priceKwh":0.32}},{"type":"Feature","geometry":{"type":"Point","coordinates":[4.48791,52.230169]},"properties":{"type":"charge","layer":"passenger","locationId":"NLLOC002343","name":"NL, Hyacint 17, 2215 CT Voorhout","address":"Hyacint 17","city":"Voorhout","operatorName":"Allego","maxPowerKw":11,"isMegawatt":false,"status":"AVAILABLE","source":"ndw","priceKwh":0.511}},{"type":"Feature","geometry":{"type":"Point","coordinates":[4.493681,52.22201]},"properties":{"type":"charge","layer":"passenger","locationId":"NLLOC019992","name":"NL, Kruidenschans 185, 2215TW, Voorhout","address":"Kruidenschans 185","city":"Voorhout","operatorName":"Allego","maxPowerKw":11,"isMegawatt":false,"status":"AVAILABLE","source":"ndw","priceKwh":0.511}},{"type":"Feature","geometry":{"type":"Point","coordinates":[4.51581,52.226198]},"properties":{"type":"charge","layer":"passenger","locationId":"NLCCH00555","name":"Teylingen - Sassenheim - Willibrorduslaan 11","address":"Willibrorduslaan 11","city":"Teylingen","operatorName":"","maxPowerKw":11,"isMegawatt":false,"status":"AVAILABLE","source":"ndw","priceKwh":0.5549}},{"type":"Feature","geometry":{"type":"Point","coordinates":[4.486502,52.227101]},"properties":{"type":"charge","layer":"passenger","locationId":"NLCCH00907","name":"Teylingen - Voorhout - Chopinlaan 1","address":"Chopinlaan 1","city":"Teylingen","operatorName":"","maxPowerKw":11,"isMegawatt":false,"status":"AVAILABLE","source":"ndw","priceKwh":0.5549}},{"type":"Feature","geometry":{"type":"Point","coordinates":[4.493863,52.219186]},"properties":{"type":"charge","layer":"passenger","locationId":"NLLOC017069","name":"NL, Wilgenhorst 12, 2215WV, Voorhout","address":"Wilgenhorst 12","city":"Voorhout","operatorName":"Allego","maxPowerKw":11,"isMegawatt":false,"status":"AVAILABLE","source":"ndw","priceKwh":0.511}},{"type":"Feature","geometry":{"type":"Point","coordinates":[4.530958,52.225787]},"properties":{"type":"charge","layer":"passenger","locationId":"NLLOC003225","name":"NLD, Industriekade 5, 2172 HV, Sassenheim","address":"Industriekade 5","city":"Sassenheim","operatorName":"Allego","maxPowerKw":11,"isMegawatt":false,"status":"AVAILABLE","source":"ndw","priceKwh":0.511}},{"type":"Feature","geometry":{"type":"Point","coordinates":[4.490776,52.217662]},"properties":{"type":"charge","layer":"passenger","locationId":"NLCCH00908","name":"Teylingen - Voorhout - Fuchsiastraat 19","address":"Fuchsiastraat 19","city":"Teylingen","operatorName":"","maxPowerKw":11,"isMegawatt":false,"status":"AVAILABLE","source":"ndw","priceKwh":0.5549}},{"type":"Feature","geometry":{"type":"Point","coordinates":[4.488654,52.215411]},"properties":{"type":"charge","layer":"passenger","locationId":"NLLOC003226","name":"NLD, Nijverheidsweg 32, 2215 MH, Voorhout","address":"Nijverheidsweg 32","city":"Voorhout","operatorName":"Allego","maxPowerKw":11,"isMegawatt":false,"status":"UNAVAILABLE","source":"ndw","priceKwh":0.511}},{"type":"Feature","geometry":{"type":"Point","coordinates":[4.502515,52.240048]},"properties":{"type":"charge","layer":"passenger","locationId":"NLCCH00560","name":"Teylingen - Voorhout - Bergamolaan t.h.v. s-Gravendamseweg 3","address":"'s-Gravendamseweg 3","city":"Teylingen","operatorName":"","maxPowerKw":11,"isMegawatt":false,"status":"AVAILABLE","source":"ndw","priceKwh":0.5549}},{"type":"Feature","geometry":{"type":"Point","coordinates":[4.500733,52.225014]},"properties":{"type":"charge","layer":"passenger","locationId":"NLLOC002204","name":"NLD, Voorhout, Voornhof 45 2215 XB Voorhout","address":"Voornhof 45","city":"Voorhout","operatorName":"Allego","maxPowerKw":11,"isMegawatt":false,"status":"AVAILABLE","source":"ndw","priceKwh":0.511}},{"type":"Feature","geometry":{"type":"Point","coordinates":[4.484433,52.219754]},"properties":{"type":"charge","layer":"passenger","locationId":"6724b3be6c92f1c3c9f28c46","name":"Voorhout/Laan van Welgelegen 11","address":"Laan van Welgelegen 11","city":"Voorhout","operatorName":"E-Flux by Road","maxPowerKw":14,"isMegawatt":false,"status":"CHARGING","source":"ndw","priceKwh":0.5217}},{"type":"Feature","geometry":{"type":"Point","coordinates":[4.500813,52.197387]},"properties":{"type":"charge","layer":"passenger","locationId":"673223f69765478dfd359913","name":"Warmond/Machenlaan 42","address":"Machenlaan 42","city":"Warmond","operatorName":"E-Flux by Road","maxPowerKw":14,"isMegawatt":false,"status":"AVAILABLE","source":"ndw","priceKwh":0.5217}},{"type":"Feature","geometry":{"type":"Point","coordinates":[4.500338,52.22416]},"properties":{"type":"charge","layer":"passenger","locationId":"NLCCH00670","name":"Teylingen - Voorhout - Snoeklaan 156","address":"Snoeklaan 156","city":"Teylingen","operatorName":"","maxPowerKw":11,"isMegawatt":false,"status":"AVAILABLE","source":"ndw","priceKwh":0.5549}},{"type":"Feature","geometry":{"type":"Point","coordinates":[4.51691,52.22588]},"properties":{"type":"charge","layer":"passenger","locationId":"NL000078","name":"Prins Hendriklaan 21 Sassenheim","address":"Prins Hendriklaan 21","city":"Teylingen","operatorName":"StellaPower®","maxPowerKw":17,"isMegawatt":false,"status":"AVAILABLE","source":"ndw","priceKwh":0.471}},{"type":"Feature","geometry":{"type":"Point","coordinates":[4.509919,52.22041]},"properties":{"type":"charge","layer":"passenger","locationId":"68c2c5f96f7ae148095ffc8d","name":"Sassenheim/ Pelikaan 112","address":"Pelikaan 112","city":"Sassenheim","operatorName":"E-Flux by Road","maxPowerKw":14,"isMegawatt":false,"status":"AVAILABLE","source":"ndw","priceKwh":0.5217}},{"type":"Feature","geometry":{"type":"Point","coordinates":[4.529107,52.222047]},"properties":{"type":"charge","layer":"passenger","locationId":"68063a6299929bd81757a7ef","name":"Sassenheim/Essenlaan 50","address":"Essenlaan 50","city":"Sassenheim","operatorName":"E-Flux by Road","maxPowerKw":14,"isMegawatt":false,"status":"AVAILABLE","source":"ndw","priceKwh":0.5217}},{"type":"Feature","geometry":{"type":"Point","coordinates":[4.479645,52.22254]},"properties":{"type":"charge","layer":"passenger","locationId":"NLLOC002893","name":"NLD, Oranje Nassaulaan 35, Voorhout","address":"Oranje Nassaulaan 35","city":"Voorhout","operatorName":"Allego","maxPowerKw":11,"isMegawatt":false,"status":"AVAILABLE","source":"ndw","priceKwh":0.511}},{"type":"Feature","geometry":{"type":"Point","coordinates":[4.490495,52.222919]},"properties":{"type":"charge","layer":"passenger","locationId":"NLCCH00931","name":"Teylingen - Voorhout - Kruidenschans naast Bonekruidstraat 22","address":"Bonekruidstraat 22","city":"Teylingen","operatorName":"","maxPowerKw":11,"isMegawatt":false,"status":"AVAILABLE","source":"ndw","priceKwh":0.5549}},{"type":"Feature","geometry":{"type":"Point","coordinates":[4.506003,52.226363]},"properties":{"type":"charge","layer":"passenger","locationId":"923485","name":"DAE_NL_2001259","address":"Eikenhorstlaan 1 A","city":"Voorhout","operatorName":"DAEN Mobility","maxPowerKw":11,"isMegawatt":false,"status":"AVAILABLE","source":"ndw","priceKwh":0.45}},{"type":"Feature","geometry":{"type":"Point","coordinates":[4.495687,52.224623]},"properties":{"type":"charge","layer":"passenger","locationId":"923586","name":"Kervelhof","address":"Kervelhof 74","city":"Voorhout","operatorName":"Mobiflow","maxPowerKw":22,"isMegawatt":false,"status":"AVAILABLE","source":"ndw","priceKwh":0.3571}},{"type":"Feature","geometry":{"type":"Point","coordinates":[4.501801,52.195989]},"properties":{"type":"charge","layer":"passenger","locationId":"6822eda61afff1fb1f526209","name":"Warmond/Krusemanstraat 1, 2361EG","address":"Krusemanstraat 1","city":"Warmond","operatorName":"E-Flux by Road","maxPowerKw":14,"isMegawatt":false,"status":"AVAILABLE","source":"ndw","priceKwh":0.5217}},{"type":"Feature","geometry":{"type":"Point","coordinates":[4.525791,52.228926]},"properties":{"type":"charge","layer":"passenger","locationId":"NLLOC002295","name":"NLD, Sassenheim, Hoofdstraat 290","address":"Hoofdstraat 290","city":"Sassenheim","operatorName":"Allego","maxPowerKw":11,"isMegawatt":false,"status":"AVAILABLE","source":"ndw","priceKwh":0.511}},{"type":"Feature","geometry":{"type":"Point","coordinates":[4.52591,52.21876]},"properties":{"type":"charge","layer":"passenger","locationId":"NL000087","name":"Vijfmeiweg 37a Sassenheim","address":"Vijfmeiweg 37a","city":"Teylingen","operatorName":"StellaPower®","maxPowerKw":17,"isMegawatt":false,"status":"AVAILABLE","source":"ndw","priceKwh":0.471}},{"type":"Feature","geometry":{"type":"Point","coordinates":[4.514323,52.214915]},"properties":{"type":"charge","layer":"passenger","locationId":"97f73be20e889ebdbe338da466615a69","name":"Stationslaan 1","address":"Stationslaan 1","city":"Sassenheim","operatorName":"Vattenfall InCharge","maxPowerKw":50,"isMegawatt":false,"status":"AVAILABLE","source":"ndw"}},{"type":"Feature","geometry":{"type":"Point","coordinates":[4.487482,52.228791]},"properties":{"type":"charge","layer":"passenger","locationId":"67f66ca7a934f457897dc243","name":"Voorhout/Ravellaan 7","address":"Ravellaan 7","city":"Voorhout","operatorName":"E-Flux by Road","maxPowerKw":14,"isMegawatt":false,"status":"AVAILABLE","source":"ndw","priceKwh":0.5217}},{"type":"Feature","geometry":{"type":"Point","coordinates":[4.520101,52.222046]},"properties":{"type":"charge","layer":"passenger","locationId":"NLCCH00906","name":"Teylingen - Sassenheim - Narcissenlaan 17","address":"Narcissenlaan 17","city":"Teylingen","operatorName":"","maxPowerKw":11,"isMegawatt":false,"status":"AVAILABLE","source":"ndw","priceKwh":0.5549}},{"type":"Feature","geometry":{"type":"Point","coordinates":[4.475449,52.218834]},"properties":{"type":"charge","layer":"passenger","locationId":"68a685d449824d1f86b3248baca7bde6","name":"Voorhout Buitenplaats Nieuw Schoonoord ","address":"Rijnsburgerweg 4","city":"Voorhout","operatorName":"Opcharge","maxPowerKw":22,"isMegawatt":false,"status":"AVAILABLE","source":"ndw","priceKwh":0.49}},{"type":"Feature","geometry":{"type":"Point","coordinates":[4.475834,52.22044]},"properties":{"type":"charge","layer":"passenger","locationId":"69006dc49293669f3aa68d61","name":"Teylingen College KTS voorplein","address":"Leidsevaart  4","city":"Voorhout","operatorName":"E-Flux by Road","maxPowerKw":11,"isMegawatt":false,"status":"AVAILABLE","source":"ndw","priceKwh":0.55}},{"type":"Feature","geometry":{"type":"Point","coordinates":[4.49649,52.22661]},"properties":{"type":"charge","layer":"passenger","locationId":"NL000094","name":"Kroeskarperlaan 50 Voorhout","address":"Kroeskarperlaan 50","city":"Teylingen","operatorName":"StellaPower®","maxPowerKw":17,"isMegawatt":false,"status":"AVAILABLE","source":"ndw","priceKwh":0.471}},{"type":"Feature","geometry":{"type":"Point","coordinates":[4.503381,52.21324]},"properties":{"type":"charge","layer":"passenger","locationId":"3fa13937-db1b-4f7b-927a-197ae3526eda","name":"Sassenheim, Netherlands","address":"8, Warmonderweg","city":"Sassenheim","operatorName":"Tesla","maxPowerKw":250,"isMegawatt":false,"status":"AVAILABLE","source":"ndw","priceKwh":0.53}},{"type":"Feature","geometry":{"type":"Point","coordinates":[4.499901,52.211697]},"properties":{"type":"charge","layer":"passenger","locationId":"4753831","name":"Laadnet Wesseling Transport","address":"Rijksstraatweg 52","city":"Sassenheim","operatorName":"Laadnet","maxPowerKw":22,"isMegawatt":false,"status":"AVAILABLE","source":"ndw"}},{"type":"Feature","geometry":{"type":"Point","coordinates":[4.492077,52.210129]},"properties":{"type":"charge","layer":"passenger","locationId":"3966740","name":"Laadnet Edisonstraat 11","address":"Edisonstraat 11","city":"Sassenheim","operatorName":"Laadnet","maxPowerKw":22,"isMegawatt":false,"status":"AVAILABLE","source":"ndw"}},{"type":"Feature","geometry":{"type":"Point","coordinates":[4.50844,52.20973]},"properties":{"type":"charge","layer":"passenger","locationId":"E05735EF-16DC-4C8A-8652-5A92D34CBAD5","name":"Eneco eMobility Greenib Onroerend Goed B.V. - Warmond","address":"Oosteinde 34","city":"Warmond","operatorName":"Eneco","maxPowerKw":22,"isMegawatt":false,"status":"AVAILABLE","source":"ndw","priceKwh":0.43}},{"type":"Feature","geometry":{"type":"Point","coordinates":[4.492402,52.229223]},"properties":{"type":"charge","layer":"passenger","locationId":"NLLOC014338","name":"NL, Laurierhaag 17, 2216AG, Voorhout","address":"Laurierhaag 17","city":"Voorhout","operatorName":"Allego","maxPowerKw":11,"isMegawatt":false,"status":"AVAILABLE","source":"ndw","priceKwh":0.511}},{"type":"Feature","geometry":{"type":"Point","coordinates":[4.481888,52.216577]},"properties":{"type":"charge","layer":"passenger","locationId":"67f66b0c1d76d6e65351c32d","name":"Voorhout/Sportlaan 7","address":"Sportlaan 7","city":"Voorhout","operatorName":"E-Flux by Road","maxPowerKw":14,"isMegawatt":false,"status":"AVAILABLE","source":"ndw","priceKwh":0.5217}},{"type":"Feature","geometry":{"type":"Point","coordinates":[4.531382,52.220859]},"properties":{"type":"charge","layer":"passenger","locationId":"NLLOC009801","name":"NL, Kagerdreef 90, 2172 HM, Sassenheim","address":"Kagerdreef 90","city":"Sassenheim","operatorName":"Allego","maxPowerKw":11,"isMegawatt":false,"status":"AVAILABLE","source":"ndw","priceKwh":0.511}},{"type":"Feature","geometry":{"type":"Point","coordinates":[4.503211,52.196995]},"properties":{"type":"charge","layer":"passenger","locationId":"NLLOC007576","name":"NL, Herenweg 73, 2361 EH, Warmond","address":"Herenweg 73","city":"Warmond","operatorName":"Allego","maxPowerKw":11,"isMegawatt":false,"status":"CHARGING","source":"ndw","priceKwh":0.511}},{"type":"Feature","geometry":{"type":"Point","coordinates":[4.489435,52.231229]},"properties":{"type":"charge","layer":"passenger","locationId":"NLLOC017589","name":"NL, Narcis 2, 2215SX, Voorhout","address":"Narcis 2","city":"Voorhout","operatorName":"Allego","maxPowerKw":11,"isMegawatt":false,"status":"AVAILABLE","source":"ndw","priceKwh":0.511}},{"type":"Feature","geometry":{"type":"Point","coordinates":[4.485666,52.230812]},"properties":{"type":"charge","layer":"passenger","locationId":"673472f58c978473389c4bbe","name":"Voorhout/Strausspark 61, 2216EG Voorhout","address":"Strausspark 61","city":"Voorhout","operatorName":"E-Flux by Road","maxPowerKw":14,"isMegawatt":false,"status":"AVAILABLE","source":"ndw","priceKwh":0.435}},{"type":"Feature","geometry":{"type":"Point","coordinates":[4.481755,52.222408]},"properties":{"type":"charge","layer":"passenger","locationId":"67a372a42ffa5dde04129fc8","name":"Teylingen/Irenestraat 4","address":"Irenestraat 4","city":"Voorhout","operatorName":"E-Flux by Road","maxPowerKw":14,"isMegawatt":false,"status":"AVAILABLE","source":"ndw","priceKwh":0.5217}},{"type":"Feature","geometry":{"type":"Point","coordinates":[4.485644,52.217457]},"properties":{"type":"charge","layer":"passenger","locationId":"NLLOC007491","name":"NL, Rooseveltlaan 4, 2215 NX, Voorhout","address":"Rooseveltlaan 4","city":"Voorhout","operatorName":"Allego","maxPowerKw":11,"isMegawatt":false,"status":"AVAILABLE","source":"ndw","priceKwh":0.511}},{"type":"Feature","geometry":{"type":"Point","coordinates":[4.487478,52.230345]},"properties":{"type":"charge","layer":"passenger","locationId":"NLLOC009875","name":"NL, Vivaldipark 122, 2215 LZ, Voorhout","address":"Vivaldipark 122","city":"Voorhout","operatorName":"Allego","maxPowerKw":11,"isMegawatt":false,"status":"AVAILABLE","source":"ndw","priceKwh":0.511}},{"type":"Feature","geometry":{"type":"Point","coordinates":[4.485563,52.225668]},"properties":{"type":"charge","layer":"passenger","locationId":"NLLOC003329","name":"NLD, Voorhout, Beethovenlaan 2","address":"Beethovenlaan 2","city":"Voorhout","operatorName":"Allego","maxPowerKw":11,"isMegawatt":false,"status":"AVAILABLE","source":"ndw","priceKwh":0.511}},{"type":"Feature","geometry":{"type":"Point","coordinates":[4.502445,52.190578]},"properties":{"type":"charge","layer":"passenger","locationId":"64b8ea6bb44228001cbad499","name":"Mulder Marina","address":"Veerpolder 55","city":"Warmond","operatorName":"E-Flux by Road","maxPowerKw":22,"isMegawatt":false,"status":"UNAVAILABLE","source":"ndw"}},{"type":"Feature","geometry":{"type":"Point","coordinates":[4.521841,52.230227]},"properties":{"type":"charge","layer":"passenger","locationId":"68247cf48ba7cfae4337c1b6","name":"Sassenheim/Rietschelftlaan-Papendrechtlaan 6","address":"Papendrechtlaan 6","city":"Sassenheim","operatorName":"E-Flux by Road","maxPowerKw":14,"isMegawatt":false,"status":"AVAILABLE","source":"ndw","priceKwh":0.5217}},{"type":"Feature","geometry":{"type":"Point","coordinates":[4.495455,52.210784]},"properties":{"type":"charge","layer":"passenger","locationId":"615d9c4e3e8839c7afd18c25","name":"F&Y station","address":"Wattstraat 52","city":"Sassenheim","operatorName":"E-Flux by Road","maxPowerKw":11,"isMegawatt":false,"status":"AVAILABLE","source":"ndw","priceKwh":0.38}},{"type":"Feature","geometry":{"type":"Point","coordinates":[4.474996,52.223636]},"properties":{"type":"charge","layer":"passenger","locationId":"68245381426d19b1562c44a0","name":"Teylingen/Boekenburglaan 6","address":"Boekenburglaan 6","city":"Voorhout","operatorName":"E-Flux by Road","maxPowerKw":14,"isMegawatt":false,"status":"AVAILABLE","source":"ndw","priceKwh":0.5217}},{"type":"Feature","geometry":{"type":"Point","coordinates":[4.492926,52.191519]},"properties":{"type":"charge","layer":"passenger","locationId":"69a59eda72928eae0386c039","name":"Warmond/ Lommerlustlaan 9","address":"Lommerlustlaan 9","city":"Warmond","operatorName":"E-Flux by Road","maxPowerKw":14,"isMegawatt":false,"status":"AVAILABLE","source":"ndw","priceKwh":0.5217}},{"type":"Feature","geometry":{"type":"Point","coordinates":[4.50623,52.202222]},"properties":{"type":"charge","layer":"passenger","locationId":"67346fd63c8cd3b5cc679587","name":"Warmond/Marijkestraat 10","address":"Marijkestraat 10","city":"Warmond","operatorName":"E-Flux by Road","maxPowerKw":14,"isMegawatt":false,"status":"UNAVAILABLE","source":"ndw","priceKwh":0.5217}},{"type":"Feature","geometry":{"type":"Point","coordinates":[4.498925,52.196251]},"properties":{"type":"charge","layer":"passenger","locationId":"NLCCH00853","name":"Teylingen - Warmond - De Weiden achter Bijleveldlaan 23","address":"Bijleveldlaan  23","city":"Warmond","operatorName":"","maxPowerKw":11,"isMegawatt":false,"status":"CHARGING","source":"ndw","priceKwh":0.5549}},{"type":"Feature","geometry":{"type":"Point","coordinates":[4.518949,52.227936]},"properties":{"type":"charge","layer":"passenger","locationId":"68bee1c8c7e0ca5739984a0d","name":"Sassenheim/ Valkeniershof 12","address":"Valkeniershof  12","city":"Sassenheim","operatorName":"E-Flux by Road","maxPowerKw":14,"isMegawatt":false,"status":"AVAILABLE","source":"ndw","priceKwh":0.5217}},{"type":"Feature","geometry":{"type":"Point","coordinates":[4.510794,52.217742]},"properties":{"type":"charge","layer":"passenger","locationId":"47164","name":"Zorgboodschap","address":"Wasbeekerlaan 9","city":"Sassenheim","operatorName":"Spirii","maxPowerKw":38,"isMegawatt":false,"status":"AVAILABLE","source":"ndw","priceKwh":0.36}},{"type":"Feature","geometry":{"type":"Point","coordinates":[4.480051,52.225516]},"properties":{"type":"charge","layer":"passenger","locationId":"NLLOC003709","name":"NLD, Voorhout, Boekhorstlaan 226","address":"Boekhorstlaan 226","city":"Voorhout","operatorName":"Allego","maxPowerKw":11,"isMegawatt":false,"status":"AVAILABLE","source":"ndw","priceKwh":0.511}},{"type":"Feature","geometry":{"type":"Point","coordinates":[4.494519,52.230749]},"properties":{"type":"charge","layer":"passenger","locationId":"NLLOC007096","name":"NL, Buxushaag 42, 2216 AD, Voorhout","address":"Buxushaag 42","city":"Voorhout","operatorName":"Allego","maxPowerKw":11,"isMegawatt":false,"status":"AVAILABLE","source":"ndw","priceKwh":0.511}},{"type":"Feature","geometry":{"type":"Point","coordinates":[4.501416,52.216348]},"properties":{"type":"charge","layer":"passenger","locationId":"6853c52484a626fb53d318d3","name":"Sassenheim / Roodemolenweg 8 /2171AX","address":"Roodemolenweg 8","city":"Sassenheim","operatorName":"E-Flux by Road","maxPowerKw":14,"isMegawatt":false,"status":"AVAILABLE","source":"ndw","priceKwh":0.5217}},{"type":"Feature","geometry":{"type":"Point","coordinates":[4.510283,52.222285]},"properties":{"type":"charge","layer":"passenger","locationId":"67c9e91ed0bc0a92814827be","name":"Sassenheim/Palfreniersweg 14","address":"Palfreniersweg  14","city":"Sassenheim","operatorName":"E-Flux by Road","maxPowerKw":14,"isMegawatt":false,"status":"AVAILABLE","source":"ndw","priceKwh":0.5217}},{"type":"Feature","geometry":{"type":"Point","coordinates":[4.497536,52.226788]},"properties":{"type":"charge","layer":"passenger","locationId":"NLLOC007398","name":"NL, Bleihof 1, 2215 XS, Voorhout","address":"Bleihof 1","city":"Voorhout","operatorName":"Allego","maxPowerKw":11,"isMegawatt":false,"status":"AVAILABLE","source":"ndw","priceKwh":0.511}},{"type":"Feature","geometry":{"type":"Point","coordinates":[4.512234,52.225084]},"properties":{"type":"charge","layer":"passenger","locationId":"NLLOC001742","name":"NLD, Sassenheim, B.G.J. Berntzenstraat 1","address":"B.G.J. Berntzenstraat 1","city":"Sassenheim","operatorName":"Allego","maxPowerKw":11,"isMegawatt":false,"status":"CHARGING","source":"ndw","priceKwh":0.511}},{"type":"Feature","geometry":{"type":"Point","coordinates":[4.506601,52.20045]},"properties":{"type":"charge","layer":"passenger","locationId":"NLLOC002912","name":"NLD, Warmond, Dr. Ammanstraat 2","address":"Dr. Ammanstraat 2","city":"Warmond","operatorName":"Allego","maxPowerKw":11,"isMegawatt":false,"status":"AVAILABLE","source":"ndw","priceKwh":0.511}},{"type":"Feature","geometry":{"type":"Point","coordinates":[4.505357,52.219253]},"properties":{"type":"charge","layer":"passenger","locationId":"NLLOC002053","name":"NLD, Sassenheim, Albert Plesmanlaan 11","address":"Albert Plesmanlaan 11","city":"Sassenheim","operatorName":"Allego","maxPowerKw":11,"isMegawatt":false,"status":"AVAILABLE","source":"ndw","priceKwh":0.511}},{"type":"Feature","geometry":{"type":"Point","coordinates":[4.51716,52.223889]},"properties":{"type":"charge","layer":"passenger","locationId":"NLLOC001744","name":"NLD, Sassenheim, Julianalaan 3","address":"Julianalaan 3","city":"Sassenheim","operatorName":"Allego","maxPowerKw":11,"isMegawatt":false,"status":"AVAILABLE","source":"ndw","priceKwh":0.511}},{"type":"Feature","geometry":{"type":"Point","coordinates":[4.515512,52.218506]},"properties":{"type":"charge","layer":"passenger","locationId":"NLLOC019917","name":"NL, Kwekersweg 94, 2171DZ, Sassenheim","address":"Kwekersweg 94","city":"Sassenheim","operatorName":"Allego","maxPowerKw":11,"isMegawatt":false,"status":"CHARGING","source":"ndw","priceKwh":0.511}},{"type":"Feature","geometry":{"type":"Point","coordinates":[4.513816,52.222851]},"properties":{"type":"charge","layer":"passenger","locationId":"NLLOC018122","name":"NL, Prins Clausstraat 1, 2171XV, Sassenheim","address":"Prins Clausstraat 1","city":"Sassenheim","operatorName":"Allego","maxPowerKw":11,"isMegawatt":false,"status":"AVAILABLE","source":"ndw","priceKwh":0.511}},{"type":"Feature","geometry":{"type":"Point","coordinates":[4.485369,52.223968]},"properties":{"type":"charge","layer":"passenger","locationId":"NLLOC002250","name":"NLD, Voorhout, Componistenlaan 1","address":"Componistenlaan 1","city":"Voorhout","operatorName":"Allego","maxPowerKw":11,"isMegawatt":false,"status":"AVAILABLE","source":"ndw","priceKwh":0.511}},{"type":"Feature","geometry":{"type":"Point","coordinates":[4.49077,52.231939]},"properties":{"type":"charge","layer":"passenger","locationId":"NLLOC006214","name":"NL, Krokus 4, 2215 SW, Voorhout","address":"Krokus 4","city":"Voorhout","operatorName":"Allego","maxPowerKw":11,"isMegawatt":false,"status":"AVAILABLE","source":"ndw","priceKwh":0.511}},{"type":"Feature","geometry":{"type":"Point","coordinates":[4.493705,52.218599]},"properties":{"type":"charge","layer":"passenger","locationId":"67f8cb03200f5d455651ce3f","name":"Voorhout/Wilgenhorst 11","address":"Wilgenhorst 11","city":"Voorhout","operatorName":"E-Flux by Road","maxPowerKw":14,"isMegawatt":false,"status":"AVAILABLE","source":"ndw","priceKwh":0.5217}},{"type":"Feature","geometry":{"type":"Point","coordinates":[4.487901,52.2227]},"properties":{"type":"charge","layer":"passenger","locationId":"NLLOC002059","name":"NLD, Voorhout, Raadhuisplein 1","address":"Raadhuisplein 1","city":"Voorhout","operatorName":"Allego","maxPowerKw":11,"isMegawatt":false,"status":"AVAILABLE","source":"ndw","priceKwh":0.511}},{"type":"Feature","geometry":{"type":"Point","coordinates":[4.487204,52.233605]},"properties":{"type":"charge","layer":"passenger","locationId":"673217e3358a76bc2563fb8f","name":"Voorhout/Lelie 19","address":"Lelie 19","city":"Voorhout","operatorName":"E-Flux by Road","maxPowerKw":14,"isMegawatt":false,"status":"AVAILABLE","source":"ndw","priceKwh":0.5217}},{"type":"Feature","geometry":{"type":"Point","coordinates":[4.49072,52.225163]},"properties":{"type":"charge","layer":"passenger","locationId":"NLLOC003444","name":"NLD, Voorhout, Boudewijn van der Beeststraat 1","address":"Boudewijn van der Beeststraat 1","city":"Voorhout","operatorName":"Allego","maxPowerKw":11,"isMegawatt":false,"status":"AVAILABLE","source":"ndw","priceKwh":0.511}},{"type":"Feature","geometry":{"type":"Point","coordinates":[4.530201,52.224654]},"properties":{"type":"charge","layer":"passenger","locationId":"NLCCH00437","name":"Teylingen - Sassenheim - Acacialaan t.h.v. Lindenlaan 19","address":"Lindenlaan 19","city":"Teylingen","operatorName":"","maxPowerKw":11,"isMegawatt":false,"status":"AVAILABLE","source":"ndw","priceKwh":0.5549}},{"type":"Feature","geometry":{"type":"Point","coordinates":[4.486769,52.227569]},"properties":{"type":"charge","layer":"passenger","locationId":"NLLOC003574","name":"NLD, Voorhout, Mozartlaan 42","address":"Mozartlaan 42","city":"Voorhout","operatorName":"Allego","maxPowerKw":11,"isMegawatt":false,"status":"AVAILABLE","source":"ndw","priceKwh":0.511}},{"type":"Feature","geometry":{"type":"Point","coordinates":[4.499402,52.193462]},"properties":{"type":"charge","layer":"passenger","locationId":"NLLOC007579","name":"NL, Lockhorstlaan 15, 2361 JJ, Warmond","address":"Lockhorstlaan 15","city":"Warmond","operatorName":"Allego","maxPowerKw":11,"isMegawatt":false,"status":"UNAVAILABLE","source":"ndw","priceKwh":0.511}},{"type":"Feature","geometry":{"type":"Point","coordinates":[4.518588,52.219432]},"properties":{"type":"charge","layer":"passenger","locationId":"NLLOC002163","name":"NLD, Sassenheim, Nicolaas Damesstraat 78","address":"Nicolaas Damesstraat 78","city":"Sassenheim","operatorName":"Allego","maxPowerKw":11,"isMegawatt":false,"status":"AVAILABLE","source":"ndw","priceKwh":0.511}},{"type":"Feature","geometry":{"type":"Point","coordinates":[4.524727,52.222666]},"properties":{"type":"charge","layer":"passenger","locationId":"NLLOC004546","name":"NLD Menneweg 51, 2172 HA Sassenheim","address":"Menneweg 51","city":"Sassenheim","operatorName":"Allego","maxPowerKw":11,"isMegawatt":false,"status":"AVAILABLE","source":"ndw","priceKwh":0.511}},{"type":"Feature","geometry":{"type":"Point","coordinates":[4.498999,52.223722]},"properties":{"type":"charge","layer":"passenger","locationId":"6724fc322cbf63134d8091f3","name":"Voorhout/Rozemarijnhof 2","address":"Rozemarijnhof 2","city":"Voorhout","operatorName":"E-Flux by Road","maxPowerKw":14,"isMegawatt":false,"status":"AVAILABLE","source":"ndw","priceKwh":0.5217}},{"type":"Feature","geometry":{"type":"Point","coordinates":[4.496709,52.22264]},"properties":{"type":"charge","layer":"passenger","locationId":"NLLOC001743","name":"NLD, Voorhout, Saffraanweg 1","address":"Saffraanweg 1","city":"Voorhout","operatorName":"Allego","maxPowerKw":11,"isMegawatt":false,"status":"AVAILABLE","source":"ndw","priceKwh":0.511}},{"type":"Feature","geometry":{"type":"Point","coordinates":[4.518669,52.227574]},"properties":{"type":"charge","layer":"passenger","locationId":"NLLOC002055","name":"NLD, Sassenheim, Wilhelminalaan 25","address":"Wilhelminalaan 25","city":"Sassenheim","operatorName":"Allego","maxPowerKw":11,"isMegawatt":false,"status":"AVAILABLE","source":"ndw","priceKwh":0.511}},{"type":"Feature","geometry":{"type":"Point","coordinates":[4.491868,52.22732]},"properties":{"type":"charge","layer":"passenger","locationId":"NLLOC003715","name":"NLD, Voorhout, Dirck Verhagenstraat 35","address":"Dirck Verhagenstraat 35","city":"Voorhout","operatorName":"Allego","maxPowerKw":11,"isMegawatt":false,"status":"CHARGING","source":"ndw","priceKwh":0.511}},{"type":"Feature","geometry":{"type":"Point","coordinates":[4.553079,52.221789]},"properties":{"type":"charge","layer":"passenger","locationId":"68b564eaf20beb3a6c0f7a2c","name":"Camping de Hof van Eeden","address":"Hellegatspolder  2","city":"Warmond","operatorName":"E-Flux by Road","maxPowerKw":22,"isMegawatt":false,"status":"AVAILABLE","source":"ndw","priceKwh":0.45}},{"type":"Feature","geometry":{"type":"Point","coordinates":[4.524016,52.219475]},"properties":{"type":"charge","layer":"passenger","locationId":"NLLOC018379","name":"NL, Mondriaanlaan 50, 2172 DJ Sassenheim","address":"Mondriaanlaan 50","city":"Sassenheim","operatorName":"Allego","maxPowerKw":11,"isMegawatt":false,"status":"CHARGING","source":"ndw","priceKwh":0.511}},{"type":"Feature","geometry":{"type":"Point","coordinates":[4.533197,52.222777]},"properties":{"type":"charge","layer":"passenger","locationId":"NLLOC003547","name":"NLD, Sassenheim, Kagertuinen 131","address":"Kagertuinen 131","city":"Sassenheim","operatorName":"Allego","maxPowerKw":11,"isMegawatt":false,"status":"AVAILABLE","source":"ndw","priceKwh":0.511}},{"type":"Feature","geometry":{"type":"Point","coordinates":[4.512153,52.218583]},"properties":{"type":"charge","layer":"passenger","locationId":"NLLOC004463","name":"NLD Mecklenburg 7, 2171 DS Sassenheim","address":"Mecklenburg 7","city":"Sassenheim","operatorName":"Allego","maxPowerKw":11,"isMegawatt":false,"status":"AVAILABLE","source":"ndw","priceKwh":0.511}},{"type":"Feature","geometry":{"type":"Point","coordinates":[4.48103,52.22114]},"properties":{"type":"charge","layer":"passenger","locationId":"NL000088","name":"Beatrixstraat 17 Voorhout","address":"Beatrixstraat 17","city":"Teylingen","operatorName":"StellaPower®","maxPowerKw":17,"isMegawatt":false,"status":"AVAILABLE","source":"ndw","priceKwh":0.471}},{"type":"Feature","geometry":{"type":"Point","coordinates":[4.524216,52.229465]},"properties":{"type":"charge","layer":"passenger","locationId":"NLENV80","name":"Sassenheim, Jan van brabantweg 1","address":"Jan van Brabantweg 1","city":"Teylingen","operatorName":"","maxPowerKw":11,"isMegawatt":false,"status":"AVAILABLE","source":"ndw","priceKwh":0.5}},{"type":"Feature","geometry":{"type":"Point","coordinates":[4.53439,52.22458]},"properties":{"type":"charge","layer":"passenger","locationId":"NL000086","name":"Industriekade 22 Sassenheim","address":"Industriekade 22","city":"Teylingen","operatorName":"StellaPower®","maxPowerKw":17,"isMegawatt":false,"status":"AVAILABLE","source":"ndw","priceKwh":0.471}},{"type":"Feature","geometry":{"type":"Point","coordinates":[4.517914,52.21759]},"properties":{"type":"charge","layer":"passenger","locationId":"645a18efca2bf900128922b3","name":"Sport- en Recreatiecomplex Wasbeek, zijde sportdreef","address":"Van Alkemadelaan  12","city":"Sassenheim","operatorName":"E-Flux by Road","maxPowerKw":21,"isMegawatt":false,"status":"AVAILABLE","source":"ndw","priceKwh":0.63}},{"type":"Feature","geometry":{"type":"Point","coordinates":[4.474722,52.219345]},"properties":{"type":"charge","layer":"passenger","locationId":"66797d0eff7053001c6fe4c4","name":"Aloysiusstichting hoofdkantoor","address":"Leidsevaart 2","city":"Voorhout","operatorName":"Pluq","maxPowerKw":22,"isMegawatt":false,"status":"AVAILABLE","source":"ndw","priceKwh":0.33}},{"type":"Feature","geometry":{"type":"Point","coordinates":[4.4871,52.22319]},"properties":{"type":"charge","layer":"passenger","locationId":"NL000091","name":"Raadhuisplein 4 Voorhout","address":"Raadhuisplein 4","city":"Teylingen","operatorName":"StellaPower®","maxPowerKw":17,"isMegawatt":false,"status":"AVAILABLE","source":"ndw","priceKwh":0.471}},{"type":"Feature","geometry":{"type":"Point","coordinates":[4.528421,52.225095]},"properties":{"type":"charge","layer":"passenger","locationId":"68b7f24e64275592d87f2f4f","name":"SASSENHEIM / Rusthofflaan 1A","address":"Rusthofflaan 1A","city":"SASSENHEIM","operatorName":"E-Flux by Road","maxPowerKw":14,"isMegawatt":false,"status":"AVAILABLE","source":"ndw","priceKwh":0.5217}},{"type":"Feature","geometry":{"type":"Point","coordinates":[4.516606,52.226668]},"properties":{"type":"charge","layer":"passenger","locationId":"NLLOC010719","name":"NL, Willibrorduslaan 29, 2171 VB, Sassenheim","address":"Willibrorduslaan 29","city":"Sassenheim","operatorName":"Allego","maxPowerKw":11,"isMegawatt":false,"status":"AVAILABLE","source":"ndw","priceKwh":0.511}},{"type":"Feature","geometry":{"type":"Point","coordinates":[4.49233,52.209006]},"properties":{"type":"charge","layer":"passenger","locationId":"3966757","name":"Laadnet Diahome N.V.","address":"Rijksstraatweg 47","city":"Sassenheim","operatorName":"Laadnet","maxPowerKw":22,"isMegawatt":false,"status":"AVAILABLE","source":"ndw"}},{"type":"Feature","geometry":{"type":"Point","coordinates":[4.51288,52.21736]},"properties":{"type":"charge","layer":"passenger","locationId":"NL000077","name":"Kwekersweg 24 Sassenheim","address":"Kwekersweg 24","city":"Teylingen","operatorName":"StellaPower®","maxPowerKw":17,"isMegawatt":false,"status":"AVAILABLE","source":"ndw","priceKwh":0.471}},{"type":"Feature","geometry":{"type":"Point","coordinates":[4.509318,52.22345]},"properties":{"type":"charge","layer":"passenger","locationId":"NLLOC021321","name":"NL, Huifkar 20, 2171 MS Sassenheim","address":"Huifkar 20","city":"Sassenheim","operatorName":"Allego","maxPowerKw":11,"isMegawatt":false,"status":"AVAILABLE","source":"ndw","priceKwh":0.511}},{"type":"Feature","geometry":{"type":"Point","coordinates":[4.527444,52.227241]},"properties":{"type":"charge","layer":"passenger","locationId":"NLLOC006891","name":"NL, Havenzicht 15, 2171 GV, Sassenheim","address":"Havenzicht 15","city":"Sassenheim","operatorName":"Allego","maxPowerKw":11,"isMegawatt":false,"status":"AVAILABLE","source":"ndw","priceKwh":0.511}},{"type":"Feature","geometry":{"type":"Point","coordinates":[4.496181,52.192719]},"properties":{"type":"charge","layer":"passenger","locationId":"6989e9b5ff92bfaa8042b548","name":"Warmond/ Herenweg 2","address":"Herenweg  2","city":"Warmond","operatorName":"E-Flux by Road","maxPowerKw":14,"isMegawatt":false,"status":"AVAILABLE","source":"ndw","priceKwh":0.5217}},{"type":"Feature","geometry":{"type":"Point","coordinates":[4.48381,52.22765]},"properties":{"type":"charge","layer":"passenger","locationId":"NL000084","name":"Componistenlaan 219 Voorhout","address":"Componistenlaan 219","city":"Teylingen","operatorName":"StellaPower®","maxPowerKw":17,"isMegawatt":false,"status":"AVAILABLE","source":"ndw","priceKwh":0.471}},{"type":"Feature","geometry":{"type":"Point","coordinates":[4.528905,52.230932]},"properties":{"type":"charge","layer":"passenger","locationId":"NLCCH00614","name":"Teylingen - Sassenheim - Ter Leedelaan t.h.v. Hoofdstraat 332","address":"Hoofdstraat 332","city":"Teylingen","operatorName":"","maxPowerKw":11,"isMegawatt":false,"status":"AVAILABLE","source":"ndw","priceKwh":0.5549}},{"type":"Feature","geometry":{"type":"Point","coordinates":[4.529513,52.219976]},"properties":{"type":"charge","layer":"passenger","locationId":"NLCCH00663","name":"Teylingen - Sassenheim - Kagerdreef 72","address":"Kagerdreef 72","city":"Teylingen","operatorName":"","maxPowerKw":11,"isMegawatt":false,"status":"AVAILABLE","source":"ndw","priceKwh":0.5549}},{"type":"Feature","geometry":{"type":"Point","coordinates":[4.507684,52.199075]},"properties":{"type":"charge","layer":"passenger","locationId":"673703eee8eb0855d962973c","name":"Warmond/Burgemeester Ketelaarstraat 2","address":"Burgemeester Ketelaarstraat 2","city":"Warmond","operatorName":"E-Flux by Road","maxPowerKw":14,"isMegawatt":false,"status":"AVAILABLE","source":"ndw","priceKwh":0.5217}},{"type":"Feature","geometry":{"type":"Point","coordinates":[4.503335,52.215492]},"properties":{"type":"charge","layer":"passenger","locationId":"NLLOC002047","name":"NLD, Sassenheim, Hoofdstraat 10","address":"Hoofdstraat 10","city":"Sassenheim","operatorName":"Allego","maxPowerKw":11,"isMegawatt":false,"status":"AVAILABLE","source":"ndw","priceKwh":0.511}},{"type":"Feature","geometry":{"type":"Point","coordinates":[4.52896,52.22671]},"properties":{"type":"charge","layer":"passenger","locationId":"NL000080","name":"Adelborst van Leeuwenlaan 1 Sassenheim","address":"Adelborst van Leeuwenlaan 1","city":"Teylingen","operatorName":"StellaPower®","maxPowerKw":17,"isMegawatt":false,"status":"AVAILABLE","source":"ndw","priceKwh":0.471}},{"type":"Feature","geometry":{"type":"Point","coordinates":[4.4943,52.22275]},"properties":{"type":"charge","layer":"passenger","locationId":"NL000085","name":"Nagelkruidhof 14 Voorhout","address":"Nagelkruidhof 14","city":"Teylingen","operatorName":"StellaPower®","maxPowerKw":17,"isMegawatt":false,"status":"AVAILABLE","source":"ndw","priceKwh":0.471}},{"type":"Feature","geometry":{"type":"Point","coordinates":[4.489989,52.228392]},"properties":{"type":"charge","layer":"passenger","locationId":"NLLOC022310","name":"NL, Mozartlaan 99, 2215 JW Voorhout","address":"Mozartlaan 99","city":"Voorhout","operatorName":"Allego","maxPowerKw":11,"isMegawatt":false,"status":"CHARGING","source":"ndw","priceKwh":0.511}},{"type":"Feature","geometry":{"type":"Point","coordinates":[4.485944,52.233043]},"properties":{"type":"charge","layer":"passenger","locationId":"67eebb7ed4c672ef5f6465af","name":"Voorhout/Calla 103","address":"Calla 103","city":"Voorhout","operatorName":"E-Flux by Road","maxPowerKw":14,"isMegawatt":false,"status":"AVAILABLE","source":"ndw","priceKwh":0.5217}},{"type":"Feature","geometry":{"type":"Point","coordinates":[4.517502,52.215757]},"properties":{"type":"charge","layer":"passenger","locationId":"NLLOC002373","name":"NLD, Sassenheim, Stationsplein 2361 HG Warmond","address":"Stationsplein","city":"Warmond","operatorName":"Allego","maxPowerKw":22,"isMegawatt":false,"status":"AVAILABLE","source":"ndw","priceKwh":0.511}},{"type":"Feature","geometry":{"type":"Point","coordinates":[4.490771,52.220655]},"properties":{"type":"charge","layer":"passenger","locationId":"NLLOC004442","name":"NLD, Distelweg 63, 2215 DS Voorhout","address":"Distelweg 63","city":"Voorhout","operatorName":"Allego","maxPowerKw":11,"isMegawatt":false,"status":"AVAILABLE","source":"ndw","priceKwh":0.511}},{"type":"Feature","geometry":{"type":"Point","coordinates":[4.524839,52.226912]},"properties":{"type":"charge","layer":"passenger","locationId":"NLLOC002309","name":"NLD, Sassenheim, Kerklaan 42","address":"Kerklaan 42","city":"Sassenheim","operatorName":"Allego","maxPowerKw":11,"isMegawatt":false,"status":"CHARGING","source":"ndw","priceKwh":0.511}},{"type":"Feature","geometry":{"type":"Point","coordinates":[4.52212,52.225095]},"properties":{"type":"charge","layer":"passenger","locationId":"69456430935ccb791f7f174f","name":"Sassenheim/Jp Gouverneurlaan","address":"Jp Gouverneurlaan  22","city":"Sassenheim","operatorName":"E-Flux by Road","maxPowerKw":14,"isMegawatt":false,"status":"AVAILABLE","source":"ndw","priceKwh":0.5217}},{"type":"Feature","geometry":{"type":"Point","coordinates":[4.483387,52.230625]},"properties":{"type":"charge","layer":"passenger","locationId":"NLLOC010143","name":"NL, Calla 22, 2215 ZD, Voorhout","address":"Calla 22","city":"Voorhout","operatorName":"Allego","maxPowerKw":11,"isMegawatt":false,"status":"AVAILABLE","source":"ndw","priceKwh":0.511}},{"type":"Feature","geometry":{"type":"Point","coordinates":[4.50478,52.19833]},"properties":{"type":"charge","layer":"passenger","locationId":"NL000082","name":"De Baan 2  Warmond","address":"De Baan 2","city":"Teylingen","operatorName":"StellaPower®","maxPowerKw":17,"isMegawatt":false,"status":"AVAILABLE","source":"ndw","priceKwh":0.471}},{"type":"Feature","geometry":{"type":"Point","coordinates":[4.49553,52.22967]},"properties":{"type":"charge","layer":"passenger","locationId":"NL000090","name":"Rozenhaag 36 Voorhout","address":"Rozenhaag 36","city":"Teylingen","operatorName":"StellaPower®","maxPowerKw":17,"isMegawatt":false,"status":"CHARGING","source":"ndw","priceKwh":0.471}},{"type":"Feature","geometry":{"type":"Point","coordinates":[4.515315,52.220035]},"properties":{"type":"charge","layer":"passenger","locationId":"NLLOC003795","name":"NLD, Sassenheim, Philippostraat 6","address":"Philippostraat 6","city":"Sassenheim","operatorName":"Allego","maxPowerKw":11,"isMegawatt":false,"status":"AVAILABLE","source":"ndw","priceKwh":0.511}},{"type":"Feature","geometry":{"type":"Point","coordinates":[4.479447,52.228137]},"properties":{"type":"charge","layer":"passenger","locationId":"6980902f0bcf7c732abdf8c4","name":"Kees Jan Visser 's station","address":"Beukenrode  367","city":"Voorhout","operatorName":"E-Flux by Road","maxPowerKw":22,"isMegawatt":false,"status":"UNAVAILABLE","source":"ndw","priceKwh":0.28}},{"type":"Feature","geometry":{"type":"Point","coordinates":[4.493417,52.22357]},"properties":{"type":"charge","layer":"passenger","locationId":"67f7b3201e9d6637560da562","name":"Voorhout/Kamillehof 11","address":"Kamillehof 11","city":"Voorhout","operatorName":"E-Flux by Road","maxPowerKw":14,"isMegawatt":false,"status":"AVAILABLE","source":"ndw","priceKwh":0.5217}},{"type":"Feature","geometry":{"type":"Point","coordinates":[4.480569,52.227304]},"properties":{"type":"charge","layer":"passenger","locationId":"67c7179965d77f9bcd27aacf","name":"Voorhout/Beukenrode 386","address":"Beukenrode 386","city":"Voorhout","operatorName":"E-Flux by Road","maxPowerKw":14,"isMegawatt":false,"status":"UNAVAILABLE","source":"ndw","priceKwh":0.5217}},{"type":"Feature","geometry":{"type":"Point","coordinates":[4.510468,52.220553]},"properties":{"type":"charge","layer":"passenger","locationId":"NLLOC002297","name":"NLD, Sassenheim, Snip 1","address":"Snip 1","city":"Sassenheim","operatorName":"Allego","maxPowerKw":11,"isMegawatt":false,"status":"AVAILABLE","source":"ndw","priceKwh":0.511}},{"type":"Feature","geometry":{"type":"Point","coordinates":[4.511035,52.2221]},"properties":{"type":"charge","layer":"passenger","locationId":"NLLOC006811","name":"NL, Palfreniersweg 2, 2171 MX, Sassenheim","address":"Palfreniersweg 2","city":"Sassenheim","operatorName":"Allego","maxPowerKw":11,"isMegawatt":false,"status":"AVAILABLE","source":"ndw","priceKwh":0.511}},{"type":"Feature","geometry":{"type":"Point","coordinates":[4.521969,52.219512]},"properties":{"type":"charge","layer":"passenger","locationId":"686bd2a20adb6176ac48140d","name":"Sassenheim/Vijfmeiweg 9","address":"Vijfmeiweg 9","city":"Sassenheim","operatorName":"E-Flux by Road","maxPowerKw":14,"isMegawatt":false,"status":"AVAILABLE","source":"ndw","priceKwh":0.5217}},{"type":"Feature","geometry":{"type":"Point","coordinates":[4.496253,52.224028]},"properties":{"type":"charge","layer":"passenger","locationId":"NLLOC009909","name":"NL, Kruidenschans 89, 2215 TS Voorhout","address":"Kruidenschans 89","city":"Voorhout","operatorName":"Allego","maxPowerKw":11,"isMegawatt":false,"status":"AVAILABLE","source":"ndw","priceKwh":0.511}},{"type":"Feature","geometry":{"type":"Point","coordinates":[4.524403,52.229085]},"properties":{"type":"charge","layer":"passenger","locationId":"NLLOC002169","name":"NLD, Sassenheim, Jan van Brabantweg 131","address":"Jan van Brabantweg 131","city":"Sassenheim","operatorName":"Allego","maxPowerKw":11,"isMegawatt":false,"status":"AVAILABLE","source":"ndw","priceKwh":0.511}},{"type":"Feature","geometry":{"type":"Point","coordinates":[4.523326,52.224573]},"properties":{"type":"charge","layer":"passenger","locationId":"NLLOC006166","name":"NL, J.P. Gouverneurlaan 40, 2171ER, Sassenheim (laadpaal 2)","address":"J.P. Gouverneurlaan 40","city":"Sassenheim","operatorName":"Allego","maxPowerKw":11,"isMegawatt":false,"status":"AVAILABLE","source":"ndw","priceKwh":0.511}},{"type":"Feature","geometry":{"type":"Point","coordinates":[4.502385,52.194667]},"properties":{"type":"charge","layer":"passenger","locationId":"NLLOC004475","name":"NLD, Gemeentehaven 3, 2361 CM Warmond","address":"Gemeentehaven 3","city":"Warmond","operatorName":"Allego","maxPowerKw":11,"isMegawatt":false,"status":"AVAILABLE","source":"ndw","priceKwh":0.511}},{"type":"Feature","geometry":{"type":"Point","coordinates":[4.482729,52.224552]},"properties":{"type":"charge","layer":"passenger","locationId":"NLLOC004541","name":"NLD Beukenrode 59, 2215 JB Voorhout","address":"Beukenrode 59","city":"Voorhout","operatorName":"Allego","maxPowerKw":11,"isMegawatt":false,"status":"AVAILABLE","source":"ndw","priceKwh":0.511}},{"type":"Feature","geometry":{"type":"Point","coordinates":[4.498615,52.197939]},"properties":{"type":"charge","layer":"passenger","locationId":"NLLOC016545","name":"NL, Kloosterwei 310, 2361 XR Warmond","address":"Kloosterwei 310","city":"Warmond","operatorName":"Allego","maxPowerKw":11,"isMegawatt":false,"status":"AVAILABLE","source":"ndw","priceKwh":0.511}},{"type":"Feature","geometry":{"type":"Point","coordinates":[4.490415,52.231263]},"properties":{"type":"charge","layer":"passenger","locationId":"NLLOC002205","name":"NLD, Voorhout, Narcis 73","address":"Narcis 73","city":"Voorhout","operatorName":"Allego","maxPowerKw":11,"isMegawatt":false,"status":"AVAILABLE","source":"ndw","priceKwh":0.511}},{"type":"Feature","geometry":{"type":"Point","coordinates":[4.500689,52.226346]},"properties":{"type":"charge","layer":"passenger","locationId":"68c2d161831df25662dadab2","name":"Voorhout, Snoeklaan 53","address":"Snoeklaan  53","city":"Voorhout","operatorName":"E-Flux by Road","maxPowerKw":14,"isMegawatt":false,"status":"CHARGING","source":"ndw","priceKwh":0.5217}},{"type":"Feature","geometry":{"type":"Point","coordinates":[4.481109,52.208958]},"properties":{"type":"charge","layer":"passenger","locationId":"923443","name":"DAE_NL_2000963","address":"Leidsevaart 5","city":"Voorhout","operatorName":"DAEN Mobility","maxPowerKw":11,"isMegawatt":false,"status":"AVAILABLE","source":"ndw","priceKwh":0.29}},{"type":"Feature","geometry":{"type":"Point","coordinates":[4.502065,52.225163]},"properties":{"type":"charge","layer":"passenger","locationId":"NLLOC024475","name":"NL, Snoeklaan 19, 2215 XC Voorhout","address":"Snoeklaan 19","city":"Voorhout","operatorName":"Allego","maxPowerKw":11,"isMegawatt":false,"status":"AVAILABLE","source":"ndw","priceKwh":0.511}},{"type":"Feature","geometry":{"type":"Point","coordinates":[4.547327,52.219901]},"properties":{"type":"charge","layer":"passenger","locationId":"3968873","name":"Laadnet JachthavenJonkman","address":"Jachthaven 1","city":"Sassenheim","operatorName":"Laadnet","maxPowerKw":22,"isMegawatt":false,"status":"UNAVAILABLE","source":"ndw"}},{"type":"Feature","geometry":{"type":"Point","coordinates":[4.511198,52.223034]},"properties":{"type":"charge","layer":"passenger","locationId":"NLLOC003446","name":"NLD, Sassenheim, Landauer 2","address":"Landauer 2","city":"Sassenheim","operatorName":"Allego","maxPowerKw":11,"isMegawatt":false,"status":"AVAILABLE","source":"ndw","priceKwh":0.511}},{"type":"Feature","geometry":{"type":"Point","coordinates":[4.492505,52.221636]},"properties":{"type":"charge","layer":"passenger","locationId":"NLLOC004456","name":"NLD Oosthoutplein 1, 2215 VM Voorhout","address":"Oosthoutplein 1","city":"Voorhout","operatorName":"Allego","maxPowerKw":11,"isMegawatt":false,"status":"AVAILABLE","source":"ndw","priceKwh":0.511}},{"type":"Feature","geometry":{"type":"Point","coordinates":[4.531828,52.229786]},"properties":{"type":"charge","layer":"passenger","locationId":"NLLOC011165","name":"NL, Ter Leedelaan, 37, 2172JL, Sassenheim","address":"Ter Leedelaan 37","city":"Sassenheim","operatorName":"Allego","maxPowerKw":11,"isMegawatt":false,"status":"AVAILABLE","source":"ndw","priceKwh":0.511}},{"type":"Feature","geometry":{"type":"Point","coordinates":[4.526774,52.223463]},"properties":{"type":"charge","layer":"passenger","locationId":"NLLOC011929","name":"NL, Rusthofflaan 47, 2171 EV Sassenheim","address":"Rusthofflaan 47","city":"Sassenheim","operatorName":"Allego","maxPowerKw":11,"isMegawatt":false,"status":"AVAILABLE","source":"ndw","priceKwh":0.511}},{"type":"Feature","geometry":{"type":"Point","coordinates":[4.495225,52.195335]},"properties":{"type":"charge","layer":"passenger","locationId":"NLLOC024560","name":"NL, Van Limburg Stirumstraat 1, 2361VM, Warmond","address":"Van Limburg Stirumstraat 1","city":"Warmond","operatorName":"Allego","maxPowerKw":11,"isMegawatt":false,"status":"CHARGING","source":"ndw","priceKwh":0.511}},{"type":"Feature","geometry":{"type":"Point","coordinates":[4.488423,52.219072]},"properties":{"type":"charge","layer":"passenger","locationId":"NLLOC022010","name":"NL, Bloemenschans 143, 2215 DK Voorhout","address":"Bloemenschans 143","city":"Voorhout","operatorName":"Allego","maxPowerKw":11,"isMegawatt":false,"status":"AVAILABLE","source":"ndw","priceKwh":0.511}},{"type":"Feature","geometry":{"type":"Point","coordinates":[4.49113,52.208694]},"properties":{"type":"charge","layer":"passenger","locationId":"6964f9075c755c4b99978991","name":"Kega B.V.","address":"Madame Curiestraat 24","city":"Sassenheim","operatorName":"E-Flux by Road","maxPowerKw":17,"isMegawatt":false,"status":"AVAILABLE","source":"ndw","priceKwh":0.43}},{"type":"Feature","geometry":{"type":"Point","coordinates":[4.477531,52.220989]},"properties":{"type":"charge","layer":"passenger","locationId":"NLLOC011335","name":"NL, Schoonoord 39 2215 EB Voorhout","address":"Schoonoord 39","city":"Voorhout","operatorName":"Allego","maxPowerKw":11,"isMegawatt":false,"status":"AVAILABLE","source":"ndw","priceKwh":0.511}},{"type":"Feature","geometry":{"type":"Point","coordinates":[4.522182,52.218537]},"properties":{"type":"charge","layer":"passenger","locationId":"NLLOC003809","name":"NLD, Sassenheim, Anne Frankhove 102","address":"Anne Frankhove 102","city":"Sassenheim","operatorName":"Allego","maxPowerKw":11,"isMegawatt":false,"status":"AVAILABLE","source":"ndw","priceKwh":0.511}},{"type":"Feature","geometry":{"type":"Point","coordinates":[4.48063,52.226108]},"properties":{"type":"charge","layer":"passenger","locationId":"NLLOC002058","name":"NLD, Voorhout, Boekenburglaan 158","address":"Boekenburglaan 158","city":"Voorhout","operatorName":"Allego","maxPowerKw":11,"isMegawatt":false,"status":"AVAILABLE","source":"ndw","priceKwh":0.511}},{"type":"Feature","geometry":{"type":"Point","coordinates":[4.527022,52.22252]},"properties":{"type":"charge","layer":"passenger","locationId":"NLLOC003179","name":"NLD, Sassenheim, Venusstraat 10","address":"Venusstraat 10","city":"Sassenheim","operatorName":"Allego","maxPowerKw":11,"isMegawatt":false,"status":"AVAILABLE","source":"ndw","priceKwh":0.511}},{"type":"Feature","geometry":{"type":"Point","coordinates":[4.519397,52.221836]},"properties":{"type":"charge","layer":"passenger","locationId":"NLLOC006124","name":"NL, Bijdorpstraat 46, 2172 SJ Sassenheim/Narcissenlaan 30","address":"Bijdorpstraat 46","city":"Sassenheim","operatorName":"Allego","maxPowerKw":11,"isMegawatt":false,"status":"AVAILABLE","source":"ndw","priceKwh":0.511}},{"type":"Feature","geometry":{"type":"Point","coordinates":[4.486977,52.220761]},"properties":{"type":"charge","layer":"passenger","locationId":"NLLOC007295","name":"NL, Bloemenschans 76, 2215 DG, Voorhout","address":"Bloemenschans 76","city":"Voorhout","operatorName":"Allego","maxPowerKw":11,"isMegawatt":false,"status":"AVAILABLE","source":"ndw","priceKwh":0.511}},{"type":"Feature","geometry":{"type":"Point","coordinates":[4.48569,52.2323]},"properties":{"type":"charge","layer":"passenger","locationId":"NLCCH00850","name":"Teylingen - Voorhout - Pioenroos 56","address":"Pioenroos 56","city":"Teylingen","operatorName":"","maxPowerKw":11,"isMegawatt":false,"status":"AVAILABLE","source":"ndw","priceKwh":0.5549}},{"type":"Feature","geometry":{"type":"Point","coordinates":[4.52497,52.23052]},"properties":{"type":"charge","layer":"passenger","locationId":"NL000093","name":"Wanmolenlaan 92 Sassenheim","address":"Wanmolenlaan 92","city":"Teylingen","operatorName":"StellaPower®","maxPowerKw":17,"isMegawatt":false,"status":"CHARGING","source":"ndw","priceKwh":0.471}},{"type":"Feature","geometry":{"type":"Point","coordinates":[4.49672,52.19495]},"properties":{"type":"charge","layer":"passenger","locationId":"NL000083","name":"Van Wassenaarstraat 15 Warmond","address":"Van Wassenaarstraat 15","city":"Teylingen","operatorName":"StellaPower®","maxPowerKw":17,"isMegawatt":false,"status":"AVAILABLE","source":"ndw","priceKwh":0.471}},{"type":"Feature","geometry":{"type":"Point","coordinates":[4.521795,52.228412]},"properties":{"type":"charge","layer":"passenger","locationId":"NLCCH00554","name":"Teylingen - Sassenheim - Westerstraat 33","address":"Westerstraat 33","city":"Teylingen","operatorName":"","maxPowerKw":11,"isMegawatt":false,"status":"AVAILABLE","source":"ndw","priceKwh":0.5549}},{"type":"Feature","geometry":{"type":"Point","coordinates":[4.525544,52.231116]},"properties":{"type":"charge","layer":"passenger","locationId":"6749bf33ebf74643374b52c1","name":"Sassenheim/Wanmolenlaan 101","address":"Wanmolenlaan 101","city":"Sassenheim","operatorName":"E-Flux by Road","maxPowerKw":14,"isMegawatt":false,"status":"AVAILABLE","source":"ndw","priceKwh":0.5217}},{"type":"Feature","geometry":{"type":"Point","coordinates":[4.494713,52.227815]},"properties":{"type":"charge","layer":"passenger","locationId":"NLCCH00265","name":"Teylingen - Voorhout - Dirck van Delffstraat 14","address":"Dirck van Delffstraat 14","city":"Teylingen","operatorName":"","maxPowerKw":11,"isMegawatt":false,"status":"AVAILABLE","source":"ndw","priceKwh":0.5549}},{"type":"Feature","geometry":{"type":"Point","coordinates":[4.492804,52.220256]},"properties":{"type":"charge","layer":"passenger","locationId":"NLCCH00612","name":"Teylingen - Voorhout - Venkelhof 20","address":"Venkelhof 20","city":"Teylingen","operatorName":"","maxPowerKw":11,"isMegawatt":false,"status":"AVAILABLE","source":"ndw","priceKwh":0.5549}},{"type":"Feature","geometry":{"type":"Point","coordinates":[4.5234,52.231952]},"properties":{"type":"charge","layer":"passenger","locationId":"67346df63ea6cfab633d6cf5","name":"Sassenheim/Rietschelftlaan 82","address":"Rietschelftlaan 82","city":"Sassenheim","operatorName":"E-Flux by Road","maxPowerKw":14,"isMegawatt":false,"status":"AVAILABLE","source":"ndw","priceKwh":0.5217}},{"type":"Feature","geometry":{"type":"Point","coordinates":[4.512903,52.218294]},"properties":{"type":"charge","layer":"passenger","locationId":"NLCCH00266","name":"Teylingen - Sassenheim - Kwekersweg 50","address":"Kwekersweg 50","city":"Teylingen","operatorName":"","maxPowerKw":11,"isMegawatt":false,"status":"AVAILABLE","source":"ndw","priceKwh":0.5549}},{"type":"Feature","geometry":{"type":"Point","coordinates":[4.523979,52.22421]},"properties":{"type":"charge","layer":"passenger","locationId":"NLCCH00672","name":"Teylingen - Sassenheim - Menneweg 1A","address":"Menneweg 1A","city":"Teylingen","operatorName":"","maxPowerKw":11,"isMegawatt":false,"status":"AVAILABLE","source":"ndw","priceKwh":0.5549}},{"type":"Feature","geometry":{"type":"Point","coordinates":[4.48879,52.23355]},"properties":{"type":"charge","layer":"passenger","locationId":"NL000089","name":"Keizerskroon 24 Voorhout","address":"Keizerskroon","city":"Teylingen","operatorName":"StellaPower®","maxPowerKw":17,"isMegawatt":false,"status":"AVAILABLE","source":"ndw","priceKwh":0.471}},{"type":"Feature","geometry":{"type":"Point","coordinates":[4.491,52.21885]},"properties":{"type":"charge","layer":"passenger","locationId":"NL000092","name":"Watermuntstraat 20 Voorhout","address":"Watermuntstraat 20","city":"Teylingen","operatorName":"StellaPower®","maxPowerKw":17,"isMegawatt":false,"status":"AVAILABLE","source":"ndw","priceKwh":0.471}},{"type":"Feature","geometry":{"type":"Point","coordinates":[4.52034,52.22854]},"properties":{"type":"charge","layer":"passenger","locationId":"NL000079","name":"Slotlaan 22 Sassenheim","address":"Slotlaan 22","city":"Teylingen","operatorName":"StellaPower®","maxPowerKw":17,"isMegawatt":false,"status":"AVAILABLE","source":"ndw","priceKwh":0.471}},{"type":"Feature","geometry":{"type":"MultiPolygon","coordinates":[[[[4.530476472425882,52.232696192824825],[4.531422664020703,52.23237399227511],[4.531434703383568,52.23238356206399],[4.5335676224435,52.23172001235299],[4.53467358239159,52.23137647704633],[4.535072381820702,52.23125456505496],[4.539357977186433,52.22979946865305],[4.543568952948336,52.22680340510554],[4.55322516214736,52.22233298446553],[4.553933367633588,52.222205874044384],[4.556614739127327,52.219273505349605],[4.558432520204699,52.21879899631679],[4.556907878398726,52.21641520070343],[4.557825508852037,52.215067417244796],[4.5553734454668176,52.21401582002459],[4.554284241607378,52.21231247259803],[4.558954007053697,52.21024203108241],[4.558090075759068,52.20852145199321],[4.558268919467232,52.20576101579832],[4.560685854245719,52.20477949501236],[4.560520644897657,52.203658725976865],[4.561661318917723,52.203639875709115],[4.559553924484673,52.20196186598708],[4.5596495721003025,52.200497711029385],[4.558141932188108,52.20036739829802],[4.555577597109992,52.20014570548001],[4.55557132750551,52.19971035886495],[4.5552686348123785,52.19969769328955],[4.555199991284436,52.19961280086106],[4.55535855450978,52.19944204442982],[4.555566942087112,52.19940585775208],[4.555564024437726,52.19920324443708],[4.556663594816518,52.19881810639474],[4.556807554947793,52.19850273160797],[4.556866385738159,52.19800713093226],[4.557154621397341,52.1977423998367],[4.554045588705261,52.197582605165664],[4.5541289768751385,52.19834249630805],[4.549296946526971,52.198362289706644],[4.549374659340633,52.19893819899117],[4.546767060957496,52.19897607842552],[4.545254965651971,52.19408945859573],[4.544480275820089,52.192217897377816],[4.544518982999722,52.19152196723388],[4.543000654823499,52.1881196642649],[4.543662342138699,52.187394369253084],[4.5381532047628514,52.18008518715891],[4.5281773539456704,52.17985128488418],[4.518368243562107,52.18211677753097],[4.517207556040387,52.18271910330123],[4.508524935791848,52.18397376862005],[4.503545998409644,52.18462183517697],[4.50163318729387,52.1842648741946],[4.498341863760402,52.18399410074318],[4.497561805667018,52.183983185927126],[4.4952556168785485,52.18393939145797],[4.494898751327301,52.18255059911786],[4.494128627550454,52.182046064270416],[4.49432891632901,52.18167037392492],[4.492894553968239,52.181541380516684],[4.49276887698877,52.18128367465757],[4.491430369171221,52.180951867037905],[4.489524790687981,52.1816986952252],[4.491208387672523,52.18475474090668],[4.490967841156212,52.18656534998224],[4.490902699956771,52.18666623763372],[4.488091474962312,52.189493286654425],[4.488011819229064,52.190970868034746],[4.489957271545207,52.192665030420166],[4.49334015690799,52.19485965332421],[4.493108512870756,52.195754964357135],[4.492240235844527,52.201298124997905],[4.491446649959316,52.20368771557792],[4.490611818292328,52.20343095537713],[4.489851596542303,52.203978104700155],[4.488031946901575,52.20292347653106],[4.486715999158457,52.20417929825785],[4.484353244300191,52.20301093786135],[4.4801305404934295,52.201980201443796],[4.4786647658122885,52.204669112521984],[4.476247675345044,52.20322629611744],[4.472825208940579,52.20265685340839],[4.471378443417436,52.20157076041727],[4.470239733048149,52.202267703259196],[4.4676594438054344,52.20193348232838],[4.466306900267841,52.200549422595714],[4.463470944293405,52.200202077033445],[4.460416818142841,52.202199591633],[4.4626741596333765,52.20341202106862],[4.460642727639147,52.20480349759569],[4.455648013370849,52.20703047745572],[4.458624091889043,52.20824309717044],[4.459594933417474,52.20924096277384],[4.462331528108137,52.210550882920174],[4.462510577592286,52.21176054092334],[4.465747883152991,52.213143390585095],[4.466175238008775,52.214188324584654],[4.464081503295297,52.2159648029281],[4.4703575915601945,52.219813136311124],[4.470703773756916,52.22176297606183],[4.466984782938821,52.22378628043504],[4.46606545564248,52.22500315660297],[4.468491168998621,52.22661971126593],[4.477491646538037,52.232450126808565],[4.479974001451196,52.234119651663065],[4.494919122847766,52.24418025357547],[4.495927666475718,52.24486439236552],[4.497662342732346,52.24603360341544],[4.501415862115624,52.248561739929826],[4.513494654047586,52.25499180732609],[4.517877484183531,52.2527311461361],[4.521475415448814,52.2495397405605],[4.526593756818964,52.247253176223985],[4.525177953735277,52.24623568269308],[4.525889715619136,52.24577608557247],[4.524087736370846,52.244377557073705],[4.5277379041754555,52.24240962621379],[4.527827416491256,52.24206194705601],[4.530050300094981,52.241162784476515],[4.528625479831387,52.240275675029835],[4.528915254856186,52.240066180554614],[4.52741604521887,52.23916000890481],[4.529092044813354,52.238326399326375],[4.529471409686834,52.23813770307985],[4.525064375373173,52.23592299728696],[4.524914576144088,52.23557241518773],[4.527776345257242,52.23389229632255],[4.529926141625637,52.23294993619043],[4.530468157572094,52.232699925544004],[4.530476472425882,52.232696192824825]]]]},"properties":{"type":"boundary","gemeente":"Teylingen","code":"GM1525"}}]}