{"type":"FeatureCollection","metadata":{"gemeente":"Uitgeest","slug":"uitgeest","code":"GM0450","generated_at":"2026-07-06T16:26:11.361Z","total_passenger":83,"total_freight":0,"bounds":[4.690585093317987,52.49495413793688,4.782475757600058,52.55162329038539],"operators":["E-Flux by Road","Laadnet","NXT Charging Solutions","TotalEnergies","Ubitricity","Vattenfall InCharge"]},"features":[{"type":"Feature","geometry":{"type":"Point","coordinates":[4.710684,52.52026]},"properties":{"type":"charge","layer":"passenger","locationId":"f9509218-869d-4900-9dbf-03afac364da2","name":"TNLP009123 - De Terp 35, Uitgeest","address":"35 De Terp","city":"Uitgeest","operatorName":"TotalEnergies","maxPowerKw":15,"isMegawatt":false,"status":"AVAILABLE","source":"ndw"}},{"type":"Feature","geometry":{"type":"Point","coordinates":[4.707157,52.517297]},"properties":{"type":"charge","layer":"passenger","locationId":"df432b19-dac8-40e0-bb9d-1431b45921f6","name":"TNLP034100","address":"Smallekamplaan 35","city":"Uitgeest","operatorName":"TotalEnergies","maxPowerKw":14,"isMegawatt":false,"status":"UNAVAILABLE","source":"ndw"}},{"type":"Feature","geometry":{"type":"Point","coordinates":[4.70718,52.53334]},"properties":{"type":"charge","layer":"passenger","locationId":"1464","name":"Shell Recharge NL Benesserlaan 75","address":"Benesserlaan 75","city":"Uitgeest","operatorName":"Ubitricity","maxPowerKw":11,"isMegawatt":false,"status":"CHARGING","source":"ndw","priceKwh":0.388}},{"type":"Feature","geometry":{"type":"Point","coordinates":[4.71094,52.52671]},"properties":{"type":"charge","layer":"passenger","locationId":"c4e833c7-e743-4b87-8e57-0e3af3780b9b","name":"PP001332 - Bollenhof 1, Uitgeest","address":"1 Bollenhof","city":"Uitgeest","operatorName":"TotalEnergies","maxPowerKw":11,"isMegawatt":false,"status":"UNAVAILABLE","source":"ndw"}},{"type":"Feature","geometry":{"type":"Point","coordinates":[4.705378,52.515343]},"properties":{"type":"charge","layer":"passenger","locationId":"a436ad19-685b-408e-97d5-7af18913fc45","name":"TNLP005877 - Benningskamplaan 42, Uitgeest","address":"42 Benningskamplaan","city":"Uitgeest","operatorName":"TotalEnergies","maxPowerKw":13,"isMegawatt":false,"status":"AVAILABLE","source":"ndw"}},{"type":"Feature","geometry":{"type":"Point","coordinates":[4.713663,52.532585]},"properties":{"type":"charge","layer":"passenger","locationId":"a9a0f385-b67b-460c-9ada-f67e25840ab1","name":"PP005452 - Kastanjestraat 1, Uitgeest","address":"1 Kastanjestraat","city":"Uitgeest","operatorName":"TotalEnergies","maxPowerKw":15,"isMegawatt":false,"status":"AVAILABLE","source":"ndw"}},{"type":"Feature","geometry":{"type":"Point","coordinates":[4.712229,52.531338]},"properties":{"type":"charge","layer":"passenger","locationId":"29844549-007d-4d55-87b0-fa445faa9be9","name":"TNLP007313 - Het Mollenveld 1, Uitgeest","address":"1 Het Mollenveld","city":"Uitgeest","operatorName":"TotalEnergies","maxPowerKw":13,"isMegawatt":false,"status":"CHARGING","source":"ndw"}},{"type":"Feature","geometry":{"type":"Point","coordinates":[4.71184,52.5278]},"properties":{"type":"charge","layer":"passenger","locationId":"2e5a1c5f-af3d-4db5-873b-fda94cd008bb","name":"TNLP008369 - Dokter Brugmanstraat 236, Uitgeest","address":"236 Dokter Brugmanstraat","city":"Uitgeest","operatorName":"TotalEnergies","maxPowerKw":13,"isMegawatt":false,"status":"AVAILABLE","source":"ndw"}},{"type":"Feature","geometry":{"type":"Point","coordinates":[4.70973,52.53703]},"properties":{"type":"charge","layer":"passenger","locationId":"441","name":"Shell Recharge NL Dotterbloem 59","address":"Dotterbloem 59","city":"Uitgeest","operatorName":"Ubitricity","maxPowerKw":11,"isMegawatt":false,"status":"CHARGING","source":"ndw","priceKwh":0.388}},{"type":"Feature","geometry":{"type":"Point","coordinates":[4.7068109,52.5118092]},"properties":{"type":"charge","layer":"passenger","locationId":"2242","name":"Shell Recharge NL Kruiskamplaan 157","address":"Kruiskamplaan 157","city":"Uitgeest","operatorName":"Ubitricity","maxPowerKw":22,"isMegawatt":false,"status":"AVAILABLE","source":"ndw","priceKwh":0.266}},{"type":"Feature","geometry":{"type":"Point","coordinates":[4.717194,52.52997]},"properties":{"type":"charge","layer":"passenger","locationId":"b9b59c3d-8047-4397-b5b4-dd742c5b8813","name":"TNLP008522 - Populierenlaan 43, Uitgeest","address":"43 Populierenlaan","city":"Uitgeest","operatorName":"TotalEnergies","maxPowerKw":14,"isMegawatt":false,"status":"AVAILABLE","source":"ndw"}},{"type":"Feature","geometry":{"type":"Point","coordinates":[4.723304,52.527057]},"properties":{"type":"charge","layer":"passenger","locationId":"69bc2ba96c24543338c66781","name":"Jachthaven Uitgeest","address":"Lagendijk  9","city":"UITGEEST","operatorName":"NXT Charging Solutions","maxPowerKw":22,"isMegawatt":false,"status":"AVAILABLE","source":"ndw","priceKwh":0.405}},{"type":"Feature","geometry":{"type":"Point","coordinates":[4.706832,52.515713]},"properties":{"type":"charge","layer":"passenger","locationId":"9754907e-1b11-441c-ac66-c62d87f9a571","name":"TNLP008062 - Aan de Kromme Sloot 15, Uitgeest","address":"15 Aan de Kromme Sloot","city":"Uitgeest","operatorName":"TotalEnergies","maxPowerKw":13,"isMegawatt":false,"status":"AVAILABLE","source":"ndw"}},{"type":"Feature","geometry":{"type":"Point","coordinates":[4.709374,52.523853]},"properties":{"type":"charge","layer":"passenger","locationId":"72af0871-845a-4a39-93e1-cc628b9ebebe","name":"TNLP008529 - Middelweg 108a, Uitgeest","address":"108a Middelweg","city":"Uitgeest","operatorName":"TotalEnergies","maxPowerKw":14,"isMegawatt":false,"status":"AVAILABLE","source":"ndw"}},{"type":"Feature","geometry":{"type":"Point","coordinates":[4.701032,52.517982]},"properties":{"type":"charge","layer":"passenger","locationId":"abb73ce2-477d-4afb-8769-18fdb094c5ec","name":"TNLP009289 - De Spin 48, Uitgeest","address":"48 De Spin","city":"Uitgeest","operatorName":"TotalEnergies","maxPowerKw":13,"isMegawatt":false,"status":"AVAILABLE","source":"ndw"}},{"type":"Feature","geometry":{"type":"Point","coordinates":[4.70074,52.52183]},"properties":{"type":"charge","layer":"passenger","locationId":"1a8adecc-7347-4da2-aeba-3307821443a9","name":"PP005314 - Anna van Renesselaan 14, Uitgeest","address":"14 Anna van Renesselaan","city":"Uitgeest","operatorName":"TotalEnergies","maxPowerKw":13,"isMegawatt":false,"status":"AVAILABLE","source":"ndw"}},{"type":"Feature","geometry":{"type":"Point","coordinates":[4.705465,52.5153387]},"properties":{"type":"charge","layer":"passenger","locationId":"1071","name":"Shell Recharge NL Benningskamplaan 42","address":"Benningskamplaan 42","city":"Uitgeest","operatorName":"Ubitricity","maxPowerKw":22,"isMegawatt":false,"status":"AVAILABLE","source":"ndw","priceKwh":0.266}},{"type":"Feature","geometry":{"type":"Point","coordinates":[4.7018,52.5222]},"properties":{"type":"charge","layer":"passenger","locationId":"49e7063c-291a-48b3-ae6f-20f7984b52b4","name":"PP002600 - Stationsplein 1, Uitgeest","address":"1 Stationsplein","city":"Uitgeest","operatorName":"TotalEnergies","maxPowerKw":13,"isMegawatt":false,"status":"AVAILABLE","source":"ndw"}},{"type":"Feature","geometry":{"type":"Point","coordinates":[4.718552,52.540125]},"properties":{"type":"charge","layer":"passenger","locationId":"3705340","name":"Laadnet Tumbler Investments","address":"Westerwerf 3","city":"Uitgeest","operatorName":"Laadnet","maxPowerKw":22,"isMegawatt":false,"status":"AVAILABLE","source":"ndw"}},{"type":"Feature","geometry":{"type":"Point","coordinates":[4.71044,52.51845]},"properties":{"type":"charge","layer":"passenger","locationId":"47","name":"Shell Recharge NL De Melksuiker 2","address":"De Melksuiker 2","city":"Uitgeest","operatorName":"Ubitricity","maxPowerKw":11,"isMegawatt":false,"status":"AVAILABLE","source":"ndw","priceKwh":0.388}},{"type":"Feature","geometry":{"type":"Point","coordinates":[4.7072932,52.5198664]},"properties":{"type":"charge","layer":"passenger","locationId":"1930","name":"Shell Recharge NL Burgemeester van Roosmalenstraat 3","address":"Burgemeester van Roosmalenstraat 3","city":"Uitgeest","operatorName":"Ubitricity","maxPowerKw":22,"isMegawatt":false,"status":"AVAILABLE","source":"ndw","priceKwh":0.266}},{"type":"Feature","geometry":{"type":"Point","coordinates":[4.699269,52.518223]},"properties":{"type":"charge","layer":"passenger","locationId":"74f0bda2c2ae3fb526229aa354213f3d","name":"De Waterdief 2","address":"De Waterdief 2","city":"Uitgeest","operatorName":"Vattenfall InCharge","maxPowerKw":11,"isMegawatt":false,"status":"AVAILABLE","source":"ndw"}},{"type":"Feature","geometry":{"type":"Point","coordinates":[4.701146,52.51954]},"properties":{"type":"charge","layer":"passenger","locationId":"7a936e96-756c-4ffb-9eb5-753dfc1e2842","name":"TNLP005937 - De Krijgsman 25, Uitgeest","address":"25 De Krijgsman","city":"Uitgeest","operatorName":"TotalEnergies","maxPowerKw":13,"isMegawatt":false,"status":"AVAILABLE","source":"ndw"}},{"type":"Feature","geometry":{"type":"Point","coordinates":[4.711353,52.528034]},"properties":{"type":"charge","layer":"passenger","locationId":"a6f306fb-91c6-40a6-8815-d5e313f71150","name":"TNLP006732 - Dokter Brugmanstraat 176, Uitgeest","address":"176 Dokter Brugmanstraat","city":"Uitgeest","operatorName":"TotalEnergies","maxPowerKw":13,"isMegawatt":false,"status":"AVAILABLE","source":"ndw"}},{"type":"Feature","geometry":{"type":"Point","coordinates":[4.6980718,52.5172637]},"properties":{"type":"charge","layer":"passenger","locationId":"869","name":"Shell Recharge NL De Waterdief 143","address":"De Waterdief 143","city":"Uitgeest","operatorName":"Ubitricity","maxPowerKw":22,"isMegawatt":false,"status":"AVAILABLE","source":"ndw","priceKwh":0.266}},{"type":"Feature","geometry":{"type":"Point","coordinates":[4.7030009,52.5290799]},"properties":{"type":"charge","layer":"passenger","locationId":"840","name":"Shell Recharge NL Zwarte Venstraat 1","address":"Zwarte Venstraat 1","city":"Uitgeest","operatorName":"Ubitricity","maxPowerKw":22,"isMegawatt":false,"status":"AVAILABLE","source":"ndw","priceKwh":0.266}},{"type":"Feature","geometry":{"type":"Point","coordinates":[4.733614,52.527868]},"properties":{"type":"charge","layer":"passenger","locationId":"60a7c77b99d564fce1fe12dd","name":"Erfgoedpark de Hoop Paal 1","address":"Lagendijk 33","city":"Uitgeest","operatorName":"E-Flux by Road","maxPowerKw":22,"isMegawatt":false,"status":"AVAILABLE","source":"ndw","priceKwh":0.63}},{"type":"Feature","geometry":{"type":"Point","coordinates":[4.733614,52.527868]},"properties":{"type":"charge","layer":"passenger","locationId":"60a7c8695c20a80627c0dab8","name":"Erfgoedpark de Hoop Paal 5","address":"Lagendijk  33","city":"Uitgeest","operatorName":"E-Flux by Road","maxPowerKw":22,"isMegawatt":false,"status":"AVAILABLE","source":"ndw","priceKwh":0.63}},{"type":"Feature","geometry":{"type":"Point","coordinates":[4.70522,52.517567]},"properties":{"type":"charge","layer":"passenger","locationId":"3320555a-0538-46f0-8ae6-56b6d9c41e95","name":"TNLP007546 - Jacoba van Beierenlaan 63, Uitgeest","address":"63 Jacoba van Beierenlaan","city":"Uitgeest","operatorName":"TotalEnergies","maxPowerKw":15,"isMegawatt":false,"status":"AVAILABLE","source":"ndw"}},{"type":"Feature","geometry":{"type":"Point","coordinates":[4.705211,52.519123]},"properties":{"type":"charge","layer":"passenger","locationId":"4c3e0a38-4948-4836-b7fd-e7af4235ce71","name":"PP005446 - Kleis 4, Uitgeest","address":"4 Kleis","city":"Uitgeest","operatorName":"TotalEnergies","maxPowerKw":13,"isMegawatt":false,"status":"UNAVAILABLE","source":"ndw"}},{"type":"Feature","geometry":{"type":"Point","coordinates":[4.698204,52.521797]},"properties":{"type":"charge","layer":"passenger","locationId":"7973fbe1-222b-4eb0-b762-5d5abed89a8e","name":"PP005658 - De Bakker 2, Uitgeest","address":"2 De Bakker","city":"Uitgeest","operatorName":"TotalEnergies","maxPowerKw":13,"isMegawatt":false,"status":"AVAILABLE","source":"ndw"}},{"type":"Feature","geometry":{"type":"Point","coordinates":[4.7057015,52.5138611]},"properties":{"type":"charge","layer":"passenger","locationId":"1911","name":"Shell Recharge NL De Darse 33","address":"De Darse 33","city":"Uitgeest","operatorName":"Ubitricity","maxPowerKw":22,"isMegawatt":false,"status":"AVAILABLE","source":"ndw","priceKwh":0.266}},{"type":"Feature","geometry":{"type":"Point","coordinates":[4.733614,52.527868]},"properties":{"type":"charge","layer":"passenger","locationId":"60a7c820949d8d994ca1bd78","name":"Erfgoedpark de Hoop Paal 4","address":"Lagendijk  33","city":"Uitgeest","operatorName":"E-Flux by Road","maxPowerKw":22,"isMegawatt":false,"status":"AVAILABLE","source":"ndw","priceKwh":0.63}},{"type":"Feature","geometry":{"type":"Point","coordinates":[4.711437,52.53394]},"properties":{"type":"charge","layer":"passenger","locationId":"95ee5e38-4ef1-4138-9ed7-99e3d25cc959","name":"TNLP008059 - Binnenkruierstraat 22, Uitgeest","address":"22 Binnenkruierstraat","city":"Uitgeest","operatorName":"TotalEnergies","maxPowerKw":13,"isMegawatt":false,"status":"AVAILABLE","source":"ndw"}},{"type":"Feature","geometry":{"type":"Point","coordinates":[4.701592,52.516506]},"properties":{"type":"charge","layer":"passenger","locationId":"1b7a4b9b-25a8-49c3-8766-7abd7309fbca","name":"TNLP005878 - Kleis 84, Uitgeest","address":"84 Kleis","city":"Uitgeest","operatorName":"TotalEnergies","maxPowerKw":13,"isMegawatt":false,"status":"AVAILABLE","source":"ndw"}},{"type":"Feature","geometry":{"type":"Point","coordinates":[4.7046919,52.5169499]},"properties":{"type":"charge","layer":"passenger","locationId":"2243","name":"Shell Recharge NL Jacoba van Beierenlaan 39","address":"Jacoba van Beierenlaan 39","city":"Uitgeest","operatorName":"Ubitricity","maxPowerKw":22,"isMegawatt":false,"status":"AVAILABLE","source":"ndw","priceKwh":0.266}},{"type":"Feature","geometry":{"type":"Point","coordinates":[4.70232,52.52018]},"properties":{"type":"charge","layer":"passenger","locationId":"65","name":"Shell Recharge NL Anna van Renesseplein 10","address":"Anna van Renesseplein 10","city":"Uitgeest","operatorName":"Ubitricity","maxPowerKw":11,"isMegawatt":false,"status":"AVAILABLE","source":"ndw","priceKwh":0.388}},{"type":"Feature","geometry":{"type":"Point","coordinates":[4.70721,52.52963]},"properties":{"type":"charge","layer":"passenger","locationId":"1539","name":"Shell Recharge NL Kerverslaan 11","address":"Kerverslaan 11","city":"Uitgeest","operatorName":"Ubitricity","maxPowerKw":11,"isMegawatt":false,"status":"AVAILABLE","source":"ndw","priceKwh":0.388}},{"type":"Feature","geometry":{"type":"Point","coordinates":[4.69816,52.52041]},"properties":{"type":"charge","layer":"passenger","locationId":"1484","name":"Shell Recharge NL De Sluiswachter 18","address":"De Sluiswachter 18","city":"Uitgeest","operatorName":"Ubitricity","maxPowerKw":11,"isMegawatt":false,"status":"AVAILABLE","source":"ndw","priceKwh":0.388}},{"type":"Feature","geometry":{"type":"Point","coordinates":[4.705255,52.51129]},"properties":{"type":"charge","layer":"passenger","locationId":"632ae1b4343ccdd4e757f8ea","name":"KKL160","address":"Kruiskamplaan 160","city":"Uitgeest","operatorName":"E-Flux by Road","maxPowerKw":11,"isMegawatt":false,"status":"CHARGING","source":"ndw","priceKwh":1.03}},{"type":"Feature","geometry":{"type":"Point","coordinates":[4.713788,52.529137]},"properties":{"type":"charge","layer":"passenger","locationId":"2134cf1b-a379-476b-8e92-c748d4c6be55","name":"TNLP007864 - Middelweg 6, Uitgeest","address":"6 Middelweg","city":"Uitgeest","operatorName":"TotalEnergies","maxPowerKw":13,"isMegawatt":false,"status":"AVAILABLE","source":"ndw"}},{"type":"Feature","geometry":{"type":"Point","coordinates":[4.719924,52.52747]},"properties":{"type":"charge","layer":"passenger","locationId":"2677aace-a019-412a-ae9f-181fb7af018b","name":"PP005255 - Sluisbuurt 45, Uitgeest","address":"45 Sluisbuurt","city":"Uitgeest","operatorName":"TotalEnergies","maxPowerKw":13,"isMegawatt":false,"status":"AVAILABLE","source":"ndw"}},{"type":"Feature","geometry":{"type":"Point","coordinates":[4.71141,52.53509]},"properties":{"type":"charge","layer":"passenger","locationId":"528","name":"Shell Recharge NL De Grote Weid 25","address":"De Grote Weid 25","city":"Uitgeest","operatorName":"Ubitricity","maxPowerKw":11,"isMegawatt":false,"status":"AVAILABLE","source":"ndw","priceKwh":0.388}},{"type":"Feature","geometry":{"type":"Point","coordinates":[4.708303,52.53099]},"properties":{"type":"charge","layer":"passenger","locationId":"45d0ffb7-20b6-4267-b467-245329b4ee35","name":"TNLP008373 - Roerdompstraat 24, Uitgeest","address":"24 Roerdompstraat","city":"Uitgeest","operatorName":"TotalEnergies","maxPowerKw":14,"isMegawatt":false,"status":"AVAILABLE","source":"ndw"}},{"type":"Feature","geometry":{"type":"Point","coordinates":[4.69724,52.51904]},"properties":{"type":"charge","layer":"passenger","locationId":"c3df4a2a-4e1f-490b-99ef-09381a62d5f1","name":"TNLP007545 - De Waterdief 87, Uitgeest","address":"87 De Waterdief","city":"Uitgeest","operatorName":"TotalEnergies","maxPowerKw":15,"isMegawatt":false,"status":"AVAILABLE","source":"ndw"}},{"type":"Feature","geometry":{"type":"Point","coordinates":[4.70863,52.53162]},"properties":{"type":"charge","layer":"passenger","locationId":"e1407a1a-4bc7-4492-a3b5-8940654c9522","name":"PP001917 - Roerdompstraat 2, Uitgeest","address":"2 Roerdompstraat","city":"Uitgeest","operatorName":"TotalEnergies","maxPowerKw":11,"isMegawatt":false,"status":"CHARGING","source":"ndw"}},{"type":"Feature","geometry":{"type":"Point","coordinates":[4.70666,52.53324]},"properties":{"type":"charge","layer":"passenger","locationId":"3ab01612-04a0-44f2-a143-008fc6f97c82","name":"PP001230 - Benesserlaan 10, Uitgeest","address":"10 Benesserlaan","city":"Uitgeest","operatorName":"TotalEnergies","maxPowerKw":11,"isMegawatt":false,"status":"AVAILABLE","source":"ndw"}},{"type":"Feature","geometry":{"type":"Point","coordinates":[4.71018,52.52988]},"properties":{"type":"charge","layer":"passenger","locationId":"1b8e215b-42cd-4034-a4d4-5064dcf2fd83","name":"TNLP015364","address":"Castricummerweg 10","city":"Uitgeest","operatorName":"TotalEnergies","maxPowerKw":17,"isMegawatt":false,"status":"CHARGING","source":"ndw"}},{"type":"Feature","geometry":{"type":"Point","coordinates":[4.697932,52.521309]},"properties":{"type":"charge","layer":"passenger","locationId":"4246374","name":"Laadnet A en B Administraties","address":"De Bakker 14","city":"Uitgeest","operatorName":"Laadnet","maxPowerKw":11,"isMegawatt":false,"status":"AVAILABLE","source":"ndw"}},{"type":"Feature","geometry":{"type":"Point","coordinates":[4.7049211,52.5274068]},"properties":{"type":"charge","layer":"passenger","locationId":"798","name":"Shell Recharge NL Vrijburglaan 71","address":"Vrijburglaan 71","city":"Uitgeest","operatorName":"Ubitricity","maxPowerKw":22,"isMegawatt":false,"status":"AVAILABLE","source":"ndw","priceKwh":0.266}},{"type":"Feature","geometry":{"type":"Point","coordinates":[4.701013,52.520878]},"properties":{"type":"charge","layer":"passenger","locationId":"6c4c0426-090e-4685-8562-6d64628f15fb","name":"TNLP006671 - De Juffer 2, Uitgeest","address":"2 De Juffer","city":"Uitgeest","operatorName":"TotalEnergies","maxPowerKw":13,"isMegawatt":false,"status":"AVAILABLE","source":"ndw"}},{"type":"Feature","geometry":{"type":"Point","coordinates":[4.708165,52.515514]},"properties":{"type":"charge","layer":"passenger","locationId":"fc5a46442119e848d47263db874888d7","name":"Kalverkamplaan 24","address":"Kalverkamplaan 24","city":"Uitgeest","operatorName":"Vattenfall InCharge","maxPowerKw":11,"isMegawatt":false,"status":"AVAILABLE","source":"ndw"}},{"type":"Feature","geometry":{"type":"Point","coordinates":[4.71317,52.52828]},"properties":{"type":"charge","layer":"passenger","locationId":"1575","name":"Shell Recharge NL Middelweg 28","address":"Middelweg 28","city":"Uitgeest","operatorName":"Ubitricity","maxPowerKw":11,"isMegawatt":false,"status":"AVAILABLE","source":"ndw","priceKwh":0.388}},{"type":"Feature","geometry":{"type":"Point","coordinates":[4.70715,52.52015]},"properties":{"type":"charge","layer":"passenger","locationId":"530","name":"Shell Recharge NL Burgemeester van Roosmalenstraat 5","address":"Burgemeester van Roosmalenstraat 5","city":"Uitgeest","operatorName":"Ubitricity","maxPowerKw":11,"isMegawatt":false,"status":"CHARGING","source":"ndw","priceKwh":0.388}},{"type":"Feature","geometry":{"type":"Point","coordinates":[4.708309,52.52836]},"properties":{"type":"charge","layer":"passenger","locationId":"8eebb1dd-3783-4525-8604-0858a0128c0d","name":"TNLP009444 - Prinses Marijkestraat 8, Uitgeest","address":"8 Prinses Marijkestraat","city":"Uitgeest","operatorName":"TotalEnergies","maxPowerKw":15,"isMegawatt":false,"status":"AVAILABLE","source":"ndw"}},{"type":"Feature","geometry":{"type":"Point","coordinates":[4.71928,52.529938]},"properties":{"type":"charge","layer":"passenger","locationId":"69cce7943b5a3048dce0efca","name":"Molenwerf 1","address":"Molenwerf  1","city":"Uitgeest","operatorName":"E-Flux by Road","maxPowerKw":4,"isMegawatt":false,"status":"AVAILABLE","source":"ndw","priceKwh":0.4}},{"type":"Feature","geometry":{"type":"Point","coordinates":[4.733614,52.527868]},"properties":{"type":"charge","layer":"passenger","locationId":"60a7c8b918b6175288f0dd43","name":"Erfgoedpark de Hoop  Paal 6","address":"Lagendijk 33","city":"Uitgeest","operatorName":"E-Flux by Road","maxPowerKw":22,"isMegawatt":false,"status":"AVAILABLE","source":"ndw","priceKwh":0.63}},{"type":"Feature","geometry":{"type":"Point","coordinates":[4.706078,52.51215]},"properties":{"type":"charge","layer":"passenger","locationId":"6c330c9d-0ada-49c0-a335-397cede01ad0","name":"TNLP007375 - Aan de Kromme Sloot 135, Uitgeest","address":"135 Aan de Kromme Sloot","city":"Uitgeest","operatorName":"TotalEnergies","maxPowerKw":13,"isMegawatt":false,"status":"AVAILABLE","source":"ndw"}},{"type":"Feature","geometry":{"type":"Point","coordinates":[4.705047,52.513958]},"properties":{"type":"charge","layer":"passenger","locationId":"c2cd071f-0973-4402-8d0e-6973affb6963","name":"TNLP008239 - De Darse 32, Uitgeest","address":"32 De Darse","city":"Uitgeest","operatorName":"TotalEnergies","maxPowerKw":13,"isMegawatt":false,"status":"AVAILABLE","source":"ndw"}},{"type":"Feature","geometry":{"type":"Point","coordinates":[4.70423,52.52979]},"properties":{"type":"charge","layer":"passenger","locationId":"182","name":"Shell Recharge NL Bergvenstraat 2","address":"Bergvenstraat 2","city":"Uitgeest","operatorName":"Ubitricity","maxPowerKw":11,"isMegawatt":false,"status":"AVAILABLE","source":"ndw","priceKwh":0.388}},{"type":"Feature","geometry":{"type":"Point","coordinates":[4.7141059,52.5297329]},"properties":{"type":"charge","layer":"passenger","locationId":"2215","name":"Shell Recharge NL De Iepen 14","address":"De Iepen 14","city":"Uitgeest","operatorName":"Ubitricity","maxPowerKw":22,"isMegawatt":false,"status":"AVAILABLE","source":"ndw","priceKwh":0.266}},{"type":"Feature","geometry":{"type":"Point","coordinates":[4.733614,52.527868]},"properties":{"type":"charge","layer":"passenger","locationId":"60a7c71599d5647423fe12dc","name":"Erfgoedpark Paal 2","address":"Lagendijk  33","city":"Uitgeest","operatorName":"E-Flux by Road","maxPowerKw":22,"isMegawatt":false,"status":"AVAILABLE","source":"ndw","priceKwh":0.63}},{"type":"Feature","geometry":{"type":"Point","coordinates":[4.723043,52.526608]},"properties":{"type":"charge","layer":"passenger","locationId":"9ca16706-31dc-4366-ba73-a0419ef66376","name":"TNLP008077 - Lagendijk 6, Uitgeest","address":"6 Lagendijk","city":"Uitgeest","operatorName":"TotalEnergies","maxPowerKw":15,"isMegawatt":false,"status":"AVAILABLE","source":"ndw"}},{"type":"Feature","geometry":{"type":"Point","coordinates":[4.70778,52.52109]},"properties":{"type":"charge","layer":"passenger","locationId":"518","name":"Shell Recharge NL Middelweg 203","address":"Middelweg 203","city":"Uitgeest","operatorName":"Ubitricity","maxPowerKw":11,"isMegawatt":false,"status":"AVAILABLE","source":"ndw","priceKwh":0.388}},{"type":"Feature","geometry":{"type":"Point","coordinates":[4.705062,52.531387]},"properties":{"type":"charge","layer":"passenger","locationId":"469e5234-0e30-431c-9601-637a6b13e709","name":"TNLP009914 - Voorvenstraat 2, Uitgeest","address":"2 Voorvenstraat","city":"Uitgeest","operatorName":"TotalEnergies","maxPowerKw":13,"isMegawatt":false,"status":"AVAILABLE","source":"ndw"}},{"type":"Feature","geometry":{"type":"Point","coordinates":[4.706511,52.532055]},"properties":{"type":"charge","layer":"passenger","locationId":"50352d44-7efd-4126-b01d-15b933e5f42a","name":"TNLP007854 - Benesserlaan 107, Uitgeest","address":"107 Benesserlaan","city":"Uitgeest","operatorName":"TotalEnergies","maxPowerKw":13,"isMegawatt":false,"status":"AVAILABLE","source":"ndw"}},{"type":"Feature","geometry":{"type":"Point","coordinates":[4.7012,52.516537]},"properties":{"type":"charge","layer":"passenger","locationId":"a2992666-6f8d-4e08-9536-d30b18cbc141","name":"TNLP015115","address":"Kleis 78","city":"Uitgeest","operatorName":"TotalEnergies","maxPowerKw":17,"isMegawatt":false,"status":"AVAILABLE","source":"ndw"}},{"type":"Feature","geometry":{"type":"Point","coordinates":[4.70189,52.52381]},"properties":{"type":"charge","layer":"passenger","locationId":"134","name":"Shell Recharge NL Zienlaan 4","address":"Zienlaan 4","city":"Uitgeest","operatorName":"Ubitricity","maxPowerKw":11,"isMegawatt":false,"status":"AVAILABLE","source":"ndw","priceKwh":0.388}},{"type":"Feature","geometry":{"type":"Point","coordinates":[4.705846,52.524044]},"properties":{"type":"charge","layer":"passenger","locationId":"4f1ed6d8-7a1a-411c-9aa0-391df8eaa93e","name":"TNLP005743 - Rozeknop 23, Uitgeest","address":"23 Rozeknop","city":"Uitgeest","operatorName":"TotalEnergies","maxPowerKw":13,"isMegawatt":false,"status":"AVAILABLE","source":"ndw"}},{"type":"Feature","geometry":{"type":"Point","coordinates":[4.707395,52.51703]},"properties":{"type":"charge","layer":"passenger","locationId":"c375a90f-bd7f-4bc1-bede-d188ece4e56a","name":"TNLP005969 - Smallekamplaan 45, Uitgeest","address":"45 Smallekamplaan","city":"Uitgeest","operatorName":"TotalEnergies","maxPowerKw":15,"isMegawatt":false,"status":"AVAILABLE","source":"ndw"}},{"type":"Feature","geometry":{"type":"Point","coordinates":[4.697681,52.521027]},"properties":{"type":"charge","layer":"passenger","locationId":"d0108d8b-3d77-4b3d-9346-adefa3c86124","name":"TNLP008549 - De Bakker 45, Uitgeest","address":"45 De Bakker","city":"Uitgeest","operatorName":"TotalEnergies","maxPowerKw":14,"isMegawatt":false,"status":"AVAILABLE","source":"ndw"}},{"type":"Feature","geometry":{"type":"Point","coordinates":[4.71604,52.532]},"properties":{"type":"charge","layer":"passenger","locationId":"43f3c7ea-5123-498f-b05b-0b4e9e736aa9","name":"PP001916 - Loet 25, Uitgeest","address":"25 Loet","city":"Uitgeest","operatorName":"TotalEnergies","maxPowerKw":11,"isMegawatt":false,"status":"AVAILABLE","source":"ndw"}},{"type":"Feature","geometry":{"type":"Point","coordinates":[4.710603,52.518985]},"properties":{"type":"charge","layer":"passenger","locationId":"9d00dbd323e58253691eaf6931cc8024","name":"De Melksuiker 66","address":"De Melksuiker 66","city":"Uitgeest","operatorName":"Vattenfall InCharge","maxPowerKw":11,"isMegawatt":false,"status":"AVAILABLE","source":"ndw"}},{"type":"Feature","geometry":{"type":"Point","coordinates":[4.703635,52.53061]},"properties":{"type":"charge","layer":"passenger","locationId":"49a6aab0-c5a2-4a99-878c-c38370bf32ab","name":"TNLP007229 - Benesserlaan 338, Uitgeest","address":"338 Benesserlaan","city":"Uitgeest","operatorName":"TotalEnergies","maxPowerKw":13,"isMegawatt":false,"status":"AVAILABLE","source":"ndw"}},{"type":"Feature","geometry":{"type":"Point","coordinates":[4.707251,52.534635]},"properties":{"type":"charge","layer":"passenger","locationId":"0265ad69-9512-4051-b3bb-5a0bc9cc1420","name":"TNLP034656","address":"Kemphaanstraat 13","city":"Uitgeest","operatorName":"TotalEnergies","maxPowerKw":14,"isMegawatt":false,"status":"AVAILABLE","source":"ndw"}},{"type":"Feature","geometry":{"type":"Point","coordinates":[4.733614,52.527868]},"properties":{"type":"charge","layer":"passenger","locationId":"60a7c7ca7e53d1d34a9f6602","name":"Erfgoedpark de Hoop Paal 3","address":"Lagendijk  33","city":"Uitgeest","operatorName":"E-Flux by Road","maxPowerKw":22,"isMegawatt":false,"status":"AVAILABLE","source":"ndw","priceKwh":0.63}},{"type":"Feature","geometry":{"type":"Point","coordinates":[4.704639,52.51586]},"properties":{"type":"charge","layer":"passenger","locationId":"9df0e0c9-9779-4ceb-8365-85be5f05686c","name":"TNLP008086 - Graskamplaan 39, Uitgeest","address":"39 Graskamplaan","city":"Uitgeest","operatorName":"TotalEnergies","maxPowerKw":13,"isMegawatt":false,"status":"CHARGING","source":"ndw"}},{"type":"Feature","geometry":{"type":"Point","coordinates":[4.701666,52.52838]},"properties":{"type":"charge","layer":"passenger","locationId":"1b23f4c6-dc04-4248-a52d-5d44a1037368","name":"TNLP007427 - Niesvenstraat 12, Uitgeest","address":"12 Niesvenstraat","city":"Uitgeest","operatorName":"TotalEnergies","maxPowerKw":13,"isMegawatt":false,"status":"AVAILABLE","source":"ndw"}},{"type":"Feature","geometry":{"type":"Point","coordinates":[4.70796,52.526806]},"properties":{"type":"charge","layer":"passenger","locationId":"720e065c-fec7-4bb2-a4c3-62022056fb51","name":"TNLP007292 - Prinses Irenelaan 71, Uitgeest","address":"71 Prinses Irenelaan","city":"Uitgeest","operatorName":"TotalEnergies","maxPowerKw":15,"isMegawatt":false,"status":"AVAILABLE","source":"ndw"}},{"type":"Feature","geometry":{"type":"Point","coordinates":[4.705212,52.520973]},"properties":{"type":"charge","layer":"passenger","locationId":"3796e61c-3276-4cc8-b40e-1c230b198f30","name":"TNLP005914 - Spoorlaan 19, Uitgeest","address":"19 Spoorlaan","city":"Uitgeest","operatorName":"TotalEnergies","maxPowerKw":15,"isMegawatt":false,"status":"AVAILABLE","source":"ndw"}},{"type":"Feature","geometry":{"type":"Point","coordinates":[4.707411,52.513634]},"properties":{"type":"charge","layer":"passenger","locationId":"8ca7c5f1-a3a2-4160-8fc9-ac7485dddc11","name":"TNLP005916 - Aan de Kromme Sloot 81, Uitgeest","address":"81 Aan de Kromme Sloot","city":"Uitgeest","operatorName":"TotalEnergies","maxPowerKw":13,"isMegawatt":false,"status":"AVAILABLE","source":"ndw"}},{"type":"Feature","geometry":{"type":"Point","coordinates":[4.71748,52.53954]},"properties":{"type":"charge","layer":"passenger","locationId":"a0cdb826-e022-47b3-9e78-71c9396bccc5","name":"PP002601 - Westerwerf 3, Uitgeest","address":"3 Westerwerf","city":"Uitgeest","operatorName":"TotalEnergies","maxPowerKw":13,"isMegawatt":false,"status":"AVAILABLE","source":"ndw"}},{"type":"Feature","geometry":{"type":"Point","coordinates":[4.70597,52.52399]},"properties":{"type":"charge","layer":"passenger","locationId":"4a3fb3813d21b6b3f11d89876e7e5fdc","name":"Rozeknop 17","address":"Rozeknop 17","city":"Uitgeest","operatorName":"Vattenfall InCharge","maxPowerKw":11,"isMegawatt":false,"status":"AVAILABLE","source":"ndw"}},{"type":"Feature","geometry":{"type":"MultiPolygon","coordinates":[[[[4.718785169506014,52.55162329038539],[4.71980354917225,52.54385493266105],[4.723723297282848,52.5466696300941],[4.735389268074102,52.543822983555614],[4.750435668588844,52.53789596954336],[4.7552747345159965,52.53573600045984],[4.759475349480288,52.53737928578028],[4.762427103682279,52.5375110726551],[4.768018186552631,52.53463498851654],[4.7746949967286465,52.53454965978192],[4.777732632443559,52.533745370078215],[4.77784483288815,52.53177082731267],[4.782475757600058,52.519581421291505],[4.775277901226462,52.51941603223778],[4.7672025136459295,52.51975234980513],[4.767026236550218,52.51886683757377],[4.763618760370652,52.519707598572886],[4.761226979383759,52.51855421174329],[4.752427381999972,52.521233093083886],[4.749728002291831,52.520075040969346],[4.748275511598907,52.51746912094173],[4.748141865419619,52.517055359626895],[4.748252657575545,52.51531683609251],[4.748458205990691,52.51498239246731],[4.752253128396965,52.51107991073001],[4.752767195031336,52.510592237928726],[4.750673469270755,52.50829127310315],[4.748409830885378,52.50766195206156],[4.746372378495781,52.506097959887434],[4.739891998997095,52.50170803382296],[4.731576679758567,52.496331702216004],[4.7207511959571065,52.49505269075834],[4.720366589426021,52.49495413793688],[4.711703352887157,52.496817083002135],[4.705423226501022,52.50010772143018],[4.703442168666996,52.50310461633562],[4.705857612698191,52.50625132345872],[4.707936984694092,52.50614137990729],[4.709151135128404,52.5098566507343],[4.706526129794016,52.51039739832048],[4.703854363861091,52.50832909982565],[4.701235137468799,52.50886298076558],[4.697084699072143,52.507548100404165],[4.694611199912751,52.50762419616478],[4.695114113359934,52.50999860351697],[4.692599171052514,52.511002682797624],[4.69067376758487,52.51561857263044],[4.691394531352855,52.51688759403772],[4.690585093317987,52.51908273876096],[4.692829601988745,52.522281950484356],[4.6957353801591895,52.526728321729486],[4.697466659206392,52.52916432178211],[4.697603545666336,52.52924135651798],[4.695595932106443,52.535873978242144],[4.694533522839805,52.544188625123354],[4.703691858599368,52.54539675422321],[4.7064301387477006,52.54629529625867],[4.705896667576165,52.54822376519213],[4.718785169506014,52.55162329038539]]]]},"properties":{"type":"boundary","gemeente":"Uitgeest","code":"GM0450"}}]}