{"type":"FeatureCollection","metadata":{"gemeente":"Uithoorn","slug":"uithoorn","code":"GM0451","generated_at":"2026-07-06T16:26:11.361Z","total_passenger":116,"total_freight":0,"bounds":[4.723764128840122,52.20676727676336,4.852156914254267,52.260984466215426],"operators":["Allego","DAEN Mobility","E-Flux by Road","Eneco","Laadnet","TotalEnergies","Ubitricity","Vattenfall InCharge","bp pulse"]},"features":[{"type":"Feature","geometry":{"type":"Point","coordinates":[4.806512,52.249639]},"properties":{"type":"charge","layer":"passenger","locationId":"NLLOC017970","name":"NL, Fazant 15, 1422 WG Uithoorn","address":"Fazant 15","city":"Uithoorn","operatorName":"Allego","maxPowerKw":11,"isMegawatt":false,"status":"AVAILABLE","source":"ndw","priceKwh":0.511}},{"type":"Feature","geometry":{"type":"Point","coordinates":[4.808459,52.236651]},"properties":{"type":"charge","layer":"passenger","locationId":"NLLOC017033","name":"NL, Kuifmees 1, 1423 NK Uithoorn","address":"Kuifmees 1","city":"Uithoorn","operatorName":"Allego","maxPowerKw":11,"isMegawatt":false,"status":"AVAILABLE","source":"ndw","priceKwh":0.511}},{"type":"Feature","geometry":{"type":"Point","coordinates":[4.82099,52.242268]},"properties":{"type":"charge","layer":"passenger","locationId":"1f814dfd-3640-4e8e-af76-fc433152dc8f","name":"TNLP009669 - Marijnenlaan 24, Uithoorn","address":"24 Marijnenlaan","city":"Uithoorn","operatorName":"TotalEnergies","maxPowerKw":15,"isMegawatt":false,"status":"CHARGING","source":"ndw"}},{"type":"Feature","geometry":{"type":"Point","coordinates":[4.82688,52.24573]},"properties":{"type":"charge","layer":"passenger","locationId":"9093348b-a6cc-44c6-89d7-b1c3cf7f2518","name":"PP002539 - Zijdelwaardplein 100, Uithoorn","address":"100 Zijdelwaardplein","city":"Uithoorn","operatorName":"TotalEnergies","maxPowerKw":13,"isMegawatt":false,"status":"CHARGING","source":"ndw"}},{"type":"Feature","geometry":{"type":"Point","coordinates":[4.839051,52.246487]},"properties":{"type":"charge","layer":"passenger","locationId":"5f78b837-6fd0-40b0-8475-50c37e961aa2","name":"TNLP008939 - Clara Egginklaan 26, Uithoorn","address":"26 Clara Egginklaan","city":"Uithoorn","operatorName":"TotalEnergies","maxPowerKw":14,"isMegawatt":false,"status":"AVAILABLE","source":"ndw"}},{"type":"Feature","geometry":{"type":"Point","coordinates":[4.819439,52.240511]},"properties":{"type":"charge","layer":"passenger","locationId":"NLLOC008767","name":"NL, Colijnlaan 150, 1421 CD, Uithoorn","address":"Colijnlaan 150","city":"Uithoorn","operatorName":"Allego","maxPowerKw":11,"isMegawatt":false,"status":"AVAILABLE","source":"ndw","priceKwh":0.511}},{"type":"Feature","geometry":{"type":"Point","coordinates":[4.79388,52.252487]},"properties":{"type":"charge","layer":"passenger","locationId":"923351","name":"DAE-NL-2000017","address":"Poelweg 4","city":"de Kwakel","operatorName":"DAEN Mobility","maxPowerKw":22,"isMegawatt":false,"status":"AVAILABLE","source":"ndw","priceKwh":0.4}},{"type":"Feature","geometry":{"type":"Point","coordinates":[4.749455,52.22887]},"properties":{"type":"charge","layer":"passenger","locationId":"922832","name":"DAE_NL_2001025 K3","address":"Hoofdweg 111","city":"De Kwakel","operatorName":"DAEN Mobility","maxPowerKw":22,"isMegawatt":false,"status":"AVAILABLE","source":"ndw","priceKwh":0.32}},{"type":"Feature","geometry":{"type":"Point","coordinates":[4.818556,52.240394]},"properties":{"type":"charge","layer":"passenger","locationId":"1058848","name":"DAE_NL_2001377","address":"Colijnlaan 166","city":"Uithoorn","operatorName":"DAEN Mobility","maxPowerKw":11,"isMegawatt":false,"status":"CHARGING","source":"ndw","priceKwh":0.4}},{"type":"Feature","geometry":{"type":"Point","coordinates":[4.816981,52.247528]},"properties":{"type":"charge","layer":"passenger","locationId":"NLLOC006764","name":"NL, Aan de Zoom 11, 1422 MB Uithoorn","address":"Aan de Zoom 11","city":"Uithoorn","operatorName":"Allego","maxPowerKw":11,"isMegawatt":false,"status":"AVAILABLE","source":"ndw","priceKwh":0.511}},{"type":"Feature","geometry":{"type":"Point","coordinates":[4.812887,52.244373]},"properties":{"type":"charge","layer":"passenger","locationId":"NLLOC003701","name":"NLD Burgemeester Kootlaan 171, 1421 KD Uithoorn","address":"Burgemeester Kootlaan 171","city":"Uithoorn","operatorName":"Allego","maxPowerKw":11,"isMegawatt":false,"status":"CHARGING","source":"ndw","priceKwh":0.511}},{"type":"Feature","geometry":{"type":"Point","coordinates":[4.809105,52.24471]},"properties":{"type":"charge","layer":"passenger","locationId":"NLLOC006592","name":"NL, Cartografielaan 130, 1421LE, Uithoorn","address":"Cartografielaan 130","city":"Uithoorn","operatorName":"Allego","maxPowerKw":11,"isMegawatt":false,"status":"AVAILABLE","source":"ndw","priceKwh":0.511}},{"type":"Feature","geometry":{"type":"Point","coordinates":[4.804576,52.248735]},"properties":{"type":"charge","layer":"passenger","locationId":"NLLOC012954","name":"NL, Koekoek, 98, 1422ZD, Uithoorn","address":"Koekoek 98","city":"Uithoorn","operatorName":"Allego","maxPowerKw":11,"isMegawatt":false,"status":"AVAILABLE","source":"ndw","priceKwh":0.511}},{"type":"Feature","geometry":{"type":"Point","coordinates":[4.830249,52.250542]},"properties":{"type":"charge","layer":"passenger","locationId":"bff5c67cda57b6c6b0672c83412c1068","name":"Briandflat 13","address":"Briandflat 13","city":"Uithoorn","operatorName":"Vattenfall InCharge","maxPowerKw":11,"isMegawatt":false,"status":"AVAILABLE","source":"ndw"}},{"type":"Feature","geometry":{"type":"Point","coordinates":[4.749455,52.22887]},"properties":{"type":"charge","layer":"passenger","locationId":"922819","name":"DAE_NL_2001027 K5","address":"Hoofdweg 111","city":"De Kwakel","operatorName":"DAEN Mobility","maxPowerKw":22,"isMegawatt":false,"status":"AVAILABLE","source":"ndw","priceKwh":0.32}},{"type":"Feature","geometry":{"type":"Point","coordinates":[4.817394,52.249876]},"properties":{"type":"charge","layer":"passenger","locationId":"NLLOC019602","name":"NL, Legmeerplein 55, 1422 RG Uithoorn","address":"Legmeerplein 55","city":"Uithoorn","operatorName":"Allego","maxPowerKw":11,"isMegawatt":false,"status":"AVAILABLE","source":"ndw","priceKwh":0.511}},{"type":"Feature","geometry":{"type":"Point","coordinates":[4.749455,52.22887]},"properties":{"type":"charge","layer":"passenger","locationId":"922830","name":"DAE_NL_2001023 K1","address":"Hoofdweg 111","city":"De Kwakel","operatorName":"DAEN Mobility","maxPowerKw":11,"isMegawatt":false,"status":"AVAILABLE","source":"ndw","priceKwh":0.32}},{"type":"Feature","geometry":{"type":"Point","coordinates":[4.809022,52.235168]},"properties":{"type":"charge","layer":"passenger","locationId":"NLLOC006785","name":"NL, Roodhalsgans 121, 1423 PX, Uithoorn","address":"Roodhalsgans 121","city":"Uithoorn","operatorName":"Allego","maxPowerKw":11,"isMegawatt":false,"status":"AVAILABLE","source":"ndw","priceKwh":0.511}},{"type":"Feature","geometry":{"type":"Point","coordinates":[4.749455,52.22887]},"properties":{"type":"charge","layer":"passenger","locationId":"922831","name":"DAE_NL_2001024 K2","address":"Hoofdweg 111","city":"De Kwakel","operatorName":"DAEN Mobility","maxPowerKw":22,"isMegawatt":false,"status":"AVAILABLE","source":"ndw","priceKwh":0.32}},{"type":"Feature","geometry":{"type":"Point","coordinates":[4.819219,52.252726]},"properties":{"type":"charge","layer":"passenger","locationId":"NLLOC017184","name":"NL, Bertram 121A, 1422RW, Uithoorn","address":"Bertram 121A","city":"Uithoorn","operatorName":"Allego","maxPowerKw":11,"isMegawatt":false,"status":"AVAILABLE","source":"ndw","priceKwh":0.511}},{"type":"Feature","geometry":{"type":"Point","coordinates":[4.78886,52.246033]},"properties":{"type":"charge","layer":"passenger","locationId":"a010755a-dafa-4f1b-9fdc-9eb3201504f3","name":"TNLP009661 - Ambachtshof 2, De Kwakel","address":"2 Ambachtshof","city":"De Kwakel","operatorName":"TotalEnergies","maxPowerKw":15,"isMegawatt":false,"status":"AVAILABLE","source":"ndw"}},{"type":"Feature","geometry":{"type":"Point","coordinates":[4.83488,52.24827]},"properties":{"type":"charge","layer":"passenger","locationId":"cd4e5a31fe37daea8bda16059f207adf","name":"De Gasperilaan 21","address":"De Gasperilaan 21","city":"Uithoorn","operatorName":"Vattenfall InCharge","maxPowerKw":11,"isMegawatt":false,"status":"AVAILABLE","source":"ndw"}},{"type":"Feature","geometry":{"type":"Point","coordinates":[4.831072,52.241957]},"properties":{"type":"charge","layer":"passenger","locationId":"64c3cd27ccd684001c6c02f9","name":"LIB_9498  station","address":"Wiegerbruinlaan 2A","city":"Uithoorn","operatorName":"E-Flux by Road","maxPowerKw":11,"isMegawatt":false,"status":"AVAILABLE","source":"ndw","priceKwh":0.1752}},{"type":"Feature","geometry":{"type":"Point","coordinates":[4.824528,52.249321]},"properties":{"type":"charge","layer":"passenger","locationId":"4290839","name":"Laadnet Easee Uithoorn","address":"Herman Gorterhof 108","city":"Uithoorn","operatorName":"Laadnet","maxPowerKw":11,"isMegawatt":false,"status":"AVAILABLE","source":"ndw"}},{"type":"Feature","geometry":{"type":"Point","coordinates":[4.8111275,52.2367696]},"properties":{"type":"charge","layer":"passenger","locationId":"1247","name":"Shell Recharge NL Glanskopmees 2","address":"Glanskopmees 2","city":"Uithoorn","operatorName":"Ubitricity","maxPowerKw":22,"isMegawatt":false,"status":"CHARGING","source":"ndw","priceKwh":0.266}},{"type":"Feature","geometry":{"type":"Point","coordinates":[4.831983,52.243782]},"properties":{"type":"charge","layer":"passenger","locationId":"NLLOC010856","name":"NL, Marsmanlaan 33, 1422 CG, Uithoorn","address":"Marsmanlaan 33","city":"Uithoorn","operatorName":"Allego","maxPowerKw":11,"isMegawatt":false,"status":"AVAILABLE","source":"ndw","priceKwh":0.511}},{"type":"Feature","geometry":{"type":"Point","coordinates":[4.82113,52.232873]},"properties":{"type":"charge","layer":"passenger","locationId":"NLLOC002729","name":"NLD, Ebro 83, 1423 AN Uithoorn","address":"Ebro 83","city":"Uithoorn","operatorName":"Allego","maxPowerKw":11,"isMegawatt":false,"status":"AVAILABLE","source":"ndw","priceKwh":0.511}},{"type":"Feature","geometry":{"type":"Point","coordinates":[4.830403,52.246278]},"properties":{"type":"charge","layer":"passenger","locationId":"NLLOC021871","name":"NL, A.M. de Jonglaan 2 1422 GK Uithoorn","address":"A.M. de Jonglaan 2","city":"Uithoorn","operatorName":"Allego","maxPowerKw":11,"isMegawatt":false,"status":"AVAILABLE","source":"ndw","priceKwh":0.511}},{"type":"Feature","geometry":{"type":"Point","coordinates":[4.822107,52.234785]},"properties":{"type":"charge","layer":"passenger","locationId":"NLLOC007129","name":"NL, Ebro 171, 1423 AS, Uithoorn","address":"Ebro 171","city":"Uithoorn","operatorName":"Allego","maxPowerKw":11,"isMegawatt":false,"status":"AVAILABLE","source":"ndw","priceKwh":0.511}},{"type":"Feature","geometry":{"type":"Point","coordinates":[4.841322,52.237265]},"properties":{"type":"charge","layer":"passenger","locationId":"2127456","name":"Laadnet Kurve","address":"J.A. van Seumerenlaan 5-7","city":"Uithoorn","operatorName":"Laadnet","maxPowerKw":22,"isMegawatt":false,"status":"AVAILABLE","source":"ndw"}},{"type":"Feature","geometry":{"type":"Point","coordinates":[4.824935,52.23052]},"properties":{"type":"charge","layer":"passenger","locationId":"93f2e3e2-a6f0-4088-92c0-0670086924b9","name":"TNLP009677 - Schans 338p, Uithoorn","address":"338p Schans","city":"Uithoorn","operatorName":"TotalEnergies","maxPowerKw":15,"isMegawatt":false,"status":"AVAILABLE","source":"ndw"}},{"type":"Feature","geometry":{"type":"Point","coordinates":[4.82706,52.233156]},"properties":{"type":"charge","layer":"passenger","locationId":"NLLOC003495","name":"NLD Laan van Meerwijk 16, 1423 UIthoorn","address":"Laan van Meerwijk 16","city":"UIthoorn","operatorName":"Allego","maxPowerKw":11,"isMegawatt":false,"status":"UNAVAILABLE","source":"ndw","priceKwh":0.511}},{"type":"Feature","geometry":{"type":"Point","coordinates":[4.81058,52.249456]},"properties":{"type":"charge","layer":"passenger","locationId":"NLLOC007116","name":"NL, Torenvalk 1, 1422 WL, Uithoorn","address":"Torenvalk 1","city":"Uithoorn","operatorName":"Allego","maxPowerKw":11,"isMegawatt":false,"status":"CHARGING","source":"ndw","priceKwh":0.511}},{"type":"Feature","geometry":{"type":"Point","coordinates":[4.842873,52.243488]},"properties":{"type":"charge","layer":"passenger","locationId":"79C410B8-3DD7-455F-B6DE-4A60E5695B4F","name":"Eneco eMobility Amsterdamseweg 59 Uithoorn","address":"Amsterdamseweg 59","city":"Uithoorn","operatorName":"Eneco","maxPowerKw":22,"isMegawatt":false,"status":"AVAILABLE","source":"ndw","priceKwh":0.32}},{"type":"Feature","geometry":{"type":"Point","coordinates":[4.81666,52.250616]},"properties":{"type":"charge","layer":"passenger","locationId":"NLLOC002752","name":"NLD, In het Midden 95, 1422PC Uithoorn","address":"In het Midden 95","city":"Uithoorn","operatorName":"Allego","maxPowerKw":11,"isMegawatt":false,"status":"AVAILABLE","source":"ndw","priceKwh":0.511}},{"type":"Feature","geometry":{"type":"Point","coordinates":[4.821236,52.231489]},"properties":{"type":"charge","layer":"passenger","locationId":"NLLOC018205","name":"NL,Fermoor 19, 1423 EC Uithoorn","address":"Fermoor 19","city":"Uithoorn","operatorName":"Allego","maxPowerKw":11,"isMegawatt":false,"status":"AVAILABLE","source":"ndw","priceKwh":0.511}},{"type":"Feature","geometry":{"type":"Point","coordinates":[4.822397,52.239068]},"properties":{"type":"charge","layer":"passenger","locationId":"NLLOC006409","name":"NL, Prinses Christinalaan 137, 1421 BH, Uithoorn","address":"Prinses Christinalaan 137","city":"Uithoorn","operatorName":"Allego","maxPowerKw":11,"isMegawatt":false,"status":"CHARGING","source":"ndw","priceKwh":0.511}},{"type":"Feature","geometry":{"type":"Point","coordinates":[4.836025,52.245866]},"properties":{"type":"charge","layer":"passenger","locationId":"NLLOC006632","name":"NL, Arthur van Schendellaan 124, 1422 LG, Uithoorn","address":"Arthur van Schendellaan 124","city":"Uithoorn","operatorName":"Allego","maxPowerKw":11,"isMegawatt":false,"status":"AVAILABLE","source":"ndw","priceKwh":0.511}},{"type":"Feature","geometry":{"type":"Point","coordinates":[4.828806,52.23469]},"properties":{"type":"charge","layer":"passenger","locationId":"NLLOC011945","name":"NL, Prinses Christinalaan 19E, 1421 BD, Uithoorn","address":"Prinses Christinalaan 19E","city":"Uithoorn","operatorName":"Allego","maxPowerKw":11,"isMegawatt":false,"status":"AVAILABLE","source":"ndw","priceKwh":0.511}},{"type":"Feature","geometry":{"type":"Point","coordinates":[4.814266,52.239753]},"properties":{"type":"charge","layer":"passenger","locationId":"eadb7a89e80a35efa772d09e5462f254","name":"Elzenlaan 1","address":"Elzenlaan 1","city":"Uithoorn","operatorName":"Vattenfall InCharge","maxPowerKw":11,"isMegawatt":false,"status":"AVAILABLE","source":"ndw"}},{"type":"Feature","geometry":{"type":"Point","coordinates":[4.832399,52.248837]},"properties":{"type":"charge","layer":"passenger","locationId":"NLLOC006267","name":"NL, Spaaklaan 18, 1422 LB, Uithoorn","address":"Spaaklaan 18","city":"Uithoorn","operatorName":"Allego","maxPowerKw":11,"isMegawatt":false,"status":"AVAILABLE","source":"ndw","priceKwh":0.511}},{"type":"Feature","geometry":{"type":"Point","coordinates":[4.829809,52.249082]},"properties":{"type":"charge","layer":"passenger","locationId":"NLLOC012252","name":"NL, Brusselflat 12, 1422 VA Uithoorn","address":"Brusselflat 12","city":"Uithoorn","operatorName":"Allego","maxPowerKw":11,"isMegawatt":false,"status":"AVAILABLE","source":"ndw","priceKwh":0.511}},{"type":"Feature","geometry":{"type":"Point","coordinates":[4.79388,52.252487]},"properties":{"type":"charge","layer":"passenger","locationId":"923353","name":"DAE-NL-2000019","address":"Poelweg 4","city":"de Kwakel","operatorName":"DAEN Mobility","maxPowerKw":22,"isMegawatt":false,"status":"AVAILABLE","source":"ndw","priceKwh":0.4}},{"type":"Feature","geometry":{"type":"Point","coordinates":[4.825195,52.239196]},"properties":{"type":"charge","layer":"passenger","locationId":"NLLOC002576","name":"NLD, Kuyperlaan 2, 1421 VS Uithoorn","address":"Kuyperlaan 2","city":"Uithoorn","operatorName":"Allego","maxPowerKw":11,"isMegawatt":false,"status":"AVAILABLE","source":"ndw","priceKwh":0.511}},{"type":"Feature","geometry":{"type":"Point","coordinates":[4.79388,52.252487]},"properties":{"type":"charge","layer":"passenger","locationId":"923352","name":"DAE-NL-2000018","address":"Poelweg 4","city":"de Kwakel","operatorName":"DAEN Mobility","maxPowerKw":22,"isMegawatt":false,"status":"AVAILABLE","source":"ndw","priceKwh":0.4}},{"type":"Feature","geometry":{"type":"Point","coordinates":[4.790378,52.24096]},"properties":{"type":"charge","layer":"passenger","locationId":"NLLOC003315","name":"NLD Anjerlaan 1, 1424AM De Kwakel","address":"Anjerlaan 1","city":"De Kwakel","operatorName":"Allego","maxPowerKw":11,"isMegawatt":false,"status":"CHARGING","source":"ndw","priceKwh":0.511}},{"type":"Feature","geometry":{"type":"Point","coordinates":[4.797482,52.24109]},"properties":{"type":"charge","layer":"passenger","locationId":"NLLOC007958","name":"NL, De Linie 6, 1424 EA, De Kwakel","address":"De Linie 6","city":"De Kwakel","operatorName":"Allego","maxPowerKw":11,"isMegawatt":false,"status":"AVAILABLE","source":"ndw","priceKwh":0.511}},{"type":"Feature","geometry":{"type":"Point","coordinates":[4.822999,52.232807]},"properties":{"type":"charge","layer":"passenger","locationId":"4722555","name":"Laadnet Eger","address":"Eger 6","city":"Uithoorn","operatorName":"Laadnet","maxPowerKw":22,"isMegawatt":false,"status":"AVAILABLE","source":"ndw"}},{"type":"Feature","geometry":{"type":"Point","coordinates":[4.837167,52.236283]},"properties":{"type":"charge","layer":"passenger","locationId":"NLLOC003497","name":"NLD Burgm. van Meetelenstraat 22, 1422 XR Uithoorn","address":"Burgm. van Meetelenstraat 22","city":"UIthoorn","operatorName":"Allego","maxPowerKw":11,"isMegawatt":false,"status":"CHARGING","source":"ndw","priceKwh":0.511}},{"type":"Feature","geometry":{"type":"Point","coordinates":[4.787124,52.238717]},"properties":{"type":"charge","layer":"passenger","locationId":"NLLOC007136","name":"NL, Seringenlaan 60, 1424GC, De Kwakel","address":"Seringenlaan 60","city":"De Kwakel","operatorName":"Allego","maxPowerKw":11,"isMegawatt":false,"status":"AVAILABLE","source":"ndw","priceKwh":0.511}},{"type":"Feature","geometry":{"type":"Point","coordinates":[4.807641,52.250483]},"properties":{"type":"charge","layer":"passenger","locationId":"NLLOC006551","name":"NL, Dwergmuis 10, 1422 WR, Uithoorn","address":"Dwergmuis 10","city":"Uithoorn","operatorName":"Allego","maxPowerKw":11,"isMegawatt":false,"status":"AVAILABLE","source":"ndw","priceKwh":0.511}},{"type":"Feature","geometry":{"type":"Point","coordinates":[4.838351,52.237289]},"properties":{"type":"charge","layer":"passenger","locationId":"NLLOC014159","name":"NL, Burgemeester Brautigamlaan 49, 1422ZE, Uithoorn","address":"Burgemeester Brautigamlaan 49","city":"Uithoorn","operatorName":"Allego","maxPowerKw":11,"isMegawatt":false,"status":"UNAVAILABLE","source":"ndw","priceKwh":0.511}},{"type":"Feature","geometry":{"type":"Point","coordinates":[4.749455,52.22887]},"properties":{"type":"charge","layer":"passenger","locationId":"922824","name":"DAE_NL_2001036 K14","address":"Hoofdweg 111","city":"De Kwakel","operatorName":"DAEN Mobility","maxPowerKw":22,"isMegawatt":false,"status":"UNAVAILABLE","source":"ndw","priceKwh":0.32}},{"type":"Feature","geometry":{"type":"Point","coordinates":[4.8142031,52.2435108]},"properties":{"type":"charge","layer":"passenger","locationId":"2457","name":"Shell Recharge NL Dina Appeldoornlaan 65","address":"Dina Appeldoornlaan 65","city":"Uithoorn","operatorName":"Ubitricity","maxPowerKw":22,"isMegawatt":false,"status":"AVAILABLE","source":"ndw","priceKwh":0.266}},{"type":"Feature","geometry":{"type":"Point","coordinates":[4.816146,52.24322]},"properties":{"type":"charge","layer":"passenger","locationId":"NLLOC014122","name":"NL, Sportlaan 66, 1421TE, Uithoorn","address":"Sportlaan 66","city":"Uithoorn","operatorName":"Allego","maxPowerKw":11,"isMegawatt":false,"status":"AVAILABLE","source":"ndw","priceKwh":0.511}},{"type":"Feature","geometry":{"type":"Point","coordinates":[4.812572,52.247979]},"properties":{"type":"charge","layer":"passenger","locationId":"NLLOC018690","name":"NL, Wederik 2, 1422MJ, Uithoorn","address":"Wederik 2","city":"Uithoorn","operatorName":"Allego","maxPowerKw":11,"isMegawatt":false,"status":"AVAILABLE","source":"ndw","priceKwh":0.511}},{"type":"Feature","geometry":{"type":"Point","coordinates":[4.829118,52.243771]},"properties":{"type":"charge","layer":"passenger","locationId":"4122760","name":"Laadnet Engel Foreign Food","address":"Wiegerbruinlaan 4-d","city":"Uithoorn","operatorName":"Laadnet","maxPowerKw":22,"isMegawatt":false,"status":"AVAILABLE","source":"ndw"}},{"type":"Feature","geometry":{"type":"Point","coordinates":[4.816897,52.253689]},"properties":{"type":"charge","layer":"passenger","locationId":"NLLOC007586","name":"NL, Brunel 12, 1422 RK, Uithoorn","address":"Brunel 12","city":"Uithoorn","operatorName":"Allego","maxPowerKw":11,"isMegawatt":false,"status":"AVAILABLE","source":"ndw","priceKwh":0.511}},{"type":"Feature","geometry":{"type":"Point","coordinates":[4.749455,52.22887]},"properties":{"type":"charge","layer":"passenger","locationId":"922827","name":"DAE_NL_2001029 K7","address":"Hoofdweg 111","city":"De Kwakel","operatorName":"DAEN Mobility","maxPowerKw":22,"isMegawatt":false,"status":"UNAVAILABLE","source":"ndw","priceKwh":0.32}},{"type":"Feature","geometry":{"type":"Point","coordinates":[4.829524,52.25086]},"properties":{"type":"charge","layer":"passenger","locationId":"d31c3e3b-cbc0-4974-961f-8b4d5efe053b","name":"TNLP008924 - Briandflat 12, Uithoorn","address":"12 Briandflat","city":"Uithoorn","operatorName":"TotalEnergies","maxPowerKw":14,"isMegawatt":false,"status":"AVAILABLE","source":"ndw"}},{"type":"Feature","geometry":{"type":"Point","coordinates":[4.808511,52.2379]},"properties":{"type":"charge","layer":"passenger","locationId":"NLLOC002643","name":"NLD, Kuifmees 101, 1423 NR Uithoorn","address":"Kuifmees 101","city":"Uithoorn","operatorName":"Allego","maxPowerKw":11,"isMegawatt":false,"status":"AVAILABLE","source":"ndw","priceKwh":0.511}},{"type":"Feature","geometry":{"type":"Point","coordinates":[4.826644,52.249349]},"properties":{"type":"charge","layer":"passenger","locationId":"NLLOC003313","name":"NLD Albert Verweylaan 2a, 1422 TR Uithoorn","address":"Albert Verweylaan 2a","city":"Uithoorn","operatorName":"Allego","maxPowerKw":11,"isMegawatt":false,"status":"AVAILABLE","source":"ndw","priceKwh":0.511}},{"type":"Feature","geometry":{"type":"Point","coordinates":[4.821684,52.252499]},"properties":{"type":"charge","layer":"passenger","locationId":"NLLOC020765","name":"NL, Koekoeksbloem 24, 1422 KP Uithoorn","address":"Koekoeksbloem 24","city":"Uithoorn","operatorName":"Allego","maxPowerKw":11,"isMegawatt":false,"status":"AVAILABLE","source":"ndw","priceKwh":0.511}},{"type":"Feature","geometry":{"type":"Point","coordinates":[4.831219,52.236626]},"properties":{"type":"charge","layer":"passenger","locationId":"9f25f2d5-4588-431c-929d-0b501877eebd","name":"TNLP015451 - Admiraal de Ruyterlaan 10c, Uithoorn","address":"10c Admiraal de Ruyterlaan","city":"Uithoorn","operatorName":"TotalEnergies","maxPowerKw":17,"isMegawatt":false,"status":"AVAILABLE","source":"ndw"}},{"type":"Feature","geometry":{"type":"Point","coordinates":[4.749455,52.22887]},"properties":{"type":"charge","layer":"passenger","locationId":"922828","name":"DAE_NL_2001028 K6","address":"Hoofdweg 111","city":"De Kwakel","operatorName":"DAEN Mobility","maxPowerKw":22,"isMegawatt":false,"status":"UNAVAILABLE","source":"ndw","priceKwh":0.32}},{"type":"Feature","geometry":{"type":"Point","coordinates":[4.749455,52.22887]},"properties":{"type":"charge","layer":"passenger","locationId":"922829","name":"DAE_NL_2001031 K9","address":"Hoofdweg 111","city":"De Kwakel","operatorName":"DAEN Mobility","maxPowerKw":22,"isMegawatt":false,"status":"UNAVAILABLE","source":"ndw","priceKwh":0.32}},{"type":"Feature","geometry":{"type":"Point","coordinates":[4.775625,52.237955]},"properties":{"type":"charge","layer":"passenger","locationId":"0f66d519-0d1f-4078-8cd6-02a7931f85d9","name":"bp De Kwakel","address":"Noordzuidroute 2","city":"De Kwakel","operatorName":"bp pulse","maxPowerKw":150,"isMegawatt":false,"status":"AVAILABLE","source":"ndw","priceKwh":0.7}},{"type":"Feature","geometry":{"type":"Point","coordinates":[4.8302434,52.244629]},"properties":{"type":"charge","layer":"passenger","locationId":"1441","name":"Shell Recharge NL Achterberglaan 84","address":"Achterberglaan 84","city":"Uithoorn","operatorName":"Ubitricity","maxPowerKw":22,"isMegawatt":false,"status":"AVAILABLE","source":"ndw","priceKwh":0.266}},{"type":"Feature","geometry":{"type":"Point","coordinates":[4.80293,52.249202]},"properties":{"type":"charge","layer":"passenger","locationId":"NLLOC007449","name":"NL, Koekoek 118, 1422 ZD, Uithoorn","address":"Koekoek 118","city":"Uithoorn","operatorName":"Allego","maxPowerKw":11,"isMegawatt":false,"status":"AVAILABLE","source":"ndw","priceKwh":0.511}},{"type":"Feature","geometry":{"type":"Point","coordinates":[4.82934,52.2343]},"properties":{"type":"charge","layer":"passenger","locationId":"10eec222-0706-42eb-a064-4c53d396e402","name":"TNLP015036 - Thamerlaan 14, Uithoorn","address":"14 Thamerlaan","city":"Uithoorn","operatorName":"TotalEnergies","maxPowerKw":17,"isMegawatt":false,"status":"AVAILABLE","source":"ndw"}},{"type":"Feature","geometry":{"type":"Point","coordinates":[4.828198,52.231353]},"properties":{"type":"charge","layer":"passenger","locationId":"NLLOC007538","name":"NL, Schoolstraat 20, 1421TN, Uithoorn","address":"Schoolstraat 20","city":"Uithoorn","operatorName":"Allego","maxPowerKw":11,"isMegawatt":false,"status":"AVAILABLE","source":"ndw","priceKwh":0.511}},{"type":"Feature","geometry":{"type":"Point","coordinates":[4.825808,52.241515]},"properties":{"type":"charge","layer":"passenger","locationId":"NLLOC002450","name":"NLD, Uithoorn, Nicolaas Beetslaan 102, 1422 AV","address":"Nicolaas Beetslaan 102","city":"Uithoorn","operatorName":"Allego","maxPowerKw":11,"isMegawatt":false,"status":"AVAILABLE","source":"ndw","priceKwh":0.511}},{"type":"Feature","geometry":{"type":"Point","coordinates":[4.808214,52.249206]},"properties":{"type":"charge","layer":"passenger","locationId":"09132ff3-a0cf-41bf-9db1-0f9f51ca4875","name":"TNLP034347","address":"Vogellaan 42","city":"Uithoorn","operatorName":"TotalEnergies","maxPowerKw":14,"isMegawatt":false,"status":"AVAILABLE","source":"ndw"}},{"type":"Feature","geometry":{"type":"Point","coordinates":[4.749455,52.22887]},"properties":{"type":"charge","layer":"passenger","locationId":"922822","name":"DAE_NL_2001035 K13","address":"Hoofdweg 111","city":"De Kwakel","operatorName":"DAEN Mobility","maxPowerKw":22,"isMegawatt":false,"status":"UNAVAILABLE","source":"ndw","priceKwh":0.32}},{"type":"Feature","geometry":{"type":"Point","coordinates":[4.815423,52.246019]},"properties":{"type":"charge","layer":"passenger","locationId":"NLLOC010001","name":"NL, Weegbree 37, 1422MS, Uithoorn","address":"Weegbree 37","city":"Uithoorn","operatorName":"Allego","maxPowerKw":11,"isMegawatt":false,"status":"AVAILABLE","source":"ndw","priceKwh":0.511}},{"type":"Feature","geometry":{"type":"Point","coordinates":[4.776331,52.238646]},"properties":{"type":"charge","layer":"passenger","locationId":"3672653","name":"Laadnet Omtzigt Verhuur","address":"Bedrijvenweg 6b","city":"De Kwakel","operatorName":"Laadnet","maxPowerKw":22,"isMegawatt":false,"status":"AVAILABLE","source":"ndw"}},{"type":"Feature","geometry":{"type":"Point","coordinates":[4.808592,52.24698]},"properties":{"type":"charge","layer":"passenger","locationId":"NLLOC014302","name":"NL, Buitenhof, 10, 1421LB, Uithoorn","address":"Buitenhof 10","city":"Uithoorn","operatorName":"Allego","maxPowerKw":11,"isMegawatt":false,"status":"AVAILABLE","source":"ndw","priceKwh":0.511}},{"type":"Feature","geometry":{"type":"Point","coordinates":[4.833965,52.233769]},"properties":{"type":"charge","layer":"passenger","locationId":"82f1a149a2ac7f347a711d46f5fe5fa7","name":"Pr. Beatrixlaan 33","address":"Pr. Beatrixlaan 33","city":"Uithoorn","operatorName":"Vattenfall InCharge","maxPowerKw":11,"isMegawatt":false,"status":"AVAILABLE","source":"ndw"}},{"type":"Feature","geometry":{"type":"Point","coordinates":[4.83436,52.234997]},"properties":{"type":"charge","layer":"passenger","locationId":"b73bd233-8816-4feb-87dc-a7a438b181ca","name":"TNLP008908 - Stationsstraat 18, Uithoorn","address":"18 Stationsstraat","city":"Uithoorn","operatorName":"TotalEnergies","maxPowerKw":14,"isMegawatt":false,"status":"AVAILABLE","source":"ndw"}},{"type":"Feature","geometry":{"type":"Point","coordinates":[4.82599,52.2507]},"properties":{"type":"charge","layer":"passenger","locationId":"67ac75a00f40fd6dc0dafb8ba599c8b8","name":"Pieter Langendijklaan 22","address":"Pieter Langendijklaan 22","city":"Uithoorn","operatorName":"Vattenfall InCharge","maxPowerKw":11,"isMegawatt":false,"status":"AVAILABLE","source":"ndw"}},{"type":"Feature","geometry":{"type":"Point","coordinates":[4.807656,52.248566]},"properties":{"type":"charge","layer":"passenger","locationId":"fd71e810-9b0c-476b-851d-1d2795fc890f","name":"TNLP009646 - Knobbelzwaan 33, Uithoorn","address":"33 Knobbelzwaan","city":"Uithoorn","operatorName":"TotalEnergies","maxPowerKw":17,"isMegawatt":false,"status":"UNAVAILABLE","source":"ndw"}},{"type":"Feature","geometry":{"type":"Point","coordinates":[4.828716,52.247631]},"properties":{"type":"charge","layer":"passenger","locationId":"NLLOC006010","name":"NLD, Anna Blamanlaan 9, 1422 GW Uithoorn","address":"Anna Blamanlaan 9","city":"Uithoorn","operatorName":"Allego","maxPowerKw":11,"isMegawatt":false,"status":"CHARGING","source":"ndw","priceKwh":0.511}},{"type":"Feature","geometry":{"type":"Point","coordinates":[4.813779,52.241531]},"properties":{"type":"charge","layer":"passenger","locationId":"NLLOC002693","name":"NLD, Geometrielaan 218, 1421 LD Uithoorn","address":"Geometrielaan 218","city":"Uithoorn","operatorName":"Allego","maxPowerKw":11,"isMegawatt":false,"status":"AVAILABLE","source":"ndw","priceKwh":0.511}},{"type":"Feature","geometry":{"type":"Point","coordinates":[4.818544,52.230177]},"properties":{"type":"charge","layer":"passenger","locationId":"NLLOC011384","name":"NL, Grift 41, 1423 DH Uithoorn","address":"Grift 41","city":"Uithoorn","operatorName":"Allego","maxPowerKw":11,"isMegawatt":false,"status":"AVAILABLE","source":"ndw","priceKwh":0.511}},{"type":"Feature","geometry":{"type":"Point","coordinates":[4.816153,52.232352]},"properties":{"type":"charge","layer":"passenger","locationId":"3c98641074d8c7612a1d329869cc24d7","name":"Flevomeer 28","address":"Flevomeer 28","city":"Uithoorn","operatorName":"Vattenfall InCharge","maxPowerKw":11,"isMegawatt":false,"status":"AVAILABLE","source":"ndw"}},{"type":"Feature","geometry":{"type":"Point","coordinates":[4.810617,52.248417]},"properties":{"type":"charge","layer":"passenger","locationId":"37189076-88bb-419c-9f14-86158bc69b7f","name":"TNLP008936 - Winterkoning 8, Uithoorn","address":"8 Winterkoning","city":"Uithoorn","operatorName":"TotalEnergies","maxPowerKw":14,"isMegawatt":false,"status":"AVAILABLE","source":"ndw"}},{"type":"Feature","geometry":{"type":"Point","coordinates":[4.749455,52.22887]},"properties":{"type":"charge","layer":"passenger","locationId":"922823","name":"DAE_NL_2001037 K15","address":"Hoofdweg 111","city":"De Kwakel","operatorName":"DAEN Mobility","maxPowerKw":22,"isMegawatt":false,"status":"UNAVAILABLE","source":"ndw","priceKwh":0.32}},{"type":"Feature","geometry":{"type":"Point","coordinates":[4.794492,52.24089]},"properties":{"type":"charge","layer":"passenger","locationId":"dc3134e2-b15e-4dfc-a216-60ef1d25e8d8","name":"TNLP015041 - De Stelling 19, De Kwakel","address":"19 De Stelling","city":"De Kwakel","operatorName":"TotalEnergies","maxPowerKw":17,"isMegawatt":false,"status":"AVAILABLE","source":"ndw"}},{"type":"Feature","geometry":{"type":"Point","coordinates":[4.749455,52.22887]},"properties":{"type":"charge","layer":"passenger","locationId":"922826","name":"DAE_NL_2001032 K10","address":"Hoofdweg 111","city":"De Kwakel","operatorName":"DAEN Mobility","maxPowerKw":22,"isMegawatt":false,"status":"UNAVAILABLE","source":"ndw","priceKwh":0.32}},{"type":"Feature","geometry":{"type":"Point","coordinates":[4.749455,52.22887]},"properties":{"type":"charge","layer":"passenger","locationId":"922825","name":"DAE_NL_2001026 K4","address":"Hoofdweg 111","city":"De Kwakel","operatorName":"DAEN Mobility","maxPowerKw":22,"isMegawatt":false,"status":"AVAILABLE","source":"ndw","priceKwh":0.32}},{"type":"Feature","geometry":{"type":"Point","coordinates":[4.8045575,52.2407297]},"properties":{"type":"charge","layer":"passenger","locationId":"978","name":"Shell Recharge NL Boterdijk 108","address":"Boterdijk 108","city":"De Kwakel","operatorName":"Ubitricity","maxPowerKw":22,"isMegawatt":false,"status":"AVAILABLE","source":"ndw","priceKwh":0.266}},{"type":"Feature","geometry":{"type":"Point","coordinates":[4.82686,52.242086]},"properties":{"type":"charge","layer":"passenger","locationId":"NLLOC021320","name":"NL, Potgieterlaan 44, 1422 BA Uithoorn","address":"Potgieterlaan 44","city":"Uithoorn","operatorName":"Allego","maxPowerKw":11,"isMegawatt":false,"status":"AVAILABLE","source":"ndw","priceKwh":0.511}},{"type":"Feature","geometry":{"type":"Point","coordinates":[4.81118,52.245576]},"properties":{"type":"charge","layer":"passenger","locationId":"1c67100718117aac6e3910cae2d1577d","name":"Burgemeester Kootlaan 54","address":"Burgemeester Kootlaan 54","city":"Uithoorn","operatorName":"Vattenfall InCharge","maxPowerKw":11,"isMegawatt":false,"status":"AVAILABLE","source":"ndw"}},{"type":"Feature","geometry":{"type":"Point","coordinates":[4.824492,52.243104]},"properties":{"type":"charge","layer":"passenger","locationId":"NLLOC012577","name":"NL, Potgieterplein 4, 1422 BB Uithoorn","address":"Potgieterplein 4","city":"Uithoorn","operatorName":"Allego","maxPowerKw":11,"isMegawatt":false,"status":"AVAILABLE","source":"ndw","priceKwh":0.511}},{"type":"Feature","geometry":{"type":"Point","coordinates":[4.830618,52.233119]},"properties":{"type":"charge","layer":"passenger","locationId":"NLLOC002727","name":"NLD, Prinses Irenelaan 1a, 1421 AN Uithoorn","address":"Prinses Irenelaan 1a","city":"Uithoorn","operatorName":"Allego","maxPowerKw":11,"isMegawatt":false,"status":"AVAILABLE","source":"ndw","priceKwh":0.511}},{"type":"Feature","geometry":{"type":"Point","coordinates":[4.749455,52.22887]},"properties":{"type":"charge","layer":"passenger","locationId":"922820","name":"DAE_NL_2001030 K8","address":"Hoofdweg 111","city":"De Kwakel","operatorName":"DAEN Mobility","maxPowerKw":22,"isMegawatt":false,"status":"UNAVAILABLE","source":"ndw","priceKwh":0.32}},{"type":"Feature","geometry":{"type":"Point","coordinates":[4.749455,52.22887]},"properties":{"type":"charge","layer":"passenger","locationId":"922821","name":"DAE_NL_2001034 K12","address":"Hoofdweg 111","city":"De Kwakel","operatorName":"DAEN Mobility","maxPowerKw":22,"isMegawatt":false,"status":"UNAVAILABLE","source":"ndw","priceKwh":0.32}},{"type":"Feature","geometry":{"type":"Point","coordinates":[4.749455,52.22887]},"properties":{"type":"charge","layer":"passenger","locationId":"922833","name":"DAE_NL_2000607 K16","address":"Hoofdweg 111","city":"De Kwakel","operatorName":"DAEN Mobility","maxPowerKw":22,"isMegawatt":false,"status":"UNAVAILABLE","source":"ndw","priceKwh":0.32}},{"type":"Feature","geometry":{"type":"Point","coordinates":[4.837021,52.247689]},"properties":{"type":"charge","layer":"passenger","locationId":"NLLOC003309","name":"NL, Schumanflat, 13, 1422ET, Uithoorn","address":"Schumanflat 13","city":"Uithoorn","operatorName":"Allego","maxPowerKw":11,"isMegawatt":false,"status":"AVAILABLE","source":"ndw","priceKwh":0.511}},{"type":"Feature","geometry":{"type":"Point","coordinates":[4.809055,52.233702]},"properties":{"type":"charge","layer":"passenger","locationId":"NLLOC002695","name":"NLD, Rietgans 1, 1423RA Uithoorn","address":"Rietgans 1","city":"Uithoorn","operatorName":"Allego","maxPowerKw":11,"isMegawatt":false,"status":"AVAILABLE","source":"ndw","priceKwh":0.511}},{"type":"Feature","geometry":{"type":"Point","coordinates":[4.774313,52.240622]},"properties":{"type":"charge","layer":"passenger","locationId":"4122617","name":"Laadnet Silicon Theatre Scenery B.V.","address":"Bedrijvenweg 24","city":"De Kwakel","operatorName":"Laadnet","maxPowerKw":22,"isMegawatt":false,"status":"AVAILABLE","source":"ndw"}},{"type":"Feature","geometry":{"type":"Point","coordinates":[4.813793,52.249639]},"properties":{"type":"charge","layer":"passenger","locationId":"NLLOC010382","name":"NL, Zonnedauw 2, 1422 PM, Uithoorn","address":"Zonnedauw 2","city":"Uithoorn","operatorName":"Allego","maxPowerKw":11,"isMegawatt":false,"status":"AVAILABLE","source":"ndw","priceKwh":0.511}},{"type":"Feature","geometry":{"type":"Point","coordinates":[4.79388,52.252487]},"properties":{"type":"charge","layer":"passenger","locationId":"923350","name":"DAE-NL-2000016","address":"Poelweg 4","city":"de Kwakel","operatorName":"DAEN Mobility","maxPowerKw":22,"isMegawatt":false,"status":"AVAILABLE","source":"ndw","priceKwh":0.4}},{"type":"Feature","geometry":{"type":"Point","coordinates":[4.807784,52.245452]},"properties":{"type":"charge","layer":"passenger","locationId":"67bd7513e97f79378ecab1ac","name":"Gezondheidscentrum Waterlinie","address":"Koningin Maximalaan  30","city":"Uithoorn","operatorName":"E-Flux by Road","maxPowerKw":22,"isMegawatt":false,"status":"AVAILABLE","source":"ndw","priceKwh":0.47}},{"type":"Feature","geometry":{"type":"Point","coordinates":[4.817415,52.250561]},"properties":{"type":"charge","layer":"passenger","locationId":"48a0a0c7-5df2-4bd4-bfe9-b6fa6e9c4a2f","name":"TNLP034653","address":"In Het Midden 105","city":"Uithoorn","operatorName":"TotalEnergies","maxPowerKw":14,"isMegawatt":false,"status":"AVAILABLE","source":"ndw"}},{"type":"Feature","geometry":{"type":"Point","coordinates":[4.799345,52.239556]},"properties":{"type":"charge","layer":"passenger","locationId":"67fe1532c98122ec985510f3","name":"De Oker  - De Kwakel","address":"Pastoor j van Dijklaan  32","city":"De Kwakel","operatorName":"E-Flux by Road","maxPowerKw":22,"isMegawatt":false,"status":"AVAILABLE","source":"ndw","priceKwh":0.31}},{"type":"Feature","geometry":{"type":"Point","coordinates":[4.811368,52.251313]},"properties":{"type":"charge","layer":"passenger","locationId":"NLLOC007331","name":"NL, Rugstreeppad 9, 1422 ZN, Uithoorn","address":"Rugstreeppad 9","city":"Uithoorn","operatorName":"Allego","maxPowerKw":11,"isMegawatt":false,"status":"AVAILABLE","source":"ndw","priceKwh":0.511}},{"type":"Feature","geometry":{"type":"Point","coordinates":[4.822735,52.245065]},"properties":{"type":"charge","layer":"passenger","locationId":"NLLOC003298","name":"NLD, Valeriuslaan 2, 1422 HT Uithoorn","address":"Valeriuslaan 2","city":"Uithoorn","operatorName":"Allego","maxPowerKw":11,"isMegawatt":false,"status":"AVAILABLE","source":"ndw","priceKwh":0.511}},{"type":"Feature","geometry":{"type":"Point","coordinates":[4.832806,52.247725]},"properties":{"type":"charge","layer":"passenger","locationId":"NLLOC008662","name":"NL, Arthur van Schendellaan 100D, 1422 LE Uithoorn","address":"Arthur van Schendellaan 100D","city":"Uithoorn","operatorName":"Allego","maxPowerKw":11,"isMegawatt":false,"status":"CHARGING","source":"ndw","priceKwh":0.511}},{"type":"Feature","geometry":{"type":"Point","coordinates":[4.799521,52.240378]},"properties":{"type":"charge","layer":"passenger","locationId":"NLLOC002520","name":"NLD, Uithoorn, Pastoor C. Vasselaan 17","address":"Pastoor C. Vasselaan 17","city":"De Kwakel","operatorName":"Allego","maxPowerKw":11,"isMegawatt":false,"status":"AVAILABLE","source":"ndw","priceKwh":0.511}},{"type":"Feature","geometry":{"type":"Point","coordinates":[4.829845,52.245488]},"properties":{"type":"charge","layer":"passenger","locationId":"62387fedeac59338e8f3a089","name":"van Eerbeeklaan 2","address":"van Eerbeeklaan 2","city":"Uithoorn","operatorName":"E-Flux by Road","maxPowerKw":11,"isMegawatt":false,"status":"AVAILABLE","source":"ndw","priceKwh":0.6}},{"type":"Feature","geometry":{"type":"Point","coordinates":[4.825091,52.247323]},"properties":{"type":"charge","layer":"passenger","locationId":"9aa17216-3172-45cc-a8e9-862d97a00cb8","name":"TNLP015370","address":"Albert Verweylaan 64","city":"Uithoorn","operatorName":"TotalEnergies","maxPowerKw":17,"isMegawatt":false,"status":"AVAILABLE","source":"ndw"}},{"type":"Feature","geometry":{"type":"Point","coordinates":[4.78961,52.239346]},"properties":{"type":"charge","layer":"passenger","locationId":"NLLOC009879","name":"NL, Gerberalaan, 60, 1424AV, De Kwakel","address":"Gerberalaan 60","city":"De Kwakel","operatorName":"Allego","maxPowerKw":11,"isMegawatt":false,"status":"AVAILABLE","source":"ndw","priceKwh":0.511}},{"type":"Feature","geometry":{"type":"Point","coordinates":[4.786872,52.242752]},"properties":{"type":"charge","layer":"passenger","locationId":"NLLOC007585","name":"NL, Cyclamenlaan 50, 1424 AD, De Kwakel","address":"Cyclamenlaan 50","city":"De Kwakel","operatorName":"Allego","maxPowerKw":11,"isMegawatt":false,"status":"AVAILABLE","source":"ndw","priceKwh":0.511}},{"type":"Feature","geometry":{"type":"Point","coordinates":[4.825533,52.23709]},"properties":{"type":"charge","layer":"passenger","locationId":"7fe022e5-0e8c-4780-81ff-c149a8a93fb6","name":"TNLP008930 - Johan de Wittlaan 113, Uithoorn","address":"113 Johan de Wittlaan","city":"Uithoorn","operatorName":"TotalEnergies","maxPowerKw":13,"isMegawatt":false,"status":"AVAILABLE","source":"ndw"}},{"type":"Feature","geometry":{"type":"Point","coordinates":[4.821667,52.246952]},"properties":{"type":"charge","layer":"passenger","locationId":"NLLOC016939","name":"NL, Tesselschadelaan 14, 1422JD, Uithoorn","address":"Tesselschadelaan 14","city":"Uithoorn","operatorName":"Allego","maxPowerKw":11,"isMegawatt":false,"status":"AVAILABLE","source":"ndw","priceKwh":0.511}},{"type":"Feature","geometry":{"type":"MultiPolygon","coordinates":[[[[4.8075246669463025,52.25757396545329],[4.824836081608983,52.25274905402934],[4.83476390552052,52.24982444966226],[4.843772501581477,52.24566592592451],[4.85205362023979,52.242013981938335],[4.85127350941626,52.24189069090944],[4.852156914254267,52.23964171352128],[4.8507924977365375,52.2386071172036],[4.847326121795956,52.23978187297454],[4.845995528966204,52.23765828719522],[4.842996312821614,52.23679047507713],[4.842845661988305,52.23534774315215],[4.8396330483824626,52.23539179806614],[4.828614025394957,52.23059360275562],[4.822003057292789,52.229194902462176],[4.817193199099836,52.22832539991804],[4.814100420525075,52.22716983786126],[4.8081986552368035,52.227115689882375],[4.805275440058492,52.2279746704632],[4.801942940161571,52.22692270500944],[4.79457604267677,52.22673116021572],[4.784017013767554,52.228737481681584],[4.780985909367447,52.22874171847953],[4.778853027970503,52.22796119478677],[4.776400396936356,52.227373141665964],[4.774650488549059,52.22458322503509],[4.762074552908279,52.218130735899926],[4.75984789991781,52.21758695937085],[4.753298493054415,52.217468256395634],[4.750668789228402,52.21572100222427],[4.747905430529395,52.214851504199636],[4.743629769163274,52.214793267670984],[4.734999274816165,52.20676727676336],[4.732833388991006,52.206972488861126],[4.728765730366438,52.209819234611956],[4.729562272713666,52.21027156932138],[4.724738666725663,52.21258379815186],[4.724558501549544,52.21322325228344],[4.723764128840122,52.21657406938179],[4.773271793992797,52.24103448761451],[4.7680654893009695,52.245394767417906],[4.767888578411588,52.24697793112044],[4.7689945932382045,52.248398570051194],[4.77086695465164,52.249909347651226],[4.779197510729436,52.25353623475864],[4.780888560774558,52.253520211553834],[4.7829314185886345,52.25514878554157],[4.794603561198371,52.26005548893325],[4.794697687931669,52.26068221451098],[4.795319267589755,52.260984466215426],[4.8075246669463025,52.25757396545329]]]]},"properties":{"type":"boundary","gemeente":"Uithoorn","code":"GM0451"}}]}