{"type":"FeatureCollection","metadata":{"gemeente":"Utrechtse Heuvelrug","slug":"utrechtse-heuvelrug","code":"GM1581","generated_at":"2026-07-06T16:26:11.361Z","total_passenger":154,"total_freight":0,"bounds":[5.247422639381348,51.97073015182912,5.5293476190527135,52.08635329315862],"operators":["DAEN Mobility","E-Flux by Road","Eneco","Laadnet","Lidl","Opcharge","Pluq","Spirii","TotalEnergies","Ubitricity","Vattenfall","Vattenfall InCharge","bp pulse"]},"features":[{"type":"Feature","geometry":{"type":"Point","coordinates":[5.287465,52.05506]},"properties":{"type":"charge","layer":"passenger","locationId":"32613352-ecdf-416c-83b9-6bf36376e8dc","name":"TNLP006163 - Dokter Hermansstraat 18, Driebergen-Rijsenburg","address":"18 Dokter Hermansstraat","city":"Driebergen-Rijsenburg","operatorName":"TotalEnergies","maxPowerKw":17,"isMegawatt":false,"status":"AVAILABLE","source":"ndw"}},{"type":"Feature","geometry":{"type":"Point","coordinates":[5.345852,52.0337678]},"properties":{"type":"charge","layer":"passenger","locationId":"1874","name":"Shell Recharge NL Amersfoortseweg 10","address":"Amersfoortseweg 10","city":"Doorn","operatorName":"Ubitricity","maxPowerKw":22,"isMegawatt":false,"status":"AVAILABLE","source":"ndw","priceKwh":0.266}},{"type":"Feature","geometry":{"type":"Point","coordinates":[5.35092,52.02605]},"properties":{"type":"charge","layer":"passenger","locationId":"33a4b1c7-c588-47ab-82d6-c2e6d61cb09b","name":"PP001580 - Bloemengaard 69, Doorn","address":"69 Bloemengaard","city":"Doorn","operatorName":"TotalEnergies","maxPowerKw":11,"isMegawatt":false,"status":"AVAILABLE","source":"ndw"}},{"type":"Feature","geometry":{"type":"Point","coordinates":[5.27927,52.04843]},"properties":{"type":"charge","layer":"passenger","locationId":"3a269625-e89a-49be-abdc-97a5568d4405","name":"PP001490 - Rodenbergsedreef 58, Driebergen-Rijsenburg","address":"58 Rodenbergsedreef","city":"Driebergen-Rijsenburg","operatorName":"TotalEnergies","maxPowerKw":11,"isMegawatt":false,"status":"AVAILABLE","source":"ndw"}},{"type":"Feature","geometry":{"type":"Point","coordinates":[5.28094,52.05645]},"properties":{"type":"charge","layer":"passenger","locationId":"4f24d09f-53fb-4f9a-8a8c-927615f9c045","name":"TNLP006047 - Park Seminarie 93, Driebergen-Rijsenburg","address":"93 Park Seminarie","city":"Driebergen-Rijsenburg","operatorName":"TotalEnergies","maxPowerKw":17,"isMegawatt":false,"status":"AVAILABLE","source":"ndw"}},{"type":"Feature","geometry":{"type":"Point","coordinates":[5.46013,52.00278]},"properties":{"type":"charge","layer":"passenger","locationId":"5c8edd44-e067-4f1b-8487-4b15af3a8428","name":"PP001531 - Prins Hendriklaan 8, Amerongen","address":"8 Prins Hendriklaan","city":"Amerongen","operatorName":"TotalEnergies","maxPowerKw":11,"isMegawatt":false,"status":"AVAILABLE","source":"ndw"}},{"type":"Feature","geometry":{"type":"Point","coordinates":[5.46007,52.0061]},"properties":{"type":"charge","layer":"passenger","locationId":"2c118cd6-3465-49bc-b188-c63f85cb9a58","name":"PP004308 - De Klamp 2, Amerongen","address":"2 De Klamp","city":"Amerongen","operatorName":"TotalEnergies","maxPowerKw":11,"isMegawatt":false,"status":"AVAILABLE","source":"ndw"}},{"type":"Feature","geometry":{"type":"Point","coordinates":[5.350819,52.031105]},"properties":{"type":"charge","layer":"passenger","locationId":"92dc1b23-a23f-4572-976e-5ab78c750df7","name":"TNLP007824 - Kombos 137, Doorn","address":"137 Kombos","city":"Doorn","operatorName":"TotalEnergies","maxPowerKw":17,"isMegawatt":false,"status":"AVAILABLE","source":"ndw"}},{"type":"Feature","geometry":{"type":"Point","coordinates":[5.266515,52.05083]},"properties":{"type":"charge","layer":"passenger","locationId":"2d1b1471-9346-481f-b61c-e116fc29688a","name":"TNLP006940 - De Kievit 10, Driebergen-Rijsenburg","address":"10 De Kievit","city":"Driebergen-Rijsenburg","operatorName":"TotalEnergies","maxPowerKw":17,"isMegawatt":false,"status":"AVAILABLE","source":"ndw"}},{"type":"Feature","geometry":{"type":"Point","coordinates":[5.335411,52.045525]},"properties":{"type":"charge","layer":"passenger","locationId":"83690ee8-d36e-4f8c-b2bd-36fa9e24a9bf","name":"TNLP006043 - van Heemskercklaan 60, Doorn","address":"60 van Heemskercklaan","city":"Doorn","operatorName":"TotalEnergies","maxPowerKw":17,"isMegawatt":false,"status":"CHARGING","source":"ndw"}},{"type":"Feature","geometry":{"type":"Point","coordinates":[5.2905,52.05834]},"properties":{"type":"charge","layer":"passenger","locationId":"319","name":"Shell Recharge NL Bosstraat 158","address":"Bosstraat 158","city":"Driebergen","operatorName":"Ubitricity","maxPowerKw":11,"isMegawatt":false,"status":"AVAILABLE","source":"ndw","priceKwh":0.388}},{"type":"Feature","geometry":{"type":"Point","coordinates":[5.287993,52.044781]},"properties":{"type":"charge","layer":"passenger","locationId":"aedddac2-b19a-4a02-a506-e27ca0ea9a84","name":"TNLP034326","address":"Prinses Margrietlaan 32","city":"Driebergen-Rijsenburg","operatorName":"TotalEnergies","maxPowerKw":14,"isMegawatt":false,"status":"AVAILABLE","source":"ndw"}},{"type":"Feature","geometry":{"type":"Point","coordinates":[5.4745,51.99863]},"properties":{"type":"charge","layer":"passenger","locationId":"050a42b4-c767-4a0f-9cfa-a1519600b489","name":"TNLP003655 - Burgwal 1, Amerongen","address":"1 Burgwal","city":"Amerongen","operatorName":"TotalEnergies","maxPowerKw":17,"isMegawatt":false,"status":"CHARGING","source":"ndw"}},{"type":"Feature","geometry":{"type":"Point","coordinates":[5.460416,51.998308]},"properties":{"type":"charge","layer":"passenger","locationId":"296","name":"Shell Recharge NL Hof 1","address":"Hof 1","city":"Amerongen","operatorName":"Ubitricity","maxPowerKw":11,"isMegawatt":false,"status":"CHARGING","source":"ndw","priceKwh":0.388}},{"type":"Feature","geometry":{"type":"Point","coordinates":[5.429944,52.00713]},"properties":{"type":"charge","layer":"passenger","locationId":"fd35fb42-15a9-4478-85ec-257eb470a705","name":"TNLP007718 - De Stamper 2, Leersum","address":"2 De Stamper","city":"Leersum","operatorName":"TotalEnergies","maxPowerKw":17,"isMegawatt":false,"status":"AVAILABLE","source":"ndw"}},{"type":"Feature","geometry":{"type":"Point","coordinates":[5.34087,52.04092]},"properties":{"type":"charge","layer":"passenger","locationId":"e07e7709-1368-4f8e-9029-7309768358b8","name":"TNLP009181 - Willem de Zwijgerlaan 24, Doorn","address":"24 Willem de Zwijgerlaan","city":"Doorn","operatorName":"TotalEnergies","maxPowerKw":17,"isMegawatt":false,"status":"CHARGING","source":"ndw"}},{"type":"Feature","geometry":{"type":"Point","coordinates":[5.27338,52.05011]},"properties":{"type":"charge","layer":"passenger","locationId":"680","name":"Shell Recharge NL De Sluis 5","address":"De Sluis 5","city":"Driebergen","operatorName":"Ubitricity","maxPowerKw":11,"isMegawatt":false,"status":"CHARGING","source":"ndw","priceKwh":0.388}},{"type":"Feature","geometry":{"type":"Point","coordinates":[5.2731881,52.0496587]},"properties":{"type":"charge","layer":"passenger","locationId":"2340","name":"Shell Recharge NL De Sluis 24","address":"De Sluis 24","city":"Driebergen-Rijsenburg","operatorName":"Ubitricity","maxPowerKw":22,"isMegawatt":false,"status":"AVAILABLE","source":"ndw","priceKwh":0.266}},{"type":"Feature","geometry":{"type":"Point","coordinates":[5.431918,52.066513]},"properties":{"type":"charge","layer":"passenger","locationId":"64df659696f128001b20acc0","name":"jan van Wolfswinkel 's station","address":"rottegatsteeg 6","city":"maarsbergen","operatorName":"E-Flux by Road","maxPowerKw":22,"isMegawatt":false,"status":"AVAILABLE","source":"ndw","priceKwh":0.75}},{"type":"Feature","geometry":{"type":"Point","coordinates":[5.459537,51.99749]},"properties":{"type":"charge","layer":"passenger","locationId":"ab56286f-7137-4a8a-856d-4823408d4c4c","name":"TNLP007342 - Drostestraat 3, Amerongen","address":"3 Drostestraat","city":"Amerongen","operatorName":"TotalEnergies","maxPowerKw":17,"isMegawatt":false,"status":"AVAILABLE","source":"ndw"}},{"type":"Feature","geometry":{"type":"Point","coordinates":[5.462083,51.998921]},"properties":{"type":"charge","layer":"passenger","locationId":"69e7507314731582c5eda345","name":"Hotel Napoleon  station","address":"Jhr.Burg H van den Boschstraat 44","city":"Amerongen","operatorName":"E-Flux by Road","maxPowerKw":14,"isMegawatt":false,"status":"AVAILABLE","source":"ndw","priceKwh":0.48}},{"type":"Feature","geometry":{"type":"Point","coordinates":[5.399213,52.031113]},"properties":{"type":"charge","layer":"passenger","locationId":"237938a09a194a1e8437","name":"Leersum AZC","address":"Hoogstraat 8 ","city":"Leersum","operatorName":"","maxPowerKw":11,"isMegawatt":false,"status":"AVAILABLE","source":"ndw"}},{"type":"Feature","geometry":{"type":"Point","coordinates":[5.287419,52.054653]},"properties":{"type":"charge","layer":"passenger","locationId":"CCE0C17D-1B33-4D5F-9999-D895C52990C7","name":"Eneco eMobility Albert Heijn - Binnenhof 1","address":"Binnenhof 1","city":"Driebergen","operatorName":"Eneco","maxPowerKw":150,"isMegawatt":false,"status":"AVAILABLE","source":"ndw","priceKwh":0.62}},{"type":"Feature","geometry":{"type":"Point","coordinates":[5.2640505,52.058903]},"properties":{"type":"charge","layer":"passenger","locationId":"5c836e04-6551-44ab-aaa8-4c3c36e5d1c5","name":"EV Hub - De Woerd 1, Driebergen-Rijsenburg","address":"1 De Woerd","city":"Driebergen-Rijsenburg","operatorName":"TotalEnergies","maxPowerKw":50,"isMegawatt":false,"status":"AVAILABLE","source":"ndw"}},{"type":"Feature","geometry":{"type":"Point","coordinates":[5.410563,52.056069]},"properties":{"type":"charge","layer":"passenger","locationId":"4205730","name":"Laadnet Maerezhof","address":"Samuel de Marezhof 99","city":"Maarsbergen","operatorName":"Laadnet","maxPowerKw":22,"isMegawatt":false,"status":"UNAVAILABLE","source":"ndw"}},{"type":"Feature","geometry":{"type":"Point","coordinates":[5.426815,52.00985]},"properties":{"type":"charge","layer":"passenger","locationId":"438c7d57-f381-4784-9d20-6bb67fe32310","name":"TNLP008218 - Weth.De Langelaan 14, Leersum","address":"14 Weth.De Langelaan","city":"Leersum","operatorName":"TotalEnergies","maxPowerKw":17,"isMegawatt":false,"status":"CHARGING","source":"ndw"}},{"type":"Feature","geometry":{"type":"Point","coordinates":[5.42754,52.00831]},"properties":{"type":"charge","layer":"passenger","locationId":"274","name":"Shell Recharge NL De Tienden 4","address":"De Tienden 4","city":"Leersum","operatorName":"Ubitricity","maxPowerKw":11,"isMegawatt":false,"status":"AVAILABLE","source":"ndw","priceKwh":0.388}},{"type":"Feature","geometry":{"type":"Point","coordinates":[5.286555,52.053837]},"properties":{"type":"charge","layer":"passenger","locationId":"c7b09373-ff4b-4f83-9870-390da01ab739","name":"TNLP007953 - Traaij 89, Driebergen-Rijsenburg","address":"89 Traaij","city":"Driebergen-Rijsenburg","operatorName":"TotalEnergies","maxPowerKw":17,"isMegawatt":false,"status":"AVAILABLE","source":"ndw"}},{"type":"Feature","geometry":{"type":"Point","coordinates":[5.27001,52.05091]},"properties":{"type":"charge","layer":"passenger","locationId":"677","name":"Shell Recharge NL Sperwerkamp 40","address":"Sperwerkamp 40","city":"Driebergen-Rijsenburg","operatorName":"Ubitricity","maxPowerKw":11,"isMegawatt":false,"status":"AVAILABLE","source":"ndw","priceKwh":0.388}},{"type":"Feature","geometry":{"type":"Point","coordinates":[5.38057,52.06277]},"properties":{"type":"charge","layer":"passenger","locationId":"297","name":"Shell Recharge NL Prinseheuvellaan 1","address":"Prinseheuvellaan 1","city":"Maarn","operatorName":"Ubitricity","maxPowerKw":11,"isMegawatt":false,"status":"AVAILABLE","source":"ndw","priceKwh":0.388}},{"type":"Feature","geometry":{"type":"Point","coordinates":[5.415936,52.055667]},"properties":{"type":"charge","layer":"passenger","locationId":"1692724","name":"Laadnet Axtron","address":"Haarbos 4","city":"Maarsbergen","operatorName":"Laadnet","maxPowerKw":22,"isMegawatt":false,"status":"AVAILABLE","source":"ndw"}},{"type":"Feature","geometry":{"type":"Point","coordinates":[5.2711223,52.0505233]},"properties":{"type":"charge","layer":"passenger","locationId":"888","name":"Shell Recharge NL Valkenkamp 21","address":"Valkenkamp 21","city":"Driebergen-Rijsenburg","operatorName":"Ubitricity","maxPowerKw":22,"isMegawatt":false,"status":"CHARGING","source":"ndw","priceKwh":0.266}},{"type":"Feature","geometry":{"type":"Point","coordinates":[5.34466,52.03105]},"properties":{"type":"charge","layer":"passenger","locationId":"7c965d89-892e-4a75-a67e-0698d006b98c","name":"PP001532 - Langbroekerweg 8b, Doorn","address":"8b Langbroekerweg","city":"Doorn","operatorName":"TotalEnergies","maxPowerKw":11,"isMegawatt":false,"status":"AVAILABLE","source":"ndw"}},{"type":"Feature","geometry":{"type":"Point","coordinates":[5.26285,52.051216]},"properties":{"type":"charge","layer":"passenger","locationId":"5b44e105-43fd-4c71-95c9-8931a7136426","name":"TNLP008628 - Faunalaan 86, Driebergen-Rijsenburg","address":"86 Faunalaan","city":"Driebergen-Rijsenburg","operatorName":"TotalEnergies","maxPowerKw":13,"isMegawatt":false,"status":"AVAILABLE","source":"ndw"}},{"type":"Feature","geometry":{"type":"Point","coordinates":[5.2642,52.05848]},"properties":{"type":"charge","layer":"passenger","locationId":"13c9d434-abf2-40ad-827b-851eb65f7751","name":"PP001719 - De Woerd 1, Driebergen-Rijsenburg","address":"1 De Woerd","city":"Driebergen-Rijsenburg","operatorName":"TotalEnergies","maxPowerKw":11,"isMegawatt":false,"status":"AVAILABLE","source":"ndw"}},{"type":"Feature","geometry":{"type":"Point","coordinates":[5.284595,52.052151]},"properties":{"type":"charge","layer":"passenger","locationId":"1455","name":"Shell Recharge NL Appelgaard 7","address":"Appelgaard 7","city":"Utrechtse Heuvelrug","operatorName":"Ubitricity","maxPowerKw":11,"isMegawatt":false,"status":"AVAILABLE","source":"ndw","priceKwh":0.388}},{"type":"Feature","geometry":{"type":"Point","coordinates":[5.29259,52.05608]},"properties":{"type":"charge","layer":"passenger","locationId":"320","name":"Shell Recharge NL Traaij 167","address":"Traaij 167","city":"Driebergen","operatorName":"Ubitricity","maxPowerKw":11,"isMegawatt":false,"status":"CHARGING","source":"ndw","priceKwh":0.388}},{"type":"Feature","geometry":{"type":"Point","coordinates":[5.298472,52.039409]},"properties":{"type":"charge","layer":"passenger","locationId":"00BD4D52-9F47-4708-96D8-D14D38EA8555","name":"Eneco eMobility Nabij Wonen Boswijklaan 50 Doorn","address":"Boswijklaan 50","city":"Doorn","operatorName":"Eneco","maxPowerKw":22,"isMegawatt":false,"status":"AVAILABLE","source":"ndw","priceKwh":0.4}},{"type":"Feature","geometry":{"type":"Point","coordinates":[5.409254,52.045072]},"properties":{"type":"charge","layer":"passenger","locationId":"98f80bc49f994247b19fedc3aa429f29","name":"Maarsbergen 00095 De Kleine Valkeneng ","address":"Woudenbergseweg 40","city":"Maarsbergen","operatorName":"Opcharge","maxPowerKw":22,"isMegawatt":false,"status":"AVAILABLE","source":"ndw","priceKwh":0.53}},{"type":"Feature","geometry":{"type":"Point","coordinates":[5.406417,52.057669]},"properties":{"type":"charge","layer":"passenger","locationId":"2664187","name":"Laadnet Pico home","address":"Haarweg 1B","city":"Maarsbergen","operatorName":"Laadnet","maxPowerKw":22,"isMegawatt":false,"status":"UNAVAILABLE","source":"ndw"}},{"type":"Feature","geometry":{"type":"Point","coordinates":[5.270065,52.058833]},"properties":{"type":"charge","layer":"passenger","locationId":"69496e29be7770bb1c290454","name":"Bart Sluijs 's station","address":"Nijnendal 4","city":"Driebergen Rijsenburg","operatorName":"E-Flux by Road","maxPowerKw":14,"isMegawatt":false,"status":"AVAILABLE","source":"ndw","priceKwh":0.33}},{"type":"Feature","geometry":{"type":"Point","coordinates":[5.33477,52.06105]},"properties":{"type":"charge","layer":"passenger","locationId":"a34131f7258e42fc91284d000ea0f1ce","name":"Doorn Vakantiepark de Maarnse Berg ","address":"Maarnse Bergweg 1","city":"Doorn","operatorName":"Opcharge","maxPowerKw":22,"isMegawatt":false,"status":"AVAILABLE","source":"ndw","priceKwh":0.59}},{"type":"Feature","geometry":{"type":"Point","coordinates":[5.42262,52.01404]},"properties":{"type":"charge","layer":"passenger","locationId":"929521f2-b4ea-4c83-b09f-6ff9d2d59328","name":"PP005534 - Rijksstraatweg 188, Leersum","address":"188 Rijksstraatweg","city":"Leersum","operatorName":"TotalEnergies","maxPowerKw":11,"isMegawatt":false,"status":"AVAILABLE","source":"ndw"}},{"type":"Feature","geometry":{"type":"Point","coordinates":[5.273051,52.046036]},"properties":{"type":"charge","layer":"passenger","locationId":"535d0d4c-92c6-45e6-9a33-0112751bdcc8","name":"TNLP006076 - Reelaan 3, Driebergen-Rijsenburg","address":"3 Reelaan","city":"Driebergen-Rijsenburg","operatorName":"TotalEnergies","maxPowerKw":17,"isMegawatt":false,"status":"CHARGING","source":"ndw"}},{"type":"Feature","geometry":{"type":"Point","coordinates":[5.424449,52.010906]},"properties":{"type":"charge","layer":"passenger","locationId":"4c75eedc-8f1e-4ef8-871f-0be956c3b49e","name":"TNLP007518 - De Oude Kolk 1, Leersum","address":"1 De Oude Kolk","city":"Leersum","operatorName":"TotalEnergies","maxPowerKw":17,"isMegawatt":false,"status":"AVAILABLE","source":"ndw"}},{"type":"Feature","geometry":{"type":"Point","coordinates":[5.29188,52.05487]},"properties":{"type":"charge","layer":"passenger","locationId":"429","name":"Shell Recharge NL Cordesstraat 5","address":"Cordesstraat 5","city":"Driebergen","operatorName":"Ubitricity","maxPowerKw":11,"isMegawatt":false,"status":"AVAILABLE","source":"ndw","priceKwh":0.388}},{"type":"Feature","geometry":{"type":"Point","coordinates":[5.316661,52.03695]},"properties":{"type":"charge","layer":"passenger","locationId":"38DDE429-0ED4-4FCF-97BB-9F88F7898CE6","name":"Eneco eMobility Velperengh 2b Doorn","address":"Velperengh 2b","city":"Doorn","operatorName":"Eneco","maxPowerKw":22,"isMegawatt":false,"status":"AVAILABLE","source":"ndw","priceKwh":0.56}},{"type":"Feature","geometry":{"type":"Point","coordinates":[5.38509,52.027606]},"properties":{"type":"charge","layer":"passenger","locationId":"0e10c12ccc1347838d25b711c059ee64","name":"Doorn De Bonte Vlucht ","address":"Leersumsestraatweg 23","city":"Doorn","operatorName":"Opcharge","maxPowerKw":22,"isMegawatt":false,"status":"AVAILABLE","source":"ndw","priceKwh":0.49}},{"type":"Feature","geometry":{"type":"Point","coordinates":[5.319725,52.035244]},"properties":{"type":"charge","layer":"passenger","locationId":"ca869ec0-a8cc-48d1-8357-d402ebc86328","name":"TNLP008257 - Oude Rijksstraatweg 13, Doorn","address":"13 Oude Rijksstraatweg","city":"Doorn","operatorName":"TotalEnergies","maxPowerKw":17,"isMegawatt":false,"status":"AVAILABLE","source":"ndw"}},{"type":"Feature","geometry":{"type":"Point","coordinates":[5.431919,52.066563]},"properties":{"type":"charge","layer":"passenger","locationId":"64df6630e4615b001c08db7f","name":"jan van Wolfswinkel 's station","address":"rottegatsteeg  6","city":"Maarsbergen","operatorName":"E-Flux by Road","maxPowerKw":22,"isMegawatt":false,"status":"AVAILABLE","source":"ndw","priceKwh":0.75}},{"type":"Feature","geometry":{"type":"Point","coordinates":[5.403668,52.028384]},"properties":{"type":"charge","layer":"passenger","locationId":"6380c31fcce4cd001d5eb42f","name":"Darthuizerberg","address":"Rijksstraatweg 234","city":"Leersum","operatorName":"E-Flux by Road","maxPowerKw":11,"isMegawatt":false,"status":"AVAILABLE","source":"ndw","priceKwh":0.4}},{"type":"Feature","geometry":{"type":"Point","coordinates":[5.345081,52.027466]},"properties":{"type":"charge","layer":"passenger","locationId":"24b91b19-3529-4a32-9956-a5e7b3cb4116","name":"TNLP007515 - Vogelweide 25, Doorn","address":"25 Vogelweide","city":"Doorn","operatorName":"TotalEnergies","maxPowerKw":17,"isMegawatt":false,"status":"AVAILABLE","source":"ndw"}},{"type":"Feature","geometry":{"type":"Point","coordinates":[5.3774,52.06825]},"properties":{"type":"charge","layer":"passenger","locationId":"31f7c0e2-1fb8-4c85-8db9-5ef1106c31d0","name":"TNLP015247","address":"Groenlinglaan 110","city":"Maarn","operatorName":"TotalEnergies","maxPowerKw":17,"isMegawatt":false,"status":"AVAILABLE","source":"ndw"}},{"type":"Feature","geometry":{"type":"Point","coordinates":[5.366711,52.064068]},"properties":{"type":"charge","layer":"passenger","locationId":"b00209e0-df7b-4413-9766-897953428bcc","name":"TNLP009540 - Kapelweg 60, Maarn","address":"60 Kapelweg","city":"Maarn","operatorName":"TotalEnergies","maxPowerKw":17,"isMegawatt":false,"status":"CHARGING","source":"ndw"}},{"type":"Feature","geometry":{"type":"Point","coordinates":[5.450182,52.00116]},"properties":{"type":"charge","layer":"passenger","locationId":"02fd02f8-e47a-4e30-b38f-c0f9ccac35eb","name":"TNLP008427 - De Tol 1, Amerongen","address":"1 De Tol","city":"Amerongen","operatorName":"TotalEnergies","maxPowerKw":13,"isMegawatt":false,"status":"AVAILABLE","source":"ndw"}},{"type":"Feature","geometry":{"type":"Point","coordinates":[5.331322,52.040916]},"properties":{"type":"charge","layer":"passenger","locationId":"922613","name":"DAE-NL-2000061","address":"Woestduinlaan 64","city":"Doorn","operatorName":"DAEN Mobility","maxPowerKw":11,"isMegawatt":false,"status":"UNAVAILABLE","source":"ndw","priceKwh":0.28}},{"type":"Feature","geometry":{"type":"Point","coordinates":[5.344183,52.03744]},"properties":{"type":"charge","layer":"passenger","locationId":"7db79b96-6323-420e-82ed-c98fb42f8e2b","name":"TNLP005669 - Simon Vestdijkhof 39, Doorn","address":"39 Simon Vestdijkhof","city":"Doorn","operatorName":"TotalEnergies","maxPowerKw":11,"isMegawatt":false,"status":"UNAVAILABLE","source":"ndw"}},{"type":"Feature","geometry":{"type":"Point","coordinates":[5.2758635,52.0632486]},"properties":{"type":"charge","layer":"passenger","locationId":"1175","name":"Shell Recharge NL Van Oosthuyselaan 77","address":"Van Oosthuyselaan 77","city":"Driebergen-Rijsenburg","operatorName":"Ubitricity","maxPowerKw":22,"isMegawatt":false,"status":"AVAILABLE","source":"ndw","priceKwh":0.266}},{"type":"Feature","geometry":{"type":"Point","coordinates":[5.344967,52.037799]},"properties":{"type":"charge","layer":"passenger","locationId":"627bb4e11a2a686f42a2cc1b","name":"Tulen station Doorn","address":"Heuvelweg 1","city":"Doorn","operatorName":"E-Flux by Road","maxPowerKw":11,"isMegawatt":false,"status":"AVAILABLE","source":"ndw","priceKwh":0.33}},{"type":"Feature","geometry":{"type":"Point","coordinates":[5.367637,52.065937]},"properties":{"type":"charge","layer":"passenger","locationId":"38151796-24b0-48a5-b6b0-b56b5456c5c3","name":"TNLP006563 - V Hemert tot Dingshofplein 17, Maarn","address":"17 V Hemert tot Dingshofplein","city":"Maarn","operatorName":"TotalEnergies","maxPowerKw":17,"isMegawatt":false,"status":"AVAILABLE","source":"ndw"}},{"type":"Feature","geometry":{"type":"Point","coordinates":[5.282403,52.04954]},"properties":{"type":"charge","layer":"passenger","locationId":"3e3e3d66-beec-45ed-8644-bed05bb1c674","name":"PP005535 - Engweg 30, Driebergen-Rijsenburg","address":"30 Engweg","city":"Driebergen-Rijsenburg","operatorName":"TotalEnergies","maxPowerKw":11,"isMegawatt":false,"status":"AVAILABLE","source":"ndw"}},{"type":"Feature","geometry":{"type":"Point","coordinates":[5.371728,52.06423]},"properties":{"type":"charge","layer":"passenger","locationId":"19dbd013-662c-489f-a110-bc30ca8ed97a","name":"TNLP009988 - Tuindorpweg 39A, Maarn","address":"39A Tuindorpweg","city":"Maarn","operatorName":"TotalEnergies","maxPowerKw":17,"isMegawatt":false,"status":"CHARGING","source":"ndw"}},{"type":"Feature","geometry":{"type":"Point","coordinates":[5.26427,52.05377]},"properties":{"type":"charge","layer":"passenger","locationId":"382dc86658019928ba6c2fafbf1f83cf","name":"Aalscholver 45","address":"Aalscholver 45","city":"Driebergen-Rijsenburg","operatorName":"Vattenfall InCharge","maxPowerKw":11,"isMegawatt":false,"status":"CHARGING","source":"ndw"}},{"type":"Feature","geometry":{"type":"Point","coordinates":[5.454315,51.999474]},"properties":{"type":"charge","layer":"passenger","locationId":"952f6ed0-0ea1-4388-992f-98a4a7ac3c20","name":"TNLP006162 - Utrechtsestraatweg 9, Amerongen","address":"9 Utrechtsestraatweg","city":"Amerongen","operatorName":"TotalEnergies","maxPowerKw":17,"isMegawatt":false,"status":"AVAILABLE","source":"ndw"}},{"type":"Feature","geometry":{"type":"Point","coordinates":[5.274779,52.0462675]},"properties":{"type":"charge","layer":"passenger","locationId":"925","name":"Shell Recharge NL Rodenbergsedreef 16","address":"Rodenbergsedreef 16","city":"Driebergen-Rijsenburg","operatorName":"Ubitricity","maxPowerKw":22,"isMegawatt":false,"status":"AVAILABLE","source":"ndw","priceKwh":0.266}},{"type":"Feature","geometry":{"type":"Point","coordinates":[5.422428,52.009663]},"properties":{"type":"charge","layer":"passenger","locationId":"d9ff32aa-a389-4385-bc33-5b43d76ff895","name":"TNLP006730 - Weidelaan 32, Leersum","address":"32 Weidelaan","city":"Leersum","operatorName":"TotalEnergies","maxPowerKw":17,"isMegawatt":false,"status":"AVAILABLE","source":"ndw"}},{"type":"Feature","geometry":{"type":"Point","coordinates":[5.314498,52.034544]},"properties":{"type":"charge","layer":"passenger","locationId":"6881ee0cee875c0659427c79","name":"Bomenmuseum","address":"velperengh  13","city":"Doorn","operatorName":"E-Flux by Road","maxPowerKw":22,"isMegawatt":false,"status":"AVAILABLE","source":"ndw","priceKwh":0.83}},{"type":"Feature","geometry":{"type":"Point","coordinates":[5.2769,52.05277]},"properties":{"type":"charge","layer":"passenger","locationId":"af2e0a33-663d-48d0-ab7c-3804a87f289e","name":"TNLP009893 - Drieklinken 55, Driebergen-Rijsenburg","address":"55 Drieklinken","city":"Driebergen-Rijsenburg","operatorName":"TotalEnergies","maxPowerKw":17,"isMegawatt":false,"status":"AVAILABLE","source":"ndw"}},{"type":"Feature","geometry":{"type":"Point","coordinates":[5.2679,52.04852]},"properties":{"type":"charge","layer":"passenger","locationId":"f1b784c0-efe6-437e-a661-c57eab1d2425","name":"PP005554 - Uilenkamp 20, Driebergen-Rijsenburg","address":"20 Uilenkamp","city":"Driebergen-Rijsenburg","operatorName":"TotalEnergies","maxPowerKw":11,"isMegawatt":false,"status":"AVAILABLE","source":"ndw"}},{"type":"Feature","geometry":{"type":"Point","coordinates":[5.273573,52.047398]},"properties":{"type":"charge","layer":"passenger","locationId":"b830f601-6cef-482e-b8dd-1c1400646363","name":"PP005497 - Marterkamp 1, Driebergen-Rijsenburg","address":"1 Marterkamp","city":"Driebergen-Rijsenburg","operatorName":"TotalEnergies","maxPowerKw":11,"isMegawatt":false,"status":"AVAILABLE","source":"ndw"}},{"type":"Feature","geometry":{"type":"Point","coordinates":[5.283871,52.051702]},"properties":{"type":"charge","layer":"passenger","locationId":"159982f4-c9c9-4df6-bd7e-b40dcd08bb42","name":"bp pulse De Engh","address":"Hoofdstraat 129-131","city":"Driebergen-Rijsenburg","operatorName":"bp pulse","maxPowerKw":150,"isMegawatt":false,"status":"AVAILABLE","source":"ndw","priceKwh":0.7}},{"type":"Feature","geometry":{"type":"Point","coordinates":[5.263024,52.056087]},"properties":{"type":"charge","layer":"passenger","locationId":"6c3f05ef-d629-4480-9587-02a84c742d96","name":"Laadplein - TNLP005768 - Hoendersteeg 7, Driebergen-Rijsenburg","address":"7 Hoendersteeg","city":"Driebergen-Rijsenburg","operatorName":"TotalEnergies","maxPowerKw":17,"isMegawatt":false,"status":"AVAILABLE","source":"ndw"}},{"type":"Feature","geometry":{"type":"Point","coordinates":[5.28726,52.045383]},"properties":{"type":"charge","layer":"passenger","locationId":"8b10337b-96c9-4ddf-a5c7-02b097c90ac8","name":"TNLP008399 - Prinses Margrietlaan 14, Driebergen-Rijsenburg","address":"14 Prinses Margrietlaan","city":"Driebergen-Rijsenburg","operatorName":"TotalEnergies","maxPowerKw":13,"isMegawatt":false,"status":"CHARGING","source":"ndw"}},{"type":"Feature","geometry":{"type":"Point","coordinates":[5.2933,52.0513]},"properties":{"type":"charge","layer":"passenger","locationId":"576","name":"Shell Recharge NL Buntlaan 16","address":"Buntlaan 16","city":"Driebergen-Rijsenburg","operatorName":"Ubitricity","maxPowerKw":11,"isMegawatt":false,"status":"AVAILABLE","source":"ndw","priceKwh":0.388}},{"type":"Feature","geometry":{"type":"Point","coordinates":[5.269871,52.05433]},"properties":{"type":"charge","layer":"passenger","locationId":"70e1a318-82eb-456b-b972-0957710deb34","name":"TNLP009177 - Kardinaal Alfrinklaan 53, Driebergen-Rijsenburg","address":"53 Kardinaal Alfrinklaan","city":"Driebergen-Rijsenburg","operatorName":"TotalEnergies","maxPowerKw":17,"isMegawatt":false,"status":"CHARGING","source":"ndw"}},{"type":"Feature","geometry":{"type":"Point","coordinates":[5.339515,52.03529]},"properties":{"type":"charge","layer":"passenger","locationId":"21ecee52-71f7-41c3-9ec8-b974fa5a8d43","name":"TNLP008469 - Dorpsstraat 9, Doorn","address":"9 Dorpsstraat","city":"Doorn","operatorName":"TotalEnergies","maxPowerKw":13,"isMegawatt":false,"status":"AVAILABLE","source":"ndw"}},{"type":"Feature","geometry":{"type":"Point","coordinates":[5.29169,52.05472]},"properties":{"type":"charge","layer":"passenger","locationId":"fe39b5816a2395cec4ad8ae24696b626","name":"Cordesstraat 5","address":"Cordesstraat 5","city":"Driebergen-Rijsenburg","operatorName":"Vattenfall InCharge","maxPowerKw":11,"isMegawatt":false,"status":"AVAILABLE","source":"ndw"}},{"type":"Feature","geometry":{"type":"Point","coordinates":[5.431473,52.009727]},"properties":{"type":"charge","layer":"passenger","locationId":"d5ad94fd-acaf-4612-bab6-0d1a2c9c8a32","name":"PP005574 - Nectarweide 21t, Leersum","address":"21t Nectarweide","city":"Leersum","operatorName":"TotalEnergies","maxPowerKw":11,"isMegawatt":false,"status":"AVAILABLE","source":"ndw"}},{"type":"Feature","geometry":{"type":"Point","coordinates":[5.270623,52.0525]},"properties":{"type":"charge","layer":"passenger","locationId":"609cb53f-c932-4bbd-ac82-ce29a9031e07","name":"TNLP008401 - Klaproos 2, Driebergen-Rijsenburg","address":"2 Klaproos","city":"Driebergen-Rijsenburg","operatorName":"TotalEnergies","maxPowerKw":13,"isMegawatt":false,"status":"AVAILABLE","source":"ndw"}},{"type":"Feature","geometry":{"type":"Point","coordinates":[5.41785,52.01165]},"properties":{"type":"charge","layer":"passenger","locationId":"1492","name":"Shell Recharge NL Dreef 41","address":"Dreef 41","city":"Utrechtse Heuvelrug","operatorName":"Ubitricity","maxPowerKw":11,"isMegawatt":false,"status":"AVAILABLE","source":"ndw","priceKwh":0.388}},{"type":"Feature","geometry":{"type":"Point","coordinates":[5.282921,52.057269]},"properties":{"type":"charge","layer":"passenger","locationId":"ca6838c1-6fe1-4b27-bc72-05b2f008cd7d","name":"TNLP015186","address":"Park Sparrendaal 118","city":"Driebergen-Rijsenburg","operatorName":"TotalEnergies","maxPowerKw":17,"isMegawatt":false,"status":"CHARGING","source":"ndw"}},{"type":"Feature","geometry":{"type":"Point","coordinates":[5.2679928,52.0497529]},"properties":{"type":"charge","layer":"passenger","locationId":"1872","name":"Shell Recharge NL Sint Hubertuslaan 106","address":"Sint Hubertuslaan 106","city":"Driebergen-Rijsenburg","operatorName":"Ubitricity","maxPowerKw":22,"isMegawatt":false,"status":"AVAILABLE","source":"ndw","priceKwh":0.266}},{"type":"Feature","geometry":{"type":"Point","coordinates":[5.27228,52.06719]},"properties":{"type":"charge","layer":"passenger","locationId":"1638","name":"Shell Recharge NL Sportlaan 17","address":"Sportlaan 17","city":"Utrechtse Heuvelrug","operatorName":"Ubitricity","maxPowerKw":11,"isMegawatt":false,"status":"UNAVAILABLE","source":"ndw","priceKwh":0.388}},{"type":"Feature","geometry":{"type":"Point","coordinates":[5.344109,52.035114]},"properties":{"type":"charge","layer":"passenger","locationId":"a5cd63ac-20fc-4a87-8a4b-4738a160af81","name":"PP005366 - Kortenburglaan 2, Doorn","address":"2 Kortenburglaan","city":"Doorn","operatorName":"TotalEnergies","maxPowerKw":11,"isMegawatt":false,"status":"CHARGING","source":"ndw"}},{"type":"Feature","geometry":{"type":"Point","coordinates":[5.339735,52.047077]},"properties":{"type":"charge","layer":"passenger","locationId":"46b949b6-6d44-45fa-8c55-8d57842f005c","name":"TNLP008437 - Piet Heinlaan 37, Doorn","address":"37 Piet Heinlaan","city":"Doorn","operatorName":"TotalEnergies","maxPowerKw":13,"isMegawatt":false,"status":"AVAILABLE","source":"ndw"}},{"type":"Feature","geometry":{"type":"Point","coordinates":[5.457768,52.002115]},"properties":{"type":"charge","layer":"passenger","locationId":"6b8dd1e6-4746-4ad1-b462-80a5199e1bce","name":"TNLP034127","address":"Prins Clauslaan 7","city":"Amerongen","operatorName":"TotalEnergies","maxPowerKw":14,"isMegawatt":false,"status":"AVAILABLE","source":"ndw"}},{"type":"Feature","geometry":{"type":"Point","coordinates":[5.491493,52.031215]},"properties":{"type":"charge","layer":"passenger","locationId":"6682d2e5345104001c872378","name":"Boshotel Utrechtse Heuvelrug b.v.","address":"Dwarsweg 6+3","city":"Overberg","operatorName":"E-Flux by Road","maxPowerKw":4,"isMegawatt":false,"status":"AVAILABLE","source":"ndw","priceKwh":0.92}},{"type":"Feature","geometry":{"type":"Point","coordinates":[5.285786,52.03569]},"properties":{"type":"charge","layer":"passenger","locationId":"68cbeb8352de51672698095d","name":"Pluryn Driebergen","address":"Gooyer Wetering 14","city":"Driebergen","operatorName":"Pluq","maxPowerKw":22,"isMegawatt":false,"status":"CHARGING","source":"ndw","priceKwh":0.4}},{"type":"Feature","geometry":{"type":"Point","coordinates":[5.374528,52.067734]},"properties":{"type":"charge","layer":"passenger","locationId":"d7ae48ba-984f-4ba6-96ea-5c538aa1ddd8","name":"TNLP007887 - Groenlinglaan 54, Maarn","address":"54 Groenlinglaan","city":"Maarn","operatorName":"TotalEnergies","maxPowerKw":17,"isMegawatt":false,"status":"AVAILABLE","source":"ndw"}},{"type":"Feature","geometry":{"type":"Point","coordinates":[5.2775882,52.0540111]},"properties":{"type":"charge","layer":"passenger","locationId":"791","name":"Shell Recharge NL Buzziburglaan 1","address":"Buzziburglaan 1","city":"Driebergen-Rijsenburg","operatorName":"Ubitricity","maxPowerKw":22,"isMegawatt":false,"status":"AVAILABLE","source":"ndw","priceKwh":0.266}},{"type":"Feature","geometry":{"type":"Point","coordinates":[5.34299,52.04524]},"properties":{"type":"charge","layer":"passenger","locationId":"17665cb8d7ecb424b6ded5ab13d0728b","name":"Drift 53","address":"Drift 53","city":"Doorn","operatorName":"Vattenfall InCharge","maxPowerKw":11,"isMegawatt":false,"status":"AVAILABLE","source":"ndw"}},{"type":"Feature","geometry":{"type":"Point","coordinates":[5.347358,52.033924]},"properties":{"type":"charge","layer":"passenger","locationId":"bd09f696-d99a-4a1e-a059-856a51f5afbb","name":"TNLP009099 - Kaapsehof 10, Doorn","address":"10 Kaapsehof","city":"Doorn","operatorName":"TotalEnergies","maxPowerKw":17,"isMegawatt":false,"status":"AVAILABLE","source":"ndw"}},{"type":"Feature","geometry":{"type":"Point","coordinates":[5.490102,52.030931]},"properties":{"type":"charge","layer":"passenger","locationId":"63dabafbedf4bd0012776fc4","name":"Laadstation 1","address":"Dwarsweg 1","city":"Overberg","operatorName":"E-Flux by Road","maxPowerKw":22,"isMegawatt":false,"status":"AVAILABLE","source":"ndw","priceKwh":0.68}},{"type":"Feature","geometry":{"type":"Point","coordinates":[5.35249,52.02883]},"properties":{"type":"charge","layer":"passenger","locationId":"577","name":"Shell Recharge NL Morel 9","address":"Morel 9","city":"Doorn","operatorName":"Ubitricity","maxPowerKw":11,"isMegawatt":false,"status":"AVAILABLE","source":"ndw","priceKwh":0.388}},{"type":"Feature","geometry":{"type":"Point","coordinates":[5.42125,52.0517]},"properties":{"type":"charge","layer":"passenger","locationId":"afe82b2f094941868186454a9207a701","name":"Maarsbergen - Camping Meck","address":"Scherpenzeelseweg 7","city":"Maarsbergen","operatorName":"Opcharge","maxPowerKw":22,"isMegawatt":false,"status":"AVAILABLE","source":"ndw","priceKwh":0.49}},{"type":"Feature","geometry":{"type":"Point","coordinates":[5.285322,52.054222]},"properties":{"type":"charge","layer":"passenger","locationId":"093555c2e669790df5c693e6c3667044","name":"Van Berckstraat 26","address":"Van Berckstraat 26","city":"Driebergen-Rijsenburg","operatorName":"Vattenfall InCharge","maxPowerKw":11,"isMegawatt":false,"status":"AVAILABLE","source":"ndw"}},{"type":"Feature","geometry":{"type":"Point","coordinates":[5.466389,52.050815]},"properties":{"type":"charge","layer":"passenger","locationId":"32418","name":"Circle K Woudenberg inz Oudenhorst","address":"Rijksweg A12","city":"Woudenberg","operatorName":"Spirii","maxPowerKw":175,"isMegawatt":false,"status":"AVAILABLE","source":"ndw","priceKwh":0.65}},{"type":"Feature","geometry":{"type":"Point","coordinates":[5.33911,52.0477]},"properties":{"type":"charge","layer":"passenger","locationId":"07f832d82829d6924900591f0164c3bd","name":"van Galenlaan 53","address":"van Galenlaan 53","city":"Doorn","operatorName":"Vattenfall InCharge","maxPowerKw":11,"isMegawatt":false,"status":"AVAILABLE","source":"ndw"}},{"type":"Feature","geometry":{"type":"Point","coordinates":[5.290127,52.055195]},"properties":{"type":"charge","layer":"passenger","locationId":"5bee2674-4570-453e-b4ca-22fae7a0a92d","name":"Lidl DRIEBERGEN - Traaij","address":"Traaij 153a","city":"Driebergen-Rijsenburg","operatorName":"Lidl","maxPowerKw":22,"isMegawatt":false,"status":"UNAVAILABLE","source":"ndw"}},{"type":"Feature","geometry":{"type":"Point","coordinates":[5.469032,52.0040807]},"properties":{"type":"charge","layer":"passenger","locationId":"1671","name":"Shell Recharge NL Ds Keppellaan 25","address":"Ds Keppellaan 25","city":"Amerongen","operatorName":"Ubitricity","maxPowerKw":22,"isMegawatt":false,"status":"AVAILABLE","source":"ndw","priceKwh":0.266}},{"type":"Feature","geometry":{"type":"Point","coordinates":[5.466982,51.999847]},"properties":{"type":"charge","layer":"passenger","locationId":"1398fee7-c82b-491a-bbd8-331a9e9081b8","name":"TNLP008217 - De Kievit 93, Amerongen","address":"93 De Kievit","city":"Amerongen","operatorName":"TotalEnergies","maxPowerKw":17,"isMegawatt":false,"status":"AVAILABLE","source":"ndw"}},{"type":"Feature","geometry":{"type":"Point","coordinates":[5.276701,52.055677]},"properties":{"type":"charge","layer":"passenger","locationId":"66f567140ec754001c4c2589","name":"Het Wapen van Rijsenburg","address":"hoofdstraat  83","city":"driebergen","operatorName":"E-Flux by Road","maxPowerKw":11,"isMegawatt":false,"status":"AVAILABLE","source":"ndw","priceKwh":0.63}},{"type":"Feature","geometry":{"type":"Point","coordinates":[5.435041,52.01838]},"properties":{"type":"charge","layer":"passenger","locationId":"c83ffd25-31b1-4c67-979d-4cbf0de42818","name":"TNLP005858 - M.C.Verloopweg 66, Leersum","address":"66 M.C.Verloopweg","city":"Leersum","operatorName":"TotalEnergies","maxPowerKw":11,"isMegawatt":false,"status":"UNAVAILABLE","source":"ndw"}},{"type":"Feature","geometry":{"type":"Point","coordinates":[5.277491,52.048393]},"properties":{"type":"charge","layer":"passenger","locationId":"6d220df1-4350-40ab-92b1-22e45f33a6f9","name":"PP004306 - Edelhertlaan 3, Driebergen-Rijsenburg","address":"3 Edelhertlaan","city":"Driebergen-Rijsenburg","operatorName":"TotalEnergies","maxPowerKw":11,"isMegawatt":false,"status":"AVAILABLE","source":"ndw"}},{"type":"Feature","geometry":{"type":"Point","coordinates":[5.269618,52.059931]},"properties":{"type":"charge","layer":"passenger","locationId":"E0B23615-C5B9-4257-8619-A0E89D61C054","name":"Eneco eMobility OLCO - Driebergen-Rijsenburg","address":"Hoofdstraat 41 B","city":"Driebergen-Rijsenburg","operatorName":"Eneco","maxPowerKw":11,"isMegawatt":false,"status":"UNAVAILABLE","source":"ndw","priceKwh":0.32}},{"type":"Feature","geometry":{"type":"Point","coordinates":[5.290516,52.05023]},"properties":{"type":"charge","layer":"passenger","locationId":"bf3c19a7-a62b-4d79-ab3a-ff3bfd315548","name":"TNLP007954 - Buntlaan 1, Driebergen-Rijsenburg","address":"1 Buntlaan","city":"Driebergen-Rijsenburg","operatorName":"TotalEnergies","maxPowerKw":17,"isMegawatt":false,"status":"AVAILABLE","source":"ndw"}},{"type":"Feature","geometry":{"type":"Point","coordinates":[5.41969,52.010482]},"properties":{"type":"charge","layer":"passenger","locationId":"6609c2fc03b816001c421609","name":"Green M","address":"Veldlaan 13","city":"Leersum","operatorName":"E-Flux by Road","maxPowerKw":4,"isMegawatt":false,"status":"AVAILABLE","source":"ndw","priceKwh":0.45}},{"type":"Feature","geometry":{"type":"Point","coordinates":[5.281736,52.05303]},"properties":{"type":"charge","layer":"passenger","locationId":"687f3f56bda39fea01e18428","name":"Planet Happy","address":"Hoofdstraat  101","city":"Driebergen","operatorName":"E-Flux by Road","maxPowerKw":11,"isMegawatt":false,"status":"AVAILABLE","source":"ndw","priceKwh":0.78}},{"type":"Feature","geometry":{"type":"Point","coordinates":[5.292272,52.048042]},"properties":{"type":"charge","layer":"passenger","locationId":"62bee34f5bbc20dbe20e2fe0","name":"Dennenhorst 11 oprit","address":"Dennenhorst 11","city":"Driebergen-Rijsenburg","operatorName":"E-Flux by Road","maxPowerKw":22,"isMegawatt":false,"status":"CHARGING","source":"ndw","priceKwh":0.31}},{"type":"Feature","geometry":{"type":"Point","coordinates":[5.416202,52.039668]},"properties":{"type":"charge","layer":"passenger","locationId":"68ca8259d747ff622ea9645c","name":"Pluryn Valkheide Hoofdgebouw","address":"Valkenheide 26","city":"Maarsbergen","operatorName":"Pluq","maxPowerKw":22,"isMegawatt":false,"status":"AVAILABLE","source":"ndw","priceKwh":0.4}},{"type":"Feature","geometry":{"type":"Point","coordinates":[5.2844,52.04319]},"properties":{"type":"charge","layer":"passenger","locationId":"277","name":"Shell Recharge NL Akkerweg 114","address":"Akkerweg 114","city":"Driebergen","operatorName":"Ubitricity","maxPowerKw":11,"isMegawatt":false,"status":"AVAILABLE","source":"ndw","priceKwh":0.388}},{"type":"Feature","geometry":{"type":"Point","coordinates":[5.43275,52.01018]},"properties":{"type":"charge","layer":"passenger","locationId":"298","name":"Shell Recharge NL Kerkweg 2","address":"Kerkweg 2","city":"Leersum","operatorName":"Ubitricity","maxPowerKw":11,"isMegawatt":false,"status":"AVAILABLE","source":"ndw","priceKwh":0.388}},{"type":"Feature","geometry":{"type":"Point","coordinates":[5.456462,52.00161]},"properties":{"type":"charge","layer":"passenger","locationId":"430667ee-d1ac-4c2a-9a2b-de92b0e2847a","name":"TNLP009176 - Hul 12, Amerongen","address":"12 Hul","city":"Amerongen","operatorName":"TotalEnergies","maxPowerKw":17,"isMegawatt":false,"status":"AVAILABLE","source":"ndw"}},{"type":"Feature","geometry":{"type":"Point","coordinates":[5.40954,52.05513]},"properties":{"type":"charge","layer":"passenger","locationId":"466","name":"Shell Recharge NL Samuel de Marezhof 49","address":"Samuel de Marezhof 49","city":"Maarsbergen","operatorName":"Ubitricity","maxPowerKw":22,"isMegawatt":false,"status":"AVAILABLE","source":"ndw","priceKwh":0.388}},{"type":"Feature","geometry":{"type":"Point","coordinates":[5.3492,52.03272]},"properties":{"type":"charge","layer":"passenger","locationId":"21ad14b5-0ff9-48da-928e-574e344b1081","name":"PP005438 - Tuilland 16, Doorn","address":"16 Tuilland","city":"Doorn","operatorName":"TotalEnergies","maxPowerKw":11,"isMegawatt":false,"status":"CHARGING","source":"ndw"}},{"type":"Feature","geometry":{"type":"Point","coordinates":[5.416326,52.05515]},"properties":{"type":"charge","layer":"passenger","locationId":"67b5f103c805b3ad90f2dfb4","name":"Fit to the Limit","address":"Haarbos  6D","city":"Maarsbergen","operatorName":"E-Flux by Road","maxPowerKw":11,"isMegawatt":false,"status":"AVAILABLE","source":"ndw","priceKwh":0.51}},{"type":"Feature","geometry":{"type":"Point","coordinates":[5.295628,52.05556]},"properties":{"type":"charge","layer":"passenger","locationId":"659864ff-69ed-45b0-8b39-95af07335635","name":"TNLP007517 - Zonstraat 61, Driebergen-Rijsenburg","address":"61 Zonstraat","city":"Driebergen-Rijsenburg","operatorName":"TotalEnergies","maxPowerKw":17,"isMegawatt":false,"status":"AVAILABLE","source":"ndw"}},{"type":"Feature","geometry":{"type":"Point","coordinates":[5.419089,52.01283]},"properties":{"type":"charge","layer":"passenger","locationId":"db4d2930-8978-4361-9724-3d367b3c50b5","name":"TNLP015242 - Middelweg 50, Leersum","address":"50 Middelweg","city":"Leersum","operatorName":"TotalEnergies","maxPowerKw":17,"isMegawatt":false,"status":"CHARGING","source":"ndw"}},{"type":"Feature","geometry":{"type":"Point","coordinates":[5.4620052,52.0044342]},"properties":{"type":"charge","layer":"passenger","locationId":"2102","name":"Shell Recharge NL Burgemeester W. Martenslaan 29","address":"Burgemeester W. Martenslaan 29","city":"Amerongen","operatorName":"Ubitricity","maxPowerKw":22,"isMegawatt":false,"status":"AVAILABLE","source":"ndw","priceKwh":0.266}},{"type":"Feature","geometry":{"type":"Point","coordinates":[5.277928,52.048878]},"properties":{"type":"charge","layer":"passenger","locationId":"f17e5426-83d3-4727-9259-910bc77edea1","name":"TNLP008507 - Bierens de Haanerf 1, Driebergen-Rijsenburg","address":"1 Bierens de Haanerf","city":"Driebergen-Rijsenburg","operatorName":"TotalEnergies","maxPowerKw":13,"isMegawatt":false,"status":"AVAILABLE","source":"ndw"}},{"type":"Feature","geometry":{"type":"Point","coordinates":[5.267348,52.052673]},"properties":{"type":"charge","layer":"passenger","locationId":"8bc02e18-e4a4-48e5-9f93-5afd0da7eb11","name":"PP004098 - De Grutto 37, Driebergen-Rijsenburg","address":"37 De Grutto","city":"Driebergen-Rijsenburg","operatorName":"TotalEnergies","maxPowerKw":11,"isMegawatt":false,"status":"AVAILABLE","source":"ndw"}},{"type":"Feature","geometry":{"type":"Point","coordinates":[5.271879,52.053352]},"properties":{"type":"charge","layer":"passenger","locationId":"5c6a95d2-e903-41c7-ae08-a1f30ad20a80","name":"TNLP005989 - Kardinaal Alfrinklaan 1, Driebergen-Rijsenburg","address":"1 Kardinaal Alfrinklaan","city":"Driebergen-Rijsenburg","operatorName":"TotalEnergies","maxPowerKw":17,"isMegawatt":false,"status":"AVAILABLE","source":"ndw"}},{"type":"Feature","geometry":{"type":"Point","coordinates":[5.379538,52.063805]},"properties":{"type":"charge","layer":"passenger","locationId":"91cf1372-efb6-4917-a6ce-6455f6047988","name":"TNLP009836 - Buntlaan 44, Maarn","address":"44 Buntlaan","city":"Maarn","operatorName":"TotalEnergies","maxPowerKw":17,"isMegawatt":false,"status":"AVAILABLE","source":"ndw"}},{"type":"Feature","geometry":{"type":"Point","coordinates":[5.412941,52.054947]},"properties":{"type":"charge","layer":"passenger","locationId":"659e7aa71dcd87001cd47f52","name":"Marien Zwolsman 's station","address":"Ambachtsweg 14","city":"Maarsbergen","operatorName":"E-Flux by Road","maxPowerKw":22,"isMegawatt":false,"status":"UNAVAILABLE","source":"ndw","priceKwh":0.38}},{"type":"Feature","geometry":{"type":"Point","coordinates":[5.408911,52.056445]},"properties":{"type":"charge","layer":"passenger","locationId":"9fc60726-250f-4be2-90d4-51291b60f53b","name":"TNLP034249","address":"Heygraefflaan 25","city":"Maarsbergen","operatorName":"TotalEnergies","maxPowerKw":14,"isMegawatt":false,"status":"AVAILABLE","source":"ndw"}},{"type":"Feature","geometry":{"type":"Point","coordinates":[5.343422,52.036404]},"properties":{"type":"charge","layer":"passenger","locationId":"f032b3a0-cab5-4cc9-8ce2-4414f8af29c8","name":"TNLP003647 - Kampweg 32, Doorn","address":"32 Kampweg","city":"Doorn","operatorName":"TotalEnergies","maxPowerKw":17,"isMegawatt":false,"status":"AVAILABLE","source":"ndw"}},{"type":"Feature","geometry":{"type":"Point","coordinates":[5.34157,52.03854]},"properties":{"type":"charge","layer":"passenger","locationId":"295","name":"Shell Recharge NL Eikenlaan 8","address":"Eikenlaan 8","city":"Doorn","operatorName":"Ubitricity","maxPowerKw":11,"isMegawatt":false,"status":"CHARGING","source":"ndw","priceKwh":0.388}},{"type":"Feature","geometry":{"type":"Point","coordinates":[5.345251,52.031837]},"properties":{"type":"charge","layer":"passenger","locationId":"8b22e0a7-c56f-439c-bfba-949b26945783","name":"TNLP009163 - Kapelweg 26, Doorn","address":"26 Kapelweg","city":"Doorn","operatorName":"TotalEnergies","maxPowerKw":17,"isMegawatt":false,"status":"CHARGING","source":"ndw"}},{"type":"Feature","geometry":{"type":"Point","coordinates":[5.2687,52.055]},"properties":{"type":"charge","layer":"passenger","locationId":"d5d0a83c-7695-46ce-bf55-20cbef41ac24","name":"TNLP003641 - Hendrik Kraemerlaan 51, Driebergen-Rijsenburg","address":"51 Hendrik Kraemerlaan","city":"Driebergen-Rijsenburg","operatorName":"TotalEnergies","maxPowerKw":17,"isMegawatt":false,"status":"CHARGING","source":"ndw"}},{"type":"Feature","geometry":{"type":"Point","coordinates":[5.42009,52.01088]},"properties":{"type":"charge","layer":"passenger","locationId":"af9e47e3-6b0c-4879-8fc7-72f1718f53cd","name":"TNLP005871 - Veldlaan 1, Leersum","address":"1 Veldlaan","city":"Leersum","operatorName":"TotalEnergies","maxPowerKw":11,"isMegawatt":false,"status":"AVAILABLE","source":"ndw"}},{"type":"Feature","geometry":{"type":"Point","coordinates":[5.340938,52.043533]},"properties":{"type":"charge","layer":"passenger","locationId":"56ed8f53-6b7e-42bb-be4c-843685f2976e","name":"TNLP006045 - Drift 9, Doorn","address":"9 Drift","city":"Doorn","operatorName":"TotalEnergies","maxPowerKw":17,"isMegawatt":false,"status":"AVAILABLE","source":"ndw"}},{"type":"Feature","geometry":{"type":"Point","coordinates":[5.279711,52.048916]},"properties":{"type":"charge","layer":"passenger","locationId":"2021e19b-84a5-49cf-a2cb-560dccd31e28","name":"TNLP006070 - Rodenbergsedreef 68, Driebergen-Rijsenburg","address":"68 Rodenbergsedreef","city":"Driebergen-Rijsenburg","operatorName":"TotalEnergies","maxPowerKw":17,"isMegawatt":false,"status":"AVAILABLE","source":"ndw"}},{"type":"Feature","geometry":{"type":"Point","coordinates":[5.377304,52.06638]},"properties":{"type":"charge","layer":"passenger","locationId":"cd098efe-f432-4bb9-9c14-b67644a5b7d0","name":"TNLP007886 - Trompstaete 24, Maarn","address":"24 Trompstaete","city":"Maarn","operatorName":"TotalEnergies","maxPowerKw":17,"isMegawatt":false,"status":"AVAILABLE","source":"ndw"}},{"type":"Feature","geometry":{"type":"Point","coordinates":[5.37118,52.0643]},"properties":{"type":"charge","layer":"passenger","locationId":"7c289f13-7997-4a69-9a30-a18d1a9e5261","name":"TNLP003620 - Tuindorpweg 55, Maarn","address":"55 Tuindorpweg","city":"Maarn","operatorName":"TotalEnergies","maxPowerKw":17,"isMegawatt":false,"status":"AVAILABLE","source":"ndw"}},{"type":"Feature","geometry":{"type":"Point","coordinates":[5.264251,52.05354]},"properties":{"type":"charge","layer":"passenger","locationId":"eb309cde-18d5-436b-903b-eae978079710","name":"TNLP007463 - Faunalaan 166, Driebergen-Rijsenburg","address":"166 Faunalaan","city":"Driebergen-Rijsenburg","operatorName":"TotalEnergies","maxPowerKw":17,"isMegawatt":false,"status":"AVAILABLE","source":"ndw"}},{"type":"Feature","geometry":{"type":"Point","coordinates":[5.411668,52.055073]},"properties":{"type":"charge","layer":"passenger","locationId":"24c54efa-1138-4071-b7e4-2cf014fb11c6","name":"TNLP005867 - Samuel de Marezhof 131, Maarsbergen","address":"131 Samuel de Marezhof","city":"Maarsbergen","operatorName":"TotalEnergies","maxPowerKw":11,"isMegawatt":false,"status":"AVAILABLE","source":"ndw"}},{"type":"Feature","geometry":{"type":"Point","coordinates":[5.403754,52.061148]},"properties":{"type":"charge","layer":"passenger","locationId":"674f18200c5d511e2747c89c","name":"GC Anderstein","address":"Woudenbergseweg 13-a","city":"Maarsbergen","operatorName":"E-Flux by Road","maxPowerKw":22,"isMegawatt":false,"status":"AVAILABLE","source":"ndw","priceKwh":0.53}},{"type":"Feature","geometry":{"type":"Point","coordinates":[5.345973,52.035896]},"properties":{"type":"charge","layer":"passenger","locationId":"7d3c8481-7eed-4332-b9ac-012f8ac8d7b2","name":"TNLP003635 - Van Bennekomweg 9, Doorn","address":"9 Van Bennekomweg","city":"Doorn","operatorName":"TotalEnergies","maxPowerKw":17,"isMegawatt":false,"status":"CHARGING","source":"ndw"}},{"type":"Feature","geometry":{"type":"Point","coordinates":[5.372086,52.06201]},"properties":{"type":"charge","layer":"passenger","locationId":"56b92b87-4a79-4563-822f-692cfabac968","name":"TNLP008032 - Acacialaan 13, Maarn","address":"13 Acacialaan","city":"Maarn","operatorName":"TotalEnergies","maxPowerKw":17,"isMegawatt":false,"status":"AVAILABLE","source":"ndw"}},{"type":"Feature","geometry":{"type":"Point","coordinates":[5.426276,52.013165]},"properties":{"type":"charge","layer":"passenger","locationId":"640b27fdf5497d001278b331","name":"Parkeerplaats Villa Regia (Jeugdzorgpraktijk echtKinderachtig)","address":"Rijksstraatweg 150","city":"Leersum","operatorName":"E-Flux by Road","maxPowerKw":11,"isMegawatt":false,"status":"AVAILABLE","source":"ndw","priceKwh":0.62}},{"type":"Feature","geometry":{"type":"Point","coordinates":[5.339105,52.03309]},"properties":{"type":"charge","layer":"passenger","locationId":"68db942c0438df2b0eec3487","name":"Parkhuys Rosarium station","address":"Molenweg  4","city":"Doorn","operatorName":"E-Flux by Road","maxPowerKw":11,"isMegawatt":false,"status":"AVAILABLE","source":"ndw","priceKwh":0.68}},{"type":"Feature","geometry":{"type":"Point","coordinates":[5.34834,52.02903]},"properties":{"type":"charge","layer":"passenger","locationId":"671","name":"Shell Recharge NL Vruchtengaard 47","address":"Vruchtengaard 47","city":"Doorn","operatorName":"Ubitricity","maxPowerKw":11,"isMegawatt":false,"status":"AVAILABLE","source":"ndw","priceKwh":0.388}},{"type":"Feature","geometry":{"type":"Point","coordinates":[5.374739,52.065487]},"properties":{"type":"charge","layer":"passenger","locationId":"9e11f26d-0e76-41d8-8183-f281cfac34c1","name":"TNLP007884 - Trompplein 2, Maarn","address":"2 Trompplein","city":"Maarn","operatorName":"TotalEnergies","maxPowerKw":17,"isMegawatt":false,"status":"AVAILABLE","source":"ndw"}},{"type":"Feature","geometry":{"type":"Point","coordinates":[5.271571,52.04955]},"properties":{"type":"charge","layer":"passenger","locationId":"ef91d277-e10f-48bf-8a1b-56b26da8deb0","name":"TNLP008284 - Jagersdreef 81, Driebergen-Rijsenburg","address":"81 Jagersdreef","city":"Driebergen-Rijsenburg","operatorName":"TotalEnergies","maxPowerKw":13,"isMegawatt":false,"status":"AVAILABLE","source":"ndw"}},{"type":"Feature","geometry":{"type":"Point","coordinates":[5.456613,52.004517]},"properties":{"type":"charge","layer":"passenger","locationId":"f8c67342-2a0d-452b-8654-15fb2933d8c5","name":"TNLP005814 - Industrieweg noord 18, Amerongen","address":"18 Industrieweg noord","city":"Amerongen","operatorName":"TotalEnergies","maxPowerKw":11,"isMegawatt":false,"status":"AVAILABLE","source":"ndw"}},{"type":"Feature","geometry":{"type":"Point","coordinates":[5.27239,52.05111]},"properties":{"type":"charge","layer":"passenger","locationId":"fb28f73b-b07d-48b8-94bd-61326dc46348","name":"TNLP003631 - Damhertlaan 107, Driebergen-Rijsenburg","address":"107 Damhertlaan","city":"Driebergen-Rijsenburg","operatorName":"TotalEnergies","maxPowerKw":17,"isMegawatt":false,"status":"AVAILABLE","source":"ndw"}},{"type":"Feature","geometry":{"type":"Point","coordinates":[5.28833,52.04948]},"properties":{"type":"charge","layer":"passenger","locationId":"BCD57B17-5BFE-48F6-BFE5-AB7A3D7272A8","name":"PP002371","address":"Hogesteeg 2","city":"Driebergen-Rijsenburg","operatorName":"TotalEnergies","maxPowerKw":17,"isMegawatt":false,"status":"AVAILABLE","source":"ndw"}},{"type":"Feature","geometry":{"type":"Point","coordinates":[5.26456,52.049675]},"properties":{"type":"charge","layer":"passenger","locationId":"cf926626-6f7c-4b32-8fea-726c43bea119","name":"TNLP006201 - Scholekster 21, Driebergen-Rijsenburg","address":"21 Scholekster","city":"Driebergen-Rijsenburg","operatorName":"TotalEnergies","maxPowerKw":17,"isMegawatt":false,"status":"AVAILABLE","source":"ndw"}},{"type":"Feature","geometry":{"type":"Point","coordinates":[5.289245,52.057804]},"properties":{"type":"charge","layer":"passenger","locationId":"d32795b7-bb16-43fa-83d7-9e3a5f85889a","name":"TNLP008490 - Bosstraat 146, Driebergen-Rijsenburg","address":"146 Bosstraat","city":"Driebergen-Rijsenburg","operatorName":"TotalEnergies","maxPowerKw":13,"isMegawatt":false,"status":"UNAVAILABLE","source":"ndw"}},{"type":"Feature","geometry":{"type":"Point","coordinates":[5.466078,52.005074]},"properties":{"type":"charge","layer":"passenger","locationId":"4eaa58e6-6c3c-40c5-a410-f44c748e5e70","name":"TNLP008155 - Wildbaan 11, Amerongen","address":"11 Wildbaan","city":"Amerongen","operatorName":"TotalEnergies","maxPowerKw":17,"isMegawatt":false,"status":"AVAILABLE","source":"ndw"}},{"type":"Feature","geometry":{"type":"Point","coordinates":[5.2759,52.06329]},"properties":{"type":"charge","layer":"passenger","locationId":"0c0357b3570cad0bfd6b0743c2d4d251","name":"Van Oosthuyselaan 77","address":"Van Oosthuyselaan 77","city":"Driebergen-Rijsenburg","operatorName":"Vattenfall InCharge","maxPowerKw":11,"isMegawatt":false,"status":"AVAILABLE","source":"ndw"}},{"type":"Feature","geometry":{"type":"Point","coordinates":[5.465791,52.006462]},"properties":{"type":"charge","layer":"passenger","locationId":"68cbec2b8f271a7c79246d86","name":"Elim 1","address":"Koenestraat 128","city":"Amerongen","operatorName":"Vattenfall","maxPowerKw":22,"isMegawatt":false,"status":"AVAILABLE","source":"ndw","priceKwh":0.46}},{"type":"Feature","geometry":{"type":"Point","coordinates":[5.301972,52.044645]},"properties":{"type":"charge","layer":"passenger","locationId":"66c70179efb3a5001c5893f5","name":"Grand Cafe Brasserie Brocante V.O.F.","address":"Driebergsestraatweg 54","city":"Doorn","operatorName":"Pluq","maxPowerKw":22,"isMegawatt":false,"status":"AVAILABLE","source":"ndw","priceKwh":0.39}},{"type":"Feature","geometry":{"type":"Point","coordinates":[5.3513,52.03182]},"properties":{"type":"charge","layer":"passenger","locationId":"e9c92597faab226bb5a1722139c7a860","name":"Kombos 123","address":"Kombos 123","city":"Doorn","operatorName":"Vattenfall InCharge","maxPowerKw":11,"isMegawatt":false,"status":"AVAILABLE","source":"ndw"}},{"type":"Feature","geometry":{"type":"MultiPolygon","coordinates":[[[[5.2911525953600815,52.08635329315862],[5.320422439433114,52.07032716277785],[5.332608228965326,52.078810102430985],[5.332250605805842,52.084163657744945],[5.384526983599393,52.07826865633079],[5.388341056278642,52.074932410318695],[5.3898224396028755,52.07566899666179],[5.391055900835784,52.075074569102476],[5.394507115857296,52.07496499342189],[5.403503458385373,52.07567875373632],[5.405893615458699,52.0752206919366],[5.407060987965164,52.072577023113915],[5.404799089402162,52.072048324263086],[5.405365037748852,52.07099987622501],[5.399536638362755,52.06921078912985],[5.400815692936328,52.06783155807999],[5.398956087639926,52.06693846536008],[5.400529707178882,52.06474558674632],[5.401896061591977,52.06429875693627],[5.409077997792105,52.06854128141929],[5.409353952360156,52.06898465607377],[5.410046332311189,52.06940777951429],[5.410388935964357,52.069181121978495],[5.422355461397055,52.073016015352565],[5.4240715254779515,52.072498796822806],[5.43338093645889,52.07229483730795],[5.4354688439139025,52.07285109336323],[5.437465992786302,52.072015600772026],[5.438313210685703,52.07027338772785],[5.436450924311103,52.0616093963233],[5.435267022325085,52.059597661579495],[5.430622683643735,52.05904776389997],[5.428714642285749,52.05734117799281],[5.428334980798776,52.05630569471612],[5.429868278816108,52.052866710881986],[5.43515026686951,52.047885377221185],[5.44160159770385,52.045693147294905],[5.445702396762236,52.0452589309211],[5.448612399327787,52.04323696892009],[5.45349395716908,52.04994870132272],[5.4611377756007515,52.04725909212923],[5.462099490992027,52.04898819775069],[5.466901749095506,52.051157009234245],[5.477194479981487,52.052854941921666],[5.485379380620707,52.0562346968344],[5.491428501159374,52.057322040714794],[5.497875717436673,52.05701822266613],[5.512995179718007,52.05511366285274],[5.515681006407022,52.05419113841912],[5.514992917786572,52.05262638399556],[5.515909391891826,52.052611631951],[5.516430619785062,52.047763769076724],[5.525998637219976,52.041368921422276],[5.5293476190527135,52.04020236731616],[5.525265231024557,52.0349875110357],[5.522319530147983,52.03105129113584],[5.51833871990438,52.02587824183809],[5.512591840645124,52.01851603404941],[5.511022299426759,52.01642021688087],[5.507886548458229,52.012311048968215],[5.494201269836863,51.99490100815412],[5.492874322067688,51.996094570372215],[5.490897313064996,51.99656100277726],[5.485293410690199,51.990964976964044],[5.486083763334669,51.9908525821519],[5.484594292454842,51.98775952287515],[5.480300253641873,51.991093986589405],[5.47925874633913,51.99019949250198],[5.480554697544854,51.98874793462992],[5.477849378029511,51.987691660942005],[5.477664050955791,51.98347261725088],[5.472686150800874,51.982977559389695],[5.457011532490245,51.98368399790214],[5.442407780028794,51.9859474846086],[5.436243484618108,51.985348396480966],[5.430399423656932,51.98326505631934],[5.423363194127082,51.97875537432729],[5.418155117162151,51.97660565205528],[5.399337156129376,51.973102731877745],[5.390975617798809,51.97073015182912],[5.3905165577985725,51.97124805878213],[5.39200918688838,51.97340254103371],[5.394950483170781,51.974441593421616],[5.3941643008933085,51.97593423588715],[5.387590269314275,51.97630888958353],[5.378429479492486,51.98608207179785],[5.399421861058219,51.98794812330851],[5.415276235874887,51.99670192939293],[5.398905195818594,52.002922846877816],[5.381646660692071,52.00213787860619],[5.363664904456812,52.010020622515206],[5.350259609448937,52.0160376468031],[5.344291217738377,52.020193903308176],[5.323985135010551,52.02282571047541],[5.314647812706793,52.02700094233448],[5.2912196122039825,52.00835410958841],[5.287995485451863,52.009921910841584],[5.279909528396388,52.01072190264823],[5.271692734215132,52.01460950635399],[5.269883982466187,52.0183261101626],[5.263239010614887,52.02438041109068],[5.270866409494235,52.02740364473276],[5.269297868194625,52.02917060948079],[5.264452537263189,52.03112607838559],[5.257498455340685,52.03267771337313],[5.25746962113972,52.03610552994631],[5.258581576523549,52.03726098131157],[5.257539562781862,52.03831636632118],[5.255887514257197,52.03812836377144],[5.251082977839526,52.039225233864904],[5.249493973661721,52.04098623052216],[5.248952938293734,52.042114828514016],[5.2498934028791,52.04637786793694],[5.248005513325871,52.047413004562216],[5.251506316581237,52.05331967035718],[5.250738107125769,52.05564559547954],[5.247422639381348,52.05864666990405],[5.252121164745023,52.062026098036746],[5.256000584422897,52.06289325893617],[5.257522866457362,52.065490220124744],[5.259352848604999,52.06676622931354],[5.265362284453348,52.0702069870753],[5.266158206849705,52.07071479072847],[5.2911525953600815,52.08635329315862]]]]},"properties":{"type":"boundary","gemeente":"Utrechtse Heuvelrug","code":"GM1581"}}]}