{"type":"FeatureCollection","metadata":{"gemeente":"Veendam","slug":"veendam","code":"GM0047","generated_at":"2026-07-06T16:26:11.361Z","total_passenger":61,"total_freight":0,"bounds":[6.80167376014822,53.03240787669624,6.961734843129465,53.12883304126793],"operators":["Allego","DAEN Mobility","E-Flux by Road","EQUANS","Eneco","Laadnet","PowerGo","Shell Recharge"]},"features":[{"type":"Feature","geometry":{"type":"Point","coordinates":[6.85845,53.09568]},"properties":{"type":"charge","layer":"passenger","locationId":"91368809","name":"Equans Groningen Drenthe Sorghvlietlaan 11","address":"Sorghvlietlaan 11","city":"Veendam","operatorName":"EQUANS","maxPowerKw":11,"isMegawatt":false,"status":"AVAILABLE","source":"ndw"}},{"type":"Feature","geometry":{"type":"Point","coordinates":[6.85461,53.10319]},"properties":{"type":"charge","layer":"passenger","locationId":"91145039","name":"Equans Groningen Drenthe Fregatstraat 106","address":"Fregatstraat 106","city":"Veendam","operatorName":"EQUANS","maxPowerKw":11,"isMegawatt":false,"status":"AVAILABLE","source":"ndw"}},{"type":"Feature","geometry":{"type":"Point","coordinates":[6.882123,53.106104]},"properties":{"type":"charge","layer":"passenger","locationId":"91145416","name":"Equans Groningen Drenthe Beneden Oosterdiep 59","address":"Beneden Oosterdiep 59","city":"Veendam","operatorName":"EQUANS","maxPowerKw":11,"isMegawatt":false,"status":"AVAILABLE","source":"ndw"}},{"type":"Feature","geometry":{"type":"Point","coordinates":[6.874352,53.117751]},"properties":{"type":"charge","layer":"passenger","locationId":"91145342","name":"Equans Groningen Drenthe Somerlustweg 16","address":"Somerlustweg 16","city":"Veendam","operatorName":"EQUANS","maxPowerKw":11,"isMegawatt":false,"status":"AVAILABLE","source":"ndw"}},{"type":"Feature","geometry":{"type":"Point","coordinates":[6.888372,53.109535]},"properties":{"type":"charge","layer":"passenger","locationId":"NLLOC016627","name":"NL, Tijdensstraat 2, 9641 CC Veendam","address":"Tijdensstraat 2","city":"Veendam","operatorName":"Allego","maxPowerKw":11,"isMegawatt":false,"status":"AVAILABLE","source":"ndw","priceKwh":0.407}},{"type":"Feature","geometry":{"type":"Point","coordinates":[6.865422,53.085825]},"properties":{"type":"charge","layer":"passenger","locationId":"NLLOC006670","name":"NL, Apollolaan 15, 9648ck, Wildervank","address":"Apollolaan 15","city":"Wildervank","operatorName":"Allego","maxPowerKw":11,"isMegawatt":false,"status":"AVAILABLE","source":"ndw","priceKwh":0.407}},{"type":"Feature","geometry":{"type":"Point","coordinates":[6.892183,53.118477]},"properties":{"type":"charge","layer":"passenger","locationId":"B05AEF47-A9E2-4136-9725-9830E47C1FA7","name":"Eneco eMobility Transportweg 62 Veendam","address":"Transportweg 62","city":"Veendam","operatorName":"Eneco","maxPowerKw":22,"isMegawatt":false,"status":"UNAVAILABLE","source":"ndw","priceKwh":0.32}},{"type":"Feature","geometry":{"type":"Point","coordinates":[6.890405,53.109525]},"properties":{"type":"charge","layer":"passenger","locationId":"E026518C-A607-458E-868A-1D625EDB521A","name":"Eneco eMobility Hanab Veendam","address":"Transportweg 2","city":"Veendam","operatorName":"Eneco","maxPowerKw":11,"isMegawatt":false,"status":"AVAILABLE","source":"ndw","priceKwh":0.33}},{"type":"Feature","geometry":{"type":"Point","coordinates":[6.86792,53.09097]},"properties":{"type":"charge","layer":"passenger","locationId":"91518066","name":"Equans Groningen Drenthe Sportterreinstraat 54","address":"Sportterreinstraat 54","city":"Wildervank","operatorName":"EQUANS","maxPowerKw":11,"isMegawatt":false,"status":"AVAILABLE","source":"ndw"}},{"type":"Feature","geometry":{"type":"Point","coordinates":[6.86898,53.11111]},"properties":{"type":"charge","layer":"passenger","locationId":"91145142","name":"Equans Groningen Drenthe Zerkhouwersstraat 23","address":"Zerkhouwersstraat 23","city":"Veendam","operatorName":"EQUANS","maxPowerKw":11,"isMegawatt":false,"status":"AVAILABLE","source":"ndw"}},{"type":"Feature","geometry":{"type":"Point","coordinates":[6.887279,53.102156]},"properties":{"type":"charge","layer":"passenger","locationId":"7A77903B-E389-4040-8885-385F3CBB3B15","name":"Eneco eMobility Broekhuis Volvo Veendam","address":"Van Stolbergweg 40","city":"Veendam","operatorName":"Eneco","maxPowerKw":11,"isMegawatt":false,"status":"AVAILABLE","source":"ndw","priceKwh":0.32}},{"type":"Feature","geometry":{"type":"Point","coordinates":[6.8493242,53.1066894]},"properties":{"type":"charge","layer":"passenger","locationId":"13746","name":"The Ranch Veendam (PowerGo)","address":"Parkweg 1","city":"Veendam","operatorName":"PowerGo","maxPowerKw":30,"isMegawatt":false,"status":"AVAILABLE","source":"ndw","priceKwh":0.75}},{"type":"Feature","geometry":{"type":"Point","coordinates":[6.876577,53.105102]},"properties":{"type":"charge","layer":"passenger","locationId":"91145410","name":"Equans Groningen Drenthe Kerkstraat 35","address":"Kerkstraat 35","city":"Veendam","operatorName":"EQUANS","maxPowerKw":11,"isMegawatt":false,"status":"AVAILABLE","source":"ndw"}},{"type":"Feature","geometry":{"type":"Point","coordinates":[6.85635,53.102772]},"properties":{"type":"charge","layer":"passenger","locationId":"91145140","name":"Equans Groningen Drenthe Fregatstraat 57","address":"Fregatstraat 57","city":"Veendam","operatorName":"EQUANS","maxPowerKw":11,"isMegawatt":false,"status":"AVAILABLE","source":"ndw"}},{"type":"Feature","geometry":{"type":"Point","coordinates":[6.866771,53.081053]},"properties":{"type":"charge","layer":"passenger","locationId":"91145406","name":"Equans Groningen Drenthe Acacialaan 13","address":"Acacialaan 13","city":"Wildervank","operatorName":"EQUANS","maxPowerKw":11,"isMegawatt":false,"status":"AVAILABLE","source":"ndw"}},{"type":"Feature","geometry":{"type":"Point","coordinates":[6.863839,53.114816]},"properties":{"type":"charge","layer":"passenger","locationId":"91145297","name":"Equans Groningen Drenthe Cornelis Jetseslaan 15","address":"Cornelis Jetseslaan 15","city":"Veendam","operatorName":"EQUANS","maxPowerKw":11,"isMegawatt":false,"status":"AVAILABLE","source":"ndw"}},{"type":"Feature","geometry":{"type":"Point","coordinates":[6.869158,53.109006]},"properties":{"type":"charge","layer":"passenger","locationId":"66f29b865adfd5001c64778b","name":"Privé Dick Smid","address":"Smaragdlaan 5","city":"Veendam","operatorName":"E-Flux by Road","maxPowerKw":22,"isMegawatt":false,"status":"CHARGING","source":"ndw","priceKwh":0.43}},{"type":"Feature","geometry":{"type":"Point","coordinates":[6.93507,53.09551]},"properties":{"type":"charge","layer":"passenger","locationId":"91145425","name":"Equans Groningen Drenthe Zuidwending 68a","address":"Zuidwending 68a","city":"Veendam","operatorName":"EQUANS","maxPowerKw":11,"isMegawatt":false,"status":"AVAILABLE","source":"ndw"}},{"type":"Feature","geometry":{"type":"Point","coordinates":[6.85489,53.105353]},"properties":{"type":"charge","layer":"passenger","locationId":"91145005","name":"Equans Groningen Drenthe Schoenerstraat 94","address":"Schoenerstraat 94","city":"Veendam","operatorName":"EQUANS","maxPowerKw":11,"isMegawatt":false,"status":"AVAILABLE","source":"ndw"}},{"type":"Feature","geometry":{"type":"Point","coordinates":[6.865556,53.0979]},"properties":{"type":"charge","layer":"passenger","locationId":"91145088","name":"Equans Groningen Drenthe Golf van Riga 51","address":"Golf van Riga 51","city":"Veendam","operatorName":"EQUANS","maxPowerKw":11,"isMegawatt":false,"status":"AVAILABLE","source":"ndw"}},{"type":"Feature","geometry":{"type":"Point","coordinates":[6.872412,53.114236]},"properties":{"type":"charge","layer":"passenger","locationId":"4299190","name":"Laadnet Beneden Westerdiep 32","address":"Beneden Westerdiep 32","city":"Veendam","operatorName":"Laadnet","maxPowerKw":22,"isMegawatt":false,"status":"AVAILABLE","source":"ndw"}},{"type":"Feature","geometry":{"type":"Point","coordinates":[6.874222,53.098198]},"properties":{"type":"charge","layer":"passenger","locationId":"91145459","name":"Equans Groningen Drenthe Boven Oosterdiep 79","address":"Boven Oosterdiep 79","city":"Veendam","operatorName":"EQUANS","maxPowerKw":11,"isMegawatt":false,"status":"CHARGING","source":"ndw"}},{"type":"Feature","geometry":{"type":"Point","coordinates":[6.86579,53.10091]},"properties":{"type":"charge","layer":"passenger","locationId":"91193253","name":"Equans Groningen Drenthe Continentenlaan 21","address":"Continentenlaan 21","city":"Veendam","operatorName":"EQUANS","maxPowerKw":11,"isMegawatt":false,"status":"AVAILABLE","source":"ndw"}},{"type":"Feature","geometry":{"type":"Point","coordinates":[6.889149,53.110299]},"properties":{"type":"charge","layer":"passenger","locationId":"4964","name":"Shell Recharge NL9183 - Gamma Veendam","address":"Lloydsweg 11","city":"Veendam","operatorName":"Shell Recharge","maxPowerKw":150,"isMegawatt":false,"status":"AVAILABLE","source":"ndw","priceKwh":0.7025}},{"type":"Feature","geometry":{"type":"Point","coordinates":[6.862223,53.086661]},"properties":{"type":"charge","layer":"passenger","locationId":"91145447","name":"Equans Groningen Drenthe Woortmanslaan 37","address":"Woortmanslaan 37","city":"Wildervank","operatorName":"EQUANS","maxPowerKw":11,"isMegawatt":false,"status":"AVAILABLE","source":"ndw"}},{"type":"Feature","geometry":{"type":"Point","coordinates":[6.859087,53.090127]},"properties":{"type":"charge","layer":"passenger","locationId":"NLLOC025899","name":"NL, Elshof 12, 9642 HM Veendam","address":"Elshof 12","city":"Veendam","operatorName":"Allego","maxPowerKw":11,"isMegawatt":false,"status":"AVAILABLE","source":"ndw","priceKwh":0.407}},{"type":"Feature","geometry":{"type":"Point","coordinates":[6.8696,53.10572]},"properties":{"type":"charge","layer":"passenger","locationId":"B977F1D9-5DC9-4A8E-87B7-00A59A4018A8","name":"Eneco eMobility ING Bank KRB, Prinsentuin 1, Veendam","address":"Prinsentuin 1","city":"Veendam","operatorName":"Eneco","maxPowerKw":22,"isMegawatt":false,"status":"AVAILABLE","source":"ndw","priceKwh":0.3}},{"type":"Feature","geometry":{"type":"Point","coordinates":[6.851314,53.090158]},"properties":{"type":"charge","layer":"passenger","locationId":"91145298","name":"Equans Groningen Drenthe Delf 10","address":"Delf 10","city":"Veendam","operatorName":"EQUANS","maxPowerKw":11,"isMegawatt":false,"status":"AVAILABLE","source":"ndw"}},{"type":"Feature","geometry":{"type":"Point","coordinates":[6.869069,53.09674]},"properties":{"type":"charge","layer":"passenger","locationId":"91145299","name":"Equans Groningen Drenthe Skager Rak 113","address":"Skager Rak 113","city":"Veendam","operatorName":"EQUANS","maxPowerKw":11,"isMegawatt":false,"status":"AVAILABLE","source":"ndw"}},{"type":"Feature","geometry":{"type":"Point","coordinates":[6.867463,53.0997]},"properties":{"type":"charge","layer":"passenger","locationId":"91145000","name":"Equans Groningen Drenthe Straat Soenda 25","address":"Straat Soenda 25","city":"Veendam","operatorName":"EQUANS","maxPowerKw":11,"isMegawatt":false,"status":"AVAILABLE","source":"ndw"}},{"type":"Feature","geometry":{"type":"Point","coordinates":[6.88681,53.11603]},"properties":{"type":"charge","layer":"passenger","locationId":"91145007","name":"Equans Groningen Drenthe ter Laanstraat 14","address":"ter Laanstraat 14","city":"Veendam","operatorName":"EQUANS","maxPowerKw":11,"isMegawatt":false,"status":"AVAILABLE","source":"ndw"}},{"type":"Feature","geometry":{"type":"Point","coordinates":[6.8628,53.08433]},"properties":{"type":"charge","layer":"passenger","locationId":"91145065","name":"Equans Groningen Drenthe Groen van Prinstererlaan 10","address":"Groen van Prinstererlaan 10","city":"Wildervank","operatorName":"EQUANS","maxPowerKw":11,"isMegawatt":false,"status":"AVAILABLE","source":"ndw"}},{"type":"Feature","geometry":{"type":"Point","coordinates":[6.86866,53.10604]},"properties":{"type":"charge","layer":"passenger","locationId":"91385511","name":"Equans Groningen Drenthe Langeleegte 2","address":"Jan Salwaweg7/Langeleegte 2","city":"Veendam","operatorName":"EQUANS","maxPowerKw":11,"isMegawatt":false,"status":"AVAILABLE","source":"ndw"}},{"type":"Feature","geometry":{"type":"Point","coordinates":[6.860137,53.098523]},"properties":{"type":"charge","layer":"passenger","locationId":"91144997","name":"Equans Groningen Drenthe Pommerse Bocht 29","address":"Pommerse Bocht 29","city":"Veendam","operatorName":"EQUANS","maxPowerKw":11,"isMegawatt":false,"status":"AVAILABLE","source":"ndw"}},{"type":"Feature","geometry":{"type":"Point","coordinates":[6.88594,53.10368]},"properties":{"type":"charge","layer":"passenger","locationId":"91145031","name":"Equans Groningen Drenthe van Stolbergweg 199 B","address":"van Stolbergweg 199 B","city":"Veendam","operatorName":"EQUANS","maxPowerKw":11,"isMegawatt":false,"status":"AVAILABLE","source":"ndw"}},{"type":"Feature","geometry":{"type":"Point","coordinates":[6.89756,53.092807]},"properties":{"type":"charge","layer":"passenger","locationId":"923453","name":"DAE-NL-2000083","address":"Ommelanderwijk 8","city":"Veendam","operatorName":"DAEN Mobility","maxPowerKw":22,"isMegawatt":false,"status":"AVAILABLE","source":"ndw","priceKwh":0.29}},{"type":"Feature","geometry":{"type":"Point","coordinates":[6.859369,53.082158]},"properties":{"type":"charge","layer":"passenger","locationId":"91145408","name":"Equans Groningen Drenthe Nijveenlaan 20","address":"Nijveenlaan 20","city":"Wildervank","operatorName":"EQUANS","maxPowerKw":11,"isMegawatt":false,"status":"AVAILABLE","source":"ndw"}},{"type":"Feature","geometry":{"type":"Point","coordinates":[6.877698,53.112368]},"properties":{"type":"charge","layer":"passenger","locationId":"NLLOC024616","name":"NL, Brink 8, 9645 NM Veendam","address":"Brink 8","city":"Veendam","operatorName":"Allego","maxPowerKw":11,"isMegawatt":false,"status":"AVAILABLE","source":"ndw","priceKwh":0.407}},{"type":"Feature","geometry":{"type":"Point","coordinates":[6.88111,53.10299]},"properties":{"type":"charge","layer":"passenger","locationId":"91145490","name":"Equans Groningen Drenthe Molenstreek 144","address":"Molenstreek 144","city":"Veendam","operatorName":"EQUANS","maxPowerKw":11,"isMegawatt":false,"status":"AVAILABLE","source":"ndw"}},{"type":"Feature","geometry":{"type":"Point","coordinates":[6.882955,53.105275]},"properties":{"type":"charge","layer":"passenger","locationId":"644b883510ac350012bc631a","name":"Alpha Holding 2e","address":"Pieter Sneeuwplein  12","city":"Veendam","operatorName":"E-Flux by Road","maxPowerKw":11,"isMegawatt":false,"status":"AVAILABLE","source":"ndw","priceKwh":0.53}},{"type":"Feature","geometry":{"type":"Point","coordinates":[6.86633,53.1118]},"properties":{"type":"charge","layer":"passenger","locationId":"91246383","name":"Equans Groningen Drenthe Pottenbakkersstraat 2","address":"Pottenbakkersstraat 2","city":"Veendam","operatorName":"EQUANS","maxPowerKw":11,"isMegawatt":false,"status":"AVAILABLE","source":"ndw"}},{"type":"Feature","geometry":{"type":"Point","coordinates":[6.901683,53.090918]},"properties":{"type":"charge","layer":"passenger","locationId":"91145303","name":"Equans Groningen Drenthe Ommelanderwijk 149 A","address":"Ommelanderwijk 149 A","city":"Veendam","operatorName":"EQUANS","maxPowerKw":11,"isMegawatt":false,"status":"AVAILABLE","source":"ndw"}},{"type":"Feature","geometry":{"type":"Point","coordinates":[6.845174,53.052584]},"properties":{"type":"charge","layer":"passenger","locationId":"91460105","name":"Equans Groningen Drenthe Maagdepalmstraat 3","address":"Maagdepalmstraat 3","city":"Wildervank","operatorName":"EQUANS","maxPowerKw":11,"isMegawatt":false,"status":"AVAILABLE","source":"ndw"}},{"type":"Feature","geometry":{"type":"Point","coordinates":[6.86472,53.08406]},"properties":{"type":"charge","layer":"passenger","locationId":"91246378","name":"Equans Groningen Drenthe Mercuriuslaan 51","address":"Mercuriuslaan 51","city":"Wildervank","operatorName":"EQUANS","maxPowerKw":11,"isMegawatt":false,"status":"AVAILABLE","source":"ndw"}},{"type":"Feature","geometry":{"type":"Point","coordinates":[6.869932,53.105166]},"properties":{"type":"charge","layer":"passenger","locationId":"91145494","name":"Equans Groningen Drenthe Boven Westerdiep 23","address":"Boven Westerdiep 23","city":"Veendam","operatorName":"EQUANS","maxPowerKw":11,"isMegawatt":false,"status":"AVAILABLE","source":"ndw"}},{"type":"Feature","geometry":{"type":"Point","coordinates":[6.883911,53.107651]},"properties":{"type":"charge","layer":"passenger","locationId":"NLLOC009396","name":"NLD, Beneden Oosterdiep 87, 9641JB Veendam","address":"Beneden Oosterdiep 87","city":"Veendam","operatorName":"Allego","maxPowerKw":11,"isMegawatt":false,"status":"AVAILABLE","source":"ndw","priceKwh":0.407}},{"type":"Feature","geometry":{"type":"Point","coordinates":[6.856111,53.08952]},"properties":{"type":"charge","layer":"passenger","locationId":"91145333","name":"Equans Groningen Drenthe Gelrelaan 12","address":"Gelrelaan 12","city":"Veendam","operatorName":"EQUANS","maxPowerKw":11,"isMegawatt":false,"status":"AVAILABLE","source":"ndw"}},{"type":"Feature","geometry":{"type":"Point","coordinates":[6.85252,53.09499]},"properties":{"type":"charge","layer":"passenger","locationId":"91277394","name":"Equans Groningen Drenthe Wiemers 31 A","address":"Wiemers 31 A","city":"Veendam","operatorName":"EQUANS","maxPowerKw":11,"isMegawatt":false,"status":"AVAILABLE","source":"ndw"}},{"type":"Feature","geometry":{"type":"Point","coordinates":[6.867321,53.097084]},"properties":{"type":"charge","layer":"passenger","locationId":"NLLOC027046","name":"NL, Lubecker Bocht 12, 9642CP, Veendam","address":"Lubecker Bocht 12","city":"Veendam","operatorName":"Allego","maxPowerKw":11,"isMegawatt":false,"status":"AVAILABLE","source":"ndw","priceKwh":0.407}},{"type":"Feature","geometry":{"type":"Point","coordinates":[6.858716,53.093632]},"properties":{"type":"charge","layer":"passenger","locationId":"NLLOC018087","name":"NL, Noordenveld 4, 9642GG, Veendam","address":"Noordenveld 4","city":"Veendam","operatorName":"Allego","maxPowerKw":11,"isMegawatt":false,"status":"CHARGING","source":"ndw","priceKwh":0.407}},{"type":"Feature","geometry":{"type":"Point","coordinates":[6.859669,53.105463]},"properties":{"type":"charge","layer":"passenger","locationId":"91145293","name":"Equans Groningen Drenthe Oostlaan 39","address":"Oostlaan 39","city":"Veendam","operatorName":"EQUANS","maxPowerKw":11,"isMegawatt":false,"status":"AVAILABLE","source":"ndw"}},{"type":"Feature","geometry":{"type":"Point","coordinates":[6.8628,53.09368]},"properties":{"type":"charge","layer":"passenger","locationId":"91518070","name":"Equans Groningen Drenthe Provincienlaan 49","address":"Provincienlaan 49","city":"Veendam","operatorName":"EQUANS","maxPowerKw":11,"isMegawatt":false,"status":"AVAILABLE","source":"ndw"}},{"type":"Feature","geometry":{"type":"Point","coordinates":[6.861283,53.076992]},"properties":{"type":"charge","layer":"passenger","locationId":"91145365","name":"Equans Groningen Drenthe Raadhuisstraat 10","address":"Raadhuisstraat 10","city":"Wildervank","operatorName":"EQUANS","maxPowerKw":11,"isMegawatt":false,"status":"AVAILABLE","source":"ndw"}},{"type":"Feature","geometry":{"type":"Point","coordinates":[6.877709,53.101397]},"properties":{"type":"charge","layer":"passenger","locationId":"91145420","name":"Equans Groningen Drenthe Van Stolbergweg 2","address":"Van Stolbergweg 2","city":"Veendam","operatorName":"EQUANS","maxPowerKw":11,"isMegawatt":false,"status":"AVAILABLE","source":"ndw"}},{"type":"Feature","geometry":{"type":"Point","coordinates":[6.877808,53.115795]},"properties":{"type":"charge","layer":"passenger","locationId":"91145419","name":"Equans Groningen Drenthe Meezenbroekstraat 72","address":"Meezenbroekstraat 72","city":"Veendam","operatorName":"EQUANS","maxPowerKw":11,"isMegawatt":false,"status":"AVAILABLE","source":"ndw"}},{"type":"Feature","geometry":{"type":"Point","coordinates":[6.849789,53.090604]},"properties":{"type":"charge","layer":"passenger","locationId":"91145458","name":"Equans Groningen Drenthe Delf 50","address":"Delf 50","city":"Veendam","operatorName":"EQUANS","maxPowerKw":11,"isMegawatt":false,"status":"AVAILABLE","source":"ndw"}},{"type":"Feature","geometry":{"type":"Point","coordinates":[6.880968,53.10772]},"properties":{"type":"charge","layer":"passenger","locationId":"91145411","name":"Equans Groningen Drenthe Leliestraat 91","address":"Leliestraat 91","city":"Veendam","operatorName":"EQUANS","maxPowerKw":11,"isMegawatt":false,"status":"AVAILABLE","source":"ndw"}},{"type":"Feature","geometry":{"type":"Point","coordinates":[6.882955,53.105275]},"properties":{"type":"charge","layer":"passenger","locationId":"6449237e300da1001201122a","name":"Alpha Holding 1e","address":"Pieter Sneeuwplein  12","city":"Veendam","operatorName":"E-Flux by Road","maxPowerKw":11,"isMegawatt":false,"status":"AVAILABLE","source":"ndw","priceKwh":0.53}},{"type":"Feature","geometry":{"type":"Point","coordinates":[6.87811,53.10686]},"properties":{"type":"charge","layer":"passenger","locationId":"91145469","name":"Equans Groningen Drenthe Winkler Prins Passage 31","address":"Winkler Prins Passage 31","city":"Veendam","operatorName":"EQUANS","maxPowerKw":11,"isMegawatt":false,"status":"AVAILABLE","source":"ndw"}},{"type":"Feature","geometry":{"type":"Point","coordinates":[6.86573,53.1078]},"properties":{"type":"charge","layer":"passenger","locationId":"91145084","name":"Equans Groningen Drenthe Langeleegte 15","address":"Langeleegte 15","city":"Veendam","operatorName":"EQUANS","maxPowerKw":11,"isMegawatt":false,"status":"AVAILABLE","source":"ndw"}},{"type":"Feature","geometry":{"type":"Point","coordinates":[6.87562,53.110834]},"properties":{"type":"charge","layer":"passenger","locationId":"91145302","name":"Equans Groningen Drenthe Ds. Van Petegemstraat 38","address":"Ds. Van Petegemstraat 38","city":"Veendam","operatorName":"EQUANS","maxPowerKw":11,"isMegawatt":false,"status":"AVAILABLE","source":"ndw"}},{"type":"Feature","geometry":{"type":"MultiPolygon","coordinates":[[[[6.899626888955775,53.12807496050203],[6.934801040341775,53.124144089879465],[6.949835224641686,53.1211704809176],[6.9593386151232615,53.12017758736349],[6.961734843129465,53.11002298080527],[6.96078451595888,53.09743187912793],[6.960597858037982,53.09580298829076],[6.959381835956136,53.094938359898556],[6.958397008612069,53.09526832959427],[6.957951279428751,53.09435649735948],[6.95689061692459,53.09471229703337],[6.955409293386203,53.09327250800733],[6.943836279419047,53.081915762036076],[6.936892980176925,53.07742345191492],[6.93059442864771,53.07285317336055],[6.929605938224687,53.07336559013501],[6.9290942114834975,53.071830633062696],[6.924440486543673,53.05777895679972],[6.933021928635513,53.05358926483296],[6.933343582005365,53.04961425711573],[6.91990496360395,53.049313637144394],[6.920629187696382,53.04525654030481],[6.905525020283459,53.04363095511507],[6.907702777935259,53.03888239720366],[6.901891466845637,53.03554499957966],[6.903334103158908,53.034366472776796],[6.898931090341661,53.03240787669624],[6.881443419525738,53.046620259695096],[6.868641304863206,53.041285574922355],[6.8654947128740735,53.04289816926448],[6.865103615827142,53.042809298236975],[6.861287460073183,53.04087542218978],[6.8432730407444105,53.05234563601794],[6.837170412513121,53.056229857404624],[6.814535520075113,53.070599471400044],[6.813944731272462,53.070972995969065],[6.808450435272496,53.09228099473467],[6.806959564396162,53.09825662139778],[6.80167376014822,53.119173045982855],[6.80598789670201,53.120327316834874],[6.803239328146138,53.124091041813216],[6.815805706992542,53.12742371399649],[6.821168793194245,53.12883304126793],[6.823100884600209,53.126220388399204],[6.851541894512583,53.12502254983518],[6.8651587005920955,53.12442259681658],[6.865928621942043,53.12438872415294],[6.865957705028965,53.12392953743342],[6.874123541495077,53.123548751689455],[6.8742925169031555,53.125369881165305],[6.878618886868825,53.1251501688297],[6.878939185791017,53.12582322665723],[6.8800169962381785,53.125649069592505],[6.8828146389389735,53.12519689117073],[6.883026572567772,53.12581870767073],[6.884268390731375,53.125617830303725],[6.885047105425775,53.127427103674194],[6.886253172857217,53.12860095650454],[6.894717328562459,53.127855249110425],[6.897099350065821,53.12757958238598],[6.897039412226348,53.12849567023545],[6.898942947136066,53.12816478445261],[6.899626888955775,53.12807496050203]]]]},"properties":{"type":"boundary","gemeente":"Veendam","code":"GM0047"}}]}