{"type":"FeatureCollection","metadata":{"gemeente":"Waddinxveen","slug":"waddinxveen","code":"GM0627","generated_at":"2026-07-06T16:26:11.361Z","total_passenger":200,"total_freight":2,"bounds":[4.5910888292957095,52.011680293604726,4.706038988986196,52.07704601591232],"operators":["Allego","Blink Charging","ChargePoint","E-Flux by Road","EQUANS","Eneco","Kia Nederland B.V.","Laadnet","Laadsnel","Milence"]},"features":[{"type":"Feature","geometry":{"type":"Point","coordinates":[4.645414,52.039779]},"properties":{"type":"charge","layer":"passenger","locationId":"90189589","name":"EQUANS SGZH 2.0 Limaweg 3","address":"Limaweg 3","city":"Waddinxveen","operatorName":"EQUANS","maxPowerKw":11,"isMegawatt":false,"status":"AVAILABLE","source":"ndw"}},{"type":"Feature","geometry":{"type":"Point","coordinates":[4.646175,52.039573]},"properties":{"type":"charge","layer":"passenger","locationId":"NLLOC027877","name":"NL, Limaweg 49, 2743 CC Waddinxveen","address":"Limaweg 49","city":"Waddinxveen","operatorName":"Allego","maxPowerKw":11,"isMegawatt":false,"status":"AVAILABLE","source":"ndw","priceKwh":0.511}},{"type":"Feature","geometry":{"type":"Point","coordinates":[4.648228,52.03555]},"properties":{"type":"charge","layer":"passenger","locationId":"NLLOC008327","name":"NL, Molenzigt 2, 2742PH, Waddinxveen","address":"Molenzigt 2","city":"Waddinxveen","operatorName":"Allego","maxPowerKw":11,"isMegawatt":false,"status":"AVAILABLE","source":"ndw","priceKwh":0.511}},{"type":"Feature","geometry":{"type":"Point","coordinates":[4.646363,52.052557]},"properties":{"type":"charge","layer":"passenger","locationId":"NLLOC001503","name":"NLD, Waddinxveen, Lindengaarde 32","address":"Lindengaarde 32","city":"Waddinxveen","operatorName":"Allego","maxPowerKw":11,"isMegawatt":false,"status":"AVAILABLE","source":"ndw","priceKwh":0.511}},{"type":"Feature","geometry":{"type":"Point","coordinates":[4.636209,52.03881]},"properties":{"type":"charge","layer":"passenger","locationId":"89192973","name":"EQUANS SGZH 2.0 89192973","address":"Zuidplaslaan 114","city":"Waddinxveen","operatorName":"EQUANS","maxPowerKw":11,"isMegawatt":false,"status":"AVAILABLE","source":"ndw"}},{"type":"Feature","geometry":{"type":"Point","coordinates":[4.64745,52.054017]},"properties":{"type":"charge","layer":"passenger","locationId":"NLLOC001501","name":"NLD, Waddinxveen, Sparrengaarde 7","address":"Sparrengaarde 7","city":"Waddinxveen","operatorName":"Allego","maxPowerKw":11,"isMegawatt":false,"status":"AVAILABLE","source":"ndw","priceKwh":0.511}},{"type":"Feature","geometry":{"type":"Point","coordinates":[4.638612,52.035081]},"properties":{"type":"charge","layer":"passenger","locationId":"89942959","name":"EQUANS SGZH 2.0 89942959","address":"Kuyperhoeve 70","city":"Waddinxveen","operatorName":"EQUANS","maxPowerKw":11,"isMegawatt":false,"status":"AVAILABLE","source":"ndw"}},{"type":"Feature","geometry":{"type":"Point","coordinates":[4.655987,52.033442]},"properties":{"type":"charge","layer":"passenger","locationId":"89329930","name":"EQUANS SGZH 2.0 89329930","address":"Junolaan 1","city":"Waddinxveen","operatorName":"EQUANS","maxPowerKw":17,"isMegawatt":false,"status":"AVAILABLE","source":"ndw"}},{"type":"Feature","geometry":{"type":"Point","coordinates":[4.632922,52.032816]},"properties":{"type":"charge","layer":"passenger","locationId":"89445025","name":"EQUANS SGZH 2.0 89445025","address":"Zonnesingel 32","city":"Waddinxveen","operatorName":"EQUANS","maxPowerKw":11,"isMegawatt":false,"status":"AVAILABLE","source":"ndw"}},{"type":"Feature","geometry":{"type":"Point","coordinates":[4.655704,52.049926]},"properties":{"type":"charge","layer":"passenger","locationId":"90300319","name":"EQUANS SGZH 2.0 Mauritslaan 26","address":"Mauritslaan 26","city":"Waddinxveen","operatorName":"EQUANS","maxPowerKw":11,"isMegawatt":false,"status":"CHARGING","source":"ndw"}},{"type":"Feature","geometry":{"type":"Point","coordinates":[4.630806,52.016406]},"properties":{"type":"charge","layer":"passenger","locationId":"663e0090ae91c5001c9e2afe","name":"Waddinxveen K1","address":"Transportweg 32","city":"Waddinxveen","operatorName":"E-Flux by Road","maxPowerKw":11,"isMegawatt":false,"status":"AVAILABLE","source":"ndw","priceKwh":0.54}},{"type":"Feature","geometry":{"type":"Point","coordinates":[4.615227,52.02739]},"properties":{"type":"charge","layer":"passenger","locationId":"4fd3f683-cce2-46fe-893b-8cc4ed51f197","name":"P095.A - Isero - Montea","address":"Dirk Verheulweg 3","city":"Waddinxveen","operatorName":"Blink Charging","maxPowerKw":22,"isMegawatt":false,"status":"UNAVAILABLE","source":"ndw","priceKwh":0.2}},{"type":"Feature","geometry":{"type":"Point","coordinates":[4.652664,52.025742]},"properties":{"type":"charge","layer":"passenger","locationId":"NLCPIL7234935","name":"LKQ NL WADDINXVEEN 3","address":"320 Coenecoop","city":"Waddinxveen","operatorName":"ChargePoint","maxPowerKw":22,"isMegawatt":false,"status":"CHARGING","source":"ndw","priceKwh":0.5}},{"type":"Feature","geometry":{"type":"Point","coordinates":[4.645736,52.023968]},"properties":{"type":"charge","layer":"passenger","locationId":"89954331","name":"EQUANS SGZH 2.0 89954331","address":"Brasem 4","city":"Waddinxveen","operatorName":"EQUANS","maxPowerKw":11,"isMegawatt":false,"status":"AVAILABLE","source":"ndw"}},{"type":"Feature","geometry":{"type":"Point","coordinates":[4.653831,52.028465]},"properties":{"type":"charge","layer":"passenger","locationId":"2647141","name":"Laadnet CC87A-01","address":"Coenecoop 87a","city":"Waddinxveen","operatorName":"Laadnet","maxPowerKw":22,"isMegawatt":false,"status":"AVAILABLE","source":"ndw"}},{"type":"Feature","geometry":{"type":"Point","coordinates":[4.63922,52.02737]},"properties":{"type":"charge","layer":"passenger","locationId":"91172307","name":"EQUANS SGZH 2.0 Laan van Hout 101","address":"Laan van Hout 101","city":"2742NW","operatorName":"EQUANS","maxPowerKw":11,"isMegawatt":false,"status":"CHARGING","source":"ndw"}},{"type":"Feature","geometry":{"type":"Point","coordinates":[4.643714,52.052422]},"properties":{"type":"charge","layer":"passenger","locationId":"90360705","name":"EQUANS SGZH 2.0 Peuleyen 110","address":"Peuleyen 110","city":"Waddinxveen","operatorName":"EQUANS","maxPowerKw":11,"isMegawatt":false,"status":"AVAILABLE","source":"ndw"}},{"type":"Feature","geometry":{"type":"Point","coordinates":[4.630806,52.016406]},"properties":{"type":"charge","layer":"passenger","locationId":"663e158a0f4975001cce4ccb","name":"Waddinxveen K8","address":"Transportweg 32","city":"Waddinxveen","operatorName":"E-Flux by Road","maxPowerKw":11,"isMegawatt":false,"status":"AVAILABLE","source":"ndw","priceKwh":0.54}},{"type":"Feature","geometry":{"type":"Point","coordinates":[4.643881,52.025345]},"properties":{"type":"charge","layer":"passenger","locationId":"89445007","name":"EQUANS SGZH 2.0 89445007","address":"Meerval 28","city":"Waddinxveen","operatorName":"EQUANS","maxPowerKw":17,"isMegawatt":false,"status":"AVAILABLE","source":"ndw"}},{"type":"Feature","geometry":{"type":"Point","coordinates":[4.630806,52.016406]},"properties":{"type":"charge","layer":"passenger","locationId":"663e17153f8198001c2cdbd2","name":"Waddinxveen K9","address":"Transportweg  32","city":"Waddinxveen","operatorName":"E-Flux by Road","maxPowerKw":11,"isMegawatt":false,"status":"AVAILABLE","source":"ndw","priceKwh":0.54}},{"type":"Feature","geometry":{"type":"Point","coordinates":[4.657976,52.039377]},"properties":{"type":"charge","layer":"passenger","locationId":"NLLOC003811","name":"NLD Zuidkade 56, 2741 JC Waddinxveen","address":"Zuidkade 56","city":"Waddinxveen","operatorName":"Allego","maxPowerKw":11,"isMegawatt":false,"status":"AVAILABLE","source":"ndw","priceKwh":0.511}},{"type":"Feature","geometry":{"type":"Point","coordinates":[4.640909,52.035358]},"properties":{"type":"charge","layer":"passenger","locationId":"NLLOC005127","name":"NLD De Akker 129 2743DT Waddinxveen","address":"NLD De Akker 129","city":"Waddinxveen","operatorName":"Allego","maxPowerKw":11,"isMegawatt":false,"status":"AVAILABLE","source":"ndw","priceKwh":0.511}},{"type":"Feature","geometry":{"type":"Point","coordinates":[4.642371,52.027213]},"properties":{"type":"charge","layer":"passenger","locationId":"90266712","name":"EQUANS SGZH 2.0 Olijfhout 21","address":"Olijfhout 21","city":"Waddinxveen","operatorName":"EQUANS","maxPowerKw":11,"isMegawatt":false,"status":"CHARGING","source":"ndw"}},{"type":"Feature","geometry":{"type":"Point","coordinates":[4.656344,52.038868]},"properties":{"type":"charge","layer":"passenger","locationId":"NLLOC006610","name":"NL, Watermolen 14, 2741 MP, Waddinxveen","address":"Watermolen 14","city":"Waddinxveen","operatorName":"Allego","maxPowerKw":11,"isMegawatt":false,"status":"AVAILABLE","source":"ndw","priceKwh":0.511}},{"type":"Feature","geometry":{"type":"Point","coordinates":[4.656914,52.033553]},"properties":{"type":"charge","layer":"passenger","locationId":"NLLOC006638","name":"NL, Jupiterlaan 1, 2741 TH, Waddinxveen","address":"Jupiterlaan 1","city":"Waddinxveen","operatorName":"Allego","maxPowerKw":11,"isMegawatt":false,"status":"CHARGING","source":"ndw","priceKwh":0.511}},{"type":"Feature","geometry":{"type":"Point","coordinates":[4.661332,52.028053]},"properties":{"type":"charge","layer":"passenger","locationId":"4208961","name":"Laadnet Van Wijk Railinfra B.V.","address":"Sint Victorstraat 61","city":"Waddinxveen","operatorName":"Laadnet","maxPowerKw":22,"isMegawatt":false,"status":"UNAVAILABLE","source":"ndw"}},{"type":"Feature","geometry":{"type":"Point","coordinates":[4.657583,52.036479]},"properties":{"type":"charge","layer":"passenger","locationId":"89606405","name":"EQUANS SGZH 2.0 89606405","address":"Burgemeester Trooststraat 1","city":"Waddinxveen","operatorName":"EQUANS","maxPowerKw":11,"isMegawatt":false,"status":"AVAILABLE","source":"ndw"}},{"type":"Feature","geometry":{"type":"Point","coordinates":[4.65368,52.027705]},"properties":{"type":"charge","layer":"passenger","locationId":"69d8b43e17a88b10938c986b","name":"de Kruijf Trappen 2.2","address":"Coenecoop 79","city":"Waddinxveen","operatorName":"E-Flux by Road","maxPowerKw":22,"isMegawatt":false,"status":"AVAILABLE","source":"ndw","priceKwh":0.48}},{"type":"Feature","geometry":{"type":"Point","coordinates":[4.650499,52.027904]},"properties":{"type":"charge","layer":"passenger","locationId":"2499607","name":"Laadnet Van Noort Bedrijven B.V.","address":"Coenecoop 450","city":"Waddinxveen","operatorName":"Laadnet","maxPowerKw":22,"isMegawatt":false,"status":"AVAILABLE","source":"ndw"}},{"type":"Feature","geometry":{"type":"Point","coordinates":[4.649916,52.032192]},"properties":{"type":"charge","layer":"passenger","locationId":"3964772","name":"Laadnet Flexcom Hub-Laadpunt","address":"Coenecoop 12","city":"Waddinxveen","operatorName":"Laadnet","maxPowerKw":22,"isMegawatt":false,"status":"UNAVAILABLE","source":"ndw"}},{"type":"Feature","geometry":{"type":"Point","coordinates":[4.636628,52.033593]},"properties":{"type":"charge","layer":"passenger","locationId":"90960868","name":"EQUANS SGZH 2.0 Schaepmanhoeve 73","address":"Schaepmanhoeve 73","city":"Waddinxveen","operatorName":"EQUANS","maxPowerKw":11,"isMegawatt":false,"status":"AVAILABLE","source":"ndw"}},{"type":"Feature","geometry":{"type":"Point","coordinates":[4.631158,52.033627]},"properties":{"type":"charge","layer":"passenger","locationId":"NLLOC005345","name":"NLD, Zonnehof 54 2743LP Waddinxveen","address":"Zonnehof 54","city":"Waddinxveen","operatorName":"Allego","maxPowerKw":11,"isMegawatt":false,"status":"AVAILABLE","source":"ndw","priceKwh":0.511}},{"type":"Feature","geometry":{"type":"Point","coordinates":[4.663036,52.056755]},"properties":{"type":"charge","layer":"passenger","locationId":"90111898","name":"EQUANS SGZH 2.0 Noordkade 239","address":"Noordkade 239","city":"Waddinxveen","operatorName":"EQUANS","maxPowerKw":11,"isMegawatt":false,"status":"AVAILABLE","source":"ndw"}},{"type":"Feature","geometry":{"type":"Point","coordinates":[4.639185,52.031987]},"properties":{"type":"charge","layer":"passenger","locationId":"89407209","name":"EQUANS SGZH 2.0 89407209","address":"Honingbij 73","city":"Waddinxveen","operatorName":"EQUANS","maxPowerKw":11,"isMegawatt":false,"status":"AVAILABLE","source":"ndw"}},{"type":"Feature","geometry":{"type":"Point","coordinates":[4.64373,52.035537]},"properties":{"type":"charge","layer":"passenger","locationId":"NLLOC008281","name":"NL, Adrianahoeve 23, 2742 PL, Waddinxveen","address":"Adrianahoeve 23","city":"Waddinxveen","operatorName":"Allego","maxPowerKw":11,"isMegawatt":false,"status":"CHARGING","source":"ndw","priceKwh":0.511}},{"type":"Feature","geometry":{"type":"Point","coordinates":[4.642604,52.048933]},"properties":{"type":"charge","layer":"passenger","locationId":"693467d9751f26152307482d","name":"Van Drie","address":"Wagnerlaan 7","city":"Waddinxveen","operatorName":"E-Flux by Road","maxPowerKw":22,"isMegawatt":false,"status":"AVAILABLE","source":"ndw","priceKwh":1.03}},{"type":"Feature","geometry":{"type":"Point","coordinates":[4.650093,52.04148]},"properties":{"type":"charge","layer":"passenger","locationId":"NLLOC001502","name":"NLD, Waddinxveen, Spoorpad 160","address":"Spoorpad 160","city":"Waddinxveen","operatorName":"Allego","maxPowerKw":22,"isMegawatt":false,"status":"AVAILABLE","source":"ndw","priceKwh":0.511}},{"type":"Feature","geometry":{"type":"Point","coordinates":[4.652629,52.04689]},"properties":{"type":"charge","layer":"passenger","locationId":"89329928","name":"EQUANS SGZH 2.0 Prins Bernhardlaan 79","address":"Prins Bernhardlaan 79","city":"Waddinxveen","operatorName":"EQUANS","maxPowerKw":17,"isMegawatt":false,"status":"CHARGING","source":"ndw"}},{"type":"Feature","geometry":{"type":"Point","coordinates":[4.648618,52.04742]},"properties":{"type":"charge","layer":"passenger","locationId":"89604296","name":"EQUANS SGZH 2.0 89604296","address":"Peter Zuidlaan 6","city":"Waddinxveen","operatorName":"EQUANS","maxPowerKw":11,"isMegawatt":false,"status":"AVAILABLE","source":"ndw"}},{"type":"Feature","geometry":{"type":"Point","coordinates":[4.646,52.03134]},"properties":{"type":"charge","layer":"passenger","locationId":"91167876","name":"EQUANS SGZH 2.0 Hugo Poortmanstraat 9","address":"Hugo Poortmanstraat 9","city":"Waddinxveen","operatorName":"EQUANS","maxPowerKw":11,"isMegawatt":false,"status":"AVAILABLE","source":"ndw"}},{"type":"Feature","geometry":{"type":"Point","coordinates":[4.65022,52.04368]},"properties":{"type":"charge","layer":"passenger","locationId":"91141241","name":"EQUANS SGZH 2.0 Spoorpad 12","address":"Spoorpad 12","city":"Waddinxveen","operatorName":"EQUANS","maxPowerKw":11,"isMegawatt":false,"status":"AVAILABLE","source":"ndw"}},{"type":"Feature","geometry":{"type":"Point","coordinates":[4.638556,52.041543]},"properties":{"type":"charge","layer":"passenger","locationId":"90098213","name":"EQUANS SGZH 2.0 Machtelderf 2","address":"Machtelderf 2","city":"Waddinxveen","operatorName":"EQUANS","maxPowerKw":11,"isMegawatt":false,"status":"AVAILABLE","source":"ndw"}},{"type":"Feature","geometry":{"type":"Point","coordinates":[4.650922,52.032864]},"properties":{"type":"charge","layer":"passenger","locationId":"672dfa66445dde83cc39c4a3","name":"Woonpartners Midden-Holland","address":"Coenecoop 6","city":"Waddinxveen","operatorName":"Laadsnel","maxPowerKw":22,"isMegawatt":false,"status":"AVAILABLE","source":"ndw","priceKwh":0.27}},{"type":"Feature","geometry":{"type":"Point","coordinates":[4.639847,52.032354]},"properties":{"type":"charge","layer":"passenger","locationId":"6804c4fe8a039ab451f7eb0f","name":"Zaptec (73)","address":"Polderlaan 177","city":"Waddinxveen","operatorName":"E-Flux by Road","maxPowerKw":22,"isMegawatt":false,"status":"UNAVAILABLE","source":"ndw"}},{"type":"Feature","geometry":{"type":"Point","coordinates":[4.63645,52.04569]},"properties":{"type":"charge","layer":"passenger","locationId":"91144807","name":"EQUANS SGZH 2.0 Onderweg 65","address":"Onderweg 65","city":"Waddinxveen","operatorName":"EQUANS","maxPowerKw":11,"isMegawatt":false,"status":"AVAILABLE","source":"ndw"}},{"type":"Feature","geometry":{"type":"Point","coordinates":[4.630806,52.016406]},"properties":{"type":"charge","layer":"passenger","locationId":"663e11b165617b001d74073c","name":"Waddinxveen K4","address":"Transportweg 32","city":"Waddinxveen","operatorName":"E-Flux by Road","maxPowerKw":11,"isMegawatt":false,"status":"AVAILABLE","source":"ndw","priceKwh":0.54}},{"type":"Feature","geometry":{"type":"Point","coordinates":[4.643267,52.051645]},"properties":{"type":"charge","layer":"passenger","locationId":"NLLOC003093","name":"NLD, Peuleyen 68, 2742 EK Waddinxveen","address":"Peuleyen 68","city":"Waddinxveen","operatorName":"Allego","maxPowerKw":11,"isMegawatt":false,"status":"AVAILABLE","source":"ndw","priceKwh":0.511}},{"type":"Feature","geometry":{"type":"Point","coordinates":[4.654845,52.045264]},"properties":{"type":"charge","layer":"passenger","locationId":"NLENV6","name":"Supertank Waddinxveen","address":"Juliana van Stolberglaan 1","city":"Waddinxveen","operatorName":"","maxPowerKw":50,"isMegawatt":false,"status":"AVAILABLE","source":"ndw","priceKwh":0.74}},{"type":"Feature","geometry":{"type":"Point","coordinates":[4.64631,52.048859]},"properties":{"type":"charge","layer":"passenger","locationId":"89238119","name":"EQUANS SGZH 2.0 89238119","address":"Sweelinckhof 51","city":"Waddinxveen","operatorName":"EQUANS","maxPowerKw":11,"isMegawatt":false,"status":"AVAILABLE","source":"ndw"}},{"type":"Feature","geometry":{"type":"Point","coordinates":[4.645205,52.057381]},"properties":{"type":"charge","layer":"passenger","locationId":"89596221","name":"EQUANS SGZH 2.0 Papaverveld 25","address":"Papaverveld 25","city":"Waddinxveen","operatorName":"EQUANS","maxPowerKw":11,"isMegawatt":false,"status":"UNAVAILABLE","source":"ndw"}},{"type":"Feature","geometry":{"type":"Point","coordinates":[4.65759,52.0456]},"properties":{"type":"charge","layer":"passenger","locationId":"91007018","name":"EQUANS SGZH 2.0 Oranjelaan 7 C","address":"Oranjelaan 7 C","city":"Waddinxveen","operatorName":"EQUANS","maxPowerKw":11,"isMegawatt":false,"status":"CHARGING","source":"ndw"}},{"type":"Feature","geometry":{"type":"Point","coordinates":[4.630806,52.016406]},"properties":{"type":"charge","layer":"passenger","locationId":"663e12accf842c001c5f9400","name":"Waddinxveen K5","address":"Transportweg  32","city":"Waddinxveen","operatorName":"E-Flux by Road","maxPowerKw":11,"isMegawatt":false,"status":"AVAILABLE","source":"ndw","priceKwh":0.54}},{"type":"Feature","geometry":{"type":"Point","coordinates":[4.653763,52.027651]},"properties":{"type":"charge","layer":"passenger","locationId":"69d8b276af3df745fe57d0c5","name":"De Kruijf Trappen 1.1","address":"Coenecoop 79","city":"Waddinxveen","operatorName":"E-Flux by Road","maxPowerKw":22,"isMegawatt":false,"status":"AVAILABLE","source":"ndw","priceKwh":0.48}},{"type":"Feature","geometry":{"type":"Point","coordinates":[4.612129,52.025827]},"properties":{"type":"charge","layer":"passenger","locationId":"6a45221123dc66be638103bd","name":"De Wild Group B.V. 1/2","address":"Dirk Verheulweg 150","city":"Waddinxveen","operatorName":"E-Flux by Road","maxPowerKw":11,"isMegawatt":false,"status":"AVAILABLE","source":"ndw","priceKwh":0.38}},{"type":"Feature","geometry":{"type":"Point","coordinates":[4.630806,52.016406]},"properties":{"type":"charge","layer":"passenger","locationId":"663e1480fbb885001c2fd640","name":"Waddinxveen K7","address":"Transportweg 32","city":"Waddinxveen","operatorName":"E-Flux by Road","maxPowerKw":11,"isMegawatt":false,"status":"AVAILABLE","source":"ndw","priceKwh":0.54}},{"type":"Feature","geometry":{"type":"Point","coordinates":[4.653593,52.056931]},"properties":{"type":"charge","layer":"passenger","locationId":"90365775","name":"EQUANS SGZH 2.0 Nic. Beetslaan 25","address":"Nic. Beetslaan 25","city":"Waddinxveen","operatorName":"EQUANS","maxPowerKw":11,"isMegawatt":false,"status":"AVAILABLE","source":"ndw"}},{"type":"Feature","geometry":{"type":"Point","coordinates":[4.64838,52.05198]},"properties":{"type":"charge","layer":"passenger","locationId":"91193586","name":"EQUANS SGZH 2.0 Peppelhorst 8","address":"Peppelhorst 8","city":"Waddinxveen","operatorName":"EQUANS","maxPowerKw":11,"isMegawatt":false,"status":"CHARGING","source":"ndw"}},{"type":"Feature","geometry":{"type":"Point","coordinates":[4.65794,52.04185]},"properties":{"type":"charge","layer":"passenger","locationId":"90885441","name":"EQUANS SGZH 2.0 Alpherwetering 2","address":"Alpherwetering 2","city":"Waddinxveen","operatorName":"EQUANS","maxPowerKw":11,"isMegawatt":false,"status":"CHARGING","source":"ndw"}},{"type":"Feature","geometry":{"type":"Point","coordinates":[4.642869,52.039531]},"properties":{"type":"charge","layer":"passenger","locationId":"NLLOC003431","name":"NLD Kievitdreef 43, 2743 EG Waddinxveen","address":"Kievitdreef 43","city":"Waddinxveen","operatorName":"Allego","maxPowerKw":11,"isMegawatt":false,"status":"AVAILABLE","source":"ndw","priceKwh":0.511}},{"type":"Feature","geometry":{"type":"Point","coordinates":[4.67533,52.03796]},"properties":{"type":"charge","layer":"passenger","locationId":"525688E7-2B94-4E80-8434-234D6EC13558","name":"Eneco eMobility Coenecoopweg 3b1 Waddinxveen","address":"Coenecoopweg 3b1","city":"Waddinxveen","operatorName":"Eneco","maxPowerKw":22,"isMegawatt":false,"status":"AVAILABLE","source":"ndw","priceKwh":0.32}},{"type":"Feature","geometry":{"type":"Point","coordinates":[4.64309,52.02792]},"properties":{"type":"charge","layer":"passenger","locationId":"91144803","name":"EQUANS SGZH 2.0 Ebbenhout 90","address":"Ebbenhout 90","city":"Waddinxveen","operatorName":"EQUANS","maxPowerKw":11,"isMegawatt":false,"status":"AVAILABLE","source":"ndw"}},{"type":"Feature","geometry":{"type":"Point","coordinates":[4.646842,52.033741]},"properties":{"type":"charge","layer":"passenger","locationId":"89927125","name":"EQUANS SGZH 2.0 89927125","address":"Ganzerik 42","city":"Waddinxveen","operatorName":"EQUANS","maxPowerKw":11,"isMegawatt":false,"status":"AVAILABLE","source":"ndw"}},{"type":"Feature","geometry":{"type":"Point","coordinates":[4.64498,52.029499]},"properties":{"type":"charge","layer":"passenger","locationId":"89927126","name":"EQUANS SGZH 2.0 89927126","address":"Renske Boonstraat 141","city":"Waddinxveen","operatorName":"EQUANS","maxPowerKw":11,"isMegawatt":false,"status":"AVAILABLE","source":"ndw"}},{"type":"Feature","geometry":{"type":"Point","coordinates":[4.634636,52.017688]},"properties":{"type":"charge","layer":"passenger","locationId":"2686614","name":"Laadnet Delta Wines B.V.","address":"Exportweg 8","city":"Waddinxveen","operatorName":"Laadnet","maxPowerKw":22,"isMegawatt":false,"status":"AVAILABLE","source":"ndw"}},{"type":"Feature","geometry":{"type":"Point","coordinates":[4.6446,52.03237]},"properties":{"type":"charge","layer":"passenger","locationId":"90983530","name":"EQUANS SGZH 2.0 Ganzerik 114","address":"Ganzerik 114","city":"Waddinxveen","operatorName":"EQUANS","maxPowerKw":11,"isMegawatt":false,"status":"AVAILABLE","source":"ndw"}},{"type":"Feature","geometry":{"type":"Point","coordinates":[4.644634,52.051444]},"properties":{"type":"charge","layer":"passenger","locationId":"90827427","name":"EQUANS SGZH 2.0 Akkerwinde 4","address":"Akkerwinde 4","city":"Waddinxveen","operatorName":"EQUANS","maxPowerKw":11,"isMegawatt":false,"status":"AVAILABLE","source":"ndw"}},{"type":"Feature","geometry":{"type":"Point","coordinates":[4.636917,52.034756]},"properties":{"type":"charge","layer":"passenger","locationId":"NLLOC015975","name":"NL, Kuyperhoeve 31, 2743JM, Waddinxveen","address":"Kuyperhoeve 31","city":"Waddinxveen","operatorName":"Allego","maxPowerKw":11,"isMegawatt":false,"status":"AVAILABLE","source":"ndw","priceKwh":0.511}},{"type":"Feature","geometry":{"type":"Point","coordinates":[4.648348,52.053026]},"properties":{"type":"charge","layer":"passenger","locationId":"90386346","name":"EQUANS SGZH 2.0 Wilgenhorst 8","address":"Wilgenhorst 8","city":"Waddinxveen","operatorName":"EQUANS","maxPowerKw":11,"isMegawatt":false,"status":"AVAILABLE","source":"ndw"}},{"type":"Feature","geometry":{"type":"Point","coordinates":[4.653685,52.027702]},"properties":{"type":"charge","layer":"passenger","locationId":"69d8b3cfce4b9fde90e76cdf","name":"de Kruijf Trappen 2.1","address":"Coenecoop 79","city":"Waddinxveen","operatorName":"E-Flux by Road","maxPowerKw":22,"isMegawatt":false,"status":"AVAILABLE","source":"ndw","priceKwh":0.48}},{"type":"Feature","geometry":{"type":"Point","coordinates":[4.637222,52.04024]},"properties":{"type":"charge","layer":"passenger","locationId":"NLLOC001507","name":"NLD, Waddinxveen, Zuidplaslaan 50","address":"Zuidplaslaan 50","city":"Waddinxveen","operatorName":"Allego","maxPowerKw":11,"isMegawatt":false,"status":"AVAILABLE","source":"ndw","priceKwh":0.511}},{"type":"Feature","geometry":{"type":"Point","coordinates":[4.644066,52.038422]},"properties":{"type":"charge","layer":"passenger","locationId":"89479544","name":"EQUANS SGZH 2.0 89479544","address":"Eksterdreef 9","city":"Waddinxveen","operatorName":"EQUANS","maxPowerKw":11,"isMegawatt":false,"status":"AVAILABLE","source":"ndw"}},{"type":"Feature","geometry":{"type":"Point","coordinates":[4.626915,52.034864]},"properties":{"type":"charge","layer":"passenger","locationId":"89329939","name":"EQUANS SGZH 2.0 89329939","address":"Noorderlicht 5","city":"Waddinxveen","operatorName":"EQUANS","maxPowerKw":17,"isMegawatt":false,"status":"AVAILABLE","source":"ndw"}},{"type":"Feature","geometry":{"type":"Point","coordinates":[4.661764,52.053747]},"properties":{"type":"charge","layer":"passenger","locationId":"89615418","name":"EQUANS SGZH 2.0 89615418","address":"Noordkade 157","city":"Waddinxveen","operatorName":"EQUANS","maxPowerKw":11,"isMegawatt":false,"status":"AVAILABLE","source":"ndw"}},{"type":"Feature","geometry":{"type":"Point","coordinates":[4.630806,52.016406]},"properties":{"type":"charge","layer":"passenger","locationId":"663e13e4dafc19001c210c05","name":"Waddinxveen K6","address":"Transportweg 32","city":"Waddinxveen","operatorName":"E-Flux by Road","maxPowerKw":11,"isMegawatt":false,"status":"AVAILABLE","source":"ndw","priceKwh":0.54}},{"type":"Feature","geometry":{"type":"Point","coordinates":[4.651355,52.02418]},"properties":{"type":"charge","layer":"passenger","locationId":"65a55c4c5ec16b001cd357d8","name":"C de Rooij 's station","address":"coenecoop  665","city":"Waddinxveen","operatorName":"E-Flux by Road","maxPowerKw":11,"isMegawatt":false,"status":"AVAILABLE","source":"ndw","priceKwh":0.38}},{"type":"Feature","geometry":{"type":"Point","coordinates":[4.619318,52.02049]},"properties":{"type":"charge","layer":"passenger","locationId":"65ca1a4b729164001cbe5c5b","name":"Boba Supply BV","address":"Tweede Bloksweg  72A","city":"Waddinxveen","operatorName":"E-Flux by Road","maxPowerKw":22,"isMegawatt":false,"status":"AVAILABLE","source":"ndw","priceKwh":0.41}},{"type":"Feature","geometry":{"type":"Point","coordinates":[4.635103,52.039558]},"properties":{"type":"charge","layer":"passenger","locationId":"89954361","name":"EQUANS SGZH 2.0 89954361","address":"Otto-erf 11","city":"Waddinxveen","operatorName":"EQUANS","maxPowerKw":11,"isMegawatt":false,"status":"AVAILABLE","source":"ndw"}},{"type":"Feature","geometry":{"type":"Point","coordinates":[4.661455,52.056374]},"properties":{"type":"charge","layer":"passenger","locationId":"NLLOC002232","name":"NLD, Willem Kloosstraat 2, Waddinxveen","address":"Willem Kloosstraat 2","city":"Waddinxveen","operatorName":"Allego","maxPowerKw":11,"isMegawatt":false,"status":"AVAILABLE","source":"ndw","priceKwh":0.511}},{"type":"Feature","geometry":{"type":"Point","coordinates":[4.630779,52.016465]},"properties":{"type":"charge","layer":"passenger","locationId":"663e1889115599001c573ae2","name":"Waddinxveen K10","address":"Transportweg 32","city":"Waddinxveen","operatorName":"E-Flux by Road","maxPowerKw":11,"isMegawatt":false,"status":"AVAILABLE","source":"ndw","priceKwh":0.54}},{"type":"Feature","geometry":{"type":"Point","coordinates":[4.644453,52.042144]},"properties":{"type":"charge","layer":"passenger","locationId":"91141238","name":"EQUANS SGZH 2.0 Sniepweg 13 n","address":"Sniepweg 13 n","city":"Waddinxveen","operatorName":"EQUANS","maxPowerKw":11,"isMegawatt":false,"status":"AVAILABLE","source":"ndw"}},{"type":"Feature","geometry":{"type":"Point","coordinates":[4.633675,52.038505]},"properties":{"type":"charge","layer":"passenger","locationId":"NLLOC003854","name":"NLD Woubrechterf 36, 2743 HM Waddinxveen","address":"Woubrechterf 36","city":"Waddinxveen","operatorName":"Allego","maxPowerKw":11,"isMegawatt":false,"status":"AVAILABLE","source":"ndw","priceKwh":0.511}},{"type":"Feature","geometry":{"type":"Point","coordinates":[4.655889,52.041244]},"properties":{"type":"charge","layer":"passenger","locationId":"89370329","name":"EQUANS SGZH 2.0 89370329","address":"Oostpolderweg 64","city":"Waddinxveen","operatorName":"EQUANS","maxPowerKw":11,"isMegawatt":false,"status":"AVAILABLE","source":"ndw"}},{"type":"Feature","geometry":{"type":"Point","coordinates":[4.65361,52.047909]},"properties":{"type":"charge","layer":"passenger","locationId":"NLLOC001834","name":"NLD, Waddinxveen, Prinses Marijkestraat 7","address":"Prinses Marijkestraat 7","city":"Waddinxveen","operatorName":"Allego","maxPowerKw":22,"isMegawatt":false,"status":"AVAILABLE","source":"ndw","priceKwh":0.511}},{"type":"Feature","geometry":{"type":"Point","coordinates":[4.648085,52.042499]},"properties":{"type":"charge","layer":"passenger","locationId":"90695535","name":"EQUANS SGZH 2.0 Ieplaan (t.h.v. Eikenlaan 54)","address":"Ieplaan","city":"Waddinxveen","operatorName":"EQUANS","maxPowerKw":11,"isMegawatt":false,"status":"AVAILABLE","source":"ndw"}},{"type":"Feature","geometry":{"type":"Point","coordinates":[4.658499,52.03159]},"properties":{"type":"charge","layer":"passenger","locationId":"89606407","name":"EQUANS SGZH 2.0 89606407","address":"Fortunalaan 16","city":"Waddinxveen","operatorName":"EQUANS","maxPowerKw":11,"isMegawatt":false,"status":"AVAILABLE","source":"ndw"}},{"type":"Feature","geometry":{"type":"Point","coordinates":[4.649262,52.054209]},"properties":{"type":"charge","layer":"passenger","locationId":"89306819","name":"EQUANS SGZH 2.0 89306819","address":"Tesselschadelaan 30","city":"Waddinxveen","operatorName":"EQUANS","maxPowerKw":17,"isMegawatt":false,"status":"AVAILABLE","source":"ndw"}},{"type":"Feature","geometry":{"type":"Point","coordinates":[4.64263,52.05743]},"properties":{"type":"charge","layer":"passenger","locationId":"91007025","name":"EQUANS SGZH 2.0 Weidezoom 88","address":"Weidezoom 88","city":"Waddinxveen","operatorName":"EQUANS","maxPowerKw":11,"isMegawatt":false,"status":"AVAILABLE","source":"ndw"}},{"type":"Feature","geometry":{"type":"Point","coordinates":[4.64369,52.035512]},"properties":{"type":"charge","layer":"passenger","locationId":"90364891","name":"EQUANS SGZH 2.0 Adrianahoeve 23","address":"Adrianahoeve 23","city":"Waddinxveen","operatorName":"EQUANS","maxPowerKw":11,"isMegawatt":false,"status":"CHARGING","source":"ndw"}},{"type":"Feature","geometry":{"type":"Point","coordinates":[4.656426,52.031524]},"properties":{"type":"charge","layer":"passenger","locationId":"89195894","name":"EQUANS SGZH 2.0 89195894","address":"Minervalaan 14","city":"Waddinxveen","operatorName":"EQUANS","maxPowerKw":17,"isMegawatt":false,"status":"AVAILABLE","source":"ndw"}},{"type":"Feature","geometry":{"type":"Point","coordinates":[4.644511,52.030912]},"properties":{"type":"charge","layer":"passenger","locationId":"89329940","name":"EQUANS SGZH 2.0 89329940","address":"Gerard Bleekerstraat 13","city":"Waddinxveen","operatorName":"EQUANS","maxPowerKw":17,"isMegawatt":false,"status":"AVAILABLE","source":"ndw"}},{"type":"Feature","geometry":{"type":"Point","coordinates":[4.641104,52.046836]},"properties":{"type":"charge","layer":"passenger","locationId":"NLLOC003262","name":"NLD Polderkade 2, 2742KW Waddinxveen","address":"Polderkade 2","city":"Waddinxveen","operatorName":"Allego","maxPowerKw":11,"isMegawatt":false,"status":"AVAILABLE","source":"ndw","priceKwh":0.511}},{"type":"Feature","geometry":{"type":"Point","coordinates":[4.645437,52.032785]},"properties":{"type":"charge","layer":"passenger","locationId":"NLLOC002854","name":"NLD, Ganzerik 92, 2742MB Waddinxveen","address":"Ganzerik 92","city":"Waddinxveen","operatorName":"Allego","maxPowerKw":11,"isMegawatt":false,"status":"CHARGING","source":"ndw","priceKwh":0.511}},{"type":"Feature","geometry":{"type":"Point","coordinates":[4.657217,52.041122]},"properties":{"type":"charge","layer":"passenger","locationId":"91365616","name":"EQUANS SGZH 2.0 Alpherwetering 55","address":"Alpherwetering 55","city":"Waddinxveen","operatorName":"EQUANS","maxPowerKw":11,"isMegawatt":false,"status":"AVAILABLE","source":"ndw"}},{"type":"Feature","geometry":{"type":"Point","coordinates":[4.64327,52.05495]},"properties":{"type":"charge","layer":"passenger","locationId":"91326891","name":"EQUANS SGZH 2.0 Weidezoom 40","address":"Weidezoom 40","city":"Waddinxveen","operatorName":"EQUANS","maxPowerKw":11,"isMegawatt":false,"status":"AVAILABLE","source":"ndw"}},{"type":"Feature","geometry":{"type":"Point","coordinates":[4.66305,52.027608]},"properties":{"type":"charge","layer":"passenger","locationId":"62a85d02a9bffd4aefe54bae","name":"Arvast Groep laadstation 2","address":"Wilhelminakade 1","city":"Waddinxveen","operatorName":"E-Flux by Road","maxPowerKw":22,"isMegawatt":false,"status":"AVAILABLE","source":"ndw","priceKwh":0.63}},{"type":"Feature","geometry":{"type":"Point","coordinates":[4.654673,52.05477]},"properties":{"type":"charge","layer":"passenger","locationId":"90695533","name":"EQUANS SGZH 2.0 Justus van Effenlaan 98","address":"Justus van Effenlaan 98","city":"Waddinxveen","operatorName":"EQUANS","maxPowerKw":11,"isMegawatt":false,"status":"AVAILABLE","source":"ndw"}},{"type":"Feature","geometry":{"type":"Point","coordinates":[4.63256,52.031566]},"properties":{"type":"charge","layer":"passenger","locationId":"89402503","name":"EQUANS SGZH 2.0 89402503","address":"Meteorenweg 2 a","city":"Waddinxveen","operatorName":"EQUANS","maxPowerKw":17,"isMegawatt":false,"status":"AVAILABLE","source":"ndw"}},{"type":"Feature","geometry":{"type":"Point","coordinates":[4.63604,52.03568]},"properties":{"type":"charge","layer":"passenger","locationId":"90885198","name":"EQUANS SGZH 2.0 Zuidplaslaan 393","address":"Zuidplaslaan 393","city":"Waddinxveen","operatorName":"EQUANS","maxPowerKw":11,"isMegawatt":false,"status":"CHARGING","source":"ndw"}},{"type":"Feature","geometry":{"type":"Point","coordinates":[4.647695,52.029147]},"properties":{"type":"charge","layer":"passenger","locationId":"NLLOC014713","name":"NL, Leonard Springerstraat 16, 2742 MN Waddinxveen","address":"Leonard Springerstraat 16","city":"Waddinxveen","operatorName":"Allego","maxPowerKw":11,"isMegawatt":false,"status":"AVAILABLE","source":"ndw","priceKwh":0.511}},{"type":"Feature","geometry":{"type":"Point","coordinates":[4.645007,52.056212]},"properties":{"type":"charge","layer":"passenger","locationId":"NLLOC002913","name":"NLD, Wingerd 109, 2742 SE Waddinxveen","address":"Wingerd 109","city":"Waddinxveen","operatorName":"Allego","maxPowerKw":11,"isMegawatt":false,"status":"AVAILABLE","source":"ndw","priceKwh":0.511}},{"type":"Feature","geometry":{"type":"Point","coordinates":[4.642746,52.038568]},"properties":{"type":"charge","layer":"passenger","locationId":"89238566","name":"EQUANS SGZH 2.0 89238566","address":"Fazantdreef 22","city":"Waddinxveen","operatorName":"EQUANS","maxPowerKw":17,"isMegawatt":false,"status":"AVAILABLE","source":"ndw"}},{"type":"Feature","geometry":{"type":"Point","coordinates":[4.650077,52.056028]},"properties":{"type":"charge","layer":"passenger","locationId":"NLLOC002257","name":"NLD, Busken Huetlaan 31 2741 AM Waddinxveen","address":"Busken Huetlaan","city":"Waddinxveen","operatorName":"Allego","maxPowerKw":11,"isMegawatt":false,"status":"AVAILABLE","source":"ndw","priceKwh":0.511}},{"type":"Feature","geometry":{"type":"Point","coordinates":[4.652387,52.049597]},"properties":{"type":"charge","layer":"passenger","locationId":"013F99D4-1D3C-4C3B-A3AC-9F9BB633574F","name":"Eneco eMobility Albert Heijn - Kon. Wilhelminaplein 42","address":"Kon. Wilhelminaplein 42","city":"Waddinxveen","operatorName":"Eneco","maxPowerKw":150,"isMegawatt":false,"status":"AVAILABLE","source":"ndw","priceKwh":0.62}},{"type":"Feature","geometry":{"type":"Point","coordinates":[4.640868,52.045452]},"properties":{"type":"charge","layer":"passenger","locationId":"90832042","name":"EQUANS SGZH 2.0 Veenkade 8","address":"Veenkade 8","city":"Waddinxveen","operatorName":"EQUANS","maxPowerKw":11,"isMegawatt":false,"status":"AVAILABLE","source":"ndw"}},{"type":"Feature","geometry":{"type":"Point","coordinates":[4.64345,52.044067]},"properties":{"type":"charge","layer":"passenger","locationId":"89927109","name":"EQUANS SGZH 2.0 89927109","address":"Ieplaan 35","city":"Waddinxveen","operatorName":"EQUANS","maxPowerKw":11,"isMegawatt":false,"status":"CHARGING","source":"ndw"}},{"type":"Feature","geometry":{"type":"Point","coordinates":[4.64177,52.0509]},"properties":{"type":"charge","layer":"passenger","locationId":"91442553","name":"EQUANS SGZH 2.0 Noordeinde 9","address":"Noordeinde 9","city":"Waddinxveen","operatorName":"EQUANS","maxPowerKw":11,"isMegawatt":false,"status":"AVAILABLE","source":"ndw"}},{"type":"Feature","geometry":{"type":"Point","coordinates":[4.6485,52.02561]},"properties":{"type":"charge","layer":"passenger","locationId":"91364189","name":"EQUANS SGZH 2.0 Spiering 62","address":"Spiering 62","city":"Waddinxveen","operatorName":"EQUANS","maxPowerKw":11,"isMegawatt":false,"status":"AVAILABLE","source":"ndw"}},{"type":"Feature","geometry":{"type":"Point","coordinates":[4.653538,52.046324]},"properties":{"type":"charge","layer":"passenger","locationId":"90256692","name":"EQUANS SGZH 2.0 Prins Bernhardlaan 2","address":"Prins Bernhardlaan 2","city":"Waddinxveen","operatorName":"EQUANS","maxPowerKw":11,"isMegawatt":false,"status":"AVAILABLE","source":"ndw"}},{"type":"Feature","geometry":{"type":"Point","coordinates":[4.62742,52.03522]},"properties":{"type":"charge","layer":"passenger","locationId":"91007033","name":"EQUANS SGZH 2.0 Phoenix 9","address":"Phoenix 9","city":"Waddinxveen","operatorName":"EQUANS","maxPowerKw":11,"isMegawatt":false,"status":"AVAILABLE","source":"ndw"}},{"type":"Feature","geometry":{"type":"Point","coordinates":[4.630806,52.016406]},"properties":{"type":"charge","layer":"passenger","locationId":"663e047ffbb885001c2f5736","name":"Waddinxveen K2","address":"Transportweg 32","city":"Waddinxveen","operatorName":"E-Flux by Road","maxPowerKw":11,"isMegawatt":false,"status":"AVAILABLE","source":"ndw","priceKwh":0.54}},{"type":"Feature","geometry":{"type":"Point","coordinates":[4.643746,52.053617]},"properties":{"type":"charge","layer":"passenger","locationId":"89242404","name":"EQUANS SGZH 2.0 89242404","address":"Peuleyen 186","city":"Waddinxveen","operatorName":"EQUANS","maxPowerKw":17,"isMegawatt":false,"status":"AVAILABLE","source":"ndw"}},{"type":"Feature","geometry":{"type":"Point","coordinates":[4.648477,52.051427]},"properties":{"type":"charge","layer":"passenger","locationId":"89329941","name":"EQUANS SGZH 2.0 89329941","address":"Peppelhorst 5","city":"Waddinxveen","operatorName":"EQUANS","maxPowerKw":11,"isMegawatt":false,"status":"AVAILABLE","source":"ndw"}},{"type":"Feature","geometry":{"type":"Point","coordinates":[4.64756,52.05495]},"properties":{"type":"charge","layer":"passenger","locationId":"89942901","name":"EQUANS SGZH 2.0 89942901","address":"Sparrengaarde 33","city":"Waddinxveen","operatorName":"EQUANS","maxPowerKw":11,"isMegawatt":false,"status":"CHARGING","source":"ndw"}},{"type":"Feature","geometry":{"type":"Point","coordinates":[4.648236,52.02813]},"properties":{"type":"charge","layer":"passenger","locationId":"89203122","name":"EQUANS SGZH 2.0 Dubbelspoor 55","address":"Dubbelspoor 55","city":"Waddinxveen","operatorName":"EQUANS","maxPowerKw":17,"isMegawatt":false,"status":"AVAILABLE","source":"ndw"}},{"type":"Feature","geometry":{"type":"Point","coordinates":[4.63498,52.0323]},"properties":{"type":"charge","layer":"passenger","locationId":"89472611","name":"EQUANS SGZH 2.0 89472611","address":"Poolster 50","city":"Waddinxveen","operatorName":"EQUANS","maxPowerKw":11,"isMegawatt":false,"status":"AVAILABLE","source":"ndw"}},{"type":"Feature","geometry":{"type":"Point","coordinates":[4.658777,52.045662]},"properties":{"type":"charge","layer":"passenger","locationId":"NLLOC017015","name":"NL, Nesse 1, 2741 ES Waddinxveen","address":"Nesse 1","city":"Waddinxveen","operatorName":"Allego","maxPowerKw":11,"isMegawatt":false,"status":"AVAILABLE","source":"ndw","priceKwh":0.511}},{"type":"Feature","geometry":{"type":"Point","coordinates":[4.64073,52.03637]},"properties":{"type":"charge","layer":"passenger","locationId":"91141242","name":"EQUANS SGZH 2.0 Bonenakker 30","address":"Bonenakker 30","city":"Waddinxveen","operatorName":"EQUANS","maxPowerKw":11,"isMegawatt":false,"status":"AVAILABLE","source":"ndw"}},{"type":"Feature","geometry":{"type":"Point","coordinates":[4.652276,52.04893]},"properties":{"type":"charge","layer":"passenger","locationId":"90365795","name":"EQUANS SGZH 2.0 Willem de Zwijgerlaan 62","address":"Willem de Zwijgerlaan 62","city":"Waddinxveen","operatorName":"EQUANS","maxPowerKw":11,"isMegawatt":false,"status":"AVAILABLE","source":"ndw"}},{"type":"Feature","geometry":{"type":"Point","coordinates":[4.610758,52.026351]},"properties":{"type":"charge","layer":"passenger","locationId":"NLLOC007216","name":"NL, Arie Kempkesweg 80, 2742JV, Waddinxveen","address":"Arie Kempkesweg 80","city":"Waddinxveen","operatorName":"Allego","maxPowerKw":11,"isMegawatt":false,"status":"AVAILABLE","source":"ndw","priceKwh":0.511}},{"type":"Feature","geometry":{"type":"Point","coordinates":[4.655157,52.056408]},"properties":{"type":"charge","layer":"passenger","locationId":"NLLOC001582","name":"NLD, Waddinxveen, H. Heijermanslaan 12","address":"H. Heijermanslaan 12","city":"Waddinxveen","operatorName":"Allego","maxPowerKw":11,"isMegawatt":false,"status":"AVAILABLE","source":"ndw","priceKwh":0.511}},{"type":"Feature","geometry":{"type":"Point","coordinates":[4.6472,52.03496]},"properties":{"type":"charge","layer":"passenger","locationId":"91366053","name":"EQUANS SGZH 2.0 Graan voor Visch 15","address":"Graan voor Visch 15","city":"Waddinxveen","operatorName":"EQUANS","maxPowerKw":11,"isMegawatt":false,"status":"AVAILABLE","source":"ndw"}},{"type":"Feature","geometry":{"type":"Point","coordinates":[4.656376,52.049318]},"properties":{"type":"charge","layer":"passenger","locationId":"NLLOC003501","name":"NLD Prins Alexanderstraat 2, 2741 CR Waddinxveen","address":"Prins Alexanderstraat 2","city":"Waddinxveen","operatorName":"Allego","maxPowerKw":11,"isMegawatt":false,"status":"AVAILABLE","source":"ndw","priceKwh":0.511}},{"type":"Feature","geometry":{"type":"Point","coordinates":[4.647536,52.026883]},"properties":{"type":"charge","layer":"passenger","locationId":"89637733","name":"EQUANS SGZH 2.0 89637733","address":"Spiering 10","city":"Waddinxveen","operatorName":"EQUANS","maxPowerKw":11,"isMegawatt":false,"status":"AVAILABLE","source":"ndw"}},{"type":"Feature","geometry":{"type":"Point","coordinates":[4.641752,52.049166]},"properties":{"type":"charge","layer":"passenger","locationId":"11DF164A-5BF2-4C7E-9F92-F3D6580303A4","name":"Eneco eMobility Alcapharm B.V. - Waddinxveen","address":"Dorpstraat 101","city":"Waddinxveen","operatorName":"Eneco","maxPowerKw":22,"isMegawatt":false,"status":"AVAILABLE","source":"ndw","priceKwh":0.4}},{"type":"Feature","geometry":{"type":"Point","coordinates":[4.656408,52.02514]},"properties":{"type":"charge","layer":"passenger","locationId":"676293484c1b31a0402de9be","name":"Autocentrum Van Vliet Waddinxveen","address":"Coenecoop 143","city":"Waddinxveen","operatorName":"Kia Nederland B.V.","maxPowerKw":176,"isMegawatt":false,"status":"AVAILABLE","source":"ndw","priceKwh":0.73}},{"type":"Feature","geometry":{"type":"Point","coordinates":[4.659261,52.030648]},"properties":{"type":"charge","layer":"passenger","locationId":"89329926","name":"EQUANS SGZH 2.0 89329926","address":"St. Victorstraat 4","city":"Waddinxveen","operatorName":"EQUANS","maxPowerKw":17,"isMegawatt":false,"status":"AVAILABLE","source":"ndw"}},{"type":"Feature","geometry":{"type":"Point","coordinates":[4.648778,52.034232]},"properties":{"type":"charge","layer":"passenger","locationId":"89877075","name":"EQUANS SGZH 2.0 89877075","address":"Graan voor Visch 61","city":"Waddinxveen","operatorName":"EQUANS","maxPowerKw":11,"isMegawatt":false,"status":"AVAILABLE","source":"ndw"}},{"type":"Feature","geometry":{"type":"Point","coordinates":[4.644534,52.030152]},"properties":{"type":"charge","layer":"passenger","locationId":"NLLOC003500","name":"NLD Johan Zocherstraat 45, 2742 MS Waddinxveen","address":"Johan Zocherstraat 45","city":"Waddinxveen","operatorName":"Allego","maxPowerKw":11,"isMegawatt":false,"status":"CHARGING","source":"ndw","priceKwh":0.511}},{"type":"Feature","geometry":{"type":"Point","coordinates":[4.64506,52.0264]},"properties":{"type":"charge","layer":"passenger","locationId":"91305623","name":"EQUANS SGZH 2.0 Rietvoorn (t.h.v. Blauwband 58)","address":"Rietvoorn","city":"Waddinxveen","operatorName":"EQUANS","maxPowerKw":11,"isMegawatt":false,"status":"AVAILABLE","source":"ndw"}},{"type":"Feature","geometry":{"type":"Point","coordinates":[4.663046,52.027594]},"properties":{"type":"charge","layer":"passenger","locationId":"62a85c5b439b56ef141e5724","name":"Arvast Groep laadstation 1","address":"Wilhelminakade 1","city":"Waddinxveen","operatorName":"E-Flux by Road","maxPowerKw":22,"isMegawatt":false,"status":"AVAILABLE","source":"ndw","priceKwh":0.63}},{"type":"Feature","geometry":{"type":"Point","coordinates":[4.651145,52.036467]},"properties":{"type":"charge","layer":"passenger","locationId":"4226278","name":"Laadnet Bouwacademie Groene Hart","address":"Kanaaldijk 11","city":"Waddinxveen","operatorName":"Laadnet","maxPowerKw":22,"isMegawatt":false,"status":"AVAILABLE","source":"ndw"}},{"type":"Feature","geometry":{"type":"Point","coordinates":[4.634034,52.037241]},"properties":{"type":"charge","layer":"passenger","locationId":"89455012","name":"EQUANS SGZH 2.0 89455012","address":"Anna de Waalhoeve 35","city":"Waddinxveen","operatorName":"EQUANS","maxPowerKw":17,"isMegawatt":false,"status":"AVAILABLE","source":"ndw"}},{"type":"Feature","geometry":{"type":"Point","coordinates":[4.655964,52.037119]},"properties":{"type":"charge","layer":"passenger","locationId":"NLLOC005246","name":"NLD, Heemraadweg 10, Waddinxveen","address":"Heemraadweg 10","city":"Waddinxveen","operatorName":"Allego","maxPowerKw":11,"isMegawatt":false,"status":"AVAILABLE","source":"ndw","priceKwh":0.511}},{"type":"Feature","geometry":{"type":"Point","coordinates":[4.655522,52.038151]},"properties":{"type":"charge","layer":"passenger","locationId":"89940126","name":"EQUANS SGZH 2.0 89940126","address":"Walsmolen 2","city":"Waddinxveen","operatorName":"EQUANS","maxPowerKw":11,"isMegawatt":false,"status":"CHARGING","source":"ndw"}},{"type":"Feature","geometry":{"type":"Point","coordinates":[4.653366,52.051134]},"properties":{"type":"charge","layer":"passenger","locationId":"89215305","name":"EQUANS SGZH 2.0 89215305","address":"Koningin Wilhelminasingel 44","city":"Waddinxveen","operatorName":"EQUANS","maxPowerKw":17,"isMegawatt":false,"status":"CHARGING","source":"ndw"}},{"type":"Feature","geometry":{"type":"Point","coordinates":[4.64405,52.05538]},"properties":{"type":"charge","layer":"passenger","locationId":"90364890","name":"EQUANS SGZH 2.0 Wingerd 66","address":"Wingerd 66","city":"Waddinxveen","operatorName":"EQUANS","maxPowerKw":11,"isMegawatt":false,"status":"AVAILABLE","source":"ndw"}},{"type":"Feature","geometry":{"type":"Point","coordinates":[4.630806,52.016406]},"properties":{"type":"charge","layer":"passenger","locationId":"663e0e3ddafc19001c20d8ee","name":"Waddinxveen K3","address":"Transportweg 32","city":"Waddinxveen","operatorName":"E-Flux by Road","maxPowerKw":11,"isMegawatt":false,"status":"AVAILABLE","source":"ndw","priceKwh":0.54}},{"type":"Feature","geometry":{"type":"Point","coordinates":[4.646202,52.037395]},"properties":{"type":"charge","layer":"passenger","locationId":"89445031","name":"EQUANS SGZH 2.0 89445031","address":"Dreef 10 b","city":"Waddinxveen","operatorName":"EQUANS","maxPowerKw":17,"isMegawatt":false,"status":"AVAILABLE","source":"ndw"}},{"type":"Feature","geometry":{"type":"Point","coordinates":[4.6575,52.03926]},"properties":{"type":"charge","layer":"passenger","locationId":"91144804","name":"EQUANS SGZH 2.0 Papiermolen 58","address":"Papiermolen 58","city":"Waddinxveen","operatorName":"EQUANS","maxPowerKw":11,"isMegawatt":false,"status":"AVAILABLE","source":"ndw"}},{"type":"Feature","geometry":{"type":"Point","coordinates":[4.650621,52.045351]},"properties":{"type":"charge","layer":"passenger","locationId":"NLLOC003421","name":"NLD Passage 58, 2741GN Waddinxveen","address":"Passage 58","city":"Waddinxveen","operatorName":"Allego","maxPowerKw":11,"isMegawatt":false,"status":"AVAILABLE","source":"ndw","priceKwh":0.511}},{"type":"Feature","geometry":{"type":"Point","coordinates":[4.632531,52.03644]},"properties":{"type":"charge","layer":"passenger","locationId":"90386344","name":"EQUANS SGZH 2.0 Aletta Jacobshoeve 36","address":"Aletta Jacobshoeve 36","city":"Waddinxveen","operatorName":"EQUANS","maxPowerKw":11,"isMegawatt":false,"status":"CHARGING","source":"ndw"}},{"type":"Feature","geometry":{"type":"Point","coordinates":[4.642536,52.025055]},"properties":{"type":"charge","layer":"passenger","locationId":"90365801","name":"EQUANS SGZH 2.0 Zonnebaars 99","address":"Zonnebaars 99","city":"Waddinxveen","operatorName":"EQUANS","maxPowerKw":11,"isMegawatt":false,"status":"AVAILABLE","source":"ndw"}},{"type":"Feature","geometry":{"type":"Point","coordinates":[4.645151,52.047345]},"properties":{"type":"charge","layer":"passenger","locationId":"NLLOC001506","name":"NLD, Waddinxveen, Mozartlaan 18","address":"Mozartlaan 18","city":"Waddinxveen","operatorName":"Allego","maxPowerKw":22,"isMegawatt":false,"status":"AVAILABLE","source":"ndw","priceKwh":0.511}},{"type":"Feature","geometry":{"type":"Point","coordinates":[4.644879,52.023719]},"properties":{"type":"charge","layer":"passenger","locationId":"89329935","name":"EQUANS SGZH 2.0 89329935","address":"Zonnebaars 31","city":"Waddinxveen","operatorName":"EQUANS","maxPowerKw":17,"isMegawatt":false,"status":"CHARGING","source":"ndw"}},{"type":"Feature","geometry":{"type":"Point","coordinates":[4.646887,52.030723]},"properties":{"type":"charge","layer":"passenger","locationId":"89329937","name":"EQUANS SGZH 2.0 89329937","address":"Renske Boonstraat 101","city":"Waddinxveen","operatorName":"EQUANS","maxPowerKw":17,"isMegawatt":false,"status":"AVAILABLE","source":"ndw"}},{"type":"Feature","geometry":{"type":"Point","coordinates":[4.657346,52.033103]},"properties":{"type":"charge","layer":"passenger","locationId":"NLLOC001504","name":"NLD, Waddinxveen, Jupiterlaan 9","address":"Jupiterlaan 9","city":"Waddinxveen","operatorName":"Allego","maxPowerKw":11,"isMegawatt":false,"status":"CHARGING","source":"ndw","priceKwh":0.511}},{"type":"Feature","geometry":{"type":"Point","coordinates":[4.627794,52.035667]},"properties":{"type":"charge","layer":"passenger","locationId":"NLLOC002259","name":"NLD, Waddinxveen, Galilei 12","address":"Galilei 12","city":"Waddinxveen","operatorName":"Allego","maxPowerKw":11,"isMegawatt":false,"status":"AVAILABLE","source":"ndw","priceKwh":0.511}},{"type":"Feature","geometry":{"type":"Point","coordinates":[4.631305,52.037836]},"properties":{"type":"charge","layer":"passenger","locationId":"67eceae2005ce9e08be6d3bb","name":"Verbaan 's station","address":"Woubrechterf 73","city":"Waddinxveen","operatorName":"E-Flux by Road","maxPowerKw":11,"isMegawatt":false,"status":"AVAILABLE","source":"ndw","priceKwh":0.5}},{"type":"Feature","geometry":{"type":"Point","coordinates":[4.6464,52.02479]},"properties":{"type":"charge","layer":"passenger","locationId":"90885436","name":"EQUANS SGZH 2.0 Beekforel 15","address":"Beekforel 15","city":"Waddinxveen","operatorName":"EQUANS","maxPowerKw":11,"isMegawatt":false,"status":"AVAILABLE","source":"ndw"}},{"type":"Feature","geometry":{"type":"Point","coordinates":[4.63758,52.03891]},"properties":{"type":"charge","layer":"passenger","locationId":"91144808","name":"EQUANS SGZH 2.0 Graanakker 50","address":"Graanakker 50","city":"Waddinxveen","operatorName":"EQUANS","maxPowerKw":11,"isMegawatt":false,"status":"AVAILABLE","source":"ndw"}},{"type":"Feature","geometry":{"type":"Point","coordinates":[4.641436,52.037458]},"properties":{"type":"charge","layer":"passenger","locationId":"89604298","name":"EQUANS SGZH 2.0 89604298","address":"de Akker 29","city":"Waddinxveen","operatorName":"EQUANS","maxPowerKw":11,"isMegawatt":false,"status":"AVAILABLE","source":"ndw"}},{"type":"Feature","geometry":{"type":"Point","coordinates":[4.645393,52.036598]},"properties":{"type":"charge","layer":"passenger","locationId":"89439385","name":"EQUANS SGZH 2.0 89439385","address":"Gerardshoeve 11","city":"Waddinxveen","operatorName":"EQUANS","maxPowerKw":17,"isMegawatt":false,"status":"AVAILABLE","source":"ndw"}},{"type":"Feature","geometry":{"type":"Point","coordinates":[4.640377,52.0456]},"properties":{"type":"charge","layer":"passenger","locationId":"NLLOC007226","name":"NL, Veenkade 5, 2742 AM, Waddinxveen","address":"Veenkade 5","city":"Waddinxveen","operatorName":"Allego","maxPowerKw":11,"isMegawatt":false,"status":"AVAILABLE","source":"ndw","priceKwh":0.511}},{"type":"Feature","geometry":{"type":"Point","coordinates":[4.633431,52.036337]},"properties":{"type":"charge","layer":"passenger","locationId":"NLLOC007901","name":"NL, Aletta Jacobshoeve 11, 2743JA, Waddinxveen","address":"Aletta Jacobshoeve 11","city":"Waddinxveen","operatorName":"Allego","maxPowerKw":11,"isMegawatt":false,"status":"AVAILABLE","source":"ndw","priceKwh":0.511}},{"type":"Feature","geometry":{"type":"Point","coordinates":[4.633063,52.035379]},"properties":{"type":"charge","layer":"passenger","locationId":"NLLOC001505","name":"NLD, Waddinxveen, Marga Klompehoeve 13","address":"Marga Klompehoeve 13","city":"Waddinxveen","operatorName":"Allego","maxPowerKw":11,"isMegawatt":false,"status":"AVAILABLE","source":"ndw","priceKwh":0.511}},{"type":"Feature","geometry":{"type":"Point","coordinates":[4.652201,52.055036]},"properties":{"type":"charge","layer":"passenger","locationId":"89407206","name":"EQUANS SGZH 2.0 89407206","address":"Bilderdijklaan 14","city":"Waddinxveen","operatorName":"EQUANS","maxPowerKw":11,"isMegawatt":false,"status":"CHARGING","source":"ndw"}},{"type":"Feature","geometry":{"type":"Point","coordinates":[4.657859,52.043352]},"properties":{"type":"charge","layer":"passenger","locationId":"NLLOC007212","name":"NL, Raadhuisplein 1, 2741 HR, Waddinxveen","address":"Raadhuisplein 1","city":"Waddinxveen","operatorName":"Allego","maxPowerKw":11,"isMegawatt":false,"status":"AVAILABLE","source":"ndw","priceKwh":0.511}},{"type":"Feature","geometry":{"type":"Point","coordinates":[4.639774,52.038172]},"properties":{"type":"charge","layer":"passenger","locationId":"NLLOC013029","name":"NL, Graanakker 110, 2743 EL Waddinxveen","address":"Graanakker 110","city":"Waddinxveen","operatorName":"Allego","maxPowerKw":11,"isMegawatt":false,"status":"AVAILABLE","source":"ndw","priceKwh":0.511}},{"type":"Feature","geometry":{"type":"Point","coordinates":[4.65101,52.0465]},"properties":{"type":"charge","layer":"passenger","locationId":"91193617","name":"EQUANS SGZH 2.0 Prinses Beatrixlaan 2","address":"Prinses Beatrixlaan 2","city":"Waddinxveen","operatorName":"EQUANS","maxPowerKw":11,"isMegawatt":false,"status":"AVAILABLE","source":"ndw"}},{"type":"Feature","geometry":{"type":"Point","coordinates":[4.632117,52.034496]},"properties":{"type":"charge","layer":"passenger","locationId":"89604295","name":"EQUANS SGZH 2.0 89604295","address":"Zonnehof 100","city":"Waddinxveen","operatorName":"EQUANS","maxPowerKw":11,"isMegawatt":false,"status":"AVAILABLE","source":"ndw"}},{"type":"Feature","geometry":{"type":"Point","coordinates":[4.64448,52.036276]},"properties":{"type":"charge","layer":"passenger","locationId":"NLLOC016577","name":"NL, Tuinbouwweg 2A, 2742 KP Waddinxveen","address":"Tuinbouwweg 2A","city":"Waddinxveen","operatorName":"Allego","maxPowerKw":11,"isMegawatt":false,"status":"AVAILABLE","source":"ndw","priceKwh":0.511}},{"type":"Feature","geometry":{"type":"Point","coordinates":[4.645974,52.04833]},"properties":{"type":"charge","layer":"passenger","locationId":"90365780","name":"EQUANS SGZH 2.0 Sweelinckhof 30","address":"Sweelinckhof 30","city":"Waddinxveen","operatorName":"EQUANS","maxPowerKw":11,"isMegawatt":false,"status":"AVAILABLE","source":"ndw"}},{"type":"Feature","geometry":{"type":"Point","coordinates":[4.64164,52.04795]},"properties":{"type":"charge","layer":"passenger","locationId":"91372875","name":"EQUANS SGZH 2.0 Dorpstraat 75","address":"Dorpstraat 75","city":"Waddinxveen","operatorName":"EQUANS","maxPowerKw":11,"isMegawatt":false,"status":"AVAILABLE","source":"ndw"}},{"type":"Feature","geometry":{"type":"Point","coordinates":[4.655821,52.043786]},"properties":{"type":"charge","layer":"passenger","locationId":"89220723","name":"EQUANS SGZH 2.0 89220723","address":"Beukenhof 1","city":"Waddinxveen","operatorName":"EQUANS","maxPowerKw":11,"isMegawatt":false,"status":"AVAILABLE","source":"ndw"}},{"type":"Feature","geometry":{"type":"Point","coordinates":[4.653755,52.027658]},"properties":{"type":"charge","layer":"passenger","locationId":"69d8b3498237dfe223041f2d","name":"de Kruijf Trappen 1.2","address":"Coenecoop 79","city":"Waddinxveen","operatorName":"E-Flux by Road","maxPowerKw":22,"isMegawatt":false,"status":"AVAILABLE","source":"ndw","priceKwh":0.48}},{"type":"Feature","geometry":{"type":"Point","coordinates":[4.648654,52.046331]},"properties":{"type":"charge","layer":"passenger","locationId":"91007016","name":"EQUANS SGZH 2.0 Peter Zuidlaan 19","address":"Peter Zuidlaan 19","city":"Waddinxveen","operatorName":"EQUANS","maxPowerKw":11,"isMegawatt":false,"status":"AVAILABLE","source":"ndw"}},{"type":"Feature","geometry":{"type":"Point","coordinates":[4.636382,52.040685]},"properties":{"type":"charge","layer":"passenger","locationId":"89637099","name":"EQUANS SGZH 2.0 89637099","address":"Nicolaaserf 11","city":"Waddinxveen","operatorName":"EQUANS","maxPowerKw":11,"isMegawatt":false,"status":"AVAILABLE","source":"ndw"}},{"type":"Feature","geometry":{"type":"Point","coordinates":[4.647671,52.024419]},"properties":{"type":"charge","layer":"passenger","locationId":"89477480","name":"EQUANS SGZH 2.0 89477480","address":"Zilverkarper 6","city":"Waddinxveen","operatorName":"EQUANS","maxPowerKw":11,"isMegawatt":false,"status":"AVAILABLE","source":"ndw"}},{"type":"Feature","geometry":{"type":"Point","coordinates":[4.650492,52.05419]},"properties":{"type":"charge","layer":"passenger","locationId":"90282034","name":"EQUANS SGZH 2.0 Jan Luykenstraat 6","address":"Jan Luykenstraat 6","city":"Waddinxveen","operatorName":"EQUANS","maxPowerKw":11,"isMegawatt":false,"status":"CHARGING","source":"ndw"}},{"type":"Feature","geometry":{"type":"Point","coordinates":[4.653604,52.053276]},"properties":{"type":"charge","layer":"passenger","locationId":"NLLOC001836","name":"NLD, Waddinxveen, Willem de Rijkelaan 182","address":"Willem de Rijkelaan 182","city":"Waddinxveen","operatorName":"Allego","maxPowerKw":11,"isMegawatt":false,"status":"AVAILABLE","source":"ndw","priceKwh":0.511}},{"type":"Feature","geometry":{"type":"Point","coordinates":[4.657084,52.037235]},"properties":{"type":"charge","layer":"passenger","locationId":"89965090","name":"EQUANS SGZH 2.0 89965090","address":"Heemraadweg 65","city":"Waddinxveen","operatorName":"EQUANS","maxPowerKw":11,"isMegawatt":false,"status":"AVAILABLE","source":"ndw"}},{"type":"Feature","geometry":{"type":"Point","coordinates":[4.64874,52.0401]},"properties":{"type":"charge","layer":"passenger","locationId":"91141239","name":"EQUANS SGZH 2.0 Sniepweg 51","address":"Sniepweg 51","city":"Waddinxveen","operatorName":"EQUANS","maxPowerKw":11,"isMegawatt":false,"status":"AVAILABLE","source":"ndw"}},{"type":"Feature","geometry":{"type":"Point","coordinates":[4.646103,52.023757]},"properties":{"type":"charge","layer":"passenger","locationId":"91204079","name":"EQUANS SGZH 2.0 Brasem 16","address":"Brasem 16","city":"Waddinxveen","operatorName":"EQUANS","maxPowerKw":11,"isMegawatt":false,"status":"AVAILABLE","source":"ndw"}},{"type":"Feature","geometry":{"type":"Point","coordinates":[4.655164,52.048852]},"properties":{"type":"charge","layer":"passenger","locationId":"90195825","name":"EQUANS SGZH 2.0 Koning Willem II-straat 2","address":"Koning Willem II-straat 2","city":"Waddinxveen","operatorName":"EQUANS","maxPowerKw":11,"isMegawatt":false,"status":"CHARGING","source":"ndw"}},{"type":"Feature","geometry":{"type":"Point","coordinates":[4.641335,52.025932]},"properties":{"type":"charge","layer":"passenger","locationId":"89942902","name":"EQUANS SGZH 2.0 89942902","address":"Grenenhout 1","city":"Waddinxveen","operatorName":"EQUANS","maxPowerKw":11,"isMegawatt":false,"status":"AVAILABLE","source":"ndw"}},{"type":"Feature","geometry":{"type":"Point","coordinates":[4.64655,52.03786]},"properties":{"type":"charge","layer":"passenger","locationId":"90878400","name":"EQUANS SGZH 2.0 Kapiteel 35","address":"Kapiteel 35","city":"Waddinxveen","operatorName":"EQUANS","maxPowerKw":11,"isMegawatt":false,"status":"CHARGING","source":"ndw"}},{"type":"Feature","geometry":{"type":"Point","coordinates":[4.63732,52.02914]},"properties":{"type":"charge","layer":"passenger","locationId":"91366052","name":"EQUANS SGZH 2.0 Laan van Hout 211","address":"Laan van Hout 211","city":"Waddinxveen","operatorName":"EQUANS","maxPowerKw":11,"isMegawatt":false,"status":"CHARGING","source":"ndw"}},{"type":"Feature","geometry":{"type":"Point","coordinates":[4.640097,52.039956]},"properties":{"type":"charge","layer":"passenger","locationId":"91204078","name":"EQUANS SGZH 2.0 Sperwerhoek 15","address":"Sperwerhoek 15","city":"Waddinxveen","operatorName":"EQUANS","maxPowerKw":11,"isMegawatt":false,"status":"AVAILABLE","source":"ndw"}},{"type":"Feature","geometry":{"type":"Point","coordinates":[4.62873,52.03541]},"properties":{"type":"charge","layer":"passenger","locationId":"90883038","name":"EQUANS SGZH 2.0 Orion 8","address":"Orion 8","city":"Waddinxveen","operatorName":"EQUANS","maxPowerKw":11,"isMegawatt":false,"status":"AVAILABLE","source":"ndw"}},{"type":"Feature","geometry":{"type":"Point","coordinates":[4.639929,52.033147]},"properties":{"type":"charge","layer":"passenger","locationId":"90386366","name":"EQUANS SGZH 2.0 Honingbij 41A","address":"Honingbij 41A","city":"Waddinxveen","operatorName":"EQUANS","maxPowerKw":11,"isMegawatt":false,"status":"AVAILABLE","source":"ndw"}},{"type":"Feature","geometry":{"type":"Point","coordinates":[4.65464,52.03604]},"properties":{"type":"charge","layer":"passenger","locationId":"91007020","name":"EQUANS SGZH 2.0 Mercuriusweg 4","address":"Mercuriusweg 4","city":"Waddinxveen","operatorName":"EQUANS","maxPowerKw":11,"isMegawatt":false,"status":"AVAILABLE","source":"ndw"}},{"type":"Feature","geometry":{"type":"Point","coordinates":[4.655601,52.052143]},"properties":{"type":"charge","layer":"passenger","locationId":"89439556","name":"EQUANS SGZH 2.0 89439556","address":"Charlotte de Bourbonstraat 26","city":"Waddinxveen","operatorName":"EQUANS","maxPowerKw":17,"isMegawatt":false,"status":"AVAILABLE","source":"ndw"}},{"type":"Feature","geometry":{"type":"Point","coordinates":[4.648771,52.027513]},"properties":{"type":"charge","layer":"passenger","locationId":"NLLOC011310","name":"NL, Dubbelspoor 78, 2742MX, Waddinxveen","address":"Dubbelspoor 78","city":"Waddinxveen","operatorName":"Allego","maxPowerKw":11,"isMegawatt":false,"status":"AVAILABLE","source":"ndw","priceKwh":0.511}},{"type":"Feature","geometry":{"type":"Point","coordinates":[4.638255,52.038288]},"properties":{"type":"charge","layer":"passenger","locationId":"89954360","name":"EQUANS SGZH 2.0 89954360","address":"Graanakker 51","city":"Waddinxveen","operatorName":"EQUANS","maxPowerKw":11,"isMegawatt":false,"status":"CHARGING","source":"ndw"}},{"type":"Feature","geometry":{"type":"Point","coordinates":[4.652478,52.045165]},"properties":{"type":"charge","layer":"passenger","locationId":"90909767","name":"EQUANS SGZH 2.0 Passage 76","address":"Passage 76","city":"Waddinxveen","operatorName":"EQUANS","maxPowerKw":11,"isMegawatt":false,"status":"CHARGING","source":"ndw"}},{"type":"Feature","geometry":{"type":"Point","coordinates":[4.646202,52.049921]},"properties":{"type":"charge","layer":"passenger","locationId":"NLLOC001508","name":"NLD, Waddinxveen, Groensvoorde 20","address":"Groensvoorde 20","city":"Waddinxveen","operatorName":"Allego","maxPowerKw":22,"isMegawatt":false,"status":"AVAILABLE","source":"ndw","priceKwh":0.511}},{"type":"Feature","geometry":{"type":"Point","coordinates":[4.655493,52.04417]},"properties":{"type":"charge","layer":"passenger","locationId":"91233408","name":"EQUANS SGZH 2.0 Beukenhof 1","address":"Beukenhof 1","city":"Waddinxveen","operatorName":"EQUANS","maxPowerKw":11,"isMegawatt":false,"status":"AVAILABLE","source":"ndw"}},{"type":"Feature","geometry":{"type":"Point","coordinates":[4.630543,52.03264]},"properties":{"type":"charge","layer":"passenger","locationId":"89954356","name":"EQUANS SGZH 2.0 89954356","address":"Sirius 1","city":"Waddinxveen","operatorName":"EQUANS","maxPowerKw":11,"isMegawatt":false,"status":"AVAILABLE","source":"ndw"}},{"type":"Feature","geometry":{"type":"Point","coordinates":[4.654537,52.040382]},"properties":{"type":"charge","layer":"passenger","locationId":"91007019","name":"EQUANS SGZH 2.0 Oostpolderweg 47","address":"Oostpolderweg 47","city":"Waddinxveen","operatorName":"EQUANS","maxPowerKw":11,"isMegawatt":false,"status":"AVAILABLE","source":"ndw"}},{"type":"Feature","geometry":{"type":"Point","coordinates":[4.643264,52.044527]},"properties":{"type":"charge","layer":"passenger","locationId":"90386345","name":"EQUANS SGZH 2.0 Ieplaan 40","address":"Ieplaan 40","city":"Waddinxveen","operatorName":"EQUANS","maxPowerKw":11,"isMegawatt":false,"status":"AVAILABLE","source":"ndw"}},{"type":"Feature","geometry":{"type":"Point","coordinates":[4.638271,52.039304]},"properties":{"type":"charge","layer":"passenger","locationId":"89329938","name":"EQUANS SGZH 2.0 89329938","address":"Graanakker 28","city":"Waddinxveen","operatorName":"EQUANS","maxPowerKw":17,"isMegawatt":false,"status":"AVAILABLE","source":"ndw"}},{"type":"Feature","geometry":{"type":"Point","coordinates":[4.657376,52.032889]},"properties":{"type":"charge","layer":"passenger","locationId":"89596223","name":"EQUANS SGZH 2.0 89596223","address":"Jupiterlaan 73","city":"Waddinxveen","operatorName":"EQUANS","maxPowerKw":11,"isMegawatt":false,"status":"AVAILABLE","source":"ndw"}},{"type":"Feature","geometry":{"type":"Point","coordinates":[4.661884,52.043744]},"properties":{"type":"charge","layer":"passenger","locationId":"90822381","name":"EQUANS SGZH 2.0 Brugweg 27","address":"Brugweg 27","city":"Waddinxveen","operatorName":"EQUANS","maxPowerKw":11,"isMegawatt":false,"status":"AVAILABLE","source":"ndw"}},{"type":"Feature","geometry":{"type":"Point","coordinates":[4.64901,52.03588]},"properties":{"type":"charge","layer":"passenger","locationId":"91233419","name":"EQUANS SGZH 2.0 Land voor Water 46","address":"Land voor Water 46","city":"Waddinxveen","operatorName":"EQUANS","maxPowerKw":11,"isMegawatt":false,"status":"AVAILABLE","source":"ndw"}},{"type":"Feature","geometry":{"type":"Point","coordinates":[4.638036,52.034339]},"properties":{"type":"charge","layer":"passenger","locationId":"91193618","name":"EQUANS SGZH 2.0 Schaepmanhoeve 41","address":"Schaepmanhoeve 41","city":"Waddinxveen","operatorName":"EQUANS","maxPowerKw":11,"isMegawatt":false,"status":"AVAILABLE","source":"ndw"}},{"type":"Feature","geometry":{"type":"Point","coordinates":[4.648072,52.050976]},"properties":{"type":"charge","layer":"passenger","locationId":"90365779","name":"EQUANS SGZH 2.0 Elzenhorst 8","address":"Elzenhorst 8","city":"Waddinxveen","operatorName":"EQUANS","maxPowerKw":11,"isMegawatt":false,"status":"AVAILABLE","source":"ndw"}},{"type":"Feature","geometry":{"type":"Point","coordinates":[4.646717,52.02856]},"properties":{"type":"charge","layer":"passenger","locationId":"89627066","name":"EQUANS SGZH 2.0 89627066","address":"Leonard Springerstraat 30","city":"Waddinxveen","operatorName":"EQUANS","maxPowerKw":11,"isMegawatt":false,"status":"AVAILABLE","source":"ndw"}},{"type":"Feature","geometry":{"type":"Point","coordinates":[4.661764,52.028517]},"properties":{"type":"charge","layer":"passenger","locationId":"89885263","name":"EQUANS SGZH 2.0 89885263","address":"Zuidkade 232","city":"Waddinxveen","operatorName":"EQUANS","maxPowerKw":11,"isMegawatt":false,"status":"AVAILABLE","source":"ndw"}},{"type":"Feature","geometry":{"type":"Point","coordinates":[4.64874,52.02979]},"properties":{"type":"charge","layer":"passenger","locationId":"91422006","name":"EQUANS SGZH 2.0 Leonard Springerstraat 2","address":"Leonard Springerstraat 2","city":"Waddinxveen","operatorName":"EQUANS","maxPowerKw":11,"isMegawatt":false,"status":"AVAILABLE","source":"ndw"}},{"type":"Feature","geometry":{"type":"Point","coordinates":[4.643259,52.02488]},"properties":{"type":"charge","layer":"passenger","locationId":"91387369","name":"EQUANS SGZH 2.0 Meerval 2","address":"Meerval 2","city":"Waddinxveen","operatorName":"EQUANS","maxPowerKw":11,"isMegawatt":false,"status":"AVAILABLE","source":"ndw"}},{"type":"Feature","geometry":{"type":"Point","coordinates":[4.642582,52.018378]},"properties":{"type":"charge","layer":"freight","locationId":"6551f936cf2516001c4e3902","name":"DCB CHARGE Waddinxveen (E-Truck)","address":"Overslagweg 1","city":"Waddinxveen","operatorName":"E-Flux by Road","maxPowerKw":360,"isMegawatt":false,"status":"AVAILABLE","source":"ndw","priceKwh":0.63,"freightKind":"dedicated","freightReason":"truck-name"}},{"type":"Feature","geometry":{"type":"Point","coordinates":[4.6199,52.0177]},"properties":{"type":"charge","layer":"freight","locationId":"curated:milence-waddinxveen","name":"Milence Charging Hub Waddinxveen","address":"Distripark Doelwijk (A12), Waddinxveen","city":"Waddinxveen","operatorName":"Milence","maxPowerKw":400,"isMegawatt":false,"status":"UNKNOWN","source":"curated","freightKind":"dedicated","freightReason":"curated"}},{"type":"Feature","geometry":{"type":"MultiPolygon","coordinates":[[[[4.64690355873896,52.064280351458386],[4.659150121811067,52.06400630309365],[4.659147284709689,52.064018088153844],[4.659967250492324,52.064104660373346],[4.66402360172578,52.05770542532382],[4.66696417563215,52.05762776796534],[4.669699430372297,52.05550504178543],[4.669000916079424,52.05234196028563],[4.679803585629012,52.05207291238242],[4.679542719747013,52.05124673180089],[4.677310994323195,52.04397152117411],[4.6870589865482835,52.04383655358038],[4.687399265187063,52.04308563921147],[4.705105644173095,52.04028321920084],[4.706038988986196,52.04012021077849],[4.701737387292849,52.03785651616576],[4.699701344286049,52.03691479021142],[4.694970043678527,52.03441965705453],[4.691896128007949,52.032985259159204],[4.68584721965396,52.030264356152315],[4.680540828660156,52.02798175701593],[4.679081079406954,52.028191493037575],[4.667278385433537,52.02507879419132],[4.667769688732999,52.02451916394179],[4.670380020875488,52.022835661418604],[4.673647298022306,52.02259979348312],[4.679671096600108,52.02115774112952],[4.681822536479056,52.01930797981383],[4.675574254205245,52.01767537033066],[4.666605898923398,52.012971078636006],[4.664791461885964,52.01452434093266],[4.664716055612515,52.016485209578214],[4.667302654766304,52.01924562867169],[4.6677671163051135,52.0214898566155],[4.667371901787775,52.022646522651144],[4.663770550047711,52.02200804232407],[4.6627996430190075,52.02398471370694],[4.656842750724131,52.02205133838799],[4.655184143125113,52.02101635097414],[4.6530516426095865,52.02134462872507],[4.648812055355833,52.02057599233804],[4.6484245826962365,52.01898692794414],[4.6368018317549335,52.011680293604726],[4.624735023395661,52.01472240913735],[4.59695171358043,52.03154665934522],[4.5910888292957095,52.03508764388345],[4.607333994182114,52.04531226830998],[4.606272155781199,52.04594936737689],[4.610223777346428,52.046267582863834],[4.6108219834612365,52.04823374967818],[4.6109468599952415,52.04871112347811],[4.60804629876168,52.04911679334825],[4.605528567839548,52.05043857910832],[4.608405462856495,52.0629444993096],[4.608073777345829,52.06544130321844],[4.607426663081791,52.06552672470203],[4.607023335407008,52.07704601591232],[4.625319954667269,52.07644346268366],[4.6253067529336835,52.074447444443614],[4.636880717806569,52.07353189352951],[4.637624228353749,52.06801043294938],[4.638224639010093,52.06482387987907],[4.646860178453774,52.064283023318715],[4.64690355873896,52.064280351458386]]]]},"properties":{"type":"boundary","gemeente":"Waddinxveen","code":"GM0627"}}]}