{"type":"FeatureCollection","metadata":{"gemeente":"Waterland","slug":"waterland","code":"GM0852","generated_at":"2026-07-06T16:26:11.361Z","total_passenger":69,"total_freight":0,"bounds":[4.946876453209988,52.415129273860636,5.139380184575512,52.494732952119016],"operators":["Laadnet","NXT50Five","TotalEnergies","Ubitricity","Vattenfall InCharge"]},"features":[{"type":"Feature","geometry":{"type":"Point","coordinates":[5.039748,52.449333]},"properties":{"type":"charge","layer":"passenger","locationId":"3aee0992-0c42-4f49-8356-2483d6ff4e41","name":"TNLP007129 - Meeuwenhoek 18, Monnickendam","address":"18 Meeuwenhoek","city":"Monnickendam","operatorName":"TotalEnergies","maxPowerKw":15,"isMegawatt":false,"status":"AVAILABLE","source":"ndw"}},{"type":"Feature","geometry":{"type":"Point","coordinates":[5.10504,52.45938]},"properties":{"type":"charge","layer":"passenger","locationId":"91e395c0-fad9-441f-9178-937fea94b572","name":"PP005062 - Buurterstraat 2, Marken","address":"2 Buurterstraat","city":"Marken","operatorName":"TotalEnergies","maxPowerKw":11,"isMegawatt":false,"status":"UNAVAILABLE","source":"ndw"}},{"type":"Feature","geometry":{"type":"Point","coordinates":[5.04125,52.44775]},"properties":{"type":"charge","layer":"passenger","locationId":"570","name":"Shell Recharge NL Trintel 127","address":"Trintel 127","city":"Monnickendam","operatorName":"Ubitricity","maxPowerKw":11,"isMegawatt":false,"status":"CHARGING","source":"ndw","priceKwh":0.388}},{"type":"Feature","geometry":{"type":"Point","coordinates":[5.030989,52.450087]},"properties":{"type":"charge","layer":"passenger","locationId":"587fd713-9687-4a5b-b4b3-9419d99179ac","name":"TNLP034095","address":"Drevel 59","city":"Monnickendam","operatorName":"TotalEnergies","maxPowerKw":14,"isMegawatt":false,"status":"AVAILABLE","source":"ndw"}},{"type":"Feature","geometry":{"type":"Point","coordinates":[5.03113,52.45596]},"properties":{"type":"charge","layer":"passenger","locationId":"697","name":"Shell Recharge NL Nieuwpoortslaan 14","address":"Nieuwpoortslaan 14","city":"Monnickendam","operatorName":"Ubitricity","maxPowerKw":11,"isMegawatt":false,"status":"CHARGING","source":"ndw","priceKwh":0.388}},{"type":"Feature","geometry":{"type":"Point","coordinates":[5.033105,52.4521872]},"properties":{"type":"charge","layer":"passenger","locationId":"1862","name":"Shell Recharge NL Avegaar 48","address":"Avegaar 48","city":"Monnickendam","operatorName":"Ubitricity","maxPowerKw":22,"isMegawatt":false,"status":"AVAILABLE","source":"ndw","priceKwh":0.266}},{"type":"Feature","geometry":{"type":"Point","coordinates":[5.103698,52.456497]},"properties":{"type":"charge","layer":"passenger","locationId":"a47e4f689902bbacdfc0dfe82f17e162","name":"Kets 21","address":"Kets 21","city":"Marken","operatorName":"Vattenfall InCharge","maxPowerKw":11,"isMegawatt":false,"status":"AVAILABLE","source":"ndw"}},{"type":"Feature","geometry":{"type":"Point","coordinates":[4.95151,52.463715]},"properties":{"type":"charge","layer":"passenger","locationId":"72efb89b-1585-459f-aee2-c585d94ebe30","name":"PP005353 - De Noord 3, Ilpendam","address":"3 De Noord","city":"Ilpendam","operatorName":"TotalEnergies","maxPowerKw":11,"isMegawatt":false,"status":"AVAILABLE","source":"ndw"}},{"type":"Feature","geometry":{"type":"Point","coordinates":[4.99821,52.43088]},"properties":{"type":"charge","layer":"passenger","locationId":"139","name":"Shell Recharge NL Wagengouw 10","address":"Wagengouw 10","city":"Broek in Waterland","operatorName":"Ubitricity","maxPowerKw":11,"isMegawatt":false,"status":"AVAILABLE","source":"ndw","priceKwh":0.388}},{"type":"Feature","geometry":{"type":"Point","coordinates":[5.10936,52.46225]},"properties":{"type":"charge","layer":"passenger","locationId":"aaf30edc4fca14ba90a547ccd6badf1b","name":"Minneweg 2","address":"Minneweg 2","city":"Marken","operatorName":"Vattenfall InCharge","maxPowerKw":11,"isMegawatt":false,"status":"AVAILABLE","source":"ndw"}},{"type":"Feature","geometry":{"type":"Point","coordinates":[5.0334995,52.4598877]},"properties":{"type":"charge","layer":"passenger","locationId":"908","name":"Shell Recharge NL Nieuwe Zijds Burgwal 32","address":"Nieuwe Zijds Burgwal 32","city":"Monnickendam","operatorName":"Ubitricity","maxPowerKw":22,"isMegawatt":false,"status":"CHARGING","source":"ndw","priceKwh":0.266}},{"type":"Feature","geometry":{"type":"Point","coordinates":[5.04252,52.455128]},"properties":{"type":"charge","layer":"passenger","locationId":"7e2cc2b2-8d2f-4891-bae9-2d28d8762a76","name":"TNLP009811 - Jan Persijnlaan 162, Monnickendam","address":"162 Jan Persijnlaan","city":"Monnickendam","operatorName":"TotalEnergies","maxPowerKw":17,"isMegawatt":false,"status":"UNAVAILABLE","source":"ndw"}},{"type":"Feature","geometry":{"type":"Point","coordinates":[5.04027,52.4576]},"properties":{"type":"charge","layer":"passenger","locationId":"f059a2c4-a37b-4801-8ea0-8b056065fa74","name":"PP001359 - Galgeriet 10, Monnickendam","address":"10 Galgeriet","city":"Monnickendam","operatorName":"TotalEnergies","maxPowerKw":11,"isMegawatt":false,"status":"UNAVAILABLE","source":"ndw"}},{"type":"Feature","geometry":{"type":"Point","coordinates":[5.036175,52.462265]},"properties":{"type":"charge","layer":"passenger","locationId":"62caffc6-5676-4b9a-adb0-46e6d79dcae1","name":"TNLP007158 - Haringburgwal 11a, Monnickendam","address":"11a Haringburgwal","city":"Monnickendam","operatorName":"TotalEnergies","maxPowerKw":17,"isMegawatt":false,"status":"UNAVAILABLE","source":"ndw"}},{"type":"Feature","geometry":{"type":"Point","coordinates":[5.043283,52.450525]},"properties":{"type":"charge","layer":"passenger","locationId":"746","name":"Shell Recharge NL Cornelis Dirkszoonlaan 328","address":"Cornelis Dirkszoonlaan 328","city":"Monnickendam","operatorName":"Ubitricity","maxPowerKw":11,"isMegawatt":false,"status":"AVAILABLE","source":"ndw","priceKwh":0.388}},{"type":"Feature","geometry":{"type":"Point","coordinates":[5.040046,52.453728]},"properties":{"type":"charge","layer":"passenger","locationId":"adb70983-2528-4dad-922d-3fcfb50926ef","name":"TNLP007140 - Graaf Willemlaan 141, Monnickendam","address":"141 Graaf Willemlaan","city":"Monnickendam","operatorName":"TotalEnergies","maxPowerKw":15,"isMegawatt":false,"status":"AVAILABLE","source":"ndw"}},{"type":"Feature","geometry":{"type":"Point","coordinates":[4.954362,52.46721]},"properties":{"type":"charge","layer":"passenger","locationId":"ef697189-612b-4817-93b1-54c74f0bb216","name":"TNLP007543 - Fuutstraat 44, Ilpendam","address":"44 Fuutstraat","city":"Ilpendam","operatorName":"TotalEnergies","maxPowerKw":17,"isMegawatt":false,"status":"AVAILABLE","source":"ndw"}},{"type":"Feature","geometry":{"type":"Point","coordinates":[4.9515,52.46793]},"properties":{"type":"charge","layer":"passenger","locationId":"372","name":"Shell Recharge NL Lepelaarstraat 52","address":"Lepelaarstraat 52","city":"Ilpendam","operatorName":"Ubitricity","maxPowerKw":11,"isMegawatt":false,"status":"AVAILABLE","source":"ndw","priceKwh":0.388}},{"type":"Feature","geometry":{"type":"Point","coordinates":[5.10267,52.459675]},"properties":{"type":"charge","layer":"passenger","locationId":"6f1a3acc-c30e-4c37-b599-ebc02beac2e7","name":"TNLP007288 - Akkerstraat 11, Marken","address":"11 Akkerstraat","city":"Marken","operatorName":"TotalEnergies","maxPowerKw":17,"isMegawatt":false,"status":"UNAVAILABLE","source":"ndw"}},{"type":"Feature","geometry":{"type":"Point","coordinates":[5.03544,52.46286]},"properties":{"type":"charge","layer":"passenger","locationId":"a740e848-b5bd-4dd6-b8ba-01124e8034e8","name":"PP001305 - Haringburgwal 17, Monnickendam","address":"17 Haringburgwal","city":"Monnickendam","operatorName":"TotalEnergies","maxPowerKw":11,"isMegawatt":false,"status":"UNAVAILABLE","source":"ndw"}},{"type":"Feature","geometry":{"type":"Point","coordinates":[5.10369,52.45649]},"properties":{"type":"charge","layer":"passenger","locationId":"59b83d09-0104-4817-af6d-461dd72b164d","name":"Laadplein - PP004229 - Kets 21, Marken","address":"21 Kets","city":"Marken","operatorName":"TotalEnergies","maxPowerKw":15,"isMegawatt":false,"status":"AVAILABLE","source":"ndw"}},{"type":"Feature","geometry":{"type":"Point","coordinates":[5.039006,52.45878]},"properties":{"type":"charge","layer":"passenger","locationId":"c0159c2a-2fff-48c1-9050-996f1d8723bd","name":"TNLP007010 - t Prooyen 12, Monnickendam","address":"12 t Prooyen","city":"Monnickendam","operatorName":"TotalEnergies","maxPowerKw":17,"isMegawatt":false,"status":"UNAVAILABLE","source":"ndw"}},{"type":"Feature","geometry":{"type":"Point","coordinates":[4.996667,52.435722]},"properties":{"type":"charge","layer":"passenger","locationId":"54c86afb-191a-4f5d-b30b-8146692ad96b","name":"TNLP008940 - Nieuwland 34, Broek in Waterland","address":"34 Nieuwland","city":"Broek in Waterland","operatorName":"TotalEnergies","maxPowerKw":13,"isMegawatt":false,"status":"UNAVAILABLE","source":"ndw"}},{"type":"Feature","geometry":{"type":"Point","coordinates":[5.040815,52.466602]},"properties":{"type":"charge","layer":"passenger","locationId":"4110720","name":"Laadnet Henri Willig Beheer B.V.","address":"Hoogedijk 8","city":"Katwoude","operatorName":"Laadnet","maxPowerKw":22,"isMegawatt":false,"status":"AVAILABLE","source":"ndw"}},{"type":"Feature","geometry":{"type":"Point","coordinates":[5.03235,52.44934]},"properties":{"type":"charge","layer":"passenger","locationId":"571","name":"Shell Recharge NL Lijnbaan 11","address":"Lijnbaan 11","city":"Monnickendam","operatorName":"Ubitricity","maxPowerKw":11,"isMegawatt":false,"status":"AVAILABLE","source":"ndw","priceKwh":0.388}},{"type":"Feature","geometry":{"type":"Point","coordinates":[5.044522,52.455297]},"properties":{"type":"charge","layer":"passenger","locationId":"12341b2e-2e81-460d-b7b2-8016383e554c","name":"PP005618","address":"Cornelis Dirkszoonlaan 1","city":"Monnickendam","operatorName":"TotalEnergies","maxPowerKw":11,"isMegawatt":false,"status":"CHARGING","source":"ndw"}},{"type":"Feature","geometry":{"type":"Point","coordinates":[4.99349,52.43783]},"properties":{"type":"charge","layer":"passenger","locationId":"d6118f96-b853-4b6b-b1a0-9e8c08b452c4","name":"PP005025 - Leeteinde 5, Broek in Waterland","address":"5 Leeteinde","city":"Broek in Waterland","operatorName":"TotalEnergies","maxPowerKw":15,"isMegawatt":false,"status":"AVAILABLE","source":"ndw"}},{"type":"Feature","geometry":{"type":"Point","coordinates":[5.11018,52.462322]},"properties":{"type":"charge","layer":"passenger","locationId":"cc30a649-a5a6-4f5d-93da-6c81ad0c70a1","name":"PP001223 - Minneweg 2, Marken","address":"2 Minneweg","city":"Marken","operatorName":"TotalEnergies","maxPowerKw":11,"isMegawatt":false,"status":"UNAVAILABLE","source":"ndw"}},{"type":"Feature","geometry":{"type":"Point","coordinates":[4.95146,52.463657]},"properties":{"type":"charge","layer":"passenger","locationId":"157","name":"Shell Recharge NL De Noord 2","address":"De Noord 2","city":"Ilpendam","operatorName":"Ubitricity","maxPowerKw":11,"isMegawatt":false,"status":"AVAILABLE","source":"ndw","priceKwh":0.388}},{"type":"Feature","geometry":{"type":"Point","coordinates":[5.0364,52.46158]},"properties":{"type":"charge","layer":"passenger","locationId":"ed838c84-56c6-4105-b7bf-1715814c365e","name":"PP002018 - Haringburgwal 3, Monnickendam","address":"3 Haringburgwal","city":"Monnickendam","operatorName":"TotalEnergies","maxPowerKw":11,"isMegawatt":false,"status":"AVAILABLE","source":"ndw"}},{"type":"Feature","geometry":{"type":"Point","coordinates":[5.03698,52.43111]},"properties":{"type":"charge","layer":"passenger","locationId":"3e8119c8-6a0d-4f7e-831a-d21af49f8d6c","name":"PP004079 - Zuiderwouder Dorpsstraat 39, Zuiderwoude","address":"39 Zuiderwouder Dorpsstraat","city":"Zuiderwoude","operatorName":"TotalEnergies","maxPowerKw":11,"isMegawatt":false,"status":"UNAVAILABLE","source":"ndw"}},{"type":"Feature","geometry":{"type":"Point","coordinates":[5.03797,52.44711]},"properties":{"type":"charge","layer":"passenger","locationId":"6c5a7b12-0eeb-4bc1-9612-785ccbbaf574","name":"TNLP008333 - Rielant 69, Monnickendam","address":"69 Rielant","city":"Monnickendam","operatorName":"TotalEnergies","maxPowerKw":14,"isMegawatt":false,"status":"AVAILABLE","source":"ndw"}},{"type":"Feature","geometry":{"type":"Point","coordinates":[5.035239,52.455688]},"properties":{"type":"charge","layer":"passenger","locationId":"92355e3f-4f93-4e49-9a4b-76e4bc6b4174","name":"TNLP015166","address":"Marijkestraat 52","city":"Monnickendam","operatorName":"TotalEnergies","maxPowerKw":17,"isMegawatt":false,"status":"AVAILABLE","source":"ndw"}},{"type":"Feature","geometry":{"type":"Point","coordinates":[5.03672,52.44737]},"properties":{"type":"charge","layer":"passenger","locationId":"46725ee1-c456-4d86-b72b-2bc8e1ee3f53","name":"PP004129 - Rielant 50, Monnickendam","address":"50 Rielant","city":"Monnickendam","operatorName":"TotalEnergies","maxPowerKw":11,"isMegawatt":false,"status":"UNAVAILABLE","source":"ndw"}},{"type":"Feature","geometry":{"type":"Point","coordinates":[5.04357,52.453526]},"properties":{"type":"charge","layer":"passenger","locationId":"880c5b57-01b1-42e9-8ca5-02de2505c80e","name":"TNLP007474 - Cornelis Dirkszoonlaan 84, Monnickendam","address":"84 Cornelis Dirkszoonlaan","city":"Monnickendam","operatorName":"TotalEnergies","maxPowerKw":17,"isMegawatt":false,"status":"UNAVAILABLE","source":"ndw"}},{"type":"Feature","geometry":{"type":"Point","coordinates":[5.00199,52.43222]},"properties":{"type":"charge","layer":"passenger","locationId":"50d04265-7e2a-40cf-8d7a-97fdbe897b7a","name":"PP004218 - De Draai 1, Broek in Waterland","address":"1 De Draai","city":"Broek in Waterland","operatorName":"TotalEnergies","maxPowerKw":11,"isMegawatt":false,"status":"UNAVAILABLE","source":"ndw"}},{"type":"Feature","geometry":{"type":"Point","coordinates":[5.041107,52.452328]},"properties":{"type":"charge","layer":"passenger","locationId":"ca56ee8b-2f36-4620-8a72-43ebb0832540","name":"TNLP006520 - Jan Nieuwenhuyzenlaan 24, Monnickendam","address":"24 Jan Nieuwenhuyzenlaan","city":"Monnickendam","operatorName":"TotalEnergies","maxPowerKw":17,"isMegawatt":false,"status":"UNAVAILABLE","source":"ndw"}},{"type":"Feature","geometry":{"type":"Point","coordinates":[4.961702,52.427755]},"properties":{"type":"charge","layer":"passenger","locationId":"4174216","name":"Laadnet Broekermeerdijk 8 Watergang","address":"Broekermeerdijk 8","city":"Watergang","operatorName":"Laadnet","maxPowerKw":22,"isMegawatt":false,"status":"AVAILABLE","source":"ndw"}},{"type":"Feature","geometry":{"type":"Point","coordinates":[5.03773,52.45496]},"properties":{"type":"charge","layer":"passenger","locationId":"213a2a5a-e3a2-42b8-879d-b9dba3edd31c","name":"PP001398 - Pierebaan 1, Monnickendam","address":"1 Pierebaan","city":"Monnickendam","operatorName":"TotalEnergies","maxPowerKw":11,"isMegawatt":false,"status":"AVAILABLE","source":"ndw"}},{"type":"Feature","geometry":{"type":"Point","coordinates":[5.043988,52.446774]},"properties":{"type":"charge","layer":"passenger","locationId":"dc626105-4d4b-45e3-a8ee-1b22f91efea7","name":"TNLP006462 - Leeuwetand 97, Monnickendam","address":"97 Leeuwetand","city":"Monnickendam","operatorName":"TotalEnergies","maxPowerKw":17,"isMegawatt":false,"status":"UNAVAILABLE","source":"ndw"}},{"type":"Feature","geometry":{"type":"Point","coordinates":[4.99708,52.43537]},"properties":{"type":"charge","layer":"passenger","locationId":"1583","name":"Shell Recharge NL Nieuwland 34","address":"Nieuwland 34","city":"Waterland","operatorName":"Ubitricity","maxPowerKw":11,"isMegawatt":false,"status":"AVAILABLE","source":"ndw","priceKwh":0.388}},{"type":"Feature","geometry":{"type":"Point","coordinates":[4.95171,52.46507]},"properties":{"type":"charge","layer":"passenger","locationId":"294d9dc2-b01a-42e1-bd69-50a4885fa2c3","name":"PP004287 - Lepelaarstraat 7, Ilpendam","address":"7 Lepelaarstraat","city":"Ilpendam","operatorName":"TotalEnergies","maxPowerKw":11,"isMegawatt":false,"status":"AVAILABLE","source":"ndw"}},{"type":"Feature","geometry":{"type":"Point","coordinates":[5.037067,52.449673]},"properties":{"type":"charge","layer":"passenger","locationId":"67bc825f7b4a576fdbe72332","name":"NXT 50five - Monnickendam - 't Spil 32 - DC","address":"'t Spil 32","city":"Monnickendam","operatorName":"NXT50Five","maxPowerKw":50,"isMegawatt":false,"status":"UNAVAILABLE","source":"ndw","priceKwh":0.6}},{"type":"Feature","geometry":{"type":"Point","coordinates":[4.99633,52.42624]},"properties":{"type":"charge","layer":"passenger","locationId":"4fd80c27e9c02da68cb4b910103362d5","name":"Veenderijgouw 82","address":"Veenderijgouw 82","city":"Broek in Waterland","operatorName":"Vattenfall InCharge","maxPowerKw":11,"isMegawatt":false,"status":"AVAILABLE","source":"ndw"}},{"type":"Feature","geometry":{"type":"Point","coordinates":[5.040648,52.446026]},"properties":{"type":"charge","layer":"passenger","locationId":"bfd2386f-3d2c-41c9-a977-2150b8898fd2","name":"TNLP007500 - Bereklauw 15, Monnickendam","address":"15 Bereklauw","city":"Monnickendam","operatorName":"TotalEnergies","maxPowerKw":17,"isMegawatt":false,"status":"UNAVAILABLE","source":"ndw"}},{"type":"Feature","geometry":{"type":"Point","coordinates":[5.040046,52.456123]},"properties":{"type":"charge","layer":"passenger","locationId":"378","name":"Shell Recharge NL Graaf Willemlaan 1","address":"Graaf Willemlaan 1","city":"Monnickendam","operatorName":"Ubitricity","maxPowerKw":11,"isMegawatt":false,"status":"AVAILABLE","source":"ndw","priceKwh":0.388}},{"type":"Feature","geometry":{"type":"Point","coordinates":[4.952164,52.459526]},"properties":{"type":"charge","layer":"passenger","locationId":"e9d70647-8e4c-49ac-ad05-3ba3d066d133","name":"TNLP007553 - Dorpsstraat 77, Ilpendam","address":"77 Dorpsstraat","city":"Ilpendam","operatorName":"TotalEnergies","maxPowerKw":15,"isMegawatt":false,"status":"CHARGING","source":"ndw"}},{"type":"Feature","geometry":{"type":"Point","coordinates":[5.037641,52.448605]},"properties":{"type":"charge","layer":"passenger","locationId":"87c19a0f-f861-47c1-b208-f84a8465409c","name":"TNLP009394 - Rielant 18, Monnickendam","address":"18 Rielant","city":"Monnickendam","operatorName":"TotalEnergies","maxPowerKw":17,"isMegawatt":false,"status":"UNAVAILABLE","source":"ndw"}},{"type":"Feature","geometry":{"type":"Point","coordinates":[5.0344,52.450035]},"properties":{"type":"charge","layer":"passenger","locationId":"77952311-3682-42f8-a8d4-e8f0d53054c9","name":"TNLP007212 - Karn 2, Monnickendam","address":"2 Karn","city":"Monnickendam","operatorName":"TotalEnergies","maxPowerKw":15,"isMegawatt":false,"status":"AVAILABLE","source":"ndw"}},{"type":"Feature","geometry":{"type":"Point","coordinates":[5.031431,52.45713]},"properties":{"type":"charge","layer":"passenger","locationId":"8694c868-7248-416f-bcc4-106afe30ecf9","name":"PP005268 - Vesting 2, Monnickendam","address":"2 Vesting","city":"Monnickendam","operatorName":"TotalEnergies","maxPowerKw":11,"isMegawatt":false,"status":"UNAVAILABLE","source":"ndw"}},{"type":"Feature","geometry":{"type":"Point","coordinates":[5.03735,52.44925]},"properties":{"type":"charge","layer":"passenger","locationId":"592","name":"Shell Recharge NL Opheve 20","address":"Opheve 20","city":"Monnickendam","operatorName":"Ubitricity","maxPowerKw":11,"isMegawatt":false,"status":"AVAILABLE","source":"ndw","priceKwh":0.388}},{"type":"Feature","geometry":{"type":"Point","coordinates":[5.042424,52.445812]},"properties":{"type":"charge","layer":"passenger","locationId":"bf4b4679-6de0-4a87-b135-f0a3386aee60","name":"TNLP008447 - Leeuwetand 20, Monnickendam","address":"20 Leeuwetand","city":"Monnickendam","operatorName":"TotalEnergies","maxPowerKw":13,"isMegawatt":false,"status":"UNAVAILABLE","source":"ndw"}},{"type":"Feature","geometry":{"type":"Point","coordinates":[4.99858,52.43344]},"properties":{"type":"charge","layer":"passenger","locationId":"bbe84f60-57dd-4561-b9b9-618c1cb80fe7","name":"PP004230 - Eilandweg 1, Broek in Waterland","address":"1 Eilandweg","city":"Broek in Waterland","operatorName":"TotalEnergies","maxPowerKw":11,"isMegawatt":false,"status":"UNAVAILABLE","source":"ndw"}},{"type":"Feature","geometry":{"type":"Point","coordinates":[5.031985,52.46162]},"properties":{"type":"charge","layer":"passenger","locationId":"6c977e44-cfe4-4c26-ad53-c7fd796d0aef","name":"TNLP007459 - Leo Hordijkstraat 25, Monnickendam","address":"25 Leo Hordijkstraat","city":"Monnickendam","operatorName":"TotalEnergies","maxPowerKw":17,"isMegawatt":false,"status":"UNAVAILABLE","source":"ndw"}},{"type":"Feature","geometry":{"type":"Point","coordinates":[5.039994,52.454433]},"properties":{"type":"charge","layer":"passenger","locationId":"48d53cd7-1b8e-4163-bcfb-a4e3723c96a9","name":"TNLP008521 - Graaf Willemlaan 67, Monnickendam","address":"67 Graaf Willemlaan","city":"Monnickendam","operatorName":"TotalEnergies","maxPowerKw":14,"isMegawatt":false,"status":"AVAILABLE","source":"ndw"}},{"type":"Feature","geometry":{"type":"Point","coordinates":[5.034335,52.45923]},"properties":{"type":"charge","layer":"passenger","locationId":"88095d06-0f0d-4a17-8f0e-e8f608f4bff4","name":"TNLP007104 - Kermergracht 1, Monnickendam","address":"1 Kermergracht","city":"Monnickendam","operatorName":"TotalEnergies","maxPowerKw":17,"isMegawatt":false,"status":"AVAILABLE","source":"ndw"}},{"type":"Feature","geometry":{"type":"Point","coordinates":[5.03755,52.4562]},"properties":{"type":"charge","layer":"passenger","locationId":"1643","name":"Shell Recharge NL Swaensborch 1","address":"Swaensborch 1","city":"Waterland","operatorName":"Ubitricity","maxPowerKw":11,"isMegawatt":false,"status":"AVAILABLE","source":"ndw","priceKwh":0.388}},{"type":"Feature","geometry":{"type":"Point","coordinates":[5.030261,52.452366]},"properties":{"type":"charge","layer":"passenger","locationId":"b7552cf2-b577-4eca-85a7-0968335c1962","name":"PP005012 - Tongnaald 1, Monnickendam","address":"1 Tongnaald","city":"Monnickendam","operatorName":"TotalEnergies","maxPowerKw":11,"isMegawatt":false,"status":"UNAVAILABLE","source":"ndw"}},{"type":"Feature","geometry":{"type":"Point","coordinates":[5.105269,52.459231]},"properties":{"type":"charge","layer":"passenger","locationId":"521e0fa829c6853751b1487053b2adda","name":"Buurterstraat 17","address":"Buurterstraat 17","city":"Marken","operatorName":"Vattenfall InCharge","maxPowerKw":11,"isMegawatt":false,"status":"AVAILABLE","source":"ndw"}},{"type":"Feature","geometry":{"type":"Point","coordinates":[5.033836,52.45954]},"properties":{"type":"charge","layer":"passenger","locationId":"ec7e910c-719e-4bac-95bf-305d0df873c7","name":"PP001413 - Kermergracht 18, Monnickendam","address":"18 Kermergracht","city":"Monnickendam","operatorName":"TotalEnergies","maxPowerKw":11,"isMegawatt":false,"status":"UNAVAILABLE","source":"ndw"}},{"type":"Feature","geometry":{"type":"Point","coordinates":[5.044836,52.447678]},"properties":{"type":"charge","layer":"passenger","locationId":"88b334d9-979c-4014-9018-2f768aea1e56","name":"TNLP008595 - Zwaluwtong 112, Monnickendam","address":"112 Zwaluwtong","city":"Monnickendam","operatorName":"TotalEnergies","maxPowerKw":13,"isMegawatt":false,"status":"UNAVAILABLE","source":"ndw"}},{"type":"Feature","geometry":{"type":"Point","coordinates":[5.037256,52.455537]},"properties":{"type":"charge","layer":"passenger","locationId":"710","name":"Shell Recharge NL Pierebaan 7","address":"Pierebaan 7","city":"Monnickendam","operatorName":"Ubitricity","maxPowerKw":11,"isMegawatt":false,"status":"AVAILABLE","source":"ndw","priceKwh":0.388}},{"type":"Feature","geometry":{"type":"Point","coordinates":[5.107759,52.46143]},"properties":{"type":"charge","layer":"passenger","locationId":"97ed4e45-b926-46ae-a144-f6a0a9865d12","name":"Laadplein - TNLP005837 - Kerkbuurt 90, Marken","address":"90 Kerkbuurt","city":"Marken","operatorName":"TotalEnergies","maxPowerKw":15,"isMegawatt":false,"status":"AVAILABLE","source":"ndw"}},{"type":"Feature","geometry":{"type":"Point","coordinates":[5.037597,52.451664]},"properties":{"type":"charge","layer":"passenger","locationId":"c47e34a2-7d35-4243-b265-945f77b377d0","name":"Laadplein - TNLP006742 - Pierebaan 49, Monnickendam","address":"49 Pierebaan","city":"Monnickendam","operatorName":"TotalEnergies","maxPowerKw":17,"isMegawatt":false,"status":"AVAILABLE","source":"ndw"}},{"type":"Feature","geometry":{"type":"Point","coordinates":[4.996908,52.42921]},"properties":{"type":"charge","layer":"passenger","locationId":"f827af3f-ed97-4a13-9b27-50e470005e11","name":"Laadplein - PP004060 - Veenderijgouw 1, Broek in waterland","address":"1 Veenderijgouw","city":"Broek in waterland","operatorName":"TotalEnergies","maxPowerKw":15,"isMegawatt":false,"status":"AVAILABLE","source":"ndw"}},{"type":"Feature","geometry":{"type":"Point","coordinates":[4.99713,52.43564]},"properties":{"type":"charge","layer":"passenger","locationId":"5054dd51-7c3a-4b08-8c37-19d8fe5b88a8","name":"PP004059 - Nieuwland 23, Broek in Waterland","address":"23 Nieuwland","city":"Broek in Waterland","operatorName":"TotalEnergies","maxPowerKw":11,"isMegawatt":false,"status":"UNAVAILABLE","source":"ndw"}},{"type":"Feature","geometry":{"type":"Point","coordinates":[5.041691,52.449272]},"properties":{"type":"charge","layer":"passenger","locationId":"0d3fa17c-2168-4c0b-b35d-895d40023e37","name":"TNLP007024 - Houtrib 102, Monnickendam","address":"102 Houtrib","city":"Monnickendam","operatorName":"TotalEnergies","maxPowerKw":17,"isMegawatt":false,"status":"UNAVAILABLE","source":"ndw"}},{"type":"Feature","geometry":{"type":"Point","coordinates":[5.042898,52.448191]},"properties":{"type":"charge","layer":"passenger","locationId":"98a85203-01b2-4f28-9ba3-c429078966d5","name":"TNLP015223","address":"Houtrib 144","city":"Monnickendam","operatorName":"TotalEnergies","maxPowerKw":17,"isMegawatt":false,"status":"AVAILABLE","source":"ndw"}},{"type":"Feature","geometry":{"type":"Point","coordinates":[4.9497912,52.4655995]},"properties":{"type":"charge","layer":"passenger","locationId":"998","name":"Shell Recharge NL Kievitstraat 24","address":"Kievitstraat 24","city":"Ilpendam","operatorName":"Ubitricity","maxPowerKw":22,"isMegawatt":false,"status":"AVAILABLE","source":"ndw","priceKwh":0.266}},{"type":"Feature","geometry":{"type":"MultiPolygon","coordinates":[[[[4.9979635643813305,52.494732952119016],[5.024610244802011,52.48492552745935],[5.025519511722344,52.48513618572494],[5.030620763148963,52.48706075914633],[5.031051703477848,52.488476892417054],[5.03391252525437,52.48857234282857],[5.034077774000789,52.48833006882399],[5.038779142584567,52.48834375971496],[5.0590938793393,52.49095561234314],[5.058644555259117,52.48552478207047],[5.059480368984287,52.48561446491617],[5.059060894050516,52.48179657825358],[5.060569977798994,52.476706421027465],[5.067651077003061,52.47230428588742],[5.069087786800574,52.470711609680954],[5.068473841481244,52.468766552932856],[5.061903718256482,52.46770485609222],[5.057837729594702,52.46792568776124],[5.051065740056708,52.469332694096224],[5.048828516118937,52.46845687338767],[5.041572078913985,52.46589448338192],[5.041423076790541,52.465497447770296],[5.03972288627694,52.465574015660245],[5.03911703515744,52.46497513407531],[5.038761022574991,52.46503402727365],[5.038829885613721,52.46577571375587],[5.038650046661412,52.46578753474562],[5.038662978562334,52.466132671820134],[5.038214969364861,52.46620105549953],[5.038224948085165,52.466280718312944],[5.0336042279631,52.46738980285896],[5.033414863732825,52.465965708435604],[5.033307181972176,52.46480695135394],[5.034097718865632,52.464397957277036],[5.038515779144896,52.46400102313133],[5.038749523742082,52.463424480683884],[5.0383643863038055,52.463225059023024],[5.037708387971406,52.463449234908346],[5.036448110568055,52.46317094819812],[5.03879806288774,52.46046323123615],[5.039870058159003,52.460852531653195],[5.040436378994874,52.4601355644383],[5.041670637587853,52.460137777484654],[5.040652238055447,52.45904182456253],[5.040883139710264,52.458184574021544],[5.042291246032233,52.45777622061552],[5.043459554037494,52.457593973240854],[5.046072972749809,52.46118125658001],[5.049256623044605,52.46276523617821],[5.054034879284474,52.462083506334615],[5.055247385589993,52.460876318287966],[5.049800303147742,52.45551393476207],[5.048463842870862,52.45510022503173],[5.048177385794835,52.453883470959944],[5.048164366488389,52.450567612658894],[5.047725570459247,52.44837982698052],[5.048222795989913,52.44767434545507],[5.049124259913226,52.44732617706477],[5.050303806095856,52.4450010285715],[5.0479507054125765,52.442253662749465],[5.049415046693439,52.43935897968384],[5.057487822094138,52.43912747874789],[5.0638318045595705,52.43732510917401],[5.064841573355291,52.437343109255956],[5.065661878004794,52.438582965672325],[5.067195446311188,52.43889549074624],[5.071704395377803,52.43773280304837],[5.078059915091817,52.43655786193541],[5.086926115386843,52.437023828309115],[5.087186267130496,52.43506133949682],[5.088845134712082,52.43484317356573],[5.093001239119638,52.4401155056778],[5.094389796656492,52.4485435045239],[5.092995729100502,52.4503672669543],[5.092635270015887,52.451661981364005],[5.094685412105402,52.45414609725823],[5.098775313630438,52.45726874117396],[5.0992518390195505,52.4582352566487],[5.099072850363063,52.458413016138245],[5.0991424943439405,52.458554063210634],[5.099507727264108,52.45828814179806],[5.099232401927396,52.45761142757436],[5.099039221693974,52.45739997865132],[5.10016141982237,52.457063863252785],[5.100688261413981,52.45791028827399],[5.100544231013755,52.4579458451355],[5.1006255166762715,52.458082335960015],[5.100780965271347,52.45804437097317],[5.100960700370432,52.458318165660906],[5.101319336089069,52.45889939479793],[5.1007922090410025,52.45899644139924],[5.100429491753229,52.458417560898454],[5.09926832549701,52.45866365572448],[5.0992782387914914,52.45877608021067],[5.10000595033613,52.45869531752069],[5.10153418229407,52.4620549864834],[5.100520608126627,52.46417192032728],[5.102724099664909,52.46671480032953],[5.104925995990985,52.467276007307724],[5.106343647485965,52.46754542989823],[5.111761772680139,52.46397754289867],[5.113643221292501,52.461788735671064],[5.120096960528801,52.46179274121223],[5.132078969767208,52.46309780414971],[5.134742761565267,52.46288088214917],[5.136522529018683,52.46240459040105],[5.1372839145637865,52.46183974241551],[5.137571709164683,52.46125391382914],[5.137327176411336,52.46065780459673],[5.1375948005580625,52.46038650625215],[5.138772745996986,52.45991046529972],[5.139311628574967,52.459909489329206],[5.139380184575512,52.45968778549856],[5.138854729728143,52.45962439686966],[5.138857573794165,52.459547587384215],[5.139291557174372,52.45950032223305],[5.139268537171604,52.45943704312891],[5.138705693515402,52.45948688807849],[5.13829242302047,52.459983145645715],[5.137003948328662,52.46034155680766],[5.133415377083718,52.45981830590468],[5.1243140064362,52.457067763767],[5.12192086584629,52.455644884412926],[5.111084398262826,52.4540455010519],[5.106175499139449,52.45019334871143],[5.099121552575723,52.45026830094729],[5.094937637315184,52.44845231153042],[5.093869906826684,52.441010111140365],[5.09192010694337,52.43736562716066],[5.0867550695653785,52.43209173314625],[5.086346151049027,52.43229381765164],[5.088211102799454,52.43423163664964],[5.085921223643489,52.435046294387746],[5.081697174585645,52.43105821089865],[5.0808468530171496,52.43069532744087],[5.079428074927507,52.43074168238584],[5.079981340164693,52.43029371455598],[5.079775063738605,52.430026850522744],[5.078910500121812,52.43016014903225],[5.076605052178471,52.42892729264685],[5.0763189620616105,52.42857448366438],[5.076219622540505,52.42817018741198],[5.077032120382507,52.4278265021646],[5.076969333633741,52.42760437679569],[5.076831307076537,52.42697433913317],[5.076677814620792,52.42699163365474],[5.0766660719642305,52.4276504231172],[5.075442126022146,52.427836252669174],[5.075630957476819,52.42858138876215],[5.074877889170134,52.42872180552019],[5.074317176042371,52.427858473745964],[5.074651645245296,52.427757577887846],[5.074210294290886,52.4271226487952],[5.076706459107579,52.42668378579594],[5.076177162749775,52.42643177013901],[5.075842445296957,52.42634132157614],[5.075182167001815,52.42625237687995],[5.074288143602532,52.42495200855331],[5.0743760732211545,52.42450999946436],[5.075438190657413,52.42429966661851],[5.075364990853883,52.42417460644691],[5.074055034408822,52.42441768456433],[5.07304809530866,52.42395379282237],[5.073262470692603,52.42058214436523],[5.06826231836466,52.41655808392892],[5.065411341923559,52.41723943109709],[5.049175945359275,52.415129273860636],[5.0401079615224305,52.41730725654916],[5.035236903598149,52.41825099655722],[5.032933037651278,52.416462859195185],[5.030043626592635,52.4156435117637],[5.029726632742484,52.41770683290621],[5.028356152358436,52.4194164365282],[5.021144614419857,52.42105483783113],[5.018203971107407,52.41905957334087],[5.000291728626658,52.425406778584865],[4.995577014088879,52.42547128224323],[4.990487924166759,52.425429936975554],[4.990404509735187,52.424518363653426],[4.989099127372002,52.42330657135635],[4.9871004462233515,52.422841765331675],[4.982635402065783,52.426762370349714],[4.976237273782326,52.42402608310717],[4.973318808274188,52.42279742323811],[4.956004332208751,52.421960453302425],[4.955776174100895,52.42243204814072],[4.953558285529057,52.42225675109598],[4.952328259501258,52.42352369399785],[4.9513393021366845,52.42322863946255],[4.951721086234403,52.422507139381665],[4.951480444456404,52.421929866056686],[4.9496819265950505,52.42198366854083],[4.948806251768378,52.42146447061062],[4.947787666041382,52.421562367297405],[4.950688743994707,52.42359625635454],[4.950860428833681,52.437140878012904],[4.9487853056232725,52.44797418079042],[4.948000793956959,52.452388892553785],[4.950675423622916,52.458220008389446],[4.946876453209988,52.468883365431594],[4.947168212065712,52.47906349027169],[4.948315551215007,52.484005142215494],[4.9538952325934105,52.482958992139324],[4.953616558469326,52.47569428883307],[4.958035328569935,52.471228371596695],[4.974009274570389,52.470404553934955],[4.976493383678135,52.472741013699085],[4.995162996233866,52.49187279867169],[4.9979635643813305,52.494732952119016]]]]},"properties":{"type":"boundary","gemeente":"Waterland","code":"GM0852"}}]}