{"type":"FeatureCollection","metadata":{"gemeente":"Weststellingwerf","slug":"weststellingwerf","code":"GM0098","generated_at":"2026-07-06T16:26:11.361Z","total_passenger":41,"total_freight":1,"bounds":[5.818128753652119,52.80085514546379,6.247258589540392,52.94301407561774],"operators":["Allego","Alva Charging Services","DAEN Mobility","E-Flux by Road","Eneco","Fastned","Laadnet","Lidl","NXT50Five","PureCharged","Shell Recharge","Tesla","TotalEnergies"]},"features":[{"type":"Feature","geometry":{"type":"Point","coordinates":[5.981919,52.915677]},"properties":{"type":"charge","layer":"passenger","locationId":"31131","name":"Fastned De Weeren","address":"De Weeren A32","city":"Oldeholtwolde","operatorName":"Fastned","maxPowerKw":300,"isMegawatt":false,"status":"AVAILABLE","source":"ndw","priceKwh":0.6364}},{"type":"Feature","geometry":{"type":"Point","coordinates":[5.995823,52.879875]},"properties":{"type":"charge","layer":"passenger","locationId":"b751b131-fccf-49d4-bd41-ca969abe0922","name":"TNLP013078 - Haulerweg 63, Wolvega","address":"63 Haulerweg","city":"Wolvega","operatorName":"TotalEnergies","maxPowerKw":17,"isMegawatt":false,"status":"UNAVAILABLE","source":"ndw"}},{"type":"Feature","geometry":{"type":"Point","coordinates":[5.935779,52.83646]},"properties":{"type":"charge","layer":"passenger","locationId":"f9fce9c0-95be-4b53-a872-1055e24b3e4e","name":"Laadplein - Lindedijk 3, Nijetrijne","address":"3 Lindedijk","city":"Nijetrijne","operatorName":"TotalEnergies","maxPowerKw":17,"isMegawatt":false,"status":"UNAVAILABLE","source":"ndw"}},{"type":"Feature","geometry":{"type":"Point","coordinates":[5.986212,52.88225]},"properties":{"type":"charge","layer":"passenger","locationId":"5196","name":"Shell Recharge NL9331 - Karwei Wolvega","address":"Jachtwerfstraat 3","city":"Wolvega","operatorName":"Shell Recharge","maxPowerKw":150,"isMegawatt":false,"status":"AVAILABLE","source":"ndw","priceKwh":0.7025}},{"type":"Feature","geometry":{"type":"Point","coordinates":[6.006925,52.877289]},"properties":{"type":"charge","layer":"passenger","locationId":"ab1d65f6-7c1a-4692-8d80-a7aeec79091d","name":"Lidl Wolvega","address":"Spoorlaan","city":"Wolvega","operatorName":"Lidl","maxPowerKw":50,"isMegawatt":false,"status":"AVAILABLE","source":"ndw"}},{"type":"Feature","geometry":{"type":"Point","coordinates":[6.176189,52.925302]},"properties":{"type":"charge","layer":"passenger","locationId":"6464d3a777e7730012beceb2","name":"camping Bekhofschans","address":"Boekelterweg  15","city":"Boijl","operatorName":"E-Flux by Road","maxPowerKw":6,"isMegawatt":false,"status":"CHARGING","source":"ndw","priceKwh":0.43}},{"type":"Feature","geometry":{"type":"Point","coordinates":[6.020257,52.878111]},"properties":{"type":"charge","layer":"passenger","locationId":"3947957","name":"Laadnet Koninginnenpage","address":"Koninginnenpage 22","city":"Wolvega","operatorName":"Laadnet","maxPowerKw":22,"isMegawatt":false,"status":"AVAILABLE","source":"ndw"}},{"type":"Feature","geometry":{"type":"Point","coordinates":[6.13513,52.884662]},"properties":{"type":"charge","layer":"passenger","locationId":"69c4dbfabc7e11355a20edfa","name":"Bungalowpark het Bosmeer","address":"Elsweg 5","city":"Noordwolde","operatorName":"PureCharged","maxPowerKw":11,"isMegawatt":false,"status":"AVAILABLE","source":"ndw","priceKwh":0.43}},{"type":"Feature","geometry":{"type":"Point","coordinates":[6.074199,52.856187]},"properties":{"type":"charge","layer":"passenger","locationId":"923267","name":"DAE_NL_2001064","address":"pepergaweg 144","city":"Steggerda","operatorName":"DAEN Mobility","maxPowerKw":11,"isMegawatt":false,"status":"UNAVAILABLE","source":"ndw","priceKwh":0.36}},{"type":"Feature","geometry":{"type":"Point","coordinates":[6.006577,52.871535]},"properties":{"type":"charge","layer":"passenger","locationId":"3561455","name":"Laadnet Steenwijkerweg","address":"Steenwijkerweg 70","city":"Wolvega","operatorName":"Laadnet","maxPowerKw":11,"isMegawatt":false,"status":"UNAVAILABLE","source":"ndw"}},{"type":"Feature","geometry":{"type":"Point","coordinates":[5.985358,52.86709]},"properties":{"type":"charge","layer":"passenger","locationId":"b873ad0c-5a3e-4d01-9a34-f2808059a86b","name":"TNLP013242 - Erica 54, Wolvega","address":"54 Erica","city":"Wolvega","operatorName":"TotalEnergies","maxPowerKw":17,"isMegawatt":false,"status":"UNAVAILABLE","source":"ndw"}},{"type":"Feature","geometry":{"type":"Point","coordinates":[6.013159,52.87684]},"properties":{"type":"charge","layer":"passenger","locationId":"8f007c81-5eaf-4598-a1e1-e52e2874c173","name":"TNLP013246 - Grote Vuurvlinder 7, Wolvega","address":"7 Grote Vuurvlinder","city":"Wolvega","operatorName":"TotalEnergies","maxPowerKw":17,"isMegawatt":false,"status":"UNAVAILABLE","source":"ndw"}},{"type":"Feature","geometry":{"type":"Point","coordinates":[5.981431,52.880669]},"properties":{"type":"charge","layer":"passenger","locationId":"6980b8be1509822667008ad6","name":"ROKO","address":"Grafietstraat 3","city":"Wolvega","operatorName":"E-Flux by Road","maxPowerKw":11,"isMegawatt":false,"status":"AVAILABLE","source":"ndw","priceKwh":0.33}},{"type":"Feature","geometry":{"type":"Point","coordinates":[5.987607,52.868954]},"properties":{"type":"charge","layer":"passenger","locationId":"cae9379e-c40e-41ea-aeae-17ff8f02ada9","name":"TNLP013398 - Hobbemastraat 4, Wolvega","address":"4 Hobbemastraat","city":"Wolvega","operatorName":"TotalEnergies","maxPowerKw":17,"isMegawatt":false,"status":"AVAILABLE","source":"ndw"}},{"type":"Feature","geometry":{"type":"Point","coordinates":[5.993634,52.870598]},"properties":{"type":"charge","layer":"passenger","locationId":"cbbdc8b7-ce3e-4f9e-b96a-38f592cecd89","name":"TNLP013245 - van Goghstraat 5, Wolvega","address":"5 van Goghstraat","city":"Wolvega","operatorName":"TotalEnergies","maxPowerKw":17,"isMegawatt":false,"status":"UNAVAILABLE","source":"ndw"}},{"type":"Feature","geometry":{"type":"Point","coordinates":[5.99797,52.873804]},"properties":{"type":"charge","layer":"passenger","locationId":"NLLOC004212","name":"NLD Van der Sandeplein 6, 8471 RX Wolvega","address":"Van der Sandeplein 6","city":"Wolvega","operatorName":"Allego","maxPowerKw":11,"isMegawatt":false,"status":"AVAILABLE","source":"ndw","priceKwh":0.511}},{"type":"Feature","geometry":{"type":"Point","coordinates":[5.989902,52.876038]},"properties":{"type":"charge","layer":"passenger","locationId":"559a4e01-105e-4ec3-9638-2f58a424dcb3","name":"TNLP012111 - Grindweg 81, Wolvega","address":"81 Grindweg","city":"Wolvega","operatorName":"TotalEnergies","maxPowerKw":17,"isMegawatt":false,"status":"UNAVAILABLE","source":"ndw"}},{"type":"Feature","geometry":{"type":"Point","coordinates":[6.006126,52.885608]},"properties":{"type":"charge","layer":"passenger","locationId":"6374981c8d562e1101bcc179","name":"Maatman | Niet zo standaard 1","address":"Zandweegbree 7A","city":"Wolvega","operatorName":"E-Flux by Road","maxPowerKw":22,"isMegawatt":false,"status":"AVAILABLE","source":"ndw","priceKwh":0.48}},{"type":"Feature","geometry":{"type":"Point","coordinates":[6.015426,52.875885]},"properties":{"type":"charge","layer":"passenger","locationId":"1b08e32a-b24a-48a8-83d4-a6099c4a02ca","name":"TNLP012135 - Dagpauwoog 37, Wolvega","address":"37 Dagpauwoog","city":"Wolvega","operatorName":"TotalEnergies","maxPowerKw":17,"isMegawatt":false,"status":"UNAVAILABLE","source":"ndw"}},{"type":"Feature","geometry":{"type":"Point","coordinates":[6.021327,52.88051]},"properties":{"type":"charge","layer":"passenger","locationId":"87f42502-7875-4cd7-989a-af9783746408","name":"Wolvega, Netherlands","address":"10, Atalanta","city":"Wolvega","operatorName":"Tesla","maxPowerKw":250,"isMegawatt":false,"status":"AVAILABLE","source":"ndw","priceKwh":0.49}},{"type":"Feature","geometry":{"type":"Point","coordinates":[6.092591,52.913892]},"properties":{"type":"charge","layer":"passenger","locationId":"1770784","name":"Laadnet Tissink","address":"Stellingenweg 96","city":"Nijeholtpade","operatorName":"Laadnet","maxPowerKw":11,"isMegawatt":false,"status":"UNAVAILABLE","source":"ndw"}},{"type":"Feature","geometry":{"type":"Point","coordinates":[6.01788,52.88249]},"properties":{"type":"charge","layer":"passenger","locationId":"99CFD3EE-EBC8-4666-A8EF-16D07DD7CC00","name":"Eneco eMobility AB Vakwerk - Wolvega","address":"Hoofdweg 10","city":"Wolvega","operatorName":"Eneco","maxPowerKw":22,"isMegawatt":false,"status":"AVAILABLE","source":"ndw","priceKwh":0.32}},{"type":"Feature","geometry":{"type":"Point","coordinates":[6.000768,52.877354]},"properties":{"type":"charge","layer":"passenger","locationId":"b9368492-1d08-42cb-81c7-e383a84c8515","name":"TNLP012143 - Raadhuisstraat 13, Wolvega","address":"13 Raadhuisstraat","city":"Wolvega","operatorName":"TotalEnergies","maxPowerKw":17,"isMegawatt":false,"status":"UNAVAILABLE","source":"ndw"}},{"type":"Feature","geometry":{"type":"Point","coordinates":[5.994057,52.876553]},"properties":{"type":"charge","layer":"passenger","locationId":"0c04bba8-08ed-4196-a598-c9934c0d7606","name":"TNLP013344 - Cort van der Lindenstraat 3, Franeker","address":"3 Cort van der Lindenstraat","city":"Franeker","operatorName":"TotalEnergies","maxPowerKw":17,"isMegawatt":false,"status":"AVAILABLE","source":"ndw"}},{"type":"Feature","geometry":{"type":"Point","coordinates":[5.983963,52.88349]},"properties":{"type":"charge","layer":"passenger","locationId":"6a2286575d4a0f343ac2bac9","name":"Inframeesters Noord","address":"Magnesiumweg 5a","city":"Wolvega","operatorName":"E-Flux by Road","maxPowerKw":22,"isMegawatt":false,"status":"AVAILABLE","source":"ndw","priceKwh":0.48}},{"type":"Feature","geometry":{"type":"Point","coordinates":[6.01526,52.87784]},"properties":{"type":"charge","layer":"passenger","locationId":"42612ec7-da96-41ba-a8d9-7912883c28ad","name":"TNLP013216 - Grote vuurvlinder 67, Wolvega","address":"67 Grote vuurvlinder","city":"Wolvega","operatorName":"TotalEnergies","maxPowerKw":17,"isMegawatt":false,"status":"UNAVAILABLE","source":"ndw"}},{"type":"Feature","geometry":{"type":"Point","coordinates":[5.99533,52.87807]},"properties":{"type":"charge","layer":"passenger","locationId":"4a14ebab-6cff-4ffd-ba61-d01f63fe16bc","name":"TNLP013213 - Kerkstraat 55, Wolvega","address":"55 Kerkstraat","city":"Wolvega","operatorName":"TotalEnergies","maxPowerKw":17,"isMegawatt":false,"status":"UNAVAILABLE","source":"ndw"}},{"type":"Feature","geometry":{"type":"Point","coordinates":[5.989589,52.886635]},"properties":{"type":"charge","layer":"passenger","locationId":"671f7b45621c7a001c1864aa","name":"Wetterskip Fryslân - RWZI Wolvega","address":"Aan de Schipsloot32","city":"Wolvega","operatorName":"Alva Charging Services","maxPowerKw":22,"isMegawatt":false,"status":"AVAILABLE","source":"ndw","priceKwh":0.34}},{"type":"Feature","geometry":{"type":"Point","coordinates":[6.000915,52.882395]},"properties":{"type":"charge","layer":"passenger","locationId":"66729e850611d4001cb91e70","name":"NXT 50five - Wolvega - Heerenveenseweg 80 - DC","address":"Heerenveenseweg 78","city":"Wolvega","operatorName":"NXT50Five","maxPowerKw":300,"isMegawatt":false,"status":"AVAILABLE","source":"ndw","priceKwh":0.63}},{"type":"Feature","geometry":{"type":"Point","coordinates":[6.003998,52.87145]},"properties":{"type":"charge","layer":"passenger","locationId":"8375df17-02ff-4286-a312-05a2d9b63cc0","name":"TNLP013449 - Meester Thorbeckestraat 17, Wolvega","address":"17 Meester Thorbeckestraat","city":"Wolvega","operatorName":"TotalEnergies","maxPowerKw":17,"isMegawatt":false,"status":"AVAILABLE","source":"ndw"}},{"type":"Feature","geometry":{"type":"Point","coordinates":[6.002993,52.927747]},"properties":{"type":"charge","layer":"passenger","locationId":"3456098","name":"Laadnet Geele bosch","address":"Ottersweg 13","city":"Oldeholtwolde","operatorName":"Laadnet","maxPowerKw":22,"isMegawatt":false,"status":"AVAILABLE","source":"ndw"}},{"type":"Feature","geometry":{"type":"Point","coordinates":[5.988304,52.875217]},"properties":{"type":"charge","layer":"passenger","locationId":"1a2a15af-16ee-4513-bfe5-ad4f566cfe1b","name":"TNLP012098 - Meulestraat 38, Wolvega","address":"38 Meulestraat","city":"Wolvega","operatorName":"TotalEnergies","maxPowerKw":17,"isMegawatt":false,"status":"UNAVAILABLE","source":"ndw"}},{"type":"Feature","geometry":{"type":"Point","coordinates":[6.014699,52.875173]},"properties":{"type":"charge","layer":"passenger","locationId":"NLLOC019906","name":"NL, Distelvlinder 19, 8472 CN Wolvega","address":"Distelvlinder 19","city":"Wolvega","operatorName":"Allego","maxPowerKw":11,"isMegawatt":false,"status":"AVAILABLE","source":"ndw","priceKwh":0.511}},{"type":"Feature","geometry":{"type":"Point","coordinates":[5.990496,52.871863]},"properties":{"type":"charge","layer":"passenger","locationId":"NLLOC017150","name":"NL, Hoofdstraat West 89, 8471 HT Wolvega","address":"Hoofdstraat West 89","city":"Wolvega","operatorName":"Allego","maxPowerKw":11,"isMegawatt":false,"status":"AVAILABLE","source":"ndw","priceKwh":0.511}},{"type":"Feature","geometry":{"type":"Point","coordinates":[6.043023,52.844215]},"properties":{"type":"charge","layer":"passenger","locationId":"4af397af-fb2f-4560-98af-21c4812b0c9d","name":"TNLP013042 - Meidoornstraat 31, De Blesse","address":"31 Meidoornstraat","city":"De Blesse","operatorName":"TotalEnergies","maxPowerKw":17,"isMegawatt":false,"status":"UNAVAILABLE","source":"ndw"}},{"type":"Feature","geometry":{"type":"Point","coordinates":[6.051737,52.89402]},"properties":{"type":"charge","layer":"passenger","locationId":"c9b2e184-89bb-4679-b623-c9bfe1539d56","name":"TNLP012158 - Voorkamp 2, Oldeholtpade","address":"2 Voorkamp","city":"Oldeholtpade","operatorName":"TotalEnergies","maxPowerKw":17,"isMegawatt":false,"status":"UNAVAILABLE","source":"ndw"}},{"type":"Feature","geometry":{"type":"Point","coordinates":[5.991017,52.868626]},"properties":{"type":"charge","layer":"passenger","locationId":"118dab55-8da7-42f4-8014-befc612bb78c","name":"TNLP013277 - Struikheide 77, Wolvega","address":"77 Struikheide","city":"Wolvega","operatorName":"TotalEnergies","maxPowerKw":17,"isMegawatt":false,"status":"UNAVAILABLE","source":"ndw"}},{"type":"Feature","geometry":{"type":"Point","coordinates":[5.99748,52.8747]},"properties":{"type":"charge","layer":"passenger","locationId":"6269c0ce-3867-4343-81c9-ab2ba7509cf4","name":"TNLP012161 - Van der Sandeplein 1, Wolvega","address":"1 Van der Sandeplein","city":"Wolvega","operatorName":"TotalEnergies","maxPowerKw":17,"isMegawatt":false,"status":"AVAILABLE","source":"ndw"}},{"type":"Feature","geometry":{"type":"Point","coordinates":[6.147328,52.891018]},"properties":{"type":"charge","layer":"passenger","locationId":"38f51fe0-7658-4a2a-88d5-f1fc7752087a","name":"TNLP012115 - Renbaanstraat 25, Noordwolde (fr)","address":"25 Renbaanstraat","city":"Noordwolde","operatorName":"TotalEnergies","maxPowerKw":17,"isMegawatt":false,"status":"UNAVAILABLE","source":"ndw"}},{"type":"Feature","geometry":{"type":"Point","coordinates":[5.98633,52.87304]},"properties":{"type":"charge","layer":"passenger","locationId":"960c6fc9-138d-422f-ae91-cfed1513578a","name":"TNLP013025 - Kruistraat 16, Wolvega","address":"16 Kruistraat","city":"Wolvega","operatorName":"TotalEnergies","maxPowerKw":17,"isMegawatt":false,"status":"UNAVAILABLE","source":"ndw"}},{"type":"Feature","geometry":{"type":"Point","coordinates":[6.04405,52.845047]},"properties":{"type":"charge","layer":"passenger","locationId":"67cefec9e8150e8c993d52b1","name":"Arnold Kiburg","address":"franke deddenstraat  17","city":"de blesse","operatorName":"E-Flux by Road","maxPowerKw":11,"isMegawatt":false,"status":"UNAVAILABLE","source":"ndw","priceKwh":0.56}},{"type":"Feature","geometry":{"type":"Point","coordinates":[5.972002,52.918091]},"properties":{"type":"charge","layer":"freight","locationId":"51053","name":"Fastned Dorpshellen","address":"Dorpshellen","city":"Weststellingwerf","operatorName":"Fastned","maxPowerKw":400,"isMegawatt":false,"status":"AVAILABLE","source":"ndw","priceKwh":0.6364,"freightKind":"hpc","freightReason":"power"}},{"type":"Feature","geometry":{"type":"MultiPolygon","coordinates":[[[[6.232290926374221,52.91343837517941],[6.228785162296464,52.91030248237882],[6.2068998965283315,52.89074401106462],[6.200811846454756,52.88837873597701],[6.190679663365127,52.884479024287444],[6.1604595190172,52.87252101491461],[6.141219126937692,52.86379996124867],[6.140512557433504,52.86347842774452],[6.120994868029085,52.854650158529054],[6.119820018827319,52.85421535275536],[6.093193363735485,52.84457995567181],[6.087480713311621,52.843114424746986],[6.083298131276706,52.83948756254346],[6.081000628767454,52.83873292016017],[6.061513344161415,52.83929693359952],[6.056490310885685,52.83796642292145],[6.054547429001192,52.83763196753682],[6.052607790157945,52.83733977599673],[6.054979743558906,52.831347962436865],[6.05930064217676,52.82680625111809],[6.059951612765211,52.82611922794255],[6.057816992429709,52.82545335348712],[6.052936479245303,52.8241240684801],[6.0485371062896975,52.82154436369133],[6.046958121453073,52.820527105214786],[6.044519714739284,52.81975227044462],[6.043508865053609,52.81960753613089],[6.0382097432983315,52.81771484173184],[6.031169149647494,52.8149914414233],[6.026617205889024,52.821078308793886],[6.024559656684083,52.82254536256059],[6.017900307453721,52.8219010297257],[6.007484147178563,52.820047142650765],[5.9990791746082905,52.81691066725211],[5.996508651789551,52.81656216169751],[5.994210286450339,52.819116883935024],[5.990575421395954,52.82159718672778],[5.988904903684159,52.82206457391081],[5.986473847433188,52.821703735264855],[5.986395072668973,52.82185459728848],[5.981557205485834,52.829473810422066],[5.97617569106984,52.834748740623155],[5.972871399662154,52.840714121884446],[5.972438751547699,52.84191724398166],[5.973128450994996,52.842470264196955],[5.969976939463986,52.84237586546343],[5.958732060790033,52.83976647953861],[5.955793107911708,52.837442359582006],[5.9568541409139915,52.83444322195932],[5.955784463407319,52.833235084388434],[5.946248096955025,52.837425205215055],[5.944368957462389,52.83707153436508],[5.941803410892792,52.835969042278464],[5.938020342184769,52.83538223954819],[5.930158620684363,52.83501335873021],[5.926733042625941,52.83329221126997],[5.930654672844455,52.83224801149979],[5.930115998759472,52.83135699122255],[5.926984150591061,52.83157722723599],[5.9230985324475265,52.83103493573238],[5.922748154906844,52.829873011469594],[5.926410461983632,52.82818388319897],[5.922947065483395,52.827526264157406],[5.924202912219233,52.823590272040306],[5.916322128403851,52.82028074039393],[5.913860840616826,52.818622508750984],[5.911966611391537,52.816116333989164],[5.908584489581862,52.813712451334084],[5.900658056995949,52.81182521436434],[5.897882346096192,52.80780364332458],[5.8934295707549404,52.80628320046846],[5.882578801792106,52.803919892752695],[5.879581660691247,52.80120295539955],[5.876293086335755,52.80085514546379],[5.8686804980295,52.80272650315553],[5.8656370065605135,52.804650733323584],[5.859640829046642,52.804536517196354],[5.857027657635577,52.80722914315862],[5.8548033838102675,52.80551847335273],[5.8499527105034055,52.80616196650859],[5.843594532526369,52.80503281855507],[5.842202868982515,52.80758455022876],[5.838445317223343,52.805947309171266],[5.836102763202707,52.80595489222128],[5.837366254034715,52.80826210366946],[5.833412079964748,52.8117609227671],[5.828721510179415,52.81342724513881],[5.8241554312338,52.81329736934493],[5.822355269559474,52.81510974856633],[5.8203069814196615,52.81595051770825],[5.819897808277602,52.816903630621965],[5.819745150948389,52.817278715896094],[5.818239011035039,52.81978067498041],[5.818128753652119,52.82166882002153],[5.8190152320015205,52.823072673473256],[5.821568332364664,52.82469032594381],[5.824729674584655,52.82559015944959],[5.827751408987996,52.82770974438751],[5.825747322591666,52.830170114649476],[5.828708678035871,52.83176840597422],[5.829237693138102,52.83346629994245],[5.833008742386094,52.83656041652691],[5.835880488363097,52.84104113726963],[5.840017995199295,52.84299656181002],[5.839910048799356,52.84692112267183],[5.840838239549771,52.84837412029302],[5.843928566351308,52.854874154681134],[5.85128063924005,52.86268971633631],[5.856057053705466,52.86764195307954],[5.856959747749347,52.8709756614938],[5.861755524341569,52.87467927436922],[5.864546474024009,52.87608778043798],[5.868099504747954,52.87903341174434],[5.868425120896881,52.88029846847024],[5.87110403738124,52.881673376546345],[5.876972203145921,52.886828363592635],[5.880513329414533,52.888808904591606],[5.883238423162534,52.889045997662286],[5.884970207382195,52.889815415537456],[5.886017648737881,52.89423974809623],[5.89066651287063,52.89538042068086],[5.896173050095667,52.895904615374086],[5.899026239512976,52.89562733721502],[5.901460576997717,52.897028473895865],[5.904175236170588,52.89670127361384],[5.911163871612101,52.8978278019034],[5.92505808955944,52.90385866406189],[5.92984624040882,52.90651533149886],[5.933073797482306,52.90734086988762],[5.9378470188146295,52.911740766723405],[5.947904883420521,52.91991576254415],[5.952413816500434,52.92471027070251],[5.954638967685945,52.926001512932096],[5.959159424543623,52.92746060923918],[5.966380786822051,52.92831315700381],[5.970221387075546,52.92829584113158],[5.978803619602894,52.927032841772316],[5.988169162233579,52.92903348057836],[5.998023645771864,52.933241386841246],[6.002241451250034,52.9340047802959],[6.008803417227172,52.93137099078885],[6.038202559898023,52.91797092809345],[6.042631280372413,52.91793956940152],[6.049981221543164,52.920647440326356],[6.062101833330478,52.92526111498382],[6.078675012180785,52.931653465188475],[6.084847805142265,52.93627512657589],[6.086525459614998,52.93634185341641],[6.110544738009722,52.91324469086248],[6.11681205378817,52.91660549125477],[6.12388320572285,52.91789187959616],[6.126300948294328,52.91951372953429],[6.130055979033183,52.92038753232242],[6.1393557986376415,52.92406581611002],[6.144668207282874,52.92809238053074],[6.157367887965537,52.93055233293912],[6.165460561554088,52.93344897475586],[6.172697760419176,52.935663424101726],[6.179891008840197,52.937025299320325],[6.188346423574242,52.9388743777071],[6.200561222989653,52.94301407561774],[6.202524697570875,52.941499633077534],[6.201135013972321,52.94047891718233],[6.200835838242418,52.9390337540092],[6.207876513343325,52.93386636762301],[6.209184382729377,52.93369608333859],[6.210980317657067,52.93151685266444],[6.213630007877606,52.92579478209556],[6.247258589540392,52.9233476754579],[6.244829482851694,52.91958721352872],[6.2423429005238695,52.91834542606882],[6.232290926374221,52.91343837517941]]]]},"properties":{"type":"boundary","gemeente":"Weststellingwerf","code":"GM0098"}}]}