{"type":"FeatureCollection","metadata":{"gemeente":"Wijdemeren","slug":"wijdemeren","code":"GM1696","generated_at":"2026-07-06T16:26:11.361Z","total_passenger":110,"total_freight":0,"bounds":[5.021292591905218,52.16592950248978,5.145702801455749,52.28514343580573],"operators":["DAEN Mobility","E-Flux by Road","EQUANS","Laadnet","Pluq","TotalEnergies","Ubitricity","Vattenfall InCharge"]},"features":[{"type":"Feature","geometry":{"type":"Point","coordinates":[5.133426,52.204437]},"properties":{"type":"charge","layer":"passenger","locationId":"ff6c1c0f-b386-453f-b73e-9852003a26ea","name":"TNLP009916 - St. Annepad 21, Loosdrecht","address":"21 St. Annepad","city":"Loosdrecht","operatorName":"TotalEnergies","maxPowerKw":17,"isMegawatt":false,"status":"AVAILABLE","source":"ndw"}},{"type":"Feature","geometry":{"type":"Point","coordinates":[5.11456,52.23977]},"properties":{"type":"charge","layer":"passenger","locationId":"20b02496-c283-4bbb-acf5-54bc42178cb3","name":"TNLP003591 - Curtevenneweg 5, Kortenhoef","address":"5 Curtevenneweg","city":"Kortenhoef","operatorName":"TotalEnergies","maxPowerKw":17,"isMegawatt":false,"status":"AVAILABLE","source":"ndw"}},{"type":"Feature","geometry":{"type":"Point","coordinates":[5.12154,52.23909]},"properties":{"type":"charge","layer":"passenger","locationId":"725","name":"Shell Recharge NL Noordereinde 15","address":"Noordereinde 15","city":"s Graveland","operatorName":"Ubitricity","maxPowerKw":11,"isMegawatt":false,"status":"AVAILABLE","source":"ndw","priceKwh":0.388}},{"type":"Feature","geometry":{"type":"Point","coordinates":[5.06802,52.184076]},"properties":{"type":"charge","layer":"passenger","locationId":"6231ffd6f829e95baf9a79f6","name":"De Valk's station","address":"'t Breukeleveensemeentje 6","city":"Loosdrecht","operatorName":"E-Flux by Road","maxPowerKw":11,"isMegawatt":false,"status":"AVAILABLE","source":"ndw","priceKwh":0.58}},{"type":"Feature","geometry":{"type":"Point","coordinates":[5.094399,52.20575]},"properties":{"type":"charge","layer":"passenger","locationId":"618668ec97c94426b3eb78c6","name":"Het Anker","address":"Oud-Loosdrechtsedijk 117","city":"Loosdrecht","operatorName":"E-Flux by Road","maxPowerKw":22,"isMegawatt":false,"status":"AVAILABLE","source":"ndw","priceKwh":0.52}},{"type":"Feature","geometry":{"type":"Point","coordinates":[5.08651,52.20808]},"properties":{"type":"charge","layer":"passenger","locationId":"4f773e58-d64e-456e-ae73-a28759024edf","name":"TNLP009923 - Oppad 24, Loosdrecht","address":"24 Oppad","city":"Loosdrecht","operatorName":"TotalEnergies","maxPowerKw":17,"isMegawatt":false,"status":"AVAILABLE","source":"ndw"}},{"type":"Feature","geometry":{"type":"Point","coordinates":[5.116714,52.242295]},"properties":{"type":"charge","layer":"passenger","locationId":"09077bf0-9089-432c-913f-38c96737cc16","name":"Elbert Mooijlaan","address":"Elbert Mooijlaan 44","city":"Kortenhoef","operatorName":"Vattenfall InCharge","maxPowerKw":11,"isMegawatt":false,"status":"AVAILABLE","source":"ndw"}},{"type":"Feature","geometry":{"type":"Point","coordinates":[5.0499119,52.2498153]},"properties":{"type":"charge","layer":"passenger","locationId":"789","name":"Shell Recharge NL Platanenlaan 1","address":"Platanenlaan 1","city":"Nederhorst ten Berg","operatorName":"Ubitricity","maxPowerKw":22,"isMegawatt":false,"status":"AVAILABLE","source":"ndw","priceKwh":0.266}},{"type":"Feature","geometry":{"type":"Point","coordinates":[5.045027,52.26331]},"properties":{"type":"charge","layer":"passenger","locationId":"0e3b8436-ef0b-402a-b51f-3b7714203f4f","name":"TNLP006088 - Voorstraat 4, Nederhorst den Berg","address":"4 Voorstraat","city":"Nederhorst den Berg","operatorName":"TotalEnergies","maxPowerKw":13,"isMegawatt":false,"status":"AVAILABLE","source":"ndw"}},{"type":"Feature","geometry":{"type":"Point","coordinates":[5.141717,52.202576]},"properties":{"type":"charge","layer":"passenger","locationId":"b299edb6-a01b-4fea-a5f3-23ebe27b6b58","name":"TNLP006701 - Beukenlaan 28, Loosdrecht","address":"28 Beukenlaan","city":"Loosdrecht","operatorName":"TotalEnergies","maxPowerKw":17,"isMegawatt":false,"status":"AVAILABLE","source":"ndw"}},{"type":"Feature","geometry":{"type":"Point","coordinates":[5.041212,52.26437]},"properties":{"type":"charge","layer":"passenger","locationId":"2b7bd3ba6f681f68e4a7f43ca42d0b93","name":"Jozef Israëlslaan 23","address":"Jozef Israëlslaan 23","city":"Nederhorst Den Berg","operatorName":"Vattenfall InCharge","maxPowerKw":11,"isMegawatt":false,"status":"AVAILABLE","source":"ndw"}},{"type":"Feature","geometry":{"type":"Point","coordinates":[5.073263,52.206756]},"properties":{"type":"charge","layer":"passenger","locationId":"89889551","name":"EQUANS Fletcher Fletcher Hotel Loosdrecht-Amsterdam","address":"Oud Loosdrechtsedijk 253","city":"Loosdrecht","operatorName":"EQUANS","maxPowerKw":22,"isMegawatt":false,"status":"AVAILABLE","source":"ndw"}},{"type":"Feature","geometry":{"type":"Point","coordinates":[5.04672,52.25007]},"properties":{"type":"charge","layer":"passenger","locationId":"a90e4f92-c9c7-4136-a216-34e22e8c3295","name":"PP001078 - Platanenlaan 12, Nederhorst den Berg","address":"12 Platanenlaan","city":"Nederhorst den Berg","operatorName":"TotalEnergies","maxPowerKw":11,"isMegawatt":false,"status":"AVAILABLE","source":"ndw"}},{"type":"Feature","geometry":{"type":"Point","coordinates":[5.120313,52.24118]},"properties":{"type":"charge","layer":"passenger","locationId":"7e253ad8-7609-4ab5-b437-8dee1a11cb35","name":"TNLP006240 - Elbert Mooijlaan 2, Kortenhoef","address":"2 Elbert Mooijlaan","city":"Kortenhoef","operatorName":"TotalEnergies","maxPowerKw":17,"isMegawatt":false,"status":"UNAVAILABLE","source":"ndw"}},{"type":"Feature","geometry":{"type":"Point","coordinates":[5.114535,52.235991]},"properties":{"type":"charge","layer":"passenger","locationId":"2378064","name":"Laadnet Laadstation Thuis","address":"Hazenest 25","city":"Kortenhoef","operatorName":"Laadnet","maxPowerKw":11,"isMegawatt":false,"status":"AVAILABLE","source":"ndw"}},{"type":"Feature","geometry":{"type":"Point","coordinates":[5.0464,52.258901]},"properties":{"type":"charge","layer":"passenger","locationId":"4208859","name":"Laadnet Lange Wetering","address":"Lange Wetering 63","city":"Nederhorst Den Berg","operatorName":"Laadnet","maxPowerKw":11,"isMegawatt":false,"status":"AVAILABLE","source":"ndw"}},{"type":"Feature","geometry":{"type":"Point","coordinates":[5.0406225,52.2662194]},"properties":{"type":"charge","layer":"passenger","locationId":"845","name":"Shell Recharge NL Jan Steenhof 46","address":"Jan Steenhof 46","city":"Nederhorst den Berg","operatorName":"Ubitricity","maxPowerKw":22,"isMegawatt":false,"status":"AVAILABLE","source":"ndw","priceKwh":0.266}},{"type":"Feature","geometry":{"type":"Point","coordinates":[5.07807,52.206093]},"properties":{"type":"charge","layer":"passenger","locationId":"ca7182d7-755b-4d79-93f5-2609598da89f","name":"TNLP008974 - Boegspriet 32, Loosdrecht","address":"32 Boegspriet","city":"Loosdrecht","operatorName":"TotalEnergies","maxPowerKw":13,"isMegawatt":false,"status":"AVAILABLE","source":"ndw"}},{"type":"Feature","geometry":{"type":"Point","coordinates":[5.135429,52.197623]},"properties":{"type":"charge","layer":"passenger","locationId":"1636","name":"Shell Recharge NL Spanker 30","address":"Spanker 30","city":"Wijdemeren","operatorName":"Ubitricity","maxPowerKw":22,"isMegawatt":false,"status":"AVAILABLE","source":"ndw","priceKwh":0.388}},{"type":"Feature","geometry":{"type":"Point","coordinates":[5.12087,52.237229]},"properties":{"type":"charge","layer":"passenger","locationId":"1592","name":"Shell Recharge NL Oranjeweg 1","address":"Oranjeweg 1","city":"Wijdemeren","operatorName":"Ubitricity","maxPowerKw":22,"isMegawatt":false,"status":"AVAILABLE","source":"ndw","priceKwh":0.388}},{"type":"Feature","geometry":{"type":"Point","coordinates":[5.0684881,52.2078956]},"properties":{"type":"charge","layer":"passenger","locationId":"803","name":"Shell Recharge NL Horndijk 2","address":"Horndijk 2","city":"Loosdrecht","operatorName":"Ubitricity","maxPowerKw":22,"isMegawatt":false,"status":"AVAILABLE","source":"ndw","priceKwh":0.266}},{"type":"Feature","geometry":{"type":"Point","coordinates":[5.048369,52.255676]},"properties":{"type":"charge","layer":"passenger","locationId":"f558f907-c71a-4b1a-9faa-dbafd66ead51","name":"PP002610 - De Kooi 4, Nederhorst Den Berg","address":"4 De Kooi","city":"Nederhorst Den Berg","operatorName":"TotalEnergies","maxPowerKw":13,"isMegawatt":false,"status":"CHARGING","source":"ndw"}},{"type":"Feature","geometry":{"type":"Point","coordinates":[5.116804,52.249638]},"properties":{"type":"charge","layer":"passenger","locationId":"c7a2174b-622b-4e81-b243-ef96b8f1c2f3","name":"TNLP005774 - Schimmelpenninckhof 16, Ankeveen","address":"16 Schimmelpenninckhof","city":"Ankeveen","operatorName":"TotalEnergies","maxPowerKw":15,"isMegawatt":false,"status":"AVAILABLE","source":"ndw"}},{"type":"Feature","geometry":{"type":"Point","coordinates":[5.121688,52.254683]},"properties":{"type":"charge","layer":"passenger","locationId":"67b5f2be4d88553ecd718566","name":"Gooi- en Vechtstreek 64101 - Parkeerplaats Schaep en Burgh","address":"Noordereinde 60","city":"'s-Graveland","operatorName":"E-Flux by Road","maxPowerKw":11,"isMegawatt":false,"status":"AVAILABLE","source":"ndw","priceKwh":0.43}},{"type":"Feature","geometry":{"type":"Point","coordinates":[5.133989,52.20595]},"properties":{"type":"charge","layer":"passenger","locationId":"733b8660-90c4-433b-aa87-cde101c3b5fe","name":"TNLP005915 - Rembrandtlaan 46, Loosdrecht","address":"46 Rembrandtlaan","city":"Loosdrecht","operatorName":"TotalEnergies","maxPowerKw":17,"isMegawatt":false,"status":"AVAILABLE","source":"ndw"}},{"type":"Feature","geometry":{"type":"Point","coordinates":[5.082563,52.186667]},"properties":{"type":"charge","layer":"passenger","locationId":"922748","name":"DAE-NL-2000216","address":"Nieuwloosdrechtsedijk 248","city":"Loosdrecht","operatorName":"DAEN Mobility","maxPowerKw":11,"isMegawatt":false,"status":"UNAVAILABLE","source":"ndw","priceKwh":0.28}},{"type":"Feature","geometry":{"type":"Point","coordinates":[5.08575,52.22683]},"properties":{"type":"charge","layer":"passenger","locationId":"68b0d85d-5188-4e0b-8fce-bda5c5307e24","name":"PP004016 - Kortenhoefsedijk 199, Kortenhoef","address":"199 Kortenhoefsedijk","city":"Kortenhoef","operatorName":"TotalEnergies","maxPowerKw":11,"isMegawatt":false,"status":"UNAVAILABLE","source":"ndw"}},{"type":"Feature","geometry":{"type":"Point","coordinates":[5.116825,52.240608]},"properties":{"type":"charge","layer":"passenger","locationId":"e6b37a80-ab29-47cf-bed8-4a79120aa15a","name":"TNLP034053","address":"Pieter van der Leelaan 1","city":"Kortenhoef","operatorName":"TotalEnergies","maxPowerKw":14,"isMegawatt":false,"status":"CHARGING","source":"ndw"}},{"type":"Feature","geometry":{"type":"Point","coordinates":[5.138569,52.19712]},"properties":{"type":"charge","layer":"passenger","locationId":"fc764240-8ec5-49e6-ad2f-a239c8d5635c","name":"TNLP008214 - Regenboog 1, Loosdrecht","address":"1 Regenboog","city":"Loosdrecht","operatorName":"TotalEnergies","maxPowerKw":17,"isMegawatt":false,"status":"AVAILABLE","source":"ndw"}},{"type":"Feature","geometry":{"type":"Point","coordinates":[5.140688,52.204776]},"properties":{"type":"charge","layer":"passenger","locationId":"6a314a89e14ccfb8c6722ae8","name":"Familie Ates's station","address":"Larixlaan 20","city":"Loosdrecht","operatorName":"E-Flux by Road","maxPowerKw":11,"isMegawatt":false,"status":"AVAILABLE","source":"ndw","priceKwh":0.33}},{"type":"Feature","geometry":{"type":"Point","coordinates":[5.098287,52.262432]},"properties":{"type":"charge","layer":"passenger","locationId":"da8f9524-2661-4192-a954-b1a181bac846","name":"TNLP008763 - Wout Hilhorsthof 2, Ankeveen","address":"2 Wout Hilhorsthof","city":"Ankeveen","operatorName":"TotalEnergies","maxPowerKw":14,"isMegawatt":false,"status":"AVAILABLE","source":"ndw"}},{"type":"Feature","geometry":{"type":"Point","coordinates":[5.123148,52.22166]},"properties":{"type":"charge","layer":"passenger","locationId":"138953b0-6c5e-4138-9430-3b2f3d4d5f6d","name":"TNLP034081","address":"Zuidereinde 189","city":"'s-Graveland","operatorName":"TotalEnergies","maxPowerKw":14,"isMegawatt":false,"status":"CHARGING","source":"ndw"}},{"type":"Feature","geometry":{"type":"Point","coordinates":[5.122015,52.2336]},"properties":{"type":"charge","layer":"passenger","locationId":"3a4490cb-cf89-447d-9e28-bd530799791f","name":"TNLP009348 - Zuidereinde 78a, 's Graveland","address":"78a Zuidereinde","city":"'s Graveland","operatorName":"TotalEnergies","maxPowerKw":15,"isMegawatt":false,"status":"AVAILABLE","source":"ndw"}},{"type":"Feature","geometry":{"type":"Point","coordinates":[5.134827,52.2062]},"properties":{"type":"charge","layer":"passenger","locationId":"a061cb0f-fae0-40b6-a7c1-8902f446aa33","name":"TNLP009532 - Rembrandtlaan 58, Loosdrecht","address":"58 Rembrandtlaan","city":"Loosdrecht","operatorName":"TotalEnergies","maxPowerKw":17,"isMegawatt":false,"status":"AVAILABLE","source":"ndw"}},{"type":"Feature","geometry":{"type":"Point","coordinates":[5.082848,52.25166]},"properties":{"type":"charge","layer":"passenger","locationId":"c961437c-a94f-473d-a1af-34d0856aa8b8","name":"TNLP009349 - Nieuw Walden 76, Nederhorst den Berg","address":"76 Nieuw Walden","city":"Nederhorst den Berg","operatorName":"TotalEnergies","maxPowerKw":15,"isMegawatt":false,"status":"AVAILABLE","source":"ndw"}},{"type":"Feature","geometry":{"type":"Point","coordinates":[5.13507,52.200916]},"properties":{"type":"charge","layer":"passenger","locationId":"873b39e0-626d-4712-912c-2557b6b3349d","name":"TNLP008568 - Lindelaan 11, Loosdrecht","address":"11 Lindelaan","city":"Loosdrecht","operatorName":"TotalEnergies","maxPowerKw":13,"isMegawatt":false,"status":"CHARGING","source":"ndw"}},{"type":"Feature","geometry":{"type":"Point","coordinates":[5.122758,52.22493]},"properties":{"type":"charge","layer":"passenger","locationId":"fe7ecb8a-fcc2-4c2f-8590-a630f39f3453","name":"TNLP006034 - Zuidereinde 200, s Graveland","address":"200 Zuidereinde","city":"s Graveland","operatorName":"TotalEnergies","maxPowerKw":17,"isMegawatt":false,"status":"UNAVAILABLE","source":"ndw"}},{"type":"Feature","geometry":{"type":"Point","coordinates":[5.095187,52.259605]},"properties":{"type":"charge","layer":"passenger","locationId":"5e9cf7af-8909-48e0-81b6-d39325740c33","name":"TNLP008166 - Bergse Pad 1, Ankeveen","address":"1 Bergse Pad","city":"Ankeveen","operatorName":"TotalEnergies","maxPowerKw":15,"isMegawatt":false,"status":"AVAILABLE","source":"ndw"}},{"type":"Feature","geometry":{"type":"Point","coordinates":[5.048121,52.275543]},"properties":{"type":"charge","layer":"passenger","locationId":"86c5ea7f-31f3-48c2-8fea-2e3dfc297d3a","name":"TNLP009897 - Dammerweg 99, Nederhorst den Berg","address":"99 Dammerweg","city":"Nederhorst den Berg","operatorName":"TotalEnergies","maxPowerKw":13,"isMegawatt":false,"status":"AVAILABLE","source":"ndw"}},{"type":"Feature","geometry":{"type":"Point","coordinates":[5.13328,52.1962]},"properties":{"type":"charge","layer":"passenger","locationId":"e865cda8-a864-4fd9-aa68-41bc23fab5f2","name":"TNLP008958 - Schakel 120, Loosdrecht","address":"120 Schakel","city":"Loosdrecht","operatorName":"TotalEnergies","maxPowerKw":13,"isMegawatt":false,"status":"UNAVAILABLE","source":"ndw"}},{"type":"Feature","geometry":{"type":"Point","coordinates":[5.084068,52.225822]},"properties":{"type":"charge","layer":"passenger","locationId":"81f61b0ea505d26693c59f4ceb89e26f","name":"Moleneind 1","address":"Moleneind 1","city":"Kortenhoef","operatorName":"Vattenfall InCharge","maxPowerKw":11,"isMegawatt":false,"status":"AVAILABLE","source":"ndw"}},{"type":"Feature","geometry":{"type":"Point","coordinates":[5.11617,52.23629]},"properties":{"type":"charge","layer":"passenger","locationId":"46d3b382-ced2-45ac-bc3d-f109335ed972","name":"Laadplein - PP004019 - Zuidsingel 54, Kortenhoef","address":"54 Zuidsingel","city":"Kortenhoef","operatorName":"TotalEnergies","maxPowerKw":17,"isMegawatt":false,"status":"AVAILABLE","source":"ndw"}},{"type":"Feature","geometry":{"type":"Point","coordinates":[5.111344,52.25096]},"properties":{"type":"charge","layer":"passenger","locationId":"96659fb0-14d5-47fb-a68c-60208ca0e523","name":"TNLP006397 - Herenweg 49, Ankeveen","address":"49 Herenweg","city":"Ankeveen","operatorName":"TotalEnergies","maxPowerKw":17,"isMegawatt":false,"status":"UNAVAILABLE","source":"ndw"}},{"type":"Feature","geometry":{"type":"Point","coordinates":[5.047624,52.271932]},"properties":{"type":"charge","layer":"passenger","locationId":"c264f5308c1694422e335630d46868a4","name":"Dammerweg 71","address":"Dammerweg 71","city":"Nederhorst Den Berg","operatorName":"Vattenfall InCharge","maxPowerKw":22,"isMegawatt":false,"status":"AVAILABLE","source":"ndw"}},{"type":"Feature","geometry":{"type":"Point","coordinates":[5.11836,52.24021]},"properties":{"type":"charge","layer":"passenger","locationId":"1607","name":"Shell Recharge NL Pieter van der Leelaan 25","address":"Pieter van der Leelaan 25","city":"Wijdemeren","operatorName":"Ubitricity","maxPowerKw":11,"isMegawatt":false,"status":"CHARGING","source":"ndw","priceKwh":0.388}},{"type":"Feature","geometry":{"type":"Point","coordinates":[5.118231,52.2433015]},"properties":{"type":"charge","layer":"passenger","locationId":"796","name":"Shell Recharge NL Bernard van Beeklaan 97","address":"Bernard van Beeklaan 97","city":"Kortenhoef","operatorName":"Ubitricity","maxPowerKw":22,"isMegawatt":false,"status":"AVAILABLE","source":"ndw","priceKwh":0.266}},{"type":"Feature","geometry":{"type":"Point","coordinates":[5.140472,52.207484]},"properties":{"type":"charge","layer":"passenger","locationId":"d0e44d57-2ebd-4754-9f3a-f889060aafb7","name":"TNLP015250","address":"Rading 1A","city":"Loosdrecht","operatorName":"TotalEnergies","maxPowerKw":17,"isMegawatt":false,"status":"AVAILABLE","source":"ndw"}},{"type":"Feature","geometry":{"type":"Point","coordinates":[5.14124,52.20111]},"properties":{"type":"charge","layer":"passenger","locationId":"2287a9a3-e3fc-49b4-b4bf-1c1cd7b618ec","name":"TNLP003552 - Eikenlaan 34, Loosdrecht","address":"34 Eikenlaan","city":"Loosdrecht","operatorName":"TotalEnergies","maxPowerKw":17,"isMegawatt":false,"status":"AVAILABLE","source":"ndw"}},{"type":"Feature","geometry":{"type":"Point","coordinates":[5.09872,52.265716]},"properties":{"type":"charge","layer":"passenger","locationId":"185","name":"Shell Recharge NL Stichts End 18","address":"Stichts End 18","city":"Ankeveen","operatorName":"Ubitricity","maxPowerKw":11,"isMegawatt":false,"status":"AVAILABLE","source":"ndw","priceKwh":0.388}},{"type":"Feature","geometry":{"type":"Point","coordinates":[5.135831,52.195341]},"properties":{"type":"charge","layer":"passenger","locationId":"15a03a19-9cd1-4892-abbd-9424184a99a1","name":"TNLP015300","address":"Flits 1","city":"Loosdrecht","operatorName":"TotalEnergies","maxPowerKw":17,"isMegawatt":false,"status":"AVAILABLE","source":"ndw"}},{"type":"Feature","geometry":{"type":"Point","coordinates":[5.045533,52.258439]},"properties":{"type":"charge","layer":"passenger","locationId":"ce2f4f37-9602-431c-bd02-c7069037724d","name":"Veenderij","address":"Veenderij 31","city":"Nederhorst den Berg","operatorName":"Vattenfall InCharge","maxPowerKw":11,"isMegawatt":false,"status":"AVAILABLE","source":"ndw"}},{"type":"Feature","geometry":{"type":"Point","coordinates":[5.128269,52.205482]},"properties":{"type":"charge","layer":"passenger","locationId":"4208923","name":"Laadnet Veiligheidsregio Laadpalen Loosdrecht","address":"Oud-Loosdrechtsedijk 4","city":"Loosdrecht","operatorName":"Laadnet","maxPowerKw":22,"isMegawatt":false,"status":"AVAILABLE","source":"ndw"}},{"type":"Feature","geometry":{"type":"Point","coordinates":[5.114338,52.250322]},"properties":{"type":"charge","layer":"passenger","locationId":"687a375196cc2c50860a48a6","name":"M-Power","address":"Herenweg 72","city":"Ankeveen","operatorName":"E-Flux by Road","maxPowerKw":11,"isMegawatt":false,"status":"AVAILABLE","source":"ndw","priceKwh":0.62}},{"type":"Feature","geometry":{"type":"Point","coordinates":[5.12111,52.2473]},"properties":{"type":"charge","layer":"passenger","locationId":"1585","name":"Shell Recharge NL Noordereinde 221","address":"Noordereinde 221","city":"Wijdemeren","operatorName":"Ubitricity","maxPowerKw":22,"isMegawatt":false,"status":"AVAILABLE","source":"ndw","priceKwh":0.388}},{"type":"Feature","geometry":{"type":"Point","coordinates":[5.121563,52.241928]},"properties":{"type":"charge","layer":"passenger","locationId":"84006841-ef30-4b66-8eca-74173b989d4f","name":"TNLP015157","address":"Noordereinde 105","city":"'s-Graveland","operatorName":"TotalEnergies","maxPowerKw":17,"isMegawatt":false,"status":"AVAILABLE","source":"ndw"}},{"type":"Feature","geometry":{"type":"Point","coordinates":[5.123114,52.250895]},"properties":{"type":"charge","layer":"passenger","locationId":"66e98a4dad940d001cd0c81a","name":"Gooi- en Vechtstreek 42704 - Parkeerplaats Bezoekerscentrum","address":"Noordereinde 54b","city":"'s-Graveland","operatorName":"E-Flux by Road","maxPowerKw":11,"isMegawatt":false,"status":"AVAILABLE","source":"ndw","priceKwh":0.43}},{"type":"Feature","geometry":{"type":"Point","coordinates":[5.13941,52.20808]},"properties":{"type":"charge","layer":"passenger","locationId":"51d382f3-368d-47a1-88ad-d584a609d501","name":"TNLP005792 - Dirk Smorenberglaan 1, Loosdrecht","address":"1 Dirk Smorenberglaan","city":"Loosdrecht","operatorName":"TotalEnergies","maxPowerKw":11,"isMegawatt":false,"status":"CHARGING","source":"ndw"}},{"type":"Feature","geometry":{"type":"Point","coordinates":[5.143168,52.20027]},"properties":{"type":"charge","layer":"passenger","locationId":"b8a77648-9550-475f-9772-dd094ac0fbc6","name":"TNLP009982 - Lijsterbeslaan 41, Loosdrecht","address":"41 Lijsterbeslaan","city":"Loosdrecht","operatorName":"TotalEnergies","maxPowerKw":17,"isMegawatt":false,"status":"AVAILABLE","source":"ndw"}},{"type":"Feature","geometry":{"type":"Point","coordinates":[5.112065,52.242397]},"properties":{"type":"charge","layer":"passenger","locationId":"faee32f1-69bf-4698-a38d-535e6d9e10f7","name":"TNLP009275 - Oudergaarde 1-118, Kortenhoef","address":"1-118 Oudergaarde","city":"Kortenhoef","operatorName":"TotalEnergies","maxPowerKw":15,"isMegawatt":false,"status":"AVAILABLE","source":"ndw"}},{"type":"Feature","geometry":{"type":"Point","coordinates":[5.14319,52.19995]},"properties":{"type":"charge","layer":"passenger","locationId":"7b284143534d916ac8b2fc89bff8d0e8","name":"Lijsterbeslaan 13","address":"Lijsterbeslaan 13","city":"Loosdrecht","operatorName":"Vattenfall InCharge","maxPowerKw":11,"isMegawatt":false,"status":"AVAILABLE","source":"ndw"}},{"type":"Feature","geometry":{"type":"Point","coordinates":[5.040328,52.263542]},"properties":{"type":"charge","layer":"passenger","locationId":"750f6664-fab8-4c7d-920a-8d122159292a","name":"TNLP008926 - Vincent van Goghstraat 10, Nederhorst Den Berg","address":"10 Vincent van Goghstraat","city":"Nederhorst Den Berg","operatorName":"TotalEnergies","maxPowerKw":13,"isMegawatt":false,"status":"AVAILABLE","source":"ndw"}},{"type":"Feature","geometry":{"type":"Point","coordinates":[5.041697,52.26544]},"properties":{"type":"charge","layer":"passenger","locationId":"ea568914-4d1f-4d72-87d4-2744c8c3f293","name":"TNLP005864 - George Hendrik Breitnerlaan 23, Nederhorst den Berg","address":"23 George Hendrik Breitnerlaan","city":"Nederhorst den Berg","operatorName":"TotalEnergies","maxPowerKw":13,"isMegawatt":false,"status":"AVAILABLE","source":"ndw"}},{"type":"Feature","geometry":{"type":"Point","coordinates":[5.097213,52.262244]},"properties":{"type":"charge","layer":"passenger","locationId":"65a0616a04e36a001caf3f7d","name":"Karel van Vliet 's station","address":"Wim de Kwanthof 4","city":"Ankeveen","operatorName":"E-Flux by Road","maxPowerKw":22,"isMegawatt":false,"status":"AVAILABLE","source":"ndw","priceKwh":0.34}},{"type":"Feature","geometry":{"type":"Point","coordinates":[5.141829,52.1939]},"properties":{"type":"charge","layer":"passenger","locationId":"315cfac8-277d-47cd-a6fe-f3f980988d29","name":"TNLP006344 - Rading 164, Loosdrecht","address":"164 Rading","city":"Loosdrecht","operatorName":"TotalEnergies","maxPowerKw":17,"isMegawatt":false,"status":"AVAILABLE","source":"ndw"}},{"type":"Feature","geometry":{"type":"Point","coordinates":[5.045953,52.260132]},"properties":{"type":"charge","layer":"passenger","locationId":"0ee863b8-3bdc-4db7-b919-a6624024bfe4","name":"TNLP034331","address":"Lange Wetering 95","city":"Nederhorst Den Berg","operatorName":"TotalEnergies","maxPowerKw":14,"isMegawatt":false,"status":"AVAILABLE","source":"ndw"}},{"type":"Feature","geometry":{"type":"Point","coordinates":[5.11036,52.23886]},"properties":{"type":"charge","layer":"passenger","locationId":"1518","name":"Shell Recharge NL Hoflaan 23","address":"Hoflaan 23","city":"Wijdemeren","operatorName":"Ubitricity","maxPowerKw":11,"isMegawatt":false,"status":"CHARGING","source":"ndw","priceKwh":0.388}},{"type":"Feature","geometry":{"type":"Point","coordinates":[5.047048,52.271149]},"properties":{"type":"charge","layer":"passenger","locationId":"912","name":"Shell Recharge NL Dammerweg 64","address":"Dammerweg 64","city":"Nederhorst Den Berg","operatorName":"Ubitricity","maxPowerKw":22,"isMegawatt":false,"status":"AVAILABLE","source":"ndw","priceKwh":0.266}},{"type":"Feature","geometry":{"type":"Point","coordinates":[5.11804,52.23606]},"properties":{"type":"charge","layer":"passenger","locationId":"ceedfcf9-1099-4ea6-b95b-4174cb47f044","name":"TNLP003584 - Zuidsingel 50, Kortenhoef","address":"50 Zuidsingel","city":"Kortenhoef","operatorName":"TotalEnergies","maxPowerKw":17,"isMegawatt":false,"status":"CHARGING","source":"ndw"}},{"type":"Feature","geometry":{"type":"Point","coordinates":[5.115066,52.243705]},"properties":{"type":"charge","layer":"passenger","locationId":"1466","name":"Shell Recharge NL Bernard van Beeklaan 26","address":"Bernard van Beeklaan 26","city":"Wijdemeren","operatorName":"Ubitricity","maxPowerKw":22,"isMegawatt":false,"status":"CHARGING","source":"ndw","priceKwh":0.388}},{"type":"Feature","geometry":{"type":"Point","coordinates":[5.1125154,52.2381645]},"properties":{"type":"charge","layer":"passenger","locationId":"2067","name":"Shell Recharge NL Zuidsingel 79","address":"Zuidsingel 79","city":"Kortenhoef","operatorName":"Ubitricity","maxPowerKw":22,"isMegawatt":false,"status":"AVAILABLE","source":"ndw","priceKwh":0.266}},{"type":"Feature","geometry":{"type":"Point","coordinates":[5.046589,52.253105]},"properties":{"type":"charge","layer":"passenger","locationId":"13b85ea6-a776-4e27-8aa5-c2af4480de3f","name":"TNLP009638 - Lijsterlaan 2, Nederhorst den Berg","address":"2 Lijsterlaan","city":"Nederhorst den Berg","operatorName":"TotalEnergies","maxPowerKw":13,"isMegawatt":false,"status":"AVAILABLE","source":"ndw"}},{"type":"Feature","geometry":{"type":"Point","coordinates":[5.139954,52.20339]},"properties":{"type":"charge","layer":"passenger","locationId":"110216c0-9357-4650-8e9a-9e896e70e56b","name":"TNLP006573 - Laan van Eikenrode 53, Loosdrecht","address":"53 Laan van Eikenrode","city":"Loosdrecht","operatorName":"TotalEnergies","maxPowerKw":17,"isMegawatt":false,"status":"AVAILABLE","source":"ndw"}},{"type":"Feature","geometry":{"type":"Point","coordinates":[5.04595,52.254498]},"properties":{"type":"charge","layer":"passenger","locationId":"efaa2299-b59a-4a65-bfd6-10820534297b","name":"TNLP003542 - Lijsterlaan 43, Nederhorst den Berg","address":"43 Lijsterlaan","city":"Nederhorst den Berg","operatorName":"TotalEnergies","maxPowerKw":17,"isMegawatt":false,"status":"AVAILABLE","source":"ndw"}},{"type":"Feature","geometry":{"type":"Point","coordinates":[5.12545,52.193766]},"properties":{"type":"charge","layer":"passenger","locationId":"674eeefd57cc3a8dcb242ea8","name":"Manege en dressuurstal Hallinckveld","address":"Nieuw-Loosdrechtsedijk 133","city":"Loosdrecht","operatorName":"Pluq","maxPowerKw":17,"isMegawatt":false,"status":"AVAILABLE","source":"ndw","priceKwh":0.4}},{"type":"Feature","geometry":{"type":"Point","coordinates":[5.117713,52.257654]},"properties":{"type":"charge","layer":"passenger","locationId":"683ff32ef0bcd5de0c0afd0a","name":"Brigitte Wijngaarden 's station","address":"Trapgans 5","city":"Ankeveen","operatorName":"E-Flux by Road","maxPowerKw":11,"isMegawatt":false,"status":"CHARGING","source":"ndw","priceKwh":0.34}},{"type":"Feature","geometry":{"type":"Point","coordinates":[5.1187,52.235226]},"properties":{"type":"charge","layer":"passenger","locationId":"c711996a-6123-42b2-80aa-c691df9b66ef","name":"TNLP015044 - Dopheigang 22, Kortenhoef","address":"22 Dopheigang","city":"Kortenhoef","operatorName":"TotalEnergies","maxPowerKw":17,"isMegawatt":false,"status":"UNAVAILABLE","source":"ndw"}},{"type":"Feature","geometry":{"type":"Point","coordinates":[5.04671,52.257862]},"properties":{"type":"charge","layer":"passenger","locationId":"bf1bd3ea-b3db-4a2c-a495-bf2a6b83d3a6","name":"TNLP009976 - Lange Wetering 24, Nederhorst den Berg","address":"24 Lange Wetering","city":"Nederhorst den Berg","operatorName":"TotalEnergies","maxPowerKw":13,"isMegawatt":false,"status":"AVAILABLE","source":"ndw"}},{"type":"Feature","geometry":{"type":"Point","coordinates":[5.0837,52.20775]},"properties":{"type":"charge","layer":"passenger","locationId":"3714c7f6-d88f-4d99-a016-8b6c21b3d48d","name":"TNLP009900 - Heulakker 47, Loosdrecht","address":"47 Heulakker","city":"Loosdrecht","operatorName":"TotalEnergies","maxPowerKw":17,"isMegawatt":false,"status":"CHARGING","source":"ndw"}},{"type":"Feature","geometry":{"type":"Point","coordinates":[5.11173,52.23984]},"properties":{"type":"charge","layer":"passenger","locationId":"a5799e7a-8a0f-450d-b569-09602a1b3f73","name":"PP005628 - Dodaarslaan 18, Kortenhoef","address":"18 Dodaarslaan","city":"Kortenhoef","operatorName":"TotalEnergies","maxPowerKw":11,"isMegawatt":false,"status":"UNAVAILABLE","source":"ndw"}},{"type":"Feature","geometry":{"type":"Point","coordinates":[5.14189,52.200775]},"properties":{"type":"charge","layer":"passenger","locationId":"6ed4fced-4b65-48a4-a2df-3f293ccf7dbc","name":"TNLP006688 - Beukenlaan 1, Loosdrecht","address":"1 Beukenlaan","city":"Loosdrecht","operatorName":"TotalEnergies","maxPowerKw":17,"isMegawatt":false,"status":"UNAVAILABLE","source":"ndw"}},{"type":"Feature","geometry":{"type":"Point","coordinates":[5.112718,52.23851]},"properties":{"type":"charge","layer":"passenger","locationId":"4208924","name":"Laadnet Veiligheidsregio Laadpalen Kortenhoef","address":"Eslaan 2A","city":"Kortenhoef","operatorName":"Laadnet","maxPowerKw":22,"isMegawatt":false,"status":"AVAILABLE","source":"ndw"}},{"type":"Feature","geometry":{"type":"Point","coordinates":[5.13806,52.20524]},"properties":{"type":"charge","layer":"passenger","locationId":"26c72b90-dce2-40e2-8e19-1ae7e0dfe22e","name":"PP001775 - Sint Annepad 41, Loosdrecht","address":"41 Sint Annepad","city":"Loosdrecht","operatorName":"TotalEnergies","maxPowerKw":11,"isMegawatt":false,"status":"AVAILABLE","source":"ndw"}},{"type":"Feature","geometry":{"type":"Point","coordinates":[5.140386,52.19769]},"properties":{"type":"charge","layer":"passenger","locationId":"d1bdf51c-8c45-40be-8ac5-b11349174f5d","name":"TNLP008419 - Hallincklaan 18, Loosdrecht","address":"18 Hallincklaan","city":"Loosdrecht","operatorName":"TotalEnergies","maxPowerKw":14,"isMegawatt":false,"status":"AVAILABLE","source":"ndw"}},{"type":"Feature","geometry":{"type":"Point","coordinates":[5.046338,52.268398]},"properties":{"type":"charge","layer":"passenger","locationId":"D8F6D24E-D87F-4868-AB4F-A40010DB4B5E","name":"TNLP011223","address":"Dammerweg 31","city":"Nederhorst den Berg","operatorName":"TotalEnergies","maxPowerKw":17,"isMegawatt":false,"status":"AVAILABLE","source":"ndw"}},{"type":"Feature","geometry":{"type":"Point","coordinates":[5.0448503,52.263588]},"properties":{"type":"charge","layer":"passenger","locationId":"a0a57309-e243-4d9e-aa00-e6c06bc3dd06","name":"EV Hub - Voorstraat 2, Nederhorst Den Berg","address":"2 Voorstraat","city":"Nederhorst Den Berg","operatorName":"TotalEnergies","maxPowerKw":50,"isMegawatt":false,"status":"AVAILABLE","source":"ndw"}},{"type":"Feature","geometry":{"type":"Point","coordinates":[5.0958462,52.2607293]},"properties":{"type":"charge","layer":"passenger","locationId":"1997","name":"Shell Recharge NL Frans Fennishof 22","address":"Frans Fennishof 22","city":"Ankeveen","operatorName":"Ubitricity","maxPowerKw":22,"isMegawatt":false,"status":"AVAILABLE","source":"ndw","priceKwh":0.266}},{"type":"Feature","geometry":{"type":"Point","coordinates":[5.032574,52.202301]},"properties":{"type":"charge","layer":"passenger","locationId":"4174294","name":"Laadnet J. Boonzaaijer Aannemingsbedrijf B.V.","address":"Bloklaan 26","city":"Loosdrecht","operatorName":"Laadnet","maxPowerKw":22,"isMegawatt":false,"status":"UNAVAILABLE","source":"ndw"}},{"type":"Feature","geometry":{"type":"Point","coordinates":[5.047913,52.24952]},"properties":{"type":"charge","layer":"passenger","locationId":"ca683bee-273c-46fa-8b9f-a78cc987fb39","name":"TNLP015426","address":"Olmenlaan 1","city":"Nederhorst den Berg","operatorName":"TotalEnergies","maxPowerKw":17,"isMegawatt":false,"status":"CHARGING","source":"ndw"}},{"type":"Feature","geometry":{"type":"Point","coordinates":[5.117342,52.241325]},"properties":{"type":"charge","layer":"passenger","locationId":"1999590b-0da3-4082-abc1-35d18cf11284","name":"TNLP006255 - Egidius Blocklaan 33, Kortenhoef","address":"33 Egidius Blocklaan","city":"Kortenhoef","operatorName":"TotalEnergies","maxPowerKw":17,"isMegawatt":false,"status":"UNAVAILABLE","source":"ndw"}},{"type":"Feature","geometry":{"type":"Point","coordinates":[5.119487,52.24325]},"properties":{"type":"charge","layer":"passenger","locationId":"315d720d-ce9b-4647-aab2-8c8787f44d77","name":"TNLP009272 - Bernard van Beeklaan 131, Kortenhoef","address":"131 Bernard van Beeklaan","city":"Kortenhoef","operatorName":"TotalEnergies","maxPowerKw":17,"isMegawatt":false,"status":"UNAVAILABLE","source":"ndw"}},{"type":"Feature","geometry":{"type":"Point","coordinates":[5.099034,52.263866]},"properties":{"type":"charge","layer":"passenger","locationId":"949caa2c-d120-4f25-80cb-96bd1e35845d","name":"TNLP009508 - Mr.J.C.Bührmannlaan 17, Ankeveen","address":"17 Mr.J.C.Bührmannlaan","city":"Ankeveen","operatorName":"TotalEnergies","maxPowerKw":15,"isMegawatt":false,"status":"AVAILABLE","source":"ndw"}},{"type":"Feature","geometry":{"type":"Point","coordinates":[5.123359,52.259219]},"properties":{"type":"charge","layer":"passenger","locationId":"4226371","name":"Laadnet Bickery Food Group B.V.","address":"Stichtse Kade 46","city":"'s-Graveland","operatorName":"Laadnet","maxPowerKw":22,"isMegawatt":false,"status":"AVAILABLE","source":"ndw"}},{"type":"Feature","geometry":{"type":"Point","coordinates":[5.121504,52.240574]},"properties":{"type":"charge","layer":"passenger","locationId":"6b847225-14d3-4bcd-89cf-399b215edd59","name":"TNLP006027 - Noordereinde 51, s Graveland","address":"51 Noordereinde","city":"s Graveland","operatorName":"TotalEnergies","maxPowerKw":17,"isMegawatt":false,"status":"UNAVAILABLE","source":"ndw"}},{"type":"Feature","geometry":{"type":"Point","coordinates":[5.08054,52.207176]},"properties":{"type":"charge","layer":"passenger","locationId":"1657","name":"Shell Recharge NL Vuntuslaan 7","address":"Vuntuslaan 7","city":"Wijdemeren","operatorName":"Ubitricity","maxPowerKw":22,"isMegawatt":false,"status":"AVAILABLE","source":"ndw","priceKwh":0.388}},{"type":"Feature","geometry":{"type":"Point","coordinates":[5.1098569,52.2402782]},"properties":{"type":"charge","layer":"passenger","locationId":"1122","name":"Shell Recharge NL Krabbescheer 60","address":"Krabbescheer 60","city":"Kortenhoef","operatorName":"Ubitricity","maxPowerKw":22,"isMegawatt":false,"status":"CHARGING","source":"ndw","priceKwh":0.266}},{"type":"Feature","geometry":{"type":"Point","coordinates":[5.120675,52.23838]},"properties":{"type":"charge","layer":"passenger","locationId":"e3b2f86e-df69-4e91-9d58-a05d788cff59","name":"TNLP008929 - Kerklaan 1, Kortenhoef","address":"1 Kerklaan","city":"Kortenhoef","operatorName":"TotalEnergies","maxPowerKw":14,"isMegawatt":false,"status":"AVAILABLE","source":"ndw"}},{"type":"Feature","geometry":{"type":"Point","coordinates":[5.137962,52.20678]},"properties":{"type":"charge","layer":"passenger","locationId":"3fbf26b5-80f6-455f-95ca-c00963a9a066","name":"TNLP009536 - Oude Molenmeent 1, Loosdrecht","address":"1 Oude Molenmeent","city":"Loosdrecht","operatorName":"TotalEnergies","maxPowerKw":17,"isMegawatt":false,"status":"AVAILABLE","source":"ndw"}},{"type":"Feature","geometry":{"type":"Point","coordinates":[5.047137,52.261242]},"properties":{"type":"charge","layer":"passenger","locationId":"69227e6e-9b31-4912-970f-8d8e5c88afeb","name":"TNLP005861 - Blijklaan 3, Nederhorst den Berg","address":"3 Blijklaan","city":"Nederhorst den Berg","operatorName":"TotalEnergies","maxPowerKw":13,"isMegawatt":false,"status":"AVAILABLE","source":"ndw"}},{"type":"Feature","geometry":{"type":"Point","coordinates":[5.1382685,52.197832]},"properties":{"type":"charge","layer":"passenger","locationId":"2064","name":"Shell Recharge NL Godelindehof 25","address":"Godelindehof 25","city":"Loosdrecht","operatorName":"Ubitricity","maxPowerKw":22,"isMegawatt":false,"status":"AVAILABLE","source":"ndw","priceKwh":0.266}},{"type":"Feature","geometry":{"type":"Point","coordinates":[5.13702,52.20244]},"properties":{"type":"charge","layer":"passenger","locationId":"5cecaa34-964b-4365-938e-520a73243064","name":"TNLP003555 - Laan van Eikenrode 28, Loosdrecht","address":"28 Laan van Eikenrode","city":"Loosdrecht","operatorName":"TotalEnergies","maxPowerKw":17,"isMegawatt":false,"status":"AVAILABLE","source":"ndw"}},{"type":"Feature","geometry":{"type":"Point","coordinates":[5.118984,52.236845]},"properties":{"type":"charge","layer":"passenger","locationId":"f27e7745-fa76-4143-9d4f-18b1058122e8","name":"TNLP034319","address":"Berkenhof 2","city":"Kortenhoef","operatorName":"TotalEnergies","maxPowerKw":14,"isMegawatt":false,"status":"AVAILABLE","source":"ndw"}},{"type":"Feature","geometry":{"type":"Point","coordinates":[5.137246,52.200296]},"properties":{"type":"charge","layer":"passenger","locationId":"c4136128e67948b0bb3c7804fb745948","name":"Berkenlaan 1","address":"Berkenlaan 1","city":"Loosdrecht","operatorName":"Vattenfall InCharge","maxPowerKw":11,"isMegawatt":false,"status":"CHARGING","source":"ndw"}},{"type":"Feature","geometry":{"type":"Point","coordinates":[5.136266,52.19528]},"properties":{"type":"charge","layer":"passenger","locationId":"1e249d51-3ff3-42de-bd99-bebd9375a440","name":"TNLP007868 - Tjalk 50, Loosdrecht","address":"50 Tjalk","city":"Loosdrecht","operatorName":"TotalEnergies","maxPowerKw":17,"isMegawatt":false,"status":"AVAILABLE","source":"ndw"}},{"type":"Feature","geometry":{"type":"Point","coordinates":[5.11653,52.2377]},"properties":{"type":"charge","layer":"passenger","locationId":"227bbd9c-b961-4d34-9667-b99941bcef58","name":"TNLP008899 - Julianaweg 22, Kortenhoef","address":"22 Julianaweg","city":"Kortenhoef","operatorName":"TotalEnergies","maxPowerKw":14,"isMegawatt":false,"status":"AVAILABLE","source":"ndw"}},{"type":"Feature","geometry":{"type":"Point","coordinates":[5.048529,52.25129]},"properties":{"type":"charge","layer":"passenger","locationId":"15825259-978d-40f4-b187-3e55bac0ebde","name":"TNLP009804 - Uiterdijksehof 11, Nederhorst den Berg","address":"11 Uiterdijksehof","city":"Nederhorst den Berg","operatorName":"TotalEnergies","maxPowerKw":13,"isMegawatt":false,"status":"AVAILABLE","source":"ndw"}},{"type":"Feature","geometry":{"type":"Point","coordinates":[5.122233,52.228404]},"properties":{"type":"charge","layer":"passenger","locationId":"996e6796e92f72ea0023853b985c00ec","name":"Zuidereinde 144","address":"Zuidereinde 144","city":"'s-Graveland","operatorName":"Vattenfall InCharge","maxPowerKw":11,"isMegawatt":false,"status":"AVAILABLE","source":"ndw"}},{"type":"Feature","geometry":{"type":"Point","coordinates":[5.0451,52.26535]},"properties":{"type":"charge","layer":"passenger","locationId":"8dbf9baa-387e-4cc9-91d3-fb483fe8fb98","name":"TNLP003588 - Voorstraat 33, Nederhorst den Berg","address":"33 Voorstraat","city":"Nederhorst den Berg","operatorName":"TotalEnergies","maxPowerKw":17,"isMegawatt":false,"status":"AVAILABLE","source":"ndw"}},{"type":"Feature","geometry":{"type":"Point","coordinates":[5.05888,52.235851]},"properties":{"type":"charge","layer":"passenger","locationId":"66dea9f757c27c001c6e6a80","name":"Vechtplassen 64103 - Kantoor Fort Kijkuit","address":"Gabrielweg 6","city":"Kortenhoef","operatorName":"E-Flux by Road","maxPowerKw":22,"isMegawatt":false,"status":"AVAILABLE","source":"ndw","priceKwh":0.43}},{"type":"Feature","geometry":{"type":"Point","coordinates":[5.113869,52.237663]},"properties":{"type":"charge","layer":"passenger","locationId":"c53c9125-3db3-4d13-9bb2-b7dd00c2f44b","name":"TNLP006373 - Roerdomplaan 21, Kortenhoef","address":"21 Roerdomplaan","city":"Kortenhoef","operatorName":"TotalEnergies","maxPowerKw":17,"isMegawatt":false,"status":"UNAVAILABLE","source":"ndw"}},{"type":"Feature","geometry":{"type":"Point","coordinates":[5.097556,52.1887]},"properties":{"type":"charge","layer":"passenger","locationId":"360f0c6d-6ea7-444e-910e-40fc8bfd4c11","name":"Nieuw-Loosdrechtsedijk 208B","address":"Nieuw-Loosdrechtsedijk 208B","city":"Loosdrecht","operatorName":"Vattenfall InCharge","maxPowerKw":22,"isMegawatt":false,"status":"AVAILABLE","source":"ndw"}},{"type":"Feature","geometry":{"type":"MultiPolygon","coordinates":[[[[5.064875124082567,52.27826569155866],[5.077081216417788,52.27797695285002],[5.08461484293295,52.279407837760644],[5.087703523569711,52.28168524729907],[5.102065276271631,52.27989115698849],[5.102928228286926,52.277649606640765],[5.108443829763566,52.27564277727299],[5.119151097028113,52.273538339590885],[5.120533794398821,52.271362870201465],[5.125573707271547,52.2602180463663],[5.127331091715079,52.25957897461004],[5.132742964606826,52.2597366101863],[5.136499245780345,52.25958345871715],[5.136915467979619,52.25395372722002],[5.139604254413115,52.254015231327685],[5.140047699858503,52.245774718134705],[5.142276996421947,52.24331733861539],[5.142019943579478,52.23931309817481],[5.141326283162499,52.23827370157396],[5.1413616745128135,52.23684785329626],[5.1417910734818,52.22549403895588],[5.14025493027179,52.22464406754904],[5.140232332141371,52.224536525016454],[5.13851567049753,52.22466975301012],[5.138519974969717,52.224590804036936],[5.127944416295506,52.22440437448467],[5.12806235205168,52.222383950371615],[5.129954806385764,52.22239295950495],[5.130008057187699,52.22149158534575],[5.123309553408963,52.221389399056456],[5.122336648405329,52.22081511434506],[5.1225225799903855,52.21993295362811],[5.1226551168367305,52.219650831556336],[5.122526482532039,52.21882564955781],[5.126958407740784,52.21741014354032],[5.128418584464541,52.216838687247424],[5.128403095638528,52.216734142496136],[5.133148693776192,52.21446144328036],[5.1339429181764125,52.21429540920556],[5.1375756196838305,52.21097615345798],[5.139510927921196,52.208381176369926],[5.139739476601379,52.208097653784776],[5.139828062710481,52.207980900770686],[5.139954563692286,52.20801861833144],[5.1399825595932,52.20828870902305],[5.141106334845235,52.208477708677115],[5.141440972677632,52.208050052230554],[5.142015361833081,52.20816692080586],[5.141788009879921,52.208600230646425],[5.142435830032991,52.20870755186513],[5.142511848321766,52.20780420232036],[5.1405806741023365,52.207287900695846],[5.142441807809943,52.20496814472566],[5.14561146015818,52.20050503191107],[5.145702801455749,52.197886041660766],[5.1451198946838215,52.19661621251691],[5.1415460052107695,52.19364536294521],[5.141078642371564,52.193162788715405],[5.135891657415408,52.19030692333802],[5.129204092603202,52.18737761258502],[5.121938868625992,52.185580783362596],[5.1241104622297975,52.180827877978174],[5.1214124566751575,52.18095323697418],[5.115311033018802,52.17981675649108],[5.078655975311355,52.172986102431004],[5.04646361223459,52.16592950248978],[5.0415916790007955,52.18375197934864],[5.032503126412696,52.18411387027326],[5.033764604863505,52.18616418055378],[5.0349771078079595,52.1868034242102],[5.0355842890984714,52.1909750854509],[5.036646077328578,52.19373379010475],[5.038133832307225,52.19516366050526],[5.037203941300835,52.196848077466676],[5.037124420493124,52.19805320393778],[5.030971810531242,52.19876457411674],[5.027942007925353,52.19995936366495],[5.026060908659926,52.20137446349908],[5.0227687345035115,52.20153469036768],[5.021292591905218,52.20188624665069],[5.021383976394539,52.20203711378242],[5.0229350394257875,52.20170998570103],[5.022451646553197,52.20222600621418],[5.02203129223677,52.20238371480593],[5.02158636528454,52.202475732042124],[5.021603516922379,52.202542493662556],[5.022686057439836,52.20223647374987],[5.023025565485269,52.202039481621675],[5.023100703966883,52.20275405982527],[5.022473117469435,52.20267434625569],[5.0226206364721655,52.20394196867921],[5.023432460038927,52.203828895895185],[5.023314694534744,52.203051345725186],[5.024995883224869,52.202844398011564],[5.025034314542854,52.20327811668337],[5.025454674140711,52.20327980488966],[5.0255994659278285,52.20398232963552],[5.036649547925365,52.202138488064485],[5.03742062709294,52.20496501763984],[5.035315836118212,52.20523310089669],[5.0364442766355735,52.20956448420375],[5.0364432312798595,52.209564577270385],[5.033400110716804,52.209836743724246],[5.034353301100452,52.213117974645264],[5.033729154954974,52.21312355065518],[5.033787420330051,52.21371450938171],[5.0367415369466215,52.21366387341847],[5.037242395806366,52.21418912866119],[5.035329017895698,52.21446278003492],[5.035682871605325,52.215125172784276],[5.036908762751508,52.215156236333016],[5.037118329096715,52.216596989686174],[5.03584840820951,52.21752965135311],[5.036664910918679,52.22436066769395],[5.0392111112565,52.22394503225548],[5.039362262289128,52.224407602767734],[5.041906509404635,52.22399357117063],[5.041921903135499,52.22406273116686],[5.0426318365015375,52.223866063633274],[5.04279499005218,52.22404002355614],[5.041983266029135,52.22432716311159],[5.041928166584285,52.22408919181198],[5.039872522349848,52.224387837666676],[5.036964194029884,52.2247894637552],[5.0371010787076225,52.22534216119446],[5.038729860271548,52.22517992741271],[5.0416850693047515,52.22823502063903],[5.042483725993147,52.228780390688186],[5.041143877047042,52.22932395243743],[5.041255571792776,52.22950660925317],[5.0406957657063485,52.22956796404288],[5.040544736843287,52.229842469013576],[5.041427955341873,52.230078369372606],[5.0415848104220204,52.2308887278385],[5.042312681448008,52.23053218286081],[5.056223523576591,52.23497916315538],[5.055788811415162,52.2352140917336],[5.056760997107682,52.23559333318698],[5.057407681786692,52.23524802245972],[5.057712063936505,52.235343083949246],[5.056901252950688,52.23652283809423],[5.045995453774204,52.24322103112278],[5.046442079226347,52.24872555888128],[5.045257189540699,52.24986893817889],[5.044190647000421,52.251604723643304],[5.043426892018961,52.255448989020856],[5.041877871640148,52.25656041072107],[5.0402521894447165,52.25657682642157],[5.037195411506991,52.25344164864663],[5.035254378484543,52.2526453274818],[5.032121522082745,52.254618948810126],[5.030708844713673,52.256890711723074],[5.032504008289466,52.258744234007],[5.032571495358386,52.25997535338459],[5.03145273554069,52.2613061330695],[5.0265499373386335,52.26419903822672],[5.0278536183472395,52.26624684954121],[5.027625769831088,52.26777805359076],[5.026338138991258,52.26866179346155],[5.023309027519587,52.27147238995512],[5.02288580104735,52.27248383005987],[5.02370917864457,52.27320856004332],[5.028294332410909,52.27203252810169],[5.029812672537637,52.272043895570654],[5.030932048575444,52.27250325944476],[5.033068941646376,52.27529026224042],[5.042520975942443,52.27793066385432],[5.048236580886841,52.27696080250968],[5.049678856722567,52.27798921867681],[5.0496651735821905,52.28020622624669],[5.050752521298561,52.281818150732],[5.060397204242225,52.28514343580573],[5.062857987337104,52.2847786192691],[5.062872143344723,52.28219998342684],[5.064411586114435,52.28073794177315],[5.06388474215798,52.27997600419981],[5.065324656243586,52.27965968869839],[5.063811689940872,52.278577417768304],[5.064875124082567,52.27826569155866]]]]},"properties":{"type":"boundary","gemeente":"Wijdemeren","code":"GM1696"}}]}