{"type":"FeatureCollection","metadata":{"gemeente":"Zandvoort","slug":"zandvoort","code":"GM0473","generated_at":"2026-07-06T16:26:11.361Z","total_passenger":51,"total_freight":0,"bounds":[4.493971247012524,52.31399671927059,4.591658716166414,52.40139590879374],"operators":["Allego","E-Flux by Road","Pluq","TotalEnergies","Ubitricity","Vattenfall InCharge"]},"features":[{"type":"Feature","geometry":{"type":"Point","coordinates":[4.540736,52.366346]},"properties":{"type":"charge","layer":"passenger","locationId":"c3ec511c09fab5821923606e1b413824","name":"Frans Zwaanstraat 2","address":"Frans Zwaanstraat 2","city":"Zandvoort","operatorName":"Vattenfall InCharge","maxPowerKw":11,"isMegawatt":false,"status":"AVAILABLE","source":"ndw"}},{"type":"Feature","geometry":{"type":"Point","coordinates":[4.533053,52.37143]},"properties":{"type":"charge","layer":"passenger","locationId":"NLLOC001862","name":"NLD, Zandvoort, Cornelis Slegersstraat 11","address":"Cornelis Slegersstraat 11","city":"Zandvoort","operatorName":"Allego","maxPowerKw":11,"isMegawatt":false,"status":"UNAVAILABLE","source":"ndw","priceKwh":0.511}},{"type":"Feature","geometry":{"type":"Point","coordinates":[4.529861,52.37284]},"properties":{"type":"charge","layer":"passenger","locationId":"NLLOC001763","name":"NLD, Zandvoort, Swaluëstraat 2","address":"Swaluëstraat 2-a","city":"Zandvoort","operatorName":"Allego","maxPowerKw":22,"isMegawatt":false,"status":"CHARGING","source":"ndw","priceKwh":0.511}},{"type":"Feature","geometry":{"type":"Point","coordinates":[4.548667,52.379953]},"properties":{"type":"charge","layer":"passenger","locationId":"NLLOC005128","name":"NLD, Lorentzstraat 355, 2041 RN Zandvoort","address":"Lorentzstraat 355","city":"Zandvoort","operatorName":"Allego","maxPowerKw":11,"isMegawatt":false,"status":"AVAILABLE","source":"ndw","priceKwh":0.511}},{"type":"Feature","geometry":{"type":"Point","coordinates":[4.533357,52.3828465]},"properties":{"type":"charge","layer":"passenger","locationId":"1380","name":"Shell Recharge NL Van Galenstraat 290","address":"Van Galenstraat 290","city":"Zandvoort","operatorName":"Ubitricity","maxPowerKw":22,"isMegawatt":false,"status":"AVAILABLE","source":"ndw","priceKwh":0.266}},{"type":"Feature","geometry":{"type":"Point","coordinates":[4.541151,52.366308]},"properties":{"type":"charge","layer":"passenger","locationId":"NLLOC008359","name":"NL, Cornelis van der Werffstraat 20, 2042CG Zandvoort","address":"Cornelis van der Werffstraat 20","city":"Zandvoort","operatorName":"Allego","maxPowerKw":11,"isMegawatt":false,"status":"AVAILABLE","source":"ndw","priceKwh":0.511}},{"type":"Feature","geometry":{"type":"Point","coordinates":[4.5273555,52.3706989]},"properties":{"type":"charge","layer":"passenger","locationId":"1263","name":"Shell Recharge NL Hogeweg 34 a 1","address":"Hogeweg 34 a 1","city":"Zandvoort","operatorName":"Ubitricity","maxPowerKw":22,"isMegawatt":false,"status":"CHARGING","source":"ndw","priceKwh":0.266}},{"type":"Feature","geometry":{"type":"Point","coordinates":[4.5294,52.37656]},"properties":{"type":"charge","layer":"passenger","locationId":"1490","name":"Shell Recharge NL Dr. J.G. Mezgerstraat 26","address":"Dr. J.G. Mezgerstraat 26","city":"Zandvoort","operatorName":"Ubitricity","maxPowerKw":22,"isMegawatt":false,"status":"CHARGING","source":"ndw","priceKwh":0.388}},{"type":"Feature","geometry":{"type":"Point","coordinates":[4.5333509,52.3700676]},"properties":{"type":"charge","layer":"passenger","locationId":"1295","name":"Shell Recharge NL Lijsterstraat 2 F 38","address":"Lijsterstraat 2 F 38","city":"Zandvoort","operatorName":"Ubitricity","maxPowerKw":22,"isMegawatt":false,"status":"AVAILABLE","source":"ndw","priceKwh":0.266}},{"type":"Feature","geometry":{"type":"Point","coordinates":[4.538472,52.3774263]},"properties":{"type":"charge","layer":"passenger","locationId":"1305","name":"Shell Recharge NL Martinus Nijhoffstraat 53","address":"Martinus Nijhoffstraat 53","city":"Zandvoort","operatorName":"Ubitricity","maxPowerKw":22,"isMegawatt":false,"status":"AVAILABLE","source":"ndw","priceKwh":0.266}},{"type":"Feature","geometry":{"type":"Point","coordinates":[4.5362316,52.3899818]},"properties":{"type":"charge","layer":"passenger","locationId":"1740","name":"Shell Recharge NL Boulevard Barnaart 61, Parkeervak 1 - 2","address":"Boulevard Barnaart 61, Parkeervak 1 - 2","city":"Zandvoort","operatorName":"Ubitricity","maxPowerKw":22,"isMegawatt":false,"status":"AVAILABLE","source":"ndw","priceKwh":0.266}},{"type":"Feature","geometry":{"type":"Point","coordinates":[4.5549112,52.377188]},"properties":{"type":"charge","layer":"passenger","locationId":"1394","name":"Shell Recharge NL Voltastraat 32","address":"Voltastraat 32","city":"Zandvoort","operatorName":"Ubitricity","maxPowerKw":22,"isMegawatt":false,"status":"AVAILABLE","source":"ndw","priceKwh":0.266}},{"type":"Feature","geometry":{"type":"Point","coordinates":[4.555241,52.378245]},"properties":{"type":"charge","layer":"passenger","locationId":"NLLOC004036","name":"NLD Keesomstraat 311, 2041 XM Zandvoort","address":"Keesomstraat 311","city":"Zandvoort","operatorName":"Allego","maxPowerKw":11,"isMegawatt":false,"status":"AVAILABLE","source":"ndw","priceKwh":0.511}},{"type":"Feature","geometry":{"type":"Point","coordinates":[4.534095,52.37674]},"properties":{"type":"charge","layer":"passenger","locationId":"NLLOC003530","name":"NLD Ronald Ketellaperstraat 15, 2041 EL Zandvoort","address":"Ronald Ketellaperstraat 15","city":"Zandvoort","operatorName":"Allego","maxPowerKw":11,"isMegawatt":false,"status":"AVAILABLE","source":"ndw","priceKwh":0.511}},{"type":"Feature","geometry":{"type":"Point","coordinates":[4.554113,52.3802533]},"properties":{"type":"charge","layer":"passenger","locationId":"1766","name":"Shell Recharge NL Keesomstraat 8","address":"Keesomstraat 8","city":"Zandvoort","operatorName":"Ubitricity","maxPowerKw":22,"isMegawatt":false,"status":"AVAILABLE","source":"ndw","priceKwh":0.266}},{"type":"Feature","geometry":{"type":"Point","coordinates":[4.53998,52.37485]},"properties":{"type":"charge","layer":"passenger","locationId":"d98c7f57b56a3a860f91c6d1e78300a6","name":"Burgemeester Beeckmanstraat 1","address":"Burgemeester Beeckmanstraat 1","city":"Zandvoort","operatorName":"Vattenfall InCharge","maxPowerKw":11,"isMegawatt":false,"status":"AVAILABLE","source":"ndw"}},{"type":"Feature","geometry":{"type":"Point","coordinates":[4.573095,52.366034]},"properties":{"type":"charge","layer":"passenger","locationId":"664daa43799db5001c66445b","name":"Jefta van Vliet-Brons 's station","address":"Zandvoortselaan 345","city":"Bentveld","operatorName":"E-Flux by Road","maxPowerKw":11,"isMegawatt":false,"status":"AVAILABLE","source":"ndw","priceKwh":0.78}},{"type":"Feature","geometry":{"type":"Point","coordinates":[4.538217,52.368154]},"properties":{"type":"charge","layer":"passenger","locationId":"NLLOC003527","name":"NLD, Tolweg 10, 2042 EK Zandvoort","address":"Tolweg 10","city":"Zandvoort","operatorName":"Allego","maxPowerKw":11,"isMegawatt":false,"status":"CHARGING","source":"ndw","priceKwh":0.511}},{"type":"Feature","geometry":{"type":"Point","coordinates":[4.572997,52.365927]},"properties":{"type":"charge","layer":"passenger","locationId":"6661a922a18573001ce2b967","name":"Jefta van Vliet-Brons 's station","address":"Zandvoortselaan 347","city":"Bentveld","operatorName":"E-Flux by Road","maxPowerKw":11,"isMegawatt":false,"status":"AVAILABLE","source":"ndw","priceKwh":0.78}},{"type":"Feature","geometry":{"type":"Point","coordinates":[4.529833,52.377202]},"properties":{"type":"charge","layer":"passenger","locationId":"a330aab9-05a5-4404-a8a3-bcf545c0f790","name":"TNLP034013","address":"Doctor Smitstraat 8","city":"Zandvoort","operatorName":"TotalEnergies","maxPowerKw":14,"isMegawatt":false,"status":"AVAILABLE","source":"ndw"}},{"type":"Feature","geometry":{"type":"Point","coordinates":[4.555828,52.377129]},"properties":{"type":"charge","layer":"passenger","locationId":"646cdc5119705b00125df32a","name":"J Swart","address":"Amperestraat 20","city":"Zandvoort","operatorName":"E-Flux by Road","maxPowerKw":22,"isMegawatt":false,"status":"AVAILABLE","source":"ndw","priceKwh":0.38}},{"type":"Feature","geometry":{"type":"Point","coordinates":[4.533489,52.383838]},"properties":{"type":"charge","layer":"passenger","locationId":"66729839d43a82001c565c30","name":"Hotel NH Zandvoort","address":"Burgemeester van Alphenstraat 63","city":"Zandvoort","operatorName":"Pluq","maxPowerKw":22,"isMegawatt":false,"status":"AVAILABLE","source":"ndw","priceKwh":0.5}},{"type":"Feature","geometry":{"type":"Point","coordinates":[4.529474,52.37969]},"properties":{"type":"charge","layer":"passenger","locationId":"NLLOC007324","name":"NL, Boulevard Barnaart 12, 2041 JA, Zandvoort","address":"Boulevard Barnaart 12","city":"Zandvoort","operatorName":"Allego","maxPowerKw":11,"isMegawatt":false,"status":"CHARGING","source":"ndw","priceKwh":0.511}},{"type":"Feature","geometry":{"type":"Point","coordinates":[4.5358199,52.3755316]},"properties":{"type":"charge","layer":"passenger","locationId":"1409","name":"Shell Recharge NL Witte Veld 71","address":"Witte Veld 71","city":"Zandvoort","operatorName":"Ubitricity","maxPowerKw":22,"isMegawatt":false,"status":"CHARGING","source":"ndw","priceKwh":0.266}},{"type":"Feature","geometry":{"type":"Point","coordinates":[4.532746,52.381644]},"properties":{"type":"charge","layer":"passenger","locationId":"NLLOC003524","name":"NLD Tjerk Hiddestraat 110, 2041 JJ Zandvoort","address":"Tjerk Hiddestraat 110","city":"Zandvoort","operatorName":"Allego","maxPowerKw":11,"isMegawatt":false,"status":"CHARGING","source":"ndw","priceKwh":0.511}},{"type":"Feature","geometry":{"type":"Point","coordinates":[4.541011,52.374912]},"properties":{"type":"charge","layer":"passenger","locationId":"eaf74373-e60c-4778-81ab-7968abb524cd","name":"TNLP005721 - Tollensstraat 2, Zandvoort","address":"2 Tollensstraat","city":"Zandvoort","operatorName":"TotalEnergies","maxPowerKw":13,"isMegawatt":false,"status":"AVAILABLE","source":"ndw"}},{"type":"Feature","geometry":{"type":"Point","coordinates":[4.54893,52.378414]},"properties":{"type":"charge","layer":"passenger","locationId":"9fdadde0-b4aa-41d2-bde1-bf0f4ef67753","name":"TNLP009828 - Flemingstraat 11, Zandvoort","address":"11 Flemingstraat","city":"Zandvoort","operatorName":"TotalEnergies","maxPowerKw":13,"isMegawatt":false,"status":"AVAILABLE","source":"ndw"}},{"type":"Feature","geometry":{"type":"Point","coordinates":[4.544951,52.377192]},"properties":{"type":"charge","layer":"passenger","locationId":"02f47e21-c3ab-4784-b39b-619cac89145b","name":"TNLP034085","address":"Celsiusstraat 16","city":"Zandvoort","operatorName":"TotalEnergies","maxPowerKw":14,"isMegawatt":false,"status":"AVAILABLE","source":"ndw"}},{"type":"Feature","geometry":{"type":"Point","coordinates":[4.527612,52.369309]},"properties":{"type":"charge","layer":"passenger","locationId":"NLLOC011715","name":"NL, Brederodestraat 59, 2042 BC Zandvoort","address":"Brederodestraat 59","city":"Zandvoort","operatorName":"Allego","maxPowerKw":11,"isMegawatt":false,"status":"AVAILABLE","source":"ndw","priceKwh":0.511}},{"type":"Feature","geometry":{"type":"Point","coordinates":[4.528046,52.37464]},"properties":{"type":"charge","layer":"passenger","locationId":"NLLOC009960","name":"NL, Passage, 3, 2042KR, Zandvoort","address":"Passage 3","city":"Zandvoort","operatorName":"Allego","maxPowerKw":11,"isMegawatt":false,"status":"AVAILABLE","source":"ndw","priceKwh":0.511}},{"type":"Feature","geometry":{"type":"Point","coordinates":[4.550211,52.37854]},"properties":{"type":"charge","layer":"passenger","locationId":"NLLOC001645","name":"NLD, Zandvoort, Flemingstraat 176","address":"Flemingstraat 176","city":"Zandvoort","operatorName":"Allego","maxPowerKw":11,"isMegawatt":false,"status":"AVAILABLE","source":"ndw","priceKwh":0.511}},{"type":"Feature","geometry":{"type":"Point","coordinates":[4.539021,52.393841]},"properties":{"type":"charge","layer":"passenger","locationId":"NLLOC005434","name":"NLD, Boulevard Barnaart 62, Zandvoort","address":"Boulevard Barnaart 62","city":"Zandvoort","operatorName":"Allego","maxPowerKw":11,"isMegawatt":false,"status":"AVAILABLE","source":"ndw","priceKwh":0.511}},{"type":"Feature","geometry":{"type":"Point","coordinates":[4.548713,52.376026]},"properties":{"type":"charge","layer":"passenger","locationId":"65aa66906e13d3001c1c4be7","name":"Dennis Spolders 's station","address":"newtonstraat 12","city":"Zandvoort","operatorName":"E-Flux by Road","maxPowerKw":11,"isMegawatt":false,"status":"AVAILABLE","source":"ndw","priceKwh":0.63}},{"type":"Feature","geometry":{"type":"Point","coordinates":[4.538758,52.376603]},"properties":{"type":"charge","layer":"passenger","locationId":"NLLOC007309","name":"NL, Nicolaas Beetslaan 35, 2041 NR, Zandvoort","address":"Nicolaas Beetslaan 35","city":"Zandvoort","operatorName":"Allego","maxPowerKw":11,"isMegawatt":false,"status":"AVAILABLE","source":"ndw","priceKwh":0.511}},{"type":"Feature","geometry":{"type":"Point","coordinates":[4.532267,52.372543]},"properties":{"type":"charge","layer":"passenger","locationId":"NLLOC014106","name":"NL, Prinsesseweg 2a, 2042NH, Zandvoort","address":"Prinsesseweg 2a","city":"Zandvoort","operatorName":"Allego","maxPowerKw":11,"isMegawatt":false,"status":"AVAILABLE","source":"ndw","priceKwh":0.511}},{"type":"Feature","geometry":{"type":"Point","coordinates":[4.540074,52.373331]},"properties":{"type":"charge","layer":"passenger","locationId":"NLLOC001646","name":"NLD, Zandvoort, Sophiaweg 4","address":"Sophiaweg 4","city":"Zandvoort","operatorName":"Allego","maxPowerKw":11,"isMegawatt":false,"status":"AVAILABLE","source":"ndw","priceKwh":0.511}},{"type":"Feature","geometry":{"type":"Point","coordinates":[4.546027,52.383387]},"properties":{"type":"charge","layer":"passenger","locationId":"77e5fcdc-229c-4182-8148-c966045e24cc","name":"TNLP034082","address":"Duintjesveldweg 7","city":"Zandvoort","operatorName":"TotalEnergies","maxPowerKw":14,"isMegawatt":false,"status":"AVAILABLE","source":"ndw"}},{"type":"Feature","geometry":{"type":"Point","coordinates":[4.540192,52.368873]},"properties":{"type":"charge","layer":"passenger","locationId":"2ce2a5db-c2ed-470d-b234-fc65a9b1c227","name":"Zandvoortselaan","address":"Zandvoortselaan 2","city":"Zandvoort","operatorName":"Vattenfall InCharge","maxPowerKw":11,"isMegawatt":false,"status":"CHARGING","source":"ndw"}},{"type":"Feature","geometry":{"type":"Point","coordinates":[4.53285,52.37075]},"properties":{"type":"charge","layer":"passenger","locationId":"NLLOC001643","name":"NLD, Zandvoort, Brederodestraat 1","address":"Brederodestraat 1-F","city":"Zandvoort","operatorName":"Allego","maxPowerKw":22,"isMegawatt":false,"status":"AVAILABLE","source":"ndw","priceKwh":0.511}},{"type":"Feature","geometry":{"type":"Point","coordinates":[4.546083,52.383428]},"properties":{"type":"charge","layer":"passenger","locationId":"42eb49c7ae6834bc74e6af9959129104","name":"Duintjesveldweg 7","address":"Duintjesveldweg 7","city":"Zandvoort","operatorName":"Vattenfall InCharge","maxPowerKw":11,"isMegawatt":false,"status":"AVAILABLE","source":"ndw"}},{"type":"Feature","geometry":{"type":"Point","coordinates":[4.530605,52.36948]},"properties":{"type":"charge","layer":"passenger","locationId":"b8c1512d-10ba-41bb-9367-ccb9416e9ee6","name":"TNLP034050","address":"Dr Kuyperstraat 3","city":"Zandvoort","operatorName":"TotalEnergies","maxPowerKw":14,"isMegawatt":false,"status":"CHARGING","source":"ndw"}},{"type":"Feature","geometry":{"type":"Point","coordinates":[4.533149,52.367518]},"properties":{"type":"charge","layer":"passenger","locationId":"NLLOC005432","name":"NLD, Frans Zwaanstraat 78, Zandvoort","address":"Frans Zwaanstraat 78","city":"Zandvoort","operatorName":"Allego","maxPowerKw":11,"isMegawatt":false,"status":"AVAILABLE","source":"ndw","priceKwh":0.511}},{"type":"Feature","geometry":{"type":"Point","coordinates":[4.535062,52.388246]},"properties":{"type":"charge","layer":"passenger","locationId":"55d6e55df753812e151ee28d126c1642","name":"Boulevard Barnaart 57","address":"Boulevard Barnaart 57","city":"Zandvoort","operatorName":"Vattenfall InCharge","maxPowerKw":11,"isMegawatt":false,"status":"AVAILABLE","source":"ndw"}},{"type":"Feature","geometry":{"type":"Point","coordinates":[4.537304,52.378311]},"properties":{"type":"charge","layer":"passenger","locationId":"NLLOC001764","name":"NLD, Zandvoort, Vondellaan 55","address":"Vondellaan 55","city":"Zandvoort","operatorName":"Allego","maxPowerKw":11,"isMegawatt":false,"status":"AVAILABLE","source":"ndw","priceKwh":0.511}},{"type":"Feature","geometry":{"type":"Point","coordinates":[4.535471,52.372411]},"properties":{"type":"charge","layer":"passenger","locationId":"NLLOC001195","name":"NLD, Zandvoort, Koninginneweg 23","address":"Koninginneweg 23","city":"Zandvoort","operatorName":"Allego","maxPowerKw":22,"isMegawatt":false,"status":"AVAILABLE","source":"ndw","priceKwh":0.511}},{"type":"Feature","geometry":{"type":"Point","coordinates":[4.531583,52.379118]},"properties":{"type":"charge","layer":"passenger","locationId":"1703cb7a-8296-46c0-bb03-0cb560ea38f3","name":"TNLP034049","address":"Dr Joh G Mezgerstraat 124","city":"Zandvoort","operatorName":"TotalEnergies","maxPowerKw":14,"isMegawatt":false,"status":"CHARGING","source":"ndw"}},{"type":"Feature","geometry":{"type":"Point","coordinates":[4.523986,52.367904]},"properties":{"type":"charge","layer":"passenger","locationId":"NLLOC003232","name":"NLD, Ir G Friedhoffplein 8, 2042 BN, Zandvoort","address":"Ir G Friedhoffplein 8","city":"Zandvoort","operatorName":"Allego","maxPowerKw":11,"isMegawatt":false,"status":"AVAILABLE","source":"ndw","priceKwh":0.511}},{"type":"Feature","geometry":{"type":"Point","coordinates":[4.528045,52.370705]},"properties":{"type":"charge","layer":"passenger","locationId":"73d9dd64-fc39-4e83-8aaa-f57018cc6f71","name":"Hogeweg","address":"Hogeweg 37","city":"Zandvoort","operatorName":"Vattenfall InCharge","maxPowerKw":11,"isMegawatt":false,"status":"AVAILABLE","source":"ndw"}},{"type":"Feature","geometry":{"type":"Point","coordinates":[4.5341,52.37854]},"properties":{"type":"charge","layer":"passenger","locationId":"dec7ddf982a06e6f0633d5cca9e902bd","name":"A.J. van der Moolenstraat 63","address":"A.J. van der Moolenstraat 63","city":"Zandvoort","operatorName":"Vattenfall InCharge","maxPowerKw":11,"isMegawatt":false,"status":"AVAILABLE","source":"ndw"}},{"type":"Feature","geometry":{"type":"Point","coordinates":[4.52619,52.37223]},"properties":{"type":"charge","layer":"passenger","locationId":"a26fda8fcad6d374c9f9d32cbc217f76","name":"Thorbeckestraat 3","address":"Thorbeckestraat 3","city":"Zandvoort","operatorName":"Vattenfall InCharge","maxPowerKw":11,"isMegawatt":false,"status":"AVAILABLE","source":"ndw"}},{"type":"Feature","geometry":{"type":"Point","coordinates":[4.54016,52.37103]},"properties":{"type":"charge","layer":"passenger","locationId":"d721ae77a6f91c8b2d85a1a1ba8119e1","name":"Julianaweg 31","address":"Julianaweg 31","city":"Zandvoort","operatorName":"Vattenfall InCharge","maxPowerKw":11,"isMegawatt":false,"status":"AVAILABLE","source":"ndw"}},{"type":"Feature","geometry":{"type":"MultiPolygon","coordinates":[[[[4.56500097588626,52.344339167319234],[4.547322159134312,52.31399671927059],[4.543370743853952,52.314988724567726],[4.494926647180439,52.327948544748196],[4.493971247012524,52.32819809812323],[4.52614687334964,52.37734628000498],[4.541323030416286,52.40139590879374],[4.543043126647208,52.401093593752215],[4.591658716166414,52.39171563549172],[4.591458761179864,52.39136259561075],[4.579718056682054,52.370602372169365],[4.5795701650587235,52.37034179966508],[4.576623700869807,52.36517142746957],[4.574505029374265,52.36145040807699],[4.570035380912162,52.35336318592696],[4.56500097588626,52.344339167319234]]]]},"properties":{"type":"boundary","gemeente":"Zandvoort","code":"GM0473"}}]}