{"type":"FeatureCollection","metadata":{"gemeente":"Zeewolde","slug":"zeewolde","code":"GM0050","generated_at":"2026-07-06T16:26:11.361Z","total_passenger":113,"total_freight":1,"bounds":[5.301243577024542,52.25261331393751,5.622984181273812,52.44263180901962],"operators":["Allego","E-Flux by Road","Eneco","Laadnet","Opcharge","Pluq","Tanx","TotalEnergies","Ubitricity","Vattenfall InCharge"]},"features":[{"type":"Feature","geometry":{"type":"Point","coordinates":[5.534504,52.322407]},"properties":{"type":"charge","layer":"passenger","locationId":"b6871d1d-f38d-44a0-a66b-d78f4ffe90c5","name":"TNLP008815 - Reeënspoor 81, Zeewolde","address":"81 Reeënspoor","city":"Zeewolde","operatorName":"TotalEnergies","maxPowerKw":13,"isMegawatt":false,"status":"AVAILABLE","source":"ndw"}},{"type":"Feature","geometry":{"type":"Point","coordinates":[5.538662,52.33597]},"properties":{"type":"charge","layer":"passenger","locationId":"ceeeadca-eeaf-46cd-945a-37145d6162fd","name":"TNLP015095 - Robbenplaat 3, Zeewolde","address":"3 Robbenplaat","city":"Zeewolde","operatorName":"TotalEnergies","maxPowerKw":13,"isMegawatt":false,"status":"AVAILABLE","source":"ndw"}},{"type":"Feature","geometry":{"type":"Point","coordinates":[5.535902,52.34777]},"properties":{"type":"charge","layer":"passenger","locationId":"6be59c35-74ef-41bf-a73c-3a6f4ca54d1a","name":"TNLP015322 - Kaapsduinhof 83, Zeewolde","address":"83 Kaapsduinhof","city":"Zeewolde","operatorName":"TotalEnergies","maxPowerKw":13,"isMegawatt":false,"status":"AVAILABLE","source":"ndw"}},{"type":"Feature","geometry":{"type":"Point","coordinates":[5.518157,52.337296]},"properties":{"type":"charge","layer":"passenger","locationId":"ef0a8c92-d15b-413c-bd67-9c9c981eef9d","name":"TNLP015433 - Jade 42, Zeewolde","address":"42 Jade","city":"Zeewolde","operatorName":"TotalEnergies","maxPowerKw":13,"isMegawatt":false,"status":"AVAILABLE","source":"ndw"}},{"type":"Feature","geometry":{"type":"Point","coordinates":[5.502744,52.354472]},"properties":{"type":"charge","layer":"passenger","locationId":"NLENV527","name":"Zeewolde, Akkerweg 3 - Storteboom EI","address":"Akkerweg 3","city":"Zeewolde","operatorName":"","maxPowerKw":11,"isMegawatt":false,"status":"AVAILABLE","source":"ndw","priceKwh":0.5}},{"type":"Feature","geometry":{"type":"Point","coordinates":[5.50475,52.352267]},"properties":{"type":"charge","layer":"passenger","locationId":"65c61d44b6b258001c588986","name":"Micro-Square","address":"Marconiweg 1","city":"Zeewolde","operatorName":"E-Flux by Road","maxPowerKw":11,"isMegawatt":false,"status":"AVAILABLE","source":"ndw","priceKwh":0.35}},{"type":"Feature","geometry":{"type":"Point","coordinates":[5.523441,52.340694]},"properties":{"type":"charge","layer":"passenger","locationId":"38e63e41-6105-4264-8ea8-a66b6389957d","name":"TNLP008907 - Koolzaadlaan 1, Zeewolde","address":"1 Koolzaadlaan","city":"Zeewolde","operatorName":"TotalEnergies","maxPowerKw":14,"isMegawatt":false,"status":"AVAILABLE","source":"ndw"}},{"type":"Feature","geometry":{"type":"Point","coordinates":[5.526493,52.344294]},"properties":{"type":"charge","layer":"passenger","locationId":"NLLOC008212","name":"NL, Teylingen 4, 3894 AG Zeewolde","address":"Teylingen 4","city":"Zeewolde","operatorName":"Allego","maxPowerKw":11,"isMegawatt":false,"status":"AVAILABLE","source":"ndw","priceKwh":0.511}},{"type":"Feature","geometry":{"type":"Point","coordinates":[5.522269,52.332047]},"properties":{"type":"charge","layer":"passenger","locationId":"1fc40908-db35-48cb-b900-90ed3aa779b3","name":"TNLP007946 - Biotoop 65, Zeewolde","address":"65 Biotoop","city":"Zeewolde","operatorName":"TotalEnergies","maxPowerKw":13,"isMegawatt":false,"status":"CHARGING","source":"ndw"}},{"type":"Feature","geometry":{"type":"Point","coordinates":[5.531646,52.35263]},"properties":{"type":"charge","layer":"passenger","locationId":"13ef8de7-9232-4126-9748-768f72af4b0e","name":"TNLP008867 - Kokkelhof 34, Zeewolde","address":"34 Kokkelhof","city":"Zeewolde","operatorName":"TotalEnergies","maxPowerKw":14,"isMegawatt":false,"status":"AVAILABLE","source":"ndw"}},{"type":"Feature","geometry":{"type":"Point","coordinates":[5.607682,52.382231]},"properties":{"type":"charge","layer":"passenger","locationId":"4725709","name":"Laadnet Villa 363 Harderwold","address":"Pluvierenweg 9-363","city":"Zeewolde","operatorName":"Laadnet","maxPowerKw":11,"isMegawatt":false,"status":"AVAILABLE","source":"ndw"}},{"type":"Feature","geometry":{"type":"Point","coordinates":[5.532475,52.341614]},"properties":{"type":"charge","layer":"passenger","locationId":"NLLOC003057","name":"NLD, Zeewolde, Mangaan 29","address":"Mangaan 29","city":"Zeewolde","operatorName":"Allego","maxPowerKw":11,"isMegawatt":false,"status":"AVAILABLE","source":"ndw","priceKwh":0.511}},{"type":"Feature","geometry":{"type":"Point","coordinates":[5.607518,52.388407]},"properties":{"type":"charge","layer":"passenger","locationId":"1428901","name":"Heiko Vetkamp Harderwold 575","address":"Pluvierenweg 9-575","city":"Zeewolde","operatorName":"Laadnet","maxPowerKw":11,"isMegawatt":false,"status":"AVAILABLE","source":"ndw"}},{"type":"Feature","geometry":{"type":"Point","coordinates":[5.546175,52.321678]},"properties":{"type":"charge","layer":"passenger","locationId":"NLLOC011192","name":"NL, Citroenvlinder 62, 3892 EZ, Zeewolde","address":"Citroenvlinder 62","city":"Zeewolde","operatorName":"Allego","maxPowerKw":11,"isMegawatt":false,"status":"AVAILABLE","source":"ndw","priceKwh":0.511}},{"type":"Feature","geometry":{"type":"Point","coordinates":[5.5292313,52.3352832]},"properties":{"type":"charge","layer":"passenger","locationId":"1083","name":"Shell Recharge NL muiderweg 6","address":"muiderweg 6","city":"Zeewolde","operatorName":"Ubitricity","maxPowerKw":22,"isMegawatt":false,"status":"AVAILABLE","source":"ndw","priceKwh":0.266}},{"type":"Feature","geometry":{"type":"Point","coordinates":[5.527933,52.34675]},"properties":{"type":"charge","layer":"passenger","locationId":"4349411","name":"Laadnet zonneveld","address":"Roode Hert 5","city":"Zeewolde","operatorName":"Laadnet","maxPowerKw":11,"isMegawatt":false,"status":"AVAILABLE","source":"ndw"}},{"type":"Feature","geometry":{"type":"Point","coordinates":[5.521643,52.341489]},"properties":{"type":"charge","layer":"passenger","locationId":"NLLOC017124","name":"NL, Tarwelaan 108, 3893 GN Zeewolde","address":"Tarwelaan 108","city":"Zeewolde","operatorName":"Allego","maxPowerKw":11,"isMegawatt":false,"status":"AVAILABLE","source":"ndw","priceKwh":0.511}},{"type":"Feature","geometry":{"type":"Point","coordinates":[5.494508,52.349267]},"properties":{"type":"charge","layer":"passenger","locationId":"4175074","name":"Laadnet Brouwer Units en Wagenbouw b.v.","address":"Tweespan 14","city":"Zeewolde","operatorName":"Laadnet","maxPowerKw":22,"isMegawatt":false,"status":"AVAILABLE","source":"ndw"}},{"type":"Feature","geometry":{"type":"Point","coordinates":[5.530922,52.326216]},"properties":{"type":"charge","layer":"passenger","locationId":"62a9857db18e1a42ec113523","name":"Het Drieluik","address":"Gildenveld 12","city":"Zeewolde","operatorName":"E-Flux by Road","maxPowerKw":22,"isMegawatt":false,"status":"AVAILABLE","source":"ndw","priceKwh":0.53}},{"type":"Feature","geometry":{"type":"Point","coordinates":[5.606175,52.3826]},"properties":{"type":"charge","layer":"passenger","locationId":"6659d2f17dd4ae001c31fbe2","name":"Pluvierenweg 9-577A","address":"Pluvierenweg 9-577A","city":"Zeewolde","operatorName":"E-Flux by Road","maxPowerKw":11,"isMegawatt":false,"status":"AVAILABLE","source":"ndw","priceKwh":0.4184}},{"type":"Feature","geometry":{"type":"Point","coordinates":[5.512319,52.343271]},"properties":{"type":"charge","layer":"passenger","locationId":"NLLOC025352","name":"NL, Vlaamse Gaai 11, 3893 KE Zeewolde","address":"Vlaamse Gaai 11","city":"Zeewolde","operatorName":"Allego","maxPowerKw":11,"isMegawatt":false,"status":"AVAILABLE","source":"ndw","priceKwh":0.511}},{"type":"Feature","geometry":{"type":"Point","coordinates":[5.525697,52.337154]},"properties":{"type":"charge","layer":"passenger","locationId":"66505b11b09ff9001c54d404","name":"Volta Dynamics","address":"grootzeil 11","city":"Zeewolde","operatorName":"E-Flux by Road","maxPowerKw":22,"isMegawatt":false,"status":"UNAVAILABLE","source":"ndw","priceKwh":0.38}},{"type":"Feature","geometry":{"type":"Point","coordinates":[5.517655,52.337823]},"properties":{"type":"charge","layer":"passenger","locationId":"NLLOC013054","name":"NL, Rietlaan 2, 3893 GL Zeewolde","address":"Rietlaan 2","city":"Zeewolde","operatorName":"Allego","maxPowerKw":11,"isMegawatt":false,"status":"AVAILABLE","source":"ndw","priceKwh":0.511}},{"type":"Feature","geometry":{"type":"Point","coordinates":[5.519957,52.333134]},"properties":{"type":"charge","layer":"passenger","locationId":"fa917544-0220-4788-b77f-0070ecd5983e","name":"TNLP009617 - Corridor 94, Zeewolde","address":"94 Corridor","city":"Zeewolde","operatorName":"TotalEnergies","maxPowerKw":13,"isMegawatt":false,"status":"AVAILABLE","source":"ndw"}},{"type":"Feature","geometry":{"type":"Point","coordinates":[5.530706,52.344244]},"properties":{"type":"charge","layer":"passenger","locationId":"NLLOC001144","name":"NLD, Zeewolde, Wolfraam 23","address":"Wolfraam 23","city":"Zeewolde","operatorName":"Allego","maxPowerKw":11,"isMegawatt":false,"status":"AVAILABLE","source":"ndw","priceKwh":0.511}},{"type":"Feature","geometry":{"type":"Point","coordinates":[5.520231,52.334923]},"properties":{"type":"charge","layer":"passenger","locationId":"92a89358-b2f7-40be-987a-583a24e2c5c0","name":"TNLP015476 - Koraal 83, Zeewolde","address":"83 Koraal","city":"Zeewolde","operatorName":"TotalEnergies","maxPowerKw":13,"isMegawatt":false,"status":"AVAILABLE","source":"ndw"}},{"type":"Feature","geometry":{"type":"Point","coordinates":[5.540786,52.334125]},"properties":{"type":"charge","layer":"passenger","locationId":"NLLOC024688","name":"NL, Oostergo 39, 3891 BS Zeewolde","address":"Oostergo 39","city":"Zeewolde","operatorName":"Allego","maxPowerKw":11,"isMegawatt":false,"status":"AVAILABLE","source":"ndw","priceKwh":0.511}},{"type":"Feature","geometry":{"type":"Point","coordinates":[5.531027,52.334597]},"properties":{"type":"charge","layer":"passenger","locationId":"NLLOC009093","name":"NL, Schokker 48, 2891 DP Zeewolde","address":"Schokker 48","city":"Zeewolde","operatorName":"Allego","maxPowerKw":11,"isMegawatt":false,"status":"AVAILABLE","source":"ndw","priceKwh":0.511}},{"type":"Feature","geometry":{"type":"Point","coordinates":[5.528703,52.34663]},"properties":{"type":"charge","layer":"passenger","locationId":"NLLOC021960","name":"NL, De Vriendschap 42, 3894GH, Zeewolde","address":"De Vriendschap 42","city":"Zeewolde","operatorName":"Allego","maxPowerKw":11,"isMegawatt":false,"status":"AVAILABLE","source":"ndw","priceKwh":0.511}},{"type":"Feature","geometry":{"type":"Point","coordinates":[5.537389,52.332493]},"properties":{"type":"charge","layer":"passenger","locationId":"69c05513-e177-41fd-8292-258a3e72786c","name":"TNLP009635 - Westergo 38, Zeewolde","address":"38 Westergo","city":"Zeewolde","operatorName":"TotalEnergies","maxPowerKw":15,"isMegawatt":false,"status":"AVAILABLE","source":"ndw"}},{"type":"Feature","geometry":{"type":"Point","coordinates":[5.518529,52.330254]},"properties":{"type":"charge","layer":"passenger","locationId":"373af7e5-2d12-4423-a789-81a3f13eec0a","name":"TNLP008186 - Windbaan 51, Zeewolde","address":"51 Windbaan","city":"Zeewolde","operatorName":"TotalEnergies","maxPowerKw":13,"isMegawatt":false,"status":"AVAILABLE","source":"ndw"}},{"type":"Feature","geometry":{"type":"Point","coordinates":[5.495438,52.348673]},"properties":{"type":"charge","layer":"passenger","locationId":"63ce97c7db9af30012aa3e52","name":"Wagonette 2-4, Zeewolde","address":"Wagonette 2a","city":"Zeewolde","operatorName":"E-Flux by Road","maxPowerKw":11,"isMegawatt":false,"status":"AVAILABLE","source":"ndw","priceKwh":0.5}},{"type":"Feature","geometry":{"type":"Point","coordinates":[5.5351,52.332244]},"properties":{"type":"charge","layer":"passenger","locationId":"NLLOC009453","name":"NL, Keteldiep 18 3891 CN Zeewolde","address":"Keteldiep 18","city":"Zeewolde","operatorName":"Allego","maxPowerKw":11,"isMegawatt":false,"status":"AVAILABLE","source":"ndw","priceKwh":0.511}},{"type":"Feature","geometry":{"type":"Point","coordinates":[5.519465,52.331063]},"properties":{"type":"charge","layer":"passenger","locationId":"NLLOC010670","name":"NL, Mistral, 12, 3893CZ, Zeewolde","address":"Mistral 12","city":"Zeewolde","operatorName":"Allego","maxPowerKw":11,"isMegawatt":false,"status":"AVAILABLE","source":"ndw","priceKwh":0.511}},{"type":"Feature","geometry":{"type":"Point","coordinates":[5.523379,52.344349]},"properties":{"type":"charge","layer":"passenger","locationId":"NLLOC023794","name":"NL, Zuylen 41, 3894 AW Zeewolde","address":"Zuylen 41","city":"Zeewolde","operatorName":"Allego","maxPowerKw":11,"isMegawatt":false,"status":"AVAILABLE","source":"ndw","priceKwh":0.511}},{"type":"Feature","geometry":{"type":"Point","coordinates":[5.545907,52.325111]},"properties":{"type":"charge","layer":"passenger","locationId":"NLLOC024297","name":"NL, Kropaar 2, 3892BE, Zeewolde","address":"Kropaar 2","city":"Zeewolde","operatorName":"Allego","maxPowerKw":11,"isMegawatt":false,"status":"AVAILABLE","source":"ndw","priceKwh":0.511}},{"type":"Feature","geometry":{"type":"Point","coordinates":[5.535425,52.333298]},"properties":{"type":"charge","layer":"passenger","locationId":"6baa29ff-3598-44c4-83d2-955148b8d560","name":"TNLP008824 - Keteldiep 35, Zeewolde","address":"35 Keteldiep","city":"Zeewolde","operatorName":"TotalEnergies","maxPowerKw":14,"isMegawatt":false,"status":"AVAILABLE","source":"ndw"}},{"type":"Feature","geometry":{"type":"Point","coordinates":[5.483197,52.346064]},"properties":{"type":"charge","layer":"passenger","locationId":"641c6eb16d397b00123c7f7c","name":"HORSTERHOEK","address":"Bosruiterweg 25-146","city":"Zeewolde","operatorName":"E-Flux by Road","maxPowerKw":11,"isMegawatt":false,"status":"AVAILABLE","source":"ndw","priceKwh":0.48}},{"type":"Feature","geometry":{"type":"Point","coordinates":[5.514568,52.338525]},"properties":{"type":"charge","layer":"passenger","locationId":"NLLOC002355","name":"NLD, Tuinfluiterlaan 42, 3893 JG, Zeewolde","address":"Tuinfluiterlaan 42","city":"Zeewolde","operatorName":"Allego","maxPowerKw":11,"isMegawatt":false,"status":"AVAILABLE","source":"ndw","priceKwh":0.511}},{"type":"Feature","geometry":{"type":"Point","coordinates":[5.52262,52.335074]},"properties":{"type":"charge","layer":"passenger","locationId":"69301342ba52833518f5b84f","name":"SMARAGD 83","address":"Smaragd 83","city":"ZEEWOLDE","operatorName":"E-Flux by Road","maxPowerKw":11,"isMegawatt":false,"status":"AVAILABLE","source":"ndw","priceKwh":0.53}},{"type":"Feature","geometry":{"type":"Point","coordinates":[5.522992,52.336088]},"properties":{"type":"charge","layer":"passenger","locationId":"NLLOC011814","name":"NL, Smaragd 28, 3893 ET Zeewolde","address":"Smaragd 28","city":"Zeewolde","operatorName":"Allego","maxPowerKw":11,"isMegawatt":false,"status":"UNAVAILABLE","source":"ndw","priceKwh":0.511}},{"type":"Feature","geometry":{"type":"Point","coordinates":[5.525416,52.345779]},"properties":{"type":"charge","layer":"passenger","locationId":"NLLOC017798","name":"NL, Rechteren 12, 3894 AX Zeewolde","address":"Rechteren 12","city":"Zeewolde","operatorName":"Allego","maxPowerKw":11,"isMegawatt":false,"status":"CHARGING","source":"ndw","priceKwh":0.511}},{"type":"Feature","geometry":{"type":"Point","coordinates":[5.49647,52.3521]},"properties":{"type":"charge","layer":"passenger","locationId":"a323ded77af74fc4b7b91f730267dd2a","name":"Zeewolde- Hotel Tung","address":"Spiekweg 15","city":"Zeewolde","operatorName":"Opcharge","maxPowerKw":22,"isMegawatt":false,"status":"AVAILABLE","source":"ndw","priceKwh":0.49}},{"type":"Feature","geometry":{"type":"Point","coordinates":[5.5364,52.32076]},"properties":{"type":"charge","layer":"passenger","locationId":"2c00701ae3e477bb907144a1b050ef0f","name":"Dasseburcht 56","address":"Dasseburcht 56","city":"Zeewolde","operatorName":"Vattenfall InCharge","maxPowerKw":11,"isMegawatt":false,"status":"CHARGING","source":"ndw"}},{"type":"Feature","geometry":{"type":"Point","coordinates":[5.513707,52.340361]},"properties":{"type":"charge","layer":"passenger","locationId":"NLLOC025616","name":"NL, Tuinfluiterlaan 94, 3893JS, Zeewolde","address":"Tuinfluiterlaan 94","city":"Zeewolde","operatorName":"Allego","maxPowerKw":11,"isMegawatt":false,"status":"AVAILABLE","source":"ndw","priceKwh":0.511}},{"type":"Feature","geometry":{"type":"Point","coordinates":[5.521839,52.334347]},"properties":{"type":"charge","layer":"passenger","locationId":"NLLOC005852","name":"NLD,Zeewolde,Coulisse 28","address":"Coulisse 28","city":"Zeewolde","operatorName":"Allego","maxPowerKw":11,"isMegawatt":false,"status":"AVAILABLE","source":"ndw","priceKwh":0.511}},{"type":"Feature","geometry":{"type":"Point","coordinates":[5.532948,52.34569]},"properties":{"type":"charge","layer":"passenger","locationId":"5b30f9bf1f3bfe4eb6be8b44a846c334","name":"Lengteduin 2","address":"Lengteduin 2","city":"Zeewolde","operatorName":"Vattenfall InCharge","maxPowerKw":11,"isMegawatt":false,"status":"CHARGING","source":"ndw"}},{"type":"Feature","geometry":{"type":"Point","coordinates":[5.531646,52.343512]},"properties":{"type":"charge","layer":"passenger","locationId":"NLLOC024889","name":"NL, Krypton 20, 3894DL, Zeewolde","address":"Krypton 20","city":"Zeewolde","operatorName":"Allego","maxPowerKw":11,"isMegawatt":false,"status":"CHARGING","source":"ndw","priceKwh":0.511}},{"type":"Feature","geometry":{"type":"Point","coordinates":[5.520007,52.345345]},"properties":{"type":"charge","layer":"passenger","locationId":"NLLOC001641","name":"NLD, Zeewolde, Zilversmid 1","address":"Zilversmid 1","city":"Zeewolde","operatorName":"Allego","maxPowerKw":11,"isMegawatt":false,"status":"AVAILABLE","source":"ndw","priceKwh":0.511}},{"type":"Feature","geometry":{"type":"Point","coordinates":[5.546329,52.318764]},"properties":{"type":"charge","layer":"passenger","locationId":"NLLOC014235","name":"NL, Forel, 1, 3892HM, Zeewolde","address":"Forel 1","city":"Zeewolde","operatorName":"Allego","maxPowerKw":11,"isMegawatt":false,"status":"AVAILABLE","source":"ndw","priceKwh":0.511}},{"type":"Feature","geometry":{"type":"Point","coordinates":[5.543337,52.328862]},"properties":{"type":"charge","layer":"passenger","locationId":"NLLOC024530","name":"NL, Kaasjeskruid 23, 3892 AP Zeewolde","address":"Kaasjeskruid 23","city":"Zeewolde","operatorName":"Allego","maxPowerKw":11,"isMegawatt":false,"status":"AVAILABLE","source":"ndw","priceKwh":0.511}},{"type":"Feature","geometry":{"type":"Point","coordinates":[5.512925,52.34201]},"properties":{"type":"charge","layer":"passenger","locationId":"220c8e2b-04c9-4c9d-b59e-0c2d57fe4a8d","name":"TNLP008015 - Spotvogel 1, Zeewolde","address":"1 Spotvogel","city":"Zeewolde","operatorName":"TotalEnergies","maxPowerKw":13,"isMegawatt":false,"status":"AVAILABLE","source":"ndw"}},{"type":"Feature","geometry":{"type":"Point","coordinates":[5.526051,52.341087]},"properties":{"type":"charge","layer":"passenger","locationId":"5e616f88-d6bc-464b-9bbf-803d5565b316","name":"TNLP015439 - Weerribben 2, Zeewolde","address":"2 Weerribben","city":"Zeewolde","operatorName":"TotalEnergies","maxPowerKw":13,"isMegawatt":false,"status":"AVAILABLE","source":"ndw"}},{"type":"Feature","geometry":{"type":"Point","coordinates":[5.515231,52.336006]},"properties":{"type":"charge","layer":"passenger","locationId":"NLLOC002625","name":"NLD, Orion 35, Zeewolde","address":"Orion 35","city":"Zeewolde","operatorName":"Allego","maxPowerKw":11,"isMegawatt":false,"status":"CHARGING","source":"ndw","priceKwh":0.511}},{"type":"Feature","geometry":{"type":"Point","coordinates":[5.519155,52.284088]},"properties":{"type":"charge","layer":"passenger","locationId":"672cb1b3944688a91f47c3f9","name":"Scouting Nederland","address":"Nulderpad 1","city":"Zeewolde","operatorName":"Tanx","maxPowerKw":22,"isMegawatt":false,"status":"AVAILABLE","source":"ndw","priceKwh":0.53}},{"type":"Feature","geometry":{"type":"Point","coordinates":[5.546022,52.329124]},"properties":{"type":"charge","layer":"passenger","locationId":"6a76ecbd-8d2f-429c-954f-fb206389386c","name":"TNLP034287","address":"Strandweg 119","city":"Zeewolde","operatorName":"TotalEnergies","maxPowerKw":14,"isMegawatt":false,"status":"AVAILABLE","source":"ndw"}},{"type":"Feature","geometry":{"type":"Point","coordinates":[5.540948,52.329373]},"properties":{"type":"charge","layer":"passenger","locationId":"NLLOC008235","name":"NL, Robertskruid 3, 3892 AB, Zeewolde","address":"Robertskruid 3","city":"Zeewolde","operatorName":"Allego","maxPowerKw":11,"isMegawatt":false,"status":"AVAILABLE","source":"ndw","priceKwh":0.511}},{"type":"Feature","geometry":{"type":"Point","coordinates":[5.531186,52.344835]},"properties":{"type":"charge","layer":"passenger","locationId":"NLLOC008152","name":"NL, Telluur 12 3894 DT Zeewolde","address":"Telluur 12","city":"Zeewolde","operatorName":"Allego","maxPowerKw":11,"isMegawatt":false,"status":"AVAILABLE","source":"ndw","priceKwh":0.511}},{"type":"Feature","geometry":{"type":"Point","coordinates":[5.515321,52.337353]},"properties":{"type":"charge","layer":"passenger","locationId":"f1a54b4d-6d25-4ff8-a5a4-f67afccd2327","name":"TNLP008016 - Tuinfluiterlaan 2, Zeewolde","address":"2 Tuinfluiterlaan","city":"Zeewolde","operatorName":"TotalEnergies","maxPowerKw":13,"isMegawatt":false,"status":"AVAILABLE","source":"ndw"}},{"type":"Feature","geometry":{"type":"Point","coordinates":[5.51921,52.342921]},"properties":{"type":"charge","layer":"passenger","locationId":"NLLOC001121","name":"NLD, Zeewolde, Haverlaan 66","address":"Haverlaan 66","city":"Zeewolde","operatorName":"Allego","maxPowerKw":11,"isMegawatt":false,"status":"AVAILABLE","source":"ndw","priceKwh":0.511}},{"type":"Feature","geometry":{"type":"Point","coordinates":[5.514518,52.339521]},"properties":{"type":"charge","layer":"passenger","locationId":"NLLOC008685","name":"NL, Tuinfluiterlaan 72, 3893 JH, Zeewolde","address":"Tuinfluiterlaan 72","city":"Zeewolde","operatorName":"Allego","maxPowerKw":11,"isMegawatt":false,"status":"AVAILABLE","source":"ndw","priceKwh":0.511}},{"type":"Feature","geometry":{"type":"Point","coordinates":[5.533838,52.332157]},"properties":{"type":"charge","layer":"passenger","locationId":"11bb3cc2-c8de-4a61-8c93-386b56cf2e6a","name":"TNLP009268 - Lemsterweg 13, Zeewolde","address":"13 Lemsterweg","city":"Zeewolde","operatorName":"TotalEnergies","maxPowerKw":13,"isMegawatt":false,"status":"CHARGING","source":"ndw"}},{"type":"Feature","geometry":{"type":"Point","coordinates":[5.545527,52.328117]},"properties":{"type":"charge","layer":"passenger","locationId":"NLLOC010183","name":"NL, Sterrekruid, 73, 3892AX, Zeewolde","address":"Sterrekruid 73","city":"Zeewolde","operatorName":"Allego","maxPowerKw":11,"isMegawatt":false,"status":"AVAILABLE","source":"ndw","priceKwh":0.511}},{"type":"Feature","geometry":{"type":"Point","coordinates":[5.540172,52.323425]},"properties":{"type":"charge","layer":"passenger","locationId":"6ef1413e-2b50-4839-a495-03a1555b69b7","name":"TNLP009269 - Konijnenberg 28, Zeewolde","address":"28 Konijnenberg","city":"Zeewolde","operatorName":"TotalEnergies","maxPowerKw":13,"isMegawatt":false,"status":"AVAILABLE","source":"ndw"}},{"type":"Feature","geometry":{"type":"Point","coordinates":[5.505022,52.340092]},"properties":{"type":"charge","layer":"passenger","locationId":"671a2b6577c974001c59b36b","name":"Camping het Groene Bos","address":"Groenewoudseweg 98","city":"Zeewolde","operatorName":"E-Flux by Road","maxPowerKw":11,"isMegawatt":false,"status":"AVAILABLE","source":"ndw","priceKwh":0.44}},{"type":"Feature","geometry":{"type":"Point","coordinates":[5.53645,52.322736]},"properties":{"type":"charge","layer":"passenger","locationId":"NLLOC004855","name":"NLD, Zeewolde, Hermelijnhof 4","address":"Hermelijnhof 4","city":"Zeewolde","operatorName":"Allego","maxPowerKw":11,"isMegawatt":false,"status":"AVAILABLE","source":"ndw","priceKwh":0.511}},{"type":"Feature","geometry":{"type":"Point","coordinates":[5.380847,52.330587]},"properties":{"type":"charge","layer":"passenger","locationId":"66684dd22b97b1001c6d2b79","name":"Hippisch Centrum De Eemvallei","address":"Gruttoweg 46","city":"Zeewolde","operatorName":"Pluq","maxPowerKw":22,"isMegawatt":false,"status":"AVAILABLE","source":"ndw","priceKwh":0.42}},{"type":"Feature","geometry":{"type":"Point","coordinates":[5.544776,52.331596]},"properties":{"type":"charge","layer":"passenger","locationId":"E637812F-4823-4CF5-8B35-52536AEA2DF4","name":"Eneco eMobility Gemeente Zeewolde - Raadhuisplein 1","address":"Raadhuisplein 1","city":"Zeewolde","operatorName":"Eneco","maxPowerKw":22,"isMegawatt":false,"status":"AVAILABLE","source":"ndw","priceKwh":0.32}},{"type":"Feature","geometry":{"type":"Point","coordinates":[5.53208,52.348877]},"properties":{"type":"charge","layer":"passenger","locationId":"1c6ec2bc-f83a-4dac-bf85-9e41935a70fa","name":"TNLP009231 - De Korenaar 2, Zeewolde","address":"2 De Korenaar","city":"Zeewolde","operatorName":"TotalEnergies","maxPowerKw":15,"isMegawatt":false,"status":"AVAILABLE","source":"ndw"}},{"type":"Feature","geometry":{"type":"Point","coordinates":[5.543791,52.330499]},"properties":{"type":"charge","layer":"passenger","locationId":"NLLOC002096","name":"NLD, Zeewolde, Horsterplein 26","address":"Horsterplein 26","city":"Zeewolde","operatorName":"Allego","maxPowerKw":11,"isMegawatt":false,"status":"AVAILABLE","source":"ndw","priceKwh":0.511}},{"type":"Feature","geometry":{"type":"Point","coordinates":[5.511234,52.365504]},"properties":{"type":"charge","layer":"passenger","locationId":"6672e2a14638d3001ce616b0","name":"Picomel Visitors","address":"Baardmeesweg 17C","city":"Zeewolde","operatorName":"E-Flux by Road","maxPowerKw":60,"isMegawatt":false,"status":"AVAILABLE","source":"ndw","priceKwh":0.26}},{"type":"Feature","geometry":{"type":"Point","coordinates":[5.527126,52.338004]},"properties":{"type":"charge","layer":"passenger","locationId":"3967141","name":"Laadnet Mast 1","address":"Mast 1","city":"Zeewolde","operatorName":"Laadnet","maxPowerKw":22,"isMegawatt":false,"status":"AVAILABLE","source":"ndw"}},{"type":"Feature","geometry":{"type":"Point","coordinates":[5.520287,52.332841]},"properties":{"type":"charge","layer":"passenger","locationId":"NLLOC001822","name":"NLD, Zeewolde, Corridor 77","address":"Corridor 77","city":"Zeewolde","operatorName":"Allego","maxPowerKw":11,"isMegawatt":false,"status":"AVAILABLE","source":"ndw","priceKwh":0.511}},{"type":"Feature","geometry":{"type":"Point","coordinates":[5.515748,52.344121]},"properties":{"type":"charge","layer":"passenger","locationId":"NLLOC007068","name":"NL, Koolzaadlaan 167, 3893HD, Zeewolde","address":"Koolzaadlaan 167","city":"Zeewolde","operatorName":"Allego","maxPowerKw":11,"isMegawatt":false,"status":"AVAILABLE","source":"ndw","priceKwh":0.511}},{"type":"Feature","geometry":{"type":"Point","coordinates":[5.53398,52.342445]},"properties":{"type":"charge","layer":"passenger","locationId":"NLLOC004358","name":"NLD, Zeewolde, Elementen 84","address":"Elementen 84","city":"Zeewolde","operatorName":"Allego","maxPowerKw":11,"isMegawatt":false,"status":"AVAILABLE","source":"ndw","priceKwh":0.511}},{"type":"Feature","geometry":{"type":"Point","coordinates":[5.538872,52.334709]},"properties":{"type":"charge","layer":"passenger","locationId":"NLLOC018909","name":"NL, Grote Plaat 21, 3891 ZA Zeewolde","address":"Grote Plaat 21","city":"Zeewolde","operatorName":"Allego","maxPowerKw":11,"isMegawatt":false,"status":"AVAILABLE","source":"ndw","priceKwh":0.511}},{"type":"Feature","geometry":{"type":"Point","coordinates":[5.518705,52.33586]},"properties":{"type":"charge","layer":"passenger","locationId":"NLLOC002495","name":"NLD, Zeewolde, Koraal 194","address":"Koraal 194","city":"Zeewolde","operatorName":"Allego","maxPowerKw":11,"isMegawatt":false,"status":"AVAILABLE","source":"ndw","priceKwh":0.511}},{"type":"Feature","geometry":{"type":"Point","coordinates":[5.521065,52.346726]},"properties":{"type":"charge","layer":"passenger","locationId":"0e8e8ecbfd6f3c7c80a78e3291be1e27","name":"Zeilmaker 18","address":"Zeilmaker 18","city":"Zeewolde","operatorName":"Vattenfall InCharge","maxPowerKw":11,"isMegawatt":false,"status":"AVAILABLE","source":"ndw"}},{"type":"Feature","geometry":{"type":"Point","coordinates":[5.605872,52.384496]},"properties":{"type":"charge","layer":"passenger","locationId":"642a89d1d7a8db0012d5b11b","name":"Harderwold","address":"Pluvierenweg 9-556","city":"Zeewolde","operatorName":"E-Flux by Road","maxPowerKw":22,"isMegawatt":false,"status":"AVAILABLE","source":"ndw","priceKwh":0.53}},{"type":"Feature","geometry":{"type":"Point","coordinates":[5.5451,52.33105]},"properties":{"type":"charge","layer":"passenger","locationId":"caf751c5-dad3-48fc-a723-45273094d493","name":"TNLP008804 - Strandweg 3, Zeewolde","address":"3 Strandweg","city":"Zeewolde","operatorName":"TotalEnergies","maxPowerKw":14,"isMegawatt":false,"status":"AVAILABLE","source":"ndw"}},{"type":"Feature","geometry":{"type":"Point","coordinates":[5.545545,52.330442]},"properties":{"type":"charge","layer":"passenger","locationId":"NLLOC004356","name":"NLD, Zeewolde, Strandweg 23","address":"Strandweg","city":"Zeewolde","operatorName":"Allego","maxPowerKw":11,"isMegawatt":false,"status":"AVAILABLE","source":"ndw","priceKwh":0.511}},{"type":"Feature","geometry":{"type":"Point","coordinates":[5.547161,52.32184]},"properties":{"type":"charge","layer":"passenger","locationId":"2ea0e91e-c924-4aea-95f9-0473de16b11b","name":"TNLP009641 - Pauwoog 1, Zeewolde","address":"1 Pauwoog","city":"Zeewolde","operatorName":"TotalEnergies","maxPowerKw":13,"isMegawatt":false,"status":"AVAILABLE","source":"ndw"}},{"type":"Feature","geometry":{"type":"Point","coordinates":[5.545177,52.333417]},"properties":{"type":"charge","layer":"passenger","locationId":"NLLOC006833","name":"NL, Terp 26, 3891 GJ, Zeewolde","address":"Terp 26","city":"Zeewolde","operatorName":"Allego","maxPowerKw":11,"isMegawatt":false,"status":"AVAILABLE","source":"ndw","priceKwh":0.511}},{"type":"Feature","geometry":{"type":"Point","coordinates":[5.52899,52.340019]},"properties":{"type":"charge","layer":"passenger","locationId":"NLLOC002254","name":"NLD, Beekvliet 1, 3894 BC, Zeewolde","address":"Beekvliet 1","city":"Zeewolde","operatorName":"Allego","maxPowerKw":11,"isMegawatt":false,"status":"AVAILABLE","source":"ndw","priceKwh":0.511}},{"type":"Feature","geometry":{"type":"Point","coordinates":[5.529682,52.345326]},"properties":{"type":"charge","layer":"passenger","locationId":"745F5850-0DEA-488B-AC62-4F4E8A0185CD","name":"Eneco eMobility EVB-P1639205","address":"Molenplein 1","city":"Zeewolde","operatorName":"Eneco","maxPowerKw":22,"isMegawatt":false,"status":"AVAILABLE","source":"ndw","priceKwh":0.4}},{"type":"Feature","geometry":{"type":"Point","coordinates":[5.530565,52.346136]},"properties":{"type":"charge","layer":"passenger","locationId":"NLLOC017779","name":"NL, Molengang 3, 3894 CE Zeewolde","address":"Molengang 3","city":"Zeewolde","operatorName":"Allego","maxPowerKw":11,"isMegawatt":false,"status":"AVAILABLE","source":"ndw","priceKwh":0.511}},{"type":"Feature","geometry":{"type":"Point","coordinates":[5.522164,52.346107]},"properties":{"type":"charge","layer":"passenger","locationId":"f6fbde21-2e39-437b-872e-90c61b046cb2","name":"TNLP008188 - Touwslager 122, Zeewolde","address":"122 Touwslager","city":"Zeewolde","operatorName":"TotalEnergies","maxPowerKw":13,"isMegawatt":false,"status":"UNAVAILABLE","source":"ndw"}},{"type":"Feature","geometry":{"type":"Point","coordinates":[5.53468,52.344423]},"properties":{"type":"charge","layer":"passenger","locationId":"NLLOC023789","name":"NL, Braamberg 14, 3894 EK Zeewolde","address":"Braamberg 14","city":"Zeewolde","operatorName":"Allego","maxPowerKw":11,"isMegawatt":false,"status":"AVAILABLE","source":"ndw","priceKwh":0.511}},{"type":"Feature","geometry":{"type":"Point","coordinates":[5.531851,52.34395]},"properties":{"type":"charge","layer":"passenger","locationId":"3b11ab4a-9bb7-49ea-820d-d54eb7280eb0","name":"TNLP008004 - Wolfraam 1, Zeewolde","address":"1 Wolfraam","city":"Zeewolde","operatorName":"TotalEnergies","maxPowerKw":13,"isMegawatt":false,"status":"AVAILABLE","source":"ndw"}},{"type":"Feature","geometry":{"type":"Point","coordinates":[5.541108,52.332486]},"properties":{"type":"charge","layer":"passenger","locationId":"NLLOC002097","name":"NLD, Zeewolde, Flevoplein 21","address":"Flevoplein 21","city":"Zeewolde","operatorName":"Allego","maxPowerKw":11,"isMegawatt":false,"status":"UNAVAILABLE","source":"ndw","priceKwh":0.511}},{"type":"Feature","geometry":{"type":"Point","coordinates":[5.544828,52.322135]},"properties":{"type":"charge","layer":"passenger","locationId":"66df3fe157c27c001c7455b8","name":"Arjan Mulder 's station","address":"Pauwoog 104","city":"Zeewolde","operatorName":"E-Flux by Road","maxPowerKw":14,"isMegawatt":false,"status":"AVAILABLE","source":"ndw","priceKwh":0.28}},{"type":"Feature","geometry":{"type":"Point","coordinates":[5.536053,52.335026]},"properties":{"type":"charge","layer":"passenger","locationId":"NLLOC001716","name":"NLD, Zeewolde, Westergo 83","address":"Westergo 83","city":"Zeewolde","operatorName":"Allego","maxPowerKw":22,"isMegawatt":false,"status":"AVAILABLE","source":"ndw","priceKwh":0.511}},{"type":"Feature","geometry":{"type":"Point","coordinates":[5.534181,52.325068]},"properties":{"type":"charge","layer":"passenger","locationId":"NLLOC004654","name":"NLD, Zeewolde, Egelantier 25","address":"Egelantier 25","city":"Zeewolde","operatorName":"Allego","maxPowerKw":11,"isMegawatt":false,"status":"CHARGING","source":"ndw","priceKwh":0.511}},{"type":"Feature","geometry":{"type":"Point","coordinates":[5.546183,52.323454]},"properties":{"type":"charge","layer":"passenger","locationId":"NLLOC004898","name":"NLD, Zeewolde, Pauwoog 47","address":"Pauwoog 47","city":"Zeewolde","operatorName":"Allego","maxPowerKw":11,"isMegawatt":false,"status":"AVAILABLE","source":"ndw","priceKwh":0.511}},{"type":"Feature","geometry":{"type":"Point","coordinates":[5.532069,52.346688]},"properties":{"type":"charge","layer":"passenger","locationId":"NLLOC018437","name":"NL, De Vriendschap 2, 3894 GH Zeewolde","address":"De Walvisch 2","city":"Zeewolde","operatorName":"Allego","maxPowerKw":11,"isMegawatt":false,"status":"AVAILABLE","source":"ndw","priceKwh":0.511}},{"type":"Feature","geometry":{"type":"Point","coordinates":[5.513951,52.341604]},"properties":{"type":"charge","layer":"passenger","locationId":"NLLOC001141","name":"NLD, Zeewolde, Heggemus 1","address":"Heggemus 1","city":"Zeewolde","operatorName":"Allego","maxPowerKw":11,"isMegawatt":false,"status":"AVAILABLE","source":"ndw","priceKwh":0.511}},{"type":"Feature","geometry":{"type":"Point","coordinates":[5.547787,52.319525]},"properties":{"type":"charge","layer":"passenger","locationId":"4f23ddf1737dca48f8d5bc76414831d2","name":"Winde 49","address":"Winde 49","city":"Zeewolde","operatorName":"Vattenfall InCharge","maxPowerKw":11,"isMegawatt":false,"status":"AVAILABLE","source":"ndw"}},{"type":"Feature","geometry":{"type":"Point","coordinates":[5.531424,52.3327]},"properties":{"type":"charge","layer":"passenger","locationId":"80c72260-63bd-44a8-afcf-0160e5c93583","name":"TNLP008829 - Enkhuizerweg 47, Zeewolde","address":"47 Enkhuizerweg","city":"Zeewolde","operatorName":"TotalEnergies","maxPowerKw":14,"isMegawatt":false,"status":"AVAILABLE","source":"ndw"}},{"type":"Feature","geometry":{"type":"Point","coordinates":[5.521828,52.337017]},"properties":{"type":"charge","layer":"passenger","locationId":"a70cde6b-d35a-40c0-a7a3-9036816ec02c","name":"TNLP034611","address":"Koraal 11","city":"Zeewolde","operatorName":"TotalEnergies","maxPowerKw":14,"isMegawatt":false,"status":"AVAILABLE","source":"ndw"}},{"type":"Feature","geometry":{"type":"Point","coordinates":[5.518004,52.343974]},"properties":{"type":"charge","layer":"passenger","locationId":"NLLOC020953","name":"NL, Koolzaadlaan 125, 3893 HC Zeewolde","address":"Koolzaadlaan 125","city":"Zeewolde","operatorName":"Allego","maxPowerKw":11,"isMegawatt":false,"status":"AVAILABLE","source":"ndw","priceKwh":0.511}},{"type":"Feature","geometry":{"type":"Point","coordinates":[5.521434,52.331899]},"properties":{"type":"charge","layer":"passenger","locationId":"NLLOC000666","name":"NLD, Zeewolde, Doorsteek 14","address":"Doorsteek 14","city":"Zeewolde","operatorName":"Allego","maxPowerKw":11,"isMegawatt":false,"status":"AVAILABLE","source":"ndw","priceKwh":0.511}},{"type":"Feature","geometry":{"type":"Point","coordinates":[5.516251,52.334364]},"properties":{"type":"charge","layer":"passenger","locationId":"NLLOC007059","name":"NL, Kleine Beer 31, 3893DG, Zeewolde","address":"Kleine Beer 31","city":"Zeewolde","operatorName":"Allego","maxPowerKw":11,"isMegawatt":false,"status":"CHARGING","source":"ndw","priceKwh":0.511}},{"type":"Feature","geometry":{"type":"Point","coordinates":[5.528215,52.34446]},"properties":{"type":"charge","layer":"passenger","locationId":"NLLOC002348","name":"NLD, Oudaen 6, 3894 AZ, Zeewolde","address":"Oudan 6","city":"Zeewolde","operatorName":"Allego","maxPowerKw":11,"isMegawatt":false,"status":"AVAILABLE","source":"ndw","priceKwh":0.511}},{"type":"Feature","geometry":{"type":"Point","coordinates":[5.528608,52.340679]},"properties":{"type":"charge","layer":"passenger","locationId":"NLLOC021537","name":"NL, Maasduinen 18, 3894 BH Zeewolde","address":"Maasduinen 18","city":"Zeewolde","operatorName":"Allego","maxPowerKw":11,"isMegawatt":false,"status":"AVAILABLE","source":"ndw","priceKwh":0.511}},{"type":"Feature","geometry":{"type":"Point","coordinates":[5.530408,52.331545]},"properties":{"type":"charge","layer":"passenger","locationId":"NLLOC019816","name":"NL, Laak 67, 3891 CT Zeewolde","address":"Laak 67","city":"Zeewolde","operatorName":"Allego","maxPowerKw":11,"isMegawatt":false,"status":"AVAILABLE","source":"ndw","priceKwh":0.511}},{"type":"Feature","geometry":{"type":"Point","coordinates":[5.518437,52.340096]},"properties":{"type":"charge","layer":"passenger","locationId":"484beea7-3e51-4ff8-b6b8-ad2271455943","name":"TNLP008762 - Tarwelaan 26, Zeewolde","address":"26 Tarwelaan","city":"Zeewolde","operatorName":"TotalEnergies","maxPowerKw":14,"isMegawatt":false,"status":"AVAILABLE","source":"ndw"}},{"type":"Feature","geometry":{"type":"Point","coordinates":[5.505635,52.354603]},"properties":{"type":"charge","layer":"passenger","locationId":"57a88913-3c4c-4b7f-87e4-d45f929682b8","name":"Industrieweg 9","address":"Industrieweg 9","city":"Zeewolde","operatorName":"Vattenfall InCharge","maxPowerKw":22,"isMegawatt":false,"status":"AVAILABLE","source":"ndw"}},{"type":"Feature","geometry":{"type":"Point","coordinates":[5.530898,52.340075]},"properties":{"type":"charge","layer":"passenger","locationId":"NLLOC020645","name":"NL, Beukenhof 1, 3894BM Zeewolde","address":"Beukenhof 1","city":"Zeewolde","operatorName":"Allego","maxPowerKw":11,"isMegawatt":false,"status":"AVAILABLE","source":"ndw","priceKwh":0.511}},{"type":"Feature","geometry":{"type":"Point","coordinates":[5.525926,52.341904]},"properties":{"type":"charge","layer":"passenger","locationId":"1f0948fe-3d37-4086-892e-1459b40dc3da","name":"TNLP009263 - Gedempte Gracht 5, Zeewolde","address":"5 Gedempte Gracht","city":"Zeewolde","operatorName":"TotalEnergies","maxPowerKw":15,"isMegawatt":false,"status":"AVAILABLE","source":"ndw"}},{"type":"Feature","geometry":{"type":"Point","coordinates":[5.510334,52.34227]},"properties":{"type":"charge","layer":"passenger","locationId":"64c3711ddcc1d6001c433ed7","name":"victor rijswijk's station","address":"Fitislaan 63","city":"Zeewolde","operatorName":"E-Flux by Road","maxPowerKw":22,"isMegawatt":false,"status":"AVAILABLE","source":"ndw","priceKwh":0.54}},{"type":"Feature","geometry":{"type":"Point","coordinates":[5.513075,52.33814]},"properties":{"type":"charge","layer":"passenger","locationId":"650c2adf5b10740020fc7913","name":"Max Sibbald 's station","address":"Groene specht 16","city":"Zeewolde","operatorName":"E-Flux by Road","maxPowerKw":11,"isMegawatt":false,"status":"AVAILABLE","source":"ndw","priceKwh":0.43}},{"type":"Feature","geometry":{"type":"Point","coordinates":[5.52216,52.34709]},"properties":{"type":"charge","layer":"passenger","locationId":"11d3bec5307951ba1b017a0519513461","name":"Diamantslijper 22","address":"Diamantslijper 22","city":"Zeewolde","operatorName":"Vattenfall InCharge","maxPowerKw":11,"isMegawatt":false,"status":"CHARGING","source":"ndw"}},{"type":"Feature","geometry":{"type":"Point","coordinates":[5.5279,52.34222]},"properties":{"type":"charge","layer":"passenger","locationId":"58b443801636a6ad1aab98387b9bd5f1","name":"Weerribben 36","address":"Weerribben 36","city":"Zeewolde","operatorName":"Vattenfall InCharge","maxPowerKw":11,"isMegawatt":false,"status":"AVAILABLE","source":"ndw"}},{"type":"Feature","geometry":{"type":"Point","coordinates":[5.510653,52.366077]},"properties":{"type":"charge","layer":"freight","locationId":"667bc7c714c40f001cd3c943","name":"Picomel Public - Truck Charge","address":"Baardmeesweg 17c","city":"Zeewolde","operatorName":"E-Flux by Road","maxPowerKw":150,"isMegawatt":false,"status":"AVAILABLE","source":"ndw","priceKwh":0.33,"freightKind":"dedicated","freightReason":"truck-name"}},{"type":"Feature","geometry":{"type":"MultiPolygon","coordinates":[[[[5.532703371825092,52.38454750083666],[5.537298799720134,52.38500080011936],[5.545225532571908,52.39016125331744],[5.554642610948828,52.39638989679073],[5.578015182390309,52.40996847642766],[5.5832179150601275,52.411358410326784],[5.5890709813511625,52.41118713392012],[5.618401987298352,52.408568675906864],[5.622984181273812,52.408802017720255],[5.6171887364192346,52.38478312931283],[5.611852737413005,52.374687993862025],[5.6135576784349945,52.37104269552418],[5.614670403614233,52.37052644210737],[5.615436589293066,52.369825263702204],[5.6127666725808725,52.368663056294956],[5.610102852110579,52.36647070307976],[5.6114508033107215,52.36590544833718],[5.6147855018963515,52.36790947971318],[5.615074939434757,52.367653078070816],[5.612560479326591,52.365974487185255],[5.613097808722438,52.365554966269826],[5.611091451614412,52.36440477002458],[5.611873008071807,52.36398031891694],[5.613852234736921,52.36455672256806],[5.615319823973995,52.36261469258874],[5.614927351171675,52.36250491128562],[5.614035076238885,52.36225105585166],[5.612828575760657,52.360866443985635],[5.6123304550641775,52.36132669567157],[5.6125021973781895,52.36229654896047],[5.611276323501516,52.36298599933999],[5.611564518727426,52.363828344389574],[5.610844160431701,52.364275825026525],[5.610450467918849,52.36417643882103],[5.6081656549489995,52.36529665901849],[5.607048764116174,52.36451330328731],[5.601105857549096,52.36555834526283],[5.588593759577517,52.36320812780901],[5.582383736178962,52.36307349613546],[5.5638172641966825,52.36757322878622],[5.542580980201635,52.3533472194349],[5.5383495695615395,52.35012645643771],[5.537220308309178,52.34723036970999],[5.541545021378778,52.33781195146457],[5.545157259880472,52.33508401157666],[5.5480182665871105,52.33557925502353],[5.5528369680158605,52.33415325419733],[5.552130833488788,52.33169880556826],[5.551141030746051,52.33135458175716],[5.549738347687397,52.328954320764936],[5.548434497855227,52.327297400286625],[5.552518488035509,52.320927179178945],[5.552503997958208,52.319786952428394],[5.550628266641931,52.31896844785445],[5.548652825699117,52.314500345476944],[5.549019825260762,52.31355009525616],[5.549095756218812,52.31207223564059],[5.546727631488568,52.31196865574779],[5.547061277313513,52.31088227085327],[5.548816129029176,52.311164570515736],[5.549125686020811,52.311632602784385],[5.54928499750937,52.31153617935938],[5.549012099206817,52.31105573107861],[5.546844948331903,52.310383782687914],[5.5424816487534745,52.30032692314836],[5.538222299810454,52.29276552935266],[5.535558048325751,52.29051323034128],[5.538138255348664,52.28911303051877],[5.535167616139781,52.288746596361946],[5.528699055440755,52.274926661857705],[5.526065250944852,52.27339789526078],[5.518030060674578,52.27255841367353],[5.492769484133626,52.26785290934582],[5.488866423620576,52.26701471818183],[5.488877346820924,52.266736927869985],[5.48794765629586,52.26630118973907],[5.487887354011415,52.266350512056164],[5.488705087125107,52.26673707610954],[5.488055780228758,52.26720957953558],[5.487305146185096,52.26659047691106],[5.48722470458207,52.26661705896998],[5.487259860361817,52.26686293410586],[5.486734525538463,52.26691276141701],[5.48571422343147,52.26665946700046],[5.48585944128607,52.26634607668818],[5.48708777868837,52.266603989874596],[5.487295205292668,52.266497623870386],[5.487361510547268,52.26593123126564],[5.4872277576958695,52.26591142781373],[5.487164093135311,52.266358027526984],[5.471447920146106,52.2635415511845],[5.46981415500935,52.26324811706014],[5.452547094687942,52.25988444736505],[5.452729883910798,52.25946175500421],[5.4335339533013425,52.25640243779269],[5.4330487047633325,52.25581683493049],[5.417353778219981,52.253460630931144],[5.4096460444217565,52.25261331393751],[5.401560804002623,52.25329710330581],[5.399376647485128,52.25536617613643],[5.395873097272475,52.25633567210193],[5.396414944292809,52.256860220454705],[5.394843397383187,52.25785774486488],[5.393549536792131,52.25704291402405],[5.395722968494704,52.255927734613635],[5.395542483706383,52.255806119987774],[5.392098004478585,52.257734058743566],[5.392145562863191,52.25782742681991],[5.392966511523685,52.25738193500758],[5.394112831812211,52.258049985045176],[5.392621600658965,52.25888444702616],[5.391595613914431,52.25811534063793],[5.391174061239997,52.25862889203567],[5.392024770876886,52.25891045943078],[5.385096651294864,52.26404291532296],[5.317161965807171,52.30355919937517],[5.3329297495613925,52.31388811104325],[5.333504722088508,52.31427415357678],[5.344923420843755,52.30993949850423],[5.350497036412221,52.30923223247572],[5.354006290180586,52.30940781314157],[5.379156279727406,52.31410920576567],[5.350544953516233,52.339038760842605],[5.337489816341353,52.35037416291413],[5.301243577024542,52.38198666525567],[5.3130385825432525,52.38625306635634],[5.313516101053461,52.385741702616315],[5.332933166374373,52.392773167295886],[5.33236901824475,52.393246740766905],[5.339352465617606,52.395813222053945],[5.346370549922101,52.39611406917607],[5.348167611225222,52.397028804310516],[5.350771649801278,52.40020919046803],[5.378987490069201,52.411494607113745],[5.397532453518123,52.41984123328705],[5.42100786948516,52.432083716553734],[5.4237749841004765,52.432564617342145],[5.427176694244565,52.434554404568296],[5.426889318303137,52.435506102510196],[5.438608221372982,52.44263180901962],[5.4488940710120675,52.43530209370551],[5.47497917397754,52.42003385195065],[5.508992291273375,52.397663122976105],[5.532703371825092,52.38454750083666]]],[[[5.6156758019526345,52.36844070967834],[5.616294045839015,52.369314468066825],[5.614735233060101,52.37056565569961],[5.615190513894131,52.37084104575058],[5.616378798439552,52.36946188460557],[5.616204466192019,52.3687378511929],[5.6156758019526345,52.36844070967834]]]]},"properties":{"type":"boundary","gemeente":"Zeewolde","code":"GM0050"}}]}