{"type":"FeatureCollection","metadata":{"gemeente":"Zuidplas","slug":"zuidplas","code":"GM1892","generated_at":"2026-07-06T16:26:11.361Z","total_passenger":256,"total_freight":2,"bounds":[4.546338787926787,51.93349203849048,4.688683952636637,52.06552672470203],"operators":["Allego","E-Flux by Road","EQUANS","Fastned","Fleet Charge Services","Laadnet","Pluq","Shell Recharge","Tesla","Valk Energy","Vattenfall InCharge","bp pulse","e-VOLTT"]},"features":[{"type":"Feature","geometry":{"type":"Point","coordinates":[4.615974,51.969638]},"properties":{"type":"charge","layer":"passenger","locationId":"NLLOC002631","name":"NLD, Mezendaal 326, 2914 EG Nieuwerkerk aan den IJssel","address":"Mezendaal 326","city":"Nieuwerkerk a/d IJssel","operatorName":"Allego","maxPowerKw":11,"isMegawatt":false,"status":"AVAILABLE","source":"ndw","priceKwh":0.511}},{"type":"Feature","geometry":{"type":"Point","coordinates":[4.620417,51.966262]},"properties":{"type":"charge","layer":"passenger","locationId":"89889499","name":"EQUANS SGZH 2.0 89889499","address":"Polderdreef 31","city":"Nieuwerkerk aan den IJssel","operatorName":"EQUANS","maxPowerKw":11,"isMegawatt":false,"status":"AVAILABLE","source":"ndw"}},{"type":"Feature","geometry":{"type":"Point","coordinates":[4.670108,51.982078]},"properties":{"type":"charge","layer":"passenger","locationId":"NLLOC007109","name":"NL, IJsselerf 24 2841 BD Moordrecht","address":"IJsselerf 24","city":"Moordrecht","operatorName":"Allego","maxPowerKw":11,"isMegawatt":false,"status":"AVAILABLE","source":"ndw","priceKwh":0.511}},{"type":"Feature","geometry":{"type":"Point","coordinates":[4.582557,52.046356]},"properties":{"type":"charge","layer":"passenger","locationId":"90095163","name":"EQUANS SGZH 2.0 Koningsspil 54","address":"Koningsspil 54","city":"Moerkapelle","operatorName":"EQUANS","maxPowerKw":11,"isMegawatt":false,"status":"AVAILABLE","source":"ndw"}},{"type":"Feature","geometry":{"type":"Point","coordinates":[4.592902,52.003938]},"properties":{"type":"charge","layer":"passenger","locationId":"89193035","name":"EQUANS SGZH 2.0 89193035","address":"Lakeienoever 2","city":"Zevenhuizen","operatorName":"EQUANS","maxPowerKw":11,"isMegawatt":false,"status":"CHARGING","source":"ndw"}},{"type":"Feature","geometry":{"type":"Point","coordinates":[4.65979,51.98523]},"properties":{"type":"charge","layer":"passenger","locationId":"91049114","name":"EQUANS SGZH 2.0 Sportlaan 48","address":"Sportlaan 48","city":"Moordrecht","operatorName":"EQUANS","maxPowerKw":11,"isMegawatt":false,"status":"AVAILABLE","source":"ndw"}},{"type":"Feature","geometry":{"type":"Point","coordinates":[4.593104,52.002493]},"properties":{"type":"charge","layer":"passenger","locationId":"89914499","name":"EQUANS SGZH 2.0 89914499","address":"Prinsessenlaan 21","city":"Zevenhuizen","operatorName":"EQUANS","maxPowerKw":11,"isMegawatt":false,"status":"AVAILABLE","source":"ndw"}},{"type":"Feature","geometry":{"type":"Point","coordinates":[4.619314,51.969184]},"properties":{"type":"charge","layer":"passenger","locationId":"NLLOC002620","name":"NLD, Eendendaal 260, 2914 EC Nieuwerkerk a/d Ijssel","address":"Eendendaal 260","city":"Nieuwerkerk ad IJssel","operatorName":"Allego","maxPowerKw":11,"isMegawatt":false,"status":"CHARGING","source":"ndw","priceKwh":0.511}},{"type":"Feature","geometry":{"type":"Point","coordinates":[4.583,52.047358]},"properties":{"type":"charge","layer":"passenger","locationId":"NLLOC003606","name":"NLD, Bovenas 1, 2751 HG Moerkapelle","address":"Bovenas 1","city":"Moerkapelle","operatorName":"Allego","maxPowerKw":11,"isMegawatt":false,"status":"AVAILABLE","source":"ndw","priceKwh":0.511}},{"type":"Feature","geometry":{"type":"Point","coordinates":[4.61625,51.97515]},"properties":{"type":"charge","layer":"passenger","locationId":"91204005","name":"EQUANS SGZH 2.0 Barbarakruid 11","address":"Barbarakruid 11","city":"Nieuwerkerk aan den IJssel","operatorName":"EQUANS","maxPowerKw":11,"isMegawatt":false,"status":"AVAILABLE","source":"ndw"}},{"type":"Feature","geometry":{"type":"Point","coordinates":[4.60416,51.969471]},"properties":{"type":"charge","layer":"passenger","locationId":"NLLOC002363","name":"Dorpsstraat 6, 2912 CB, Nieuwekerk aan den IJssel","address":"Dorpsstraat 6","city":"Nieuwekerk aan den IJssel","operatorName":"Allego","maxPowerKw":11,"isMegawatt":false,"status":"AVAILABLE","source":"ndw","priceKwh":0.511}},{"type":"Feature","geometry":{"type":"Point","coordinates":[4.62297,51.97145]},"properties":{"type":"charge","layer":"passenger","locationId":"90961343","name":"EQUANS SGZH 2.0 Geraniumveld 39","address":"Geraniumveld 39","city":"Nieuwerkerk aan den IJssel","operatorName":"EQUANS","maxPowerKw":11,"isMegawatt":false,"status":"AVAILABLE","source":"ndw"}},{"type":"Feature","geometry":{"type":"Point","coordinates":[4.604137,51.955939]},"properties":{"type":"charge","layer":"passenger","locationId":"NLLOC004735","name":"NLD Yukon 38 2911 DB Nieuwerkerk a/d IJssel","address":"Yukon 38","city":"Nieuwerkerk","operatorName":"Allego","maxPowerKw":11,"isMegawatt":false,"status":"AVAILABLE","source":"ndw","priceKwh":0.511}},{"type":"Feature","geometry":{"type":"Point","coordinates":[4.60253,51.9683]},"properties":{"type":"charge","layer":"passenger","locationId":"90295229","name":"EQUANS SGZH 2.0 Joh Tomstraat 1","address":"Joh Tomstraat 1","city":"Nieuwerkerk aan den IJssel","operatorName":"EQUANS","maxPowerKw":11,"isMegawatt":false,"status":"AVAILABLE","source":"ndw"}},{"type":"Feature","geometry":{"type":"Point","coordinates":[4.58684,52.037304]},"properties":{"type":"charge","layer":"passenger","locationId":"OST22P0028_0036_0","name":"OST22P0028_0036_0","address":"Bredeweg 40","city":"Moerkapelle","operatorName":"e-VOLTT","maxPowerKw":38,"isMegawatt":false,"status":"AVAILABLE","source":"ndw","priceKwh":0.29}},{"type":"Feature","geometry":{"type":"Point","coordinates":[4.605494,51.963076]},"properties":{"type":"charge","layer":"passenger","locationId":"NLLOC004104","name":"NLD, Van Beethovenlaan 57, 2912 VK Nieuwerkerk aan den IJssel","address":"Van beethovenlaan 57","city":"Nieuwerkerk aan den IJssel","operatorName":"Allego","maxPowerKw":11,"isMegawatt":false,"status":"CHARGING","source":"ndw","priceKwh":0.511}},{"type":"Feature","geometry":{"type":"Point","coordinates":[4.578531,52.006156]},"properties":{"type":"charge","layer":"passenger","locationId":"89358815","name":"EQUANS SGZH 2.0 89358815","address":"Wilgenlaan 32","city":"Zevenhuizen","operatorName":"EQUANS","maxPowerKw":11,"isMegawatt":false,"status":"AVAILABLE","source":"ndw"}},{"type":"Feature","geometry":{"type":"Point","coordinates":[4.618508,51.971666]},"properties":{"type":"charge","layer":"passenger","locationId":"90305509","name":"EQUANS SGZH 2.0 Margrietveld 7","address":"Margrietveld 7","city":"Nieuwerkerk aan den IJssel","operatorName":"EQUANS","maxPowerKw":11,"isMegawatt":false,"status":"AVAILABLE","source":"ndw"}},{"type":"Feature","geometry":{"type":"Point","coordinates":[4.607814,51.956156]},"properties":{"type":"charge","layer":"passenger","locationId":"89462843","name":"EQUANS SGZH 2.0 89462843","address":"Timane 6","city":"Nieuwerkerk aan den IJssel","operatorName":"EQUANS","maxPowerKw":11,"isMegawatt":false,"status":"CHARGING","source":"ndw"}},{"type":"Feature","geometry":{"type":"Point","coordinates":[4.6644,51.99105]},"properties":{"type":"charge","layer":"passenger","locationId":"91507350","name":"EQUANS SGZH 2.0 Kwikstaarthof 29","address":"Kwikstaarthof 29","city":"Moordrecht","operatorName":"EQUANS","maxPowerKw":11,"isMegawatt":false,"status":"AVAILABLE","source":"ndw"}},{"type":"Feature","geometry":{"type":"Point","coordinates":[4.615271,51.956872]},"properties":{"type":"charge","layer":"passenger","locationId":"NLLOC006911","name":"NL, Gouwe 48, 2911GA, Nieuwerkerk aan den IJssel","address":"Gouwe 48","city":"Nieuwerkerk aan den IJssel","operatorName":"Allego","maxPowerKw":11,"isMegawatt":false,"status":"AVAILABLE","source":"ndw","priceKwh":0.511}},{"type":"Feature","geometry":{"type":"Point","coordinates":[4.586464,52.038783]},"properties":{"type":"charge","layer":"passenger","locationId":"4237229","name":"Laadnet Bredeweg 59","address":"Bredeweg 59","city":"Moerkapelle","operatorName":"Laadnet","maxPowerKw":22,"isMegawatt":false,"status":"AVAILABLE","source":"ndw"}},{"type":"Feature","geometry":{"type":"Point","coordinates":[4.58649,52.04687]},"properties":{"type":"charge","layer":"passenger","locationId":"90851409","name":"EQUANS SGZH 2.0 Koningsspil 55","address":"Koningsspil 55","city":"Moerkapelle","operatorName":"EQUANS","maxPowerKw":11,"isMegawatt":false,"status":"AVAILABLE","source":"ndw"}},{"type":"Feature","geometry":{"type":"Point","coordinates":[4.580372,52.011593]},"properties":{"type":"charge","layer":"passenger","locationId":"NLLOC006910","name":"NL, Burgemeester Nederveenlaan 13, 2761 VJ, Zevenhuizen","address":"Burgemeester Nederveenlaan 13","city":"Zevenhuizen","operatorName":"Allego","maxPowerKw":11,"isMegawatt":false,"status":"AVAILABLE","source":"ndw","priceKwh":0.511}},{"type":"Feature","geometry":{"type":"Point","coordinates":[4.669904,51.984116]},"properties":{"type":"charge","layer":"passenger","locationId":"89317597","name":"EQUANS SGZH 2.0 89317597","address":"IJsselkade 2","city":"Moordrecht","operatorName":"EQUANS","maxPowerKw":11,"isMegawatt":false,"status":"CHARGING","source":"ndw"}},{"type":"Feature","geometry":{"type":"Point","coordinates":[4.621654,51.968137]},"properties":{"type":"charge","layer":"passenger","locationId":"89145605","name":"EQUANS SGZH 2.0 89954581","address":"Kleinpolderlaan 102","city":"Nieuwerkerk aan den IJssel","operatorName":"EQUANS","maxPowerKw":17,"isMegawatt":false,"status":"AVAILABLE","source":"ndw"}},{"type":"Feature","geometry":{"type":"Point","coordinates":[4.667009,51.992229]},"properties":{"type":"charge","layer":"passenger","locationId":"90111904","name":"EQUANS SGZH 2.0 Klutendreef 41","address":"Klutendreef 41","city":"Moordrecht","operatorName":"EQUANS","maxPowerKw":11,"isMegawatt":false,"status":"CHARGING","source":"ndw"}},{"type":"Feature","geometry":{"type":"Point","coordinates":[4.595667,52.006073]},"properties":{"type":"charge","layer":"passenger","locationId":"NLLOC004399","name":"NLD, Kanselierstuin 14, 2761 HM Zevenhuizen","address":"Kanselierstuin","city":"Zevenhuizen","operatorName":"Allego","maxPowerKw":11,"isMegawatt":false,"status":"AVAILABLE","source":"ndw","priceKwh":0.511}},{"type":"Feature","geometry":{"type":"Point","coordinates":[4.61295,51.96519]},"properties":{"type":"charge","layer":"passenger","locationId":"91492017","name":"EQUANS SGZH 2.0 Ir Lelystraat 31","address":"Ir Lelystraat 31","city":"Nieuwekerk aan den IJssel","operatorName":"EQUANS","maxPowerKw":11,"isMegawatt":false,"status":"AVAILABLE","source":"ndw"}},{"type":"Feature","geometry":{"type":"Point","coordinates":[4.662926,52.019186]},"properties":{"type":"charge","layer":"passenger","locationId":"698c6a5a75afac4952ce4ea1","name":"CYCLUS PUBLIEK","address":"Oostbaan 1090","city":"Moordrecht","operatorName":"E-Flux by Road","maxPowerKw":22,"isMegawatt":false,"status":"AVAILABLE","source":"ndw","priceKwh":0.25}},{"type":"Feature","geometry":{"type":"Point","coordinates":[4.615114,51.958192]},"properties":{"type":"charge","layer":"passenger","locationId":"89332797","name":"EQUANS SGZH 2.0 89332797","address":"Vecht 136","city":"Nieuwerkerk aan den IJssel","operatorName":"EQUANS","maxPowerKw":11,"isMegawatt":false,"status":"AVAILABLE","source":"ndw"}},{"type":"Feature","geometry":{"type":"Point","coordinates":[4.618958,51.97843]},"properties":{"type":"charge","layer":"passenger","locationId":"4fb9dcd3-dee6-409c-9453-1cdfe4ae023f","name":"Nieuwerkerk aan den IJssel, Netherlands","address":"185, Parallelweg Zuid","city":"Nieuwerkerk aan den IJssel","operatorName":"Tesla","maxPowerKw":250,"isMegawatt":false,"status":"AVAILABLE","source":"ndw","priceKwh":0.53}},{"type":"Feature","geometry":{"type":"Point","coordinates":[4.614096,51.962637]},"properties":{"type":"charge","layer":"passenger","locationId":"90255819","name":"EQUANS SGZH 2.0 Wolga 163","address":"Wolga 163","city":"Nieuwerkerk aan den IJssel","operatorName":"EQUANS","maxPowerKw":11,"isMegawatt":false,"status":"CHARGING","source":"ndw"}},{"type":"Feature","geometry":{"type":"Point","coordinates":[4.585787,52.047505]},"properties":{"type":"charge","layer":"passenger","locationId":"NLLOC007501","name":"NL, Achterzoom 19, 2751 HH, Moerkapelle","address":"Achterzoom 19","city":"Moerkapelle","operatorName":"Allego","maxPowerKw":11,"isMegawatt":false,"status":"AVAILABLE","source":"ndw","priceKwh":0.511}},{"type":"Feature","geometry":{"type":"Point","coordinates":[4.613641,51.974767]},"properties":{"type":"charge","layer":"passenger","locationId":"89153845","name":"EQUANS SGZH 2.0 89153845","address":"Schijfmos 45","city":"Nieuwerkerk aan den IJssel","operatorName":"EQUANS","maxPowerKw":17,"isMegawatt":false,"status":"AVAILABLE","source":"ndw"}},{"type":"Feature","geometry":{"type":"Point","coordinates":[4.589139,51.967919]},"properties":{"type":"charge","layer":"passenger","locationId":"31171","name":"Fastned Maatveld","address":"Maatveld A20","city":"Nieuwerkerk a/d IJssel","operatorName":"Fastned","maxPowerKw":300,"isMegawatt":false,"status":"AVAILABLE","source":"ndw","priceKwh":0.6364}},{"type":"Feature","geometry":{"type":"Point","coordinates":[4.593716,51.965983]},"properties":{"type":"charge","layer":"passenger","locationId":"NLLOC027941","name":"Allego - Hornbach Nieuwerkerk ad IJssel A20","address":"Laan van Avant-Garde 1","city":"Nieuwerkerk aan den IJssel","operatorName":"Allego","maxPowerKw":200,"isMegawatt":false,"status":"AVAILABLE","source":"ndw","priceKwh":0.511}},{"type":"Feature","geometry":{"type":"Point","coordinates":[4.620546,51.9723]},"properties":{"type":"charge","layer":"passenger","locationId":"90111905","name":"EQUANS SGZH 2.0 Gladioolveld 2","address":"Gladioolveld 2","city":"Nieuwerkerk aan den IJssel","operatorName":"EQUANS","maxPowerKw":11,"isMegawatt":false,"status":"AVAILABLE","source":"ndw"}},{"type":"Feature","geometry":{"type":"Point","coordinates":[4.60378,51.97096]},"properties":{"type":"charge","layer":"passenger","locationId":"90994606","name":"EQUANS SGZH 2.0 Kerklaan 152","address":"Kerklaan 152","city":"Nieuwerkerk aan den IJssel","operatorName":"EQUANS","maxPowerKw":11,"isMegawatt":false,"status":"AVAILABLE","source":"ndw"}},{"type":"Feature","geometry":{"type":"Point","coordinates":[4.579935,52.013729]},"properties":{"type":"charge","layer":"passenger","locationId":"89188782","name":"EQUANS SGZH 2.0 89188782","address":"Dorpsstraat 149","city":"Zevenhuizen","operatorName":"EQUANS","maxPowerKw":17,"isMegawatt":false,"status":"AVAILABLE","source":"ndw"}},{"type":"Feature","geometry":{"type":"Point","coordinates":[4.616642,51.973503]},"properties":{"type":"charge","layer":"passenger","locationId":"89880810","name":"EQUANS SGZH 2.0 89880810","address":"Dalkruid 81","city":"Nieuwerkerk aan den IJssel","operatorName":"EQUANS","maxPowerKw":11,"isMegawatt":false,"status":"AVAILABLE","source":"ndw"}},{"type":"Feature","geometry":{"type":"Point","coordinates":[4.59684,52.00509]},"properties":{"type":"charge","layer":"passenger","locationId":"91448084","name":"EQUANS SGZH 2.0 Landgraaf 6","address":"Landgraaf 6","city":"Zevenhuizen","operatorName":"EQUANS","maxPowerKw":11,"isMegawatt":false,"status":"AVAILABLE","source":"ndw"}},{"type":"Feature","geometry":{"type":"Point","coordinates":[4.62953,51.96728]},"properties":{"type":"charge","layer":"passenger","locationId":"91492014","name":"EQUANS SGZH 2.0 Maarten Molenaarpark 76","address":"Maarten Molenaarpark 76","city":"Nieuwerkerk aan den IJssel","operatorName":"EQUANS","maxPowerKw":11,"isMegawatt":false,"status":"AVAILABLE","source":"ndw"}},{"type":"Feature","geometry":{"type":"Point","coordinates":[4.615865,51.971586]},"properties":{"type":"charge","layer":"passenger","locationId":"89462838","name":"EQUANS SGZH 2.0 89462838","address":"Wulpendaal 61","city":"Nieuwerkerk aan den IJssel","operatorName":"EQUANS","maxPowerKw":11,"isMegawatt":false,"status":"AVAILABLE","source":"ndw"}},{"type":"Feature","geometry":{"type":"Point","coordinates":[4.620801,51.964042]},"properties":{"type":"charge","layer":"passenger","locationId":"89889505","name":"EQUANS SGZH 2.0 89889505","address":"Kerklaan 20","city":"Nieuwerkerk aan den IJssel","operatorName":"EQUANS","maxPowerKw":11,"isMegawatt":false,"status":"AVAILABLE","source":"ndw"}},{"type":"Feature","geometry":{"type":"Point","coordinates":[4.665756,51.982512]},"properties":{"type":"charge","layer":"passenger","locationId":"89145599","name":"EQUANS SGZH 2.0 89145599","address":"Prinses Wilhelminastraat 16","city":"Moordrecht","operatorName":"EQUANS","maxPowerKw":17,"isMegawatt":false,"status":"AVAILABLE","source":"ndw"}},{"type":"Feature","geometry":{"type":"Point","coordinates":[4.671947,51.988822]},"properties":{"type":"charge","layer":"passenger","locationId":"89877077","name":"EQUANS SGZH 2.0 89877077","address":"Leliestraat 23","city":"Moordrecht","operatorName":"EQUANS","maxPowerKw":11,"isMegawatt":false,"status":"AVAILABLE","source":"ndw"}},{"type":"Feature","geometry":{"type":"Point","coordinates":[4.584838,52.015632]},"properties":{"type":"charge","layer":"passenger","locationId":"89914507","name":"EQUANS SGZH 2.0 89914507","address":"Staringstraat 57","city":"Zevenhuizen","operatorName":"EQUANS","maxPowerKw":11,"isMegawatt":false,"status":"AVAILABLE","source":"ndw"}},{"type":"Feature","geometry":{"type":"Point","coordinates":[4.574853,52.046641]},"properties":{"type":"charge","layer":"passenger","locationId":"89205276","name":"EQUANS SGZH 2.0 89205276","address":"Herenweg 15","city":"Moerkapelle","operatorName":"EQUANS","maxPowerKw":11,"isMegawatt":false,"status":"AVAILABLE","source":"ndw"}},{"type":"Feature","geometry":{"type":"Point","coordinates":[4.663806,51.98502]},"properties":{"type":"charge","layer":"passenger","locationId":"89221177","name":"EQUANS SGZH 2.0 89221177","address":"Meester Lallemanstraat 28","city":"Moordrecht","operatorName":"EQUANS","maxPowerKw":11,"isMegawatt":false,"status":"AVAILABLE","source":"ndw"}},{"type":"Feature","geometry":{"type":"Point","coordinates":[4.58742,52.047826]},"properties":{"type":"charge","layer":"passenger","locationId":"90098210","name":"EQUANS SGZH 2.0 Bovenas 37","address":"Bovenas 37","city":"Moerkapelle","operatorName":"EQUANS","maxPowerKw":11,"isMegawatt":false,"status":"CHARGING","source":"ndw"}},{"type":"Feature","geometry":{"type":"Point","coordinates":[4.606375,51.956263]},"properties":{"type":"charge","layer":"passenger","locationId":"90167045","name":"EQUANS SGZH 2.0 Napo 11","address":"Napo 11","city":"Nieuwerkerk aan den IJssel","operatorName":"EQUANS","maxPowerKw":11,"isMegawatt":false,"status":"AVAILABLE","source":"ndw"}},{"type":"Feature","geometry":{"type":"Point","coordinates":[4.595193,51.968172]},"properties":{"type":"charge","layer":"passenger","locationId":"2386022","name":"Laadnet Krabbendam Kadoverpakking","address":"Steenbakkerij 10","city":"Nieuwerkerk aan den IJssel","operatorName":"Laadnet","maxPowerKw":22,"isMegawatt":false,"status":"AVAILABLE","source":"ndw"}},{"type":"Feature","geometry":{"type":"Point","coordinates":[4.62322,51.962442]},"properties":{"type":"charge","layer":"passenger","locationId":"4213438","name":"Laadnet 's-Gravenweg","address":"'s-Gravenweg 91","city":"Nieuwerkerk aan den IJssel","operatorName":"Laadnet","maxPowerKw":22,"isMegawatt":false,"status":"AVAILABLE","source":"ndw"}},{"type":"Feature","geometry":{"type":"Point","coordinates":[4.573806,52.042891]},"properties":{"type":"charge","layer":"passenger","locationId":"2593416","name":"Laadnet Moerkapelle","address":"Moerkapelse Zijde 32","city":"Moerkapelle","operatorName":"Laadnet","maxPowerKw":22,"isMegawatt":false,"status":"AVAILABLE","source":"ndw"}},{"type":"Feature","geometry":{"type":"Point","coordinates":[4.611674,51.973413]},"properties":{"type":"charge","layer":"passenger","locationId":"89188806","name":"EQUANS SGZH 2.0 89188806","address":"Goudmos 176","city":"Nieuwerkerk aan den IJssel","operatorName":"EQUANS","maxPowerKw":17,"isMegawatt":false,"status":"AVAILABLE","source":"ndw"}},{"type":"Feature","geometry":{"type":"Point","coordinates":[4.58948,52.0114]},"properties":{"type":"charge","layer":"passenger","locationId":"91491976","name":"EQUANS SGZH 2.0 Stokroos 44","address":"Stokroos 44","city":"Zevenhuizen","operatorName":"EQUANS","maxPowerKw":11,"isMegawatt":false,"status":"AVAILABLE","source":"ndw"}},{"type":"Feature","geometry":{"type":"Point","coordinates":[4.575672,52.043937]},"properties":{"type":"charge","layer":"passenger","locationId":"90201688","name":"EQUANS SGZH 2.0 Dorpsstraat 18","address":"Dorpsstraat 18","city":"Moerkapelle","operatorName":"EQUANS","maxPowerKw":11,"isMegawatt":false,"status":"AVAILABLE","source":"ndw"}},{"type":"Feature","geometry":{"type":"Point","coordinates":[4.614786,51.970293]},"properties":{"type":"charge","layer":"passenger","locationId":"89880813","name":"EQUANS SGZH 2.0 89880813","address":"Zwanendaal 23","city":"Nieuwerkerk aan den IJssel","operatorName":"EQUANS","maxPowerKw":11,"isMegawatt":false,"status":"AVAILABLE","source":"ndw"}},{"type":"Feature","geometry":{"type":"Point","coordinates":[4.620006,51.972092]},"properties":{"type":"charge","layer":"passenger","locationId":"NLLOC002860","name":"NLD, Lelieveld 72, 2914 CD Nieuwerkerk ad IJssel","address":"Lelieveld 72","city":"Nieuwerkerk ad IJssel","operatorName":"Allego","maxPowerKw":11,"isMegawatt":false,"status":"AVAILABLE","source":"ndw","priceKwh":0.511}},{"type":"Feature","geometry":{"type":"Point","coordinates":[4.605488,51.954937]},"properties":{"type":"charge","layer":"passenger","locationId":"90305378","name":"EQUANS SGZH 2.0 Mississippi 27","address":"Mississippi 27","city":"Nieuwerkerk aan den IJssel","operatorName":"EQUANS","maxPowerKw":11,"isMegawatt":false,"status":"AVAILABLE","source":"ndw"}},{"type":"Feature","geometry":{"type":"Point","coordinates":[4.586802,52.015938]},"properties":{"type":"charge","layer":"passenger","locationId":"90836149","name":"EQUANS SGZH 2.0 Ambachtssingel 95 (Parkeerplaats aan de zijkant","address":"Ambachtssingel 95 (Parkeerplaats aan de zijka","city":"Zevenhuizen","operatorName":"EQUANS","maxPowerKw":11,"isMegawatt":false,"status":"AVAILABLE","source":"ndw"}},{"type":"Feature","geometry":{"type":"Point","coordinates":[4.594175,52.005728]},"properties":{"type":"charge","layer":"passenger","locationId":"NLLOC008068","name":"NL, Grootmeesterstuin 17, 2761HN, Zevenhuizen","address":"Grootmeesterstuin 17","city":"Zevenhuizen","operatorName":"Allego","maxPowerKw":11,"isMegawatt":false,"status":"AVAILABLE","source":"ndw","priceKwh":0.511}},{"type":"Feature","geometry":{"type":"Point","coordinates":[4.67008,51.99561]},"properties":{"type":"charge","layer":"passenger","locationId":"91366048","name":"EQUANS SGZH 2.0 Ambachtweg 36","address":"Ambachtweg 36","city":"Moordrecht","operatorName":"EQUANS","maxPowerKw":11,"isMegawatt":false,"status":"AVAILABLE","source":"ndw"}},{"type":"Feature","geometry":{"type":"Point","coordinates":[4.587237,52.012271]},"properties":{"type":"charge","layer":"passenger","locationId":"89235329","name":"EQUANS SGZH 2.0 89235329","address":"Goudsbloemstraat 30","city":"Zevenhuizen","operatorName":"EQUANS","maxPowerKw":11,"isMegawatt":false,"status":"CHARGING","source":"ndw"}},{"type":"Feature","geometry":{"type":"Point","coordinates":[4.668805,51.981053]},"properties":{"type":"charge","layer":"passenger","locationId":"89880837","name":"EQUANS SGZH 2.0 89880837","address":"Westeinde 111","city":"Moordrecht","operatorName":"EQUANS","maxPowerKw":11,"isMegawatt":false,"status":"AVAILABLE","source":"ndw"}},{"type":"Feature","geometry":{"type":"Point","coordinates":[4.658005,51.987587]},"properties":{"type":"charge","layer":"passenger","locationId":"89568259","name":"EQUANS SGZH 2.0 89568259","address":"Uivernest 19","city":"Moordrecht","operatorName":"EQUANS","maxPowerKw":11,"isMegawatt":false,"status":"AVAILABLE","source":"ndw"}},{"type":"Feature","geometry":{"type":"Point","coordinates":[4.57919,52.045137]},"properties":{"type":"charge","layer":"passenger","locationId":"90836163","name":"EQUANS SGZH 2.0 Raadhuisstraat 51","address":"Raadhuisstraat 51","city":"Moerkapelle","operatorName":"EQUANS","maxPowerKw":11,"isMegawatt":false,"status":"CHARGING","source":"ndw"}},{"type":"Feature","geometry":{"type":"Point","coordinates":[4.620323,51.963614]},"properties":{"type":"charge","layer":"passenger","locationId":"NLLOC003642","name":"NLD Merwede 40, 2911 EB Nieuwerkerk aan den IJssel","address":"Merwede 40","city":"Nieuwerkerk aan den IJssel","operatorName":"Allego","maxPowerKw":11,"isMegawatt":false,"status":"AVAILABLE","source":"ndw","priceKwh":0.511}},{"type":"Feature","geometry":{"type":"Point","coordinates":[4.641712,51.958419]},"properties":{"type":"charge","layer":"passenger","locationId":"69a0499093faa853c6afebf6","name":"TP - Parc De IJsselhoeve","address":"Klein Hitland 10","city":"Nieuwekerk a/d Ijssel","operatorName":"Pluq","maxPowerKw":22,"isMegawatt":false,"status":"AVAILABLE","source":"ndw","priceKwh":0.4}},{"type":"Feature","geometry":{"type":"Point","coordinates":[4.60656,51.95378]},"properties":{"type":"charge","layer":"passenger","locationId":"91292819","name":"EQUANS SGZH 2.0 Hudson 21","address":"Hudson 21","city":"Nieuwerkerk aan den IJssel","operatorName":"EQUANS","maxPowerKw":11,"isMegawatt":false,"status":"AVAILABLE","source":"ndw"}},{"type":"Feature","geometry":{"type":"Point","coordinates":[4.595691,52.009679]},"properties":{"type":"charge","layer":"passenger","locationId":"90830535","name":"EQUANS SGZH 2.0 Belvedere 1","address":"Belvedere 1","city":"Zevenhuizen","operatorName":"EQUANS","maxPowerKw":11,"isMegawatt":false,"status":"CHARGING","source":"ndw"}},{"type":"Feature","geometry":{"type":"Point","coordinates":[4.661133,51.989316]},"properties":{"type":"charge","layer":"passenger","locationId":"NLLOC003184","name":"NLD Oudersvrucht 2, 2841 LN Moordrecht","address":"Oudersvrucht 2","city":"Moordrecht","operatorName":"Allego","maxPowerKw":11,"isMegawatt":false,"status":"CHARGING","source":"ndw","priceKwh":0.511}},{"type":"Feature","geometry":{"type":"Point","coordinates":[4.586676,52.042017]},"properties":{"type":"charge","layer":"passenger","locationId":"622a20a3cdd05dc741db5a58","name":"Peter van den Berg 's station","address":"Industriestraat 5","city":"Moerkapelle","operatorName":"E-Flux by Road","maxPowerKw":22,"isMegawatt":false,"status":"AVAILABLE","source":"ndw","priceKwh":0.38}},{"type":"Feature","geometry":{"type":"Point","coordinates":[4.61068,51.95933]},"properties":{"type":"charge","layer":"passenger","locationId":"91193619","name":"EQUANS SGZH 2.0 Burg Van Heugtenlaan 113","address":"Burg Van Heugtenlaan 113","city":"Nieuwerkerk aan den IJssel","operatorName":"EQUANS","maxPowerKw":11,"isMegawatt":false,"status":"AVAILABLE","source":"ndw"}},{"type":"Feature","geometry":{"type":"Point","coordinates":[4.572148,52.046064]},"properties":{"type":"charge","layer":"passenger","locationId":"NLLOC003449","name":"NLD, De Grutto 2, 2751 CT Moerkapelle","address":"De Grutto 2","city":"Moerkapelle","operatorName":"Allego","maxPowerKw":11,"isMegawatt":false,"status":"AVAILABLE","source":"ndw","priceKwh":0.511}},{"type":"Feature","geometry":{"type":"Point","coordinates":[4.612276,51.97383]},"properties":{"type":"charge","layer":"passenger","locationId":"89568256","name":"EQUANS SGZH 2.0 89568256","address":"Schijfmos 1","city":"Nieuwerkerk aan den IJssel","operatorName":"EQUANS","maxPowerKw":11,"isMegawatt":false,"status":"AVAILABLE","source":"ndw"}},{"type":"Feature","geometry":{"type":"Point","coordinates":[4.612073,51.960271]},"properties":{"type":"charge","layer":"passenger","locationId":"NLLOC015907","name":"NL, Burgermeester Van Heugtenlaan 87, 2911HA Nieuwekerk aan den IJssel","address":"Burgermeester Van Heugtenlaan 87","city":"Nieuwekerk aan den IJssel","operatorName":"Allego","maxPowerKw":11,"isMegawatt":false,"status":"CHARGING","source":"ndw","priceKwh":0.511}},{"type":"Feature","geometry":{"type":"Point","coordinates":[4.607484,51.967367]},"properties":{"type":"charge","layer":"passenger","locationId":"89254205","name":"EQUANS SGZH 2.0 89254205","address":"Kleine Vinkstraat 19","city":"Nieuwerkerk aan den IJssel","operatorName":"EQUANS","maxPowerKw":11,"isMegawatt":false,"status":"CHARGING","source":"ndw"}},{"type":"Feature","geometry":{"type":"Point","coordinates":[4.592432,52.00222]},"properties":{"type":"charge","layer":"passenger","locationId":"NLLOC014049","name":"NL, Prinsessenlaan 18, 2761 PB Zevenhuizen","address":"Prinsessenlaan 18","city":"Zevenhuizen","operatorName":"Allego","maxPowerKw":11,"isMegawatt":false,"status":"AVAILABLE","source":"ndw","priceKwh":0.511}},{"type":"Feature","geometry":{"type":"Point","coordinates":[4.607927,51.971754]},"properties":{"type":"charge","layer":"passenger","locationId":"89824574","name":"EQUANS SGZH 2.0 89824574","address":"Ringvaartlaan 1","city":"Nieuwerkerk aan den IJssel","operatorName":"EQUANS","maxPowerKw":11,"isMegawatt":false,"status":"AVAILABLE","source":"ndw"}},{"type":"Feature","geometry":{"type":"Point","coordinates":[4.65176,51.999464]},"properties":{"type":"charge","layer":"passenger","locationId":"08b9a3f0-9537-469c-8dd5-674f73a12abf","name":"Middelweg","address":"Middelweg 20B","city":"Moordrecht","operatorName":"Vattenfall InCharge","maxPowerKw":50,"isMegawatt":false,"status":"AVAILABLE","source":"ndw"}},{"type":"Feature","geometry":{"type":"Point","coordinates":[4.622387,51.974202]},"properties":{"type":"charge","layer":"passenger","locationId":"89344675","name":"EQUANS SGZH 2.0 89344675","address":"Begoniaveld 28","city":"Nieuwerkerk aan den IJssel","operatorName":"EQUANS","maxPowerKw":11,"isMegawatt":false,"status":"CHARGING","source":"ndw"}},{"type":"Feature","geometry":{"type":"Point","coordinates":[4.67235,51.987282]},"properties":{"type":"charge","layer":"passenger","locationId":"89462867","name":"EQUANS SGZH 2.0 89462867","address":"Burgemeester Brandtstraat 70","city":"Moordrecht","operatorName":"EQUANS","maxPowerKw":11,"isMegawatt":false,"status":"CHARGING","source":"ndw"}},{"type":"Feature","geometry":{"type":"Point","coordinates":[4.620311,51.971049]},"properties":{"type":"charge","layer":"passenger","locationId":"90832054","name":"EQUANS SGZH 2.0 Lelieveld 26","address":"Lelieveld 26","city":"Nieuwerkerk aan den IJssel","operatorName":"EQUANS","maxPowerKw":11,"isMegawatt":false,"status":"AVAILABLE","source":"ndw"}},{"type":"Feature","geometry":{"type":"Point","coordinates":[4.592857,52.007141]},"properties":{"type":"charge","layer":"passenger","locationId":"90851397","name":"EQUANS SGZH 2.0 Koning Willem-Alexanderlaan 90","address":"Koning Willem-Alexanderlaan 90","city":"Zevenhuizen","operatorName":"EQUANS","maxPowerKw":11,"isMegawatt":false,"status":"AVAILABLE","source":"ndw"}},{"type":"Feature","geometry":{"type":"Point","coordinates":[4.610237,51.966024]},"properties":{"type":"charge","layer":"passenger","locationId":"NLLOC004513","name":"NLD Boslaan 2, 2912 PA Nieuwerkerk aan den ijssel","address":"Boslaan 2","city":"Nieuwerkerk aan de Ijssel","operatorName":"Allego","maxPowerKw":11,"isMegawatt":false,"status":"AVAILABLE","source":"ndw","priceKwh":0.511}},{"type":"Feature","geometry":{"type":"Point","coordinates":[4.65821,51.987191]},"properties":{"type":"charge","layer":"passenger","locationId":"NLLOC017093","name":"NL, Uivernest 16, 2841 KW Moordrecht","address":"Uivernest 16","city":"Moordrecht","operatorName":"Allego","maxPowerKw":11,"isMegawatt":false,"status":"AVAILABLE","source":"ndw","priceKwh":0.511}},{"type":"Feature","geometry":{"type":"Point","coordinates":[4.617695,51.966809]},"properties":{"type":"charge","layer":"passenger","locationId":"NLLOC003750","name":"NLD Doortocht 65, 2914 KA Nieuwerkerk aan den IJssel","address":"Doortocht 65","city":"Nieuwerkerk aan den Ijssel","operatorName":"Allego","maxPowerKw":11,"isMegawatt":false,"status":"CHARGING","source":"ndw","priceKwh":0.511}},{"type":"Feature","geometry":{"type":"Point","coordinates":[4.564988,52.008468]},"properties":{"type":"charge","layer":"passenger","locationId":"612f48e5cb83c91450e4ac5a","name":"Recreatiepark de Koornmolen","address":"Tweemanspolder 6A","city":"Zevenhuizen","operatorName":"E-Flux by Road","maxPowerKw":22,"isMegawatt":false,"status":"AVAILABLE","source":"ndw","priceKwh":0.47}},{"type":"Feature","geometry":{"type":"Point","coordinates":[4.582141,52.043869]},"properties":{"type":"charge","layer":"passenger","locationId":"NLLOC010442","name":"NL, Julianastraat 15C, 2751GC, Moerkapelle","address":"Julianastraat 15C","city":"Moerkapelle","operatorName":"Allego","maxPowerKw":11,"isMegawatt":false,"status":"AVAILABLE","source":"ndw","priceKwh":0.511}},{"type":"Feature","geometry":{"type":"Point","coordinates":[4.619055,51.967855]},"properties":{"type":"charge","layer":"passenger","locationId":"89258289","name":"EQUANS SGZH 2.0 89258289","address":"Reigerhof 163 a","city":"Nieuwerkerk aan den IJssel","operatorName":"EQUANS","maxPowerKw":11,"isMegawatt":false,"status":"AVAILABLE","source":"ndw"}},{"type":"Feature","geometry":{"type":"Point","coordinates":[4.606036,51.958271]},"properties":{"type":"charge","layer":"passenger","locationId":"NLLOC015264","name":"NL, Colorado 35, 2911JA, Nieuwerkerk aan den IJssel","address":"Colorado 35","city":"Nieuwerkerk aan den Ijssel","operatorName":"Allego","maxPowerKw":11,"isMegawatt":false,"status":"AVAILABLE","source":"ndw","priceKwh":0.511}},{"type":"Feature","geometry":{"type":"Point","coordinates":[4.606525,51.960423]},"properties":{"type":"charge","layer":"passenger","locationId":"90020631","name":"EQUANS SGZH 2.0 de Els 1 n","address":"de Els 1 n","city":"Nieuwerkerk aan den IJssel","operatorName":"EQUANS","maxPowerKw":11,"isMegawatt":false,"status":"AVAILABLE","source":"ndw"}},{"type":"Feature","geometry":{"type":"Point","coordinates":[4.60922,51.962188]},"properties":{"type":"charge","layer":"passenger","locationId":"89235321","name":"EQUANS SGZH 2.0 89235321","address":"de Iep 64","city":"Nieuwerkerk aan den IJssel","operatorName":"EQUANS","maxPowerKw":17,"isMegawatt":false,"status":"AVAILABLE","source":"ndw"}},{"type":"Feature","geometry":{"type":"Point","coordinates":[4.668546,51.98562]},"properties":{"type":"charge","layer":"passenger","locationId":"90977597","name":"EQUANS SGZH 2.0 Drost IJsermansingel 1","address":"Drost IJsermansingel 1","city":"Moordrecht","operatorName":"EQUANS","maxPowerKw":11,"isMegawatt":false,"status":"AVAILABLE","source":"ndw"}},{"type":"Feature","geometry":{"type":"Point","coordinates":[4.589445,51.967602]},"properties":{"type":"charge","layer":"passenger","locationId":"15","name":"Shell Recharge NL0724 - Shell Maatveld","address":"A20 E25 NZ","city":"Nieuwerkerk aan den IJssel","operatorName":"Shell Recharge","maxPowerKw":175,"isMegawatt":false,"status":"CHARGING","source":"ndw","priceKwh":0.7025}},{"type":"Feature","geometry":{"type":"Point","coordinates":[4.58291,52.00672]},"properties":{"type":"charge","layer":"passenger","locationId":"89469880","name":"EQUANS SGZH 2.0 89469880","address":"De Leeuwerik 109","city":"Zevenhuizen","operatorName":"EQUANS","maxPowerKw":11,"isMegawatt":false,"status":"AVAILABLE","source":"ndw"}},{"type":"Feature","geometry":{"type":"Point","coordinates":[4.606869,51.953474]},"properties":{"type":"charge","layer":"passenger","locationId":"NLLOC004017","name":"NL, Hudson 23, 2911CW, Nieuwerkerk aan den IJssel","address":"Hudson 23","city":"Nieuwerkerk aan den IJssel","operatorName":"Allego","maxPowerKw":11,"isMegawatt":false,"status":"AVAILABLE","source":"ndw","priceKwh":0.511}},{"type":"Feature","geometry":{"type":"Point","coordinates":[4.580055,52.046873]},"properties":{"type":"charge","layer":"passenger","locationId":"NLLOC003100","name":"NLD Mauritsstraat 27, 2751 BV Moerkapelle","address":"Mauritsstraat 27","city":"Moerkapelle","operatorName":"Allego","maxPowerKw":11,"isMegawatt":false,"status":"AVAILABLE","source":"ndw","priceKwh":0.511}},{"type":"Feature","geometry":{"type":"Point","coordinates":[4.655528,51.987068]},"properties":{"type":"charge","layer":"passenger","locationId":"89317595","name":"EQUANS SGZH 2.0 89317595","address":"Bijenkorf 10","city":"Moordrecht","operatorName":"EQUANS","maxPowerKw":11,"isMegawatt":false,"status":"AVAILABLE","source":"ndw"}},{"type":"Feature","geometry":{"type":"Point","coordinates":[4.617127,51.970267]},"properties":{"type":"charge","layer":"passenger","locationId":"89880812","name":"EQUANS SGZH 2.0 89880812","address":"Zwanendaal 72","city":"Nieuwerkerk aan den IJssel","operatorName":"EQUANS","maxPowerKw":11,"isMegawatt":false,"status":"AVAILABLE","source":"ndw"}},{"type":"Feature","geometry":{"type":"Point","coordinates":[4.604976,51.969431]},"properties":{"type":"charge","layer":"passenger","locationId":"4213439","name":"Laadnet Ambachtswerf","address":"Dorpsstraat 9c","city":"Nieuwerkerk aan den IJssel","operatorName":"Laadnet","maxPowerKw":22,"isMegawatt":false,"status":"AVAILABLE","source":"ndw"}},{"type":"Feature","geometry":{"type":"Point","coordinates":[4.603064,51.956686]},"properties":{"type":"charge","layer":"passenger","locationId":"NLLOC004734","name":"NLD Yukon 13, 2911 DB Nieuwekerk aan den IJssel","address":"Yukon 13","city":"Nieuwekerk aan den IJssel","operatorName":"Allego","maxPowerKw":11,"isMegawatt":false,"status":"AVAILABLE","source":"ndw","priceKwh":0.511}},{"type":"Feature","geometry":{"type":"Point","coordinates":[4.604141,51.957259]},"properties":{"type":"charge","layer":"passenger","locationId":"89188776","name":"EQUANS SGZH 2.0 89469875","address":"Colorado 79","city":"Nieuwerkerk aan den IJssel","operatorName":"EQUANS","maxPowerKw":17,"isMegawatt":false,"status":"AVAILABLE","source":"ndw"}},{"type":"Feature","geometry":{"type":"Point","coordinates":[4.669712,51.986135]},"properties":{"type":"charge","layer":"passenger","locationId":"NLLOC003526","name":"NLD Sluislaan 46, 2841 XS Moordrecht","address":"Sluislaan 46","city":"Moordrecht","operatorName":"Allego","maxPowerKw":11,"isMegawatt":false,"status":"AVAILABLE","source":"ndw","priceKwh":0.511}},{"type":"Feature","geometry":{"type":"Point","coordinates":[4.60921,51.964062]},"properties":{"type":"charge","layer":"passenger","locationId":"90305374","name":"EQUANS SGZH 2.0 Van Beethovenlaan 13","address":"Van Beethovenlaan 13","city":"Nieuwerkerk aan den IJssel","operatorName":"EQUANS","maxPowerKw":11,"isMegawatt":false,"status":"AVAILABLE","source":"ndw"}},{"type":"Feature","geometry":{"type":"Point","coordinates":[4.656844,51.987473]},"properties":{"type":"charge","layer":"passenger","locationId":"89217224","name":"EQUANS SGZH 2.0 89217224","address":"Hazenleger 6","city":"Moordrecht","operatorName":"EQUANS","maxPowerKw":11,"isMegawatt":false,"status":"CHARGING","source":"ndw"}},{"type":"Feature","geometry":{"type":"Point","coordinates":[4.66756,51.98795]},"properties":{"type":"charge","layer":"passenger","locationId":"NLLOC003150","name":"NLD West Ringdijk 1 2841 LV Moordrecht","address":"West Ringdijk 1","city":"Moordrecht","operatorName":"Allego","maxPowerKw":11,"isMegawatt":false,"status":"AVAILABLE","source":"ndw","priceKwh":0.511}},{"type":"Feature","geometry":{"type":"Point","coordinates":[4.597669,52.005901]},"properties":{"type":"charge","layer":"passenger","locationId":"664f56e27b1444001c548a8a","name":"Fam. Hol/Krootjes","address":"Paltsgraaf 14","city":"Zevenhuizen","operatorName":"E-Flux by Road","maxPowerKw":22,"isMegawatt":false,"status":"AVAILABLE","source":"ndw","priceKwh":0.4}},{"type":"Feature","geometry":{"type":"Point","coordinates":[4.606167,51.969853]},"properties":{"type":"charge","layer":"passenger","locationId":"NLLOC007409","name":"NL, Bakkerijstraat 2, 2912 CZ, Nieuwerkerk aan den IJssel","address":"Bakkerijstraat 2","city":"Nieuwerkerk aan den IJssel","operatorName":"Allego","maxPowerKw":11,"isMegawatt":false,"status":"AVAILABLE","source":"ndw","priceKwh":0.511}},{"type":"Feature","geometry":{"type":"Point","coordinates":[4.612039,51.954326]},"properties":{"type":"charge","layer":"passenger","locationId":"90306100","name":"EQUANS SGZH 2.0 Dieze 34","address":"Dieze 34","city":"Nieuwerkerk aan den IJssel","operatorName":"EQUANS","maxPowerKw":11,"isMegawatt":false,"status":"AVAILABLE","source":"ndw"}},{"type":"Feature","geometry":{"type":"Point","coordinates":[4.588558,52.01627]},"properties":{"type":"charge","layer":"passenger","locationId":"90830536","name":"EQUANS SGZH 2.0 Knibbelweg 12 a","address":"Knibbelweg 12 a","city":"Zevenhuizen","operatorName":"EQUANS","maxPowerKw":11,"isMegawatt":false,"status":"AVAILABLE","source":"ndw"}},{"type":"Feature","geometry":{"type":"Point","coordinates":[4.615403,51.975078]},"properties":{"type":"charge","layer":"passenger","locationId":"NLLOC014097","name":"NL, Kroonkruid 80, 2914BN, Nieuwerkerk aan den IJssel","address":"Kroonkruid 80","city":"Nieuwerkerk aan den IJssel","operatorName":"Allego","maxPowerKw":11,"isMegawatt":false,"status":"AVAILABLE","source":"ndw","priceKwh":0.511}},{"type":"Feature","geometry":{"type":"Point","coordinates":[4.611948,51.979437]},"properties":{"type":"charge","layer":"passenger","locationId":"1596216","name":"Laadnet Hoofdkantoor","address":"Hoogeveenenweg 93","city":"Nieuwerkerk aan den IJssel","operatorName":"Laadnet","maxPowerKw":22,"isMegawatt":false,"status":"AVAILABLE","source":"ndw"}},{"type":"Feature","geometry":{"type":"Point","coordinates":[4.60908,51.96754]},"properties":{"type":"charge","layer":"passenger","locationId":"91041776","name":"EQUANS SGZH 2.0 Bospolderstraat 3","address":"Bospolderstraat 3","city":"Nieuwerkerk aan den IJssel","operatorName":"EQUANS","maxPowerKw":11,"isMegawatt":false,"status":"AVAILABLE","source":"ndw"}},{"type":"Feature","geometry":{"type":"Point","coordinates":[4.579361,52.007815]},"properties":{"type":"charge","layer":"passenger","locationId":"NLLOC004395","name":"NLD Schielandsingel 24, 2761 XR Zevenhuizen","address":"Schielandsingel 24","city":"Zevenhuizen","operatorName":"Allego","maxPowerKw":11,"isMegawatt":false,"status":"AVAILABLE","source":"ndw","priceKwh":0.511}},{"type":"Feature","geometry":{"type":"Point","coordinates":[4.672147,51.988694]},"properties":{"type":"charge","layer":"passenger","locationId":"NLLOC004172","name":"NLD, Leliestraat 29, 2841 AX Moordrecht","address":"Leliestraat 29","city":"Moordrecht","operatorName":"Allego","maxPowerKw":11,"isMegawatt":false,"status":"AVAILABLE","source":"ndw","priceKwh":0.511}},{"type":"Feature","geometry":{"type":"Point","coordinates":[4.592012,52.0121]},"properties":{"type":"charge","layer":"passenger","locationId":"NLLOC006914","name":"NL, Kraagroos 1, 2761 JS, Zevenhuizen","address":"Kraagroos 1","city":"Zevenhuizen","operatorName":"Allego","maxPowerKw":11,"isMegawatt":false,"status":"CHARGING","source":"ndw","priceKwh":0.511}},{"type":"Feature","geometry":{"type":"Point","coordinates":[4.606944,51.964146]},"properties":{"type":"charge","layer":"passenger","locationId":"90305379","name":"EQUANS SGZH 2.0 Corellipad 17","address":"Corellipad 17","city":"Nieuwerkerk aan den IJssel","operatorName":"EQUANS","maxPowerKw":11,"isMegawatt":false,"status":"AVAILABLE","source":"ndw"}},{"type":"Feature","geometry":{"type":"Point","coordinates":[4.666112,51.992711]},"properties":{"type":"charge","layer":"passenger","locationId":"NLLOC007948","name":"NL, Ganzeneiland 23, 2841PE, Moordrecht","address":"Ganzeneiland 23","city":"Moordrecht","operatorName":"Allego","maxPowerKw":11,"isMegawatt":false,"status":"AVAILABLE","source":"ndw","priceKwh":0.511}},{"type":"Feature","geometry":{"type":"Point","coordinates":[4.61906,51.961427]},"properties":{"type":"charge","layer":"passenger","locationId":"89462868","name":"EQUANS SGZH 2.0 89462868","address":"Hunze 7","city":"Nieuwerkerk aan den IJssel","operatorName":"EQUANS","maxPowerKw":11,"isMegawatt":false,"status":"CHARGING","source":"ndw"}},{"type":"Feature","geometry":{"type":"Point","coordinates":[4.622739,51.972996]},"properties":{"type":"charge","layer":"passenger","locationId":"NLLOC002858","name":"NLD, Anjerveld 2, 2914 PA Nieuwekerk aan den IJssel","address":"Anjerveld 2","city":"Nieuwekerk aan den IJssel","operatorName":"Allego","maxPowerKw":11,"isMegawatt":false,"status":"AVAILABLE","source":"ndw","priceKwh":0.511}},{"type":"Feature","geometry":{"type":"Point","coordinates":[4.659949,51.988221]},"properties":{"type":"charge","layer":"passenger","locationId":"NLLOC007401","name":"NL, Haviksnest 2 2841 MN Moordrecht","address":"Haviksnest 2","city":"Moordrecht","operatorName":"Allego","maxPowerKw":11,"isMegawatt":false,"status":"AVAILABLE","source":"ndw","priceKwh":0.511}},{"type":"Feature","geometry":{"type":"Point","coordinates":[4.62102,51.97291]},"properties":{"type":"charge","layer":"passenger","locationId":"91366051","name":"EQUANS SGZH 2.0 Lelieveld 94","address":"Lelieveld 94","city":"Nieuwerkerk aan den IJssel","operatorName":"EQUANS","maxPowerKw":11,"isMegawatt":false,"status":"AVAILABLE","source":"ndw"}},{"type":"Feature","geometry":{"type":"Point","coordinates":[4.612866,51.979147]},"properties":{"type":"charge","layer":"passenger","locationId":"62710c649fa97aa05aae8049","name":"Rotan RH Interieurs B.V.","address":"Hoogeveenenweg  11","city":"Nieuwerkerk a/d IJssel","operatorName":"Fleet Charge Services","maxPowerKw":22,"isMegawatt":false,"status":"AVAILABLE","source":"ndw","priceKwh":0.42}},{"type":"Feature","geometry":{"type":"Point","coordinates":[4.617902,51.976479]},"properties":{"type":"charge","layer":"passenger","locationId":"89954584","name":"EQUANS SGZH 2.0 89954584","address":"Penningkruid 36","city":"Nieuwerkerk aan den IJssel","operatorName":"EQUANS","maxPowerKw":11,"isMegawatt":false,"status":"AVAILABLE","source":"ndw"}},{"type":"Feature","geometry":{"type":"Point","coordinates":[4.58546,52.016115]},"properties":{"type":"charge","layer":"passenger","locationId":"NLLOC007119","name":"NL, Perkstraat 69, 2761 LM, Zevenhuizen","address":"Perkstraat 69","city":"Zevenhuizen","operatorName":"Allego","maxPowerKw":11,"isMegawatt":false,"status":"CHARGING","source":"ndw","priceKwh":0.511}},{"type":"Feature","geometry":{"type":"Point","coordinates":[4.583854,52.018481]},"properties":{"type":"charge","layer":"passenger","locationId":"90238820","name":"EQUANS SGZH 2.0 Wagenmaker 33a","address":"Wagenmaker 33a","city":"Zevenhuizen","operatorName":"EQUANS","maxPowerKw":11,"isMegawatt":false,"status":"AVAILABLE","source":"ndw"}},{"type":"Feature","geometry":{"type":"Point","coordinates":[4.587558,52.01587]},"properties":{"type":"charge","layer":"passenger","locationId":"89205271","name":"EQUANS SGZH 2.0 89205271","address":"Hoedenmaker 41","city":"Zevenhuizen","operatorName":"EQUANS","maxPowerKw":11,"isMegawatt":false,"status":"AVAILABLE","source":"ndw"}},{"type":"Feature","geometry":{"type":"Point","coordinates":[4.596597,52.027046]},"properties":{"type":"charge","layer":"passenger","locationId":"3672813","name":"Laadnet Jan Hendrikspad 2","address":"Jan Hendrikspad 2","city":"Zevenhuizen","operatorName":"Laadnet","maxPowerKw":22,"isMegawatt":false,"status":"AVAILABLE","source":"ndw"}},{"type":"Feature","geometry":{"type":"Point","coordinates":[4.580979,52.009692]},"properties":{"type":"charge","layer":"passenger","locationId":"NLLOC018229","name":"NL, De Lente 40, 2761 VL Zevenhuizen","address":"De Lente 40","city":"Zevenhuizen","operatorName":"Allego","maxPowerKw":11,"isMegawatt":false,"status":"UNAVAILABLE","source":"ndw","priceKwh":0.511}},{"type":"Feature","geometry":{"type":"Point","coordinates":[4.595695,51.966887]},"properties":{"type":"charge","layer":"passenger","locationId":"90305383","name":"EQUANS SGZH 2.0 Steenbakkerij 36","address":"Steenbakkerij 36","city":"Nieuwerkerk aan den IJssel","operatorName":"EQUANS","maxPowerKw":11,"isMegawatt":false,"status":"AVAILABLE","source":"ndw"}},{"type":"Feature","geometry":{"type":"Point","coordinates":[4.619223,51.97793]},"properties":{"type":"charge","layer":"passenger","locationId":"69afbdd5a59b7c858b2efeeb","name":"Van der Valk - Nieuwerkerk aan den IJssel - Charging Stations","address":"Parallelweg Zuid 185","city":"IJssel","operatorName":"Valk Energy","maxPowerKw":11,"isMegawatt":false,"status":"AVAILABLE","source":"ndw","priceKwh":0.59}},{"type":"Feature","geometry":{"type":"Point","coordinates":[4.593344,52.007715]},"properties":{"type":"charge","layer":"passenger","locationId":"NLLOC008929","name":"NL, Koning Willem-Alexanderlaan 118, 2761HK, Zevenhuizen","address":"Koning Willem-Alexanderlaan 118","city":"Zevenhuizen","operatorName":"Allego","maxPowerKw":11,"isMegawatt":false,"status":"AVAILABLE","source":"ndw","priceKwh":0.511}},{"type":"Feature","geometry":{"type":"Point","coordinates":[4.60553,51.96649]},"properties":{"type":"charge","layer":"passenger","locationId":"91422384","name":"EQUANS SGZH 2.0 Prins Alexanderpad 13","address":"Prins Alexanderpad 13","city":"Nieuwerkerk aan den IJssel","operatorName":"EQUANS","maxPowerKw":11,"isMegawatt":false,"status":"AVAILABLE","source":"ndw"}},{"type":"Feature","geometry":{"type":"Point","coordinates":[4.570346,52.044792]},"properties":{"type":"charge","layer":"passenger","locationId":"89344652","name":"EQUANS SGZH 2.0 89344652","address":"Klaproosstraat 32","city":"Moerkapelle","operatorName":"EQUANS","maxPowerKw":11,"isMegawatt":false,"status":"CHARGING","source":"ndw"}},{"type":"Feature","geometry":{"type":"Point","coordinates":[4.58905,51.966643]},"properties":{"type":"charge","layer":"passenger","locationId":"61501ea5-27ee-4395-8a53-c491f00f9b3a","name":"bp pulse De Vink","address":"Rijksweg A20","city":"Nieuwerkerk aan den IJssel","operatorName":"bp pulse","maxPowerKw":150,"isMegawatt":false,"status":"AVAILABLE","source":"ndw","priceKwh":0.7}},{"type":"Feature","geometry":{"type":"Point","coordinates":[4.610019,51.956798]},"properties":{"type":"charge","layer":"passenger","locationId":"NLLOC014455","name":"NL, Loire, 28, 2911HD, Nieuwerkerk aan den IJssel","address":"Loire 28","city":"Nieuwerkerk aan den IJssel","operatorName":"Allego","maxPowerKw":11,"isMegawatt":false,"status":"AVAILABLE","source":"ndw","priceKwh":0.511}},{"type":"Feature","geometry":{"type":"Point","coordinates":[4.609258,51.958935]},"properties":{"type":"charge","layer":"passenger","locationId":"NLLOC002456","name":"NLD, Nieuwerkerk aan den IJssel, Burgemeester van Heugtenlaan 143","address":"Burgemeester van Heugtenlaan 143","city":"Nieuwerkerk aan den IJssel","operatorName":"Allego","maxPowerKw":11,"isMegawatt":false,"status":"CHARGING","source":"ndw","priceKwh":0.511}},{"type":"Feature","geometry":{"type":"Point","coordinates":[4.576345,52.045615]},"properties":{"type":"charge","layer":"passenger","locationId":"NLLOC007090","name":"NL, Jonkheer van der Welstraat 8 2751 AJ Moerkapelle","address":"Jonkheer van der Welstraat 8","city":"Moerkapelle","operatorName":"Allego","maxPowerKw":11,"isMegawatt":false,"status":"UNAVAILABLE","source":"ndw","priceKwh":0.511}},{"type":"Feature","geometry":{"type":"Point","coordinates":[4.605059,51.963267]},"properties":{"type":"charge","layer":"passenger","locationId":"89317492","name":"EQUANS SGZH 2.0 89317492","address":"Mozartstraat 44","city":"Nieuwerkerk aan den IJssel","operatorName":"EQUANS","maxPowerKw":11,"isMegawatt":false,"status":"AVAILABLE","source":"ndw"}},{"type":"Feature","geometry":{"type":"Point","coordinates":[4.608983,51.95547]},"properties":{"type":"charge","layer":"passenger","locationId":"90255825","name":"EQUANS SGZH 2.0 Salado 9","address":"Salado 9","city":"Nieuwerkerk aan den IJssel","operatorName":"EQUANS","maxPowerKw":11,"isMegawatt":false,"status":"AVAILABLE","source":"ndw"}},{"type":"Feature","geometry":{"type":"Point","coordinates":[4.610349,51.96697]},"properties":{"type":"charge","layer":"passenger","locationId":"90189909","name":"EQUANS SGZH 2.0 Vijverzicht 1","address":"Vijverzicht 1","city":"Nieuwerkerk aan den IJssel","operatorName":"EQUANS","maxPowerKw":11,"isMegawatt":false,"status":"AVAILABLE","source":"ndw"}},{"type":"Feature","geometry":{"type":"Point","coordinates":[4.61609,51.97742]},"properties":{"type":"charge","layer":"passenger","locationId":"91041707","name":"EQUANS SGZH 2.0 Kroonkruid 169","address":"Kroonkruid 169","city":"Nieuwerkerk aan den IJssel","operatorName":"EQUANS","maxPowerKw":11,"isMegawatt":false,"status":"AVAILABLE","source":"ndw"}},{"type":"Feature","geometry":{"type":"Point","coordinates":[4.60655,51.955206]},"properties":{"type":"charge","layer":"passenger","locationId":"89568260","name":"EQUANS SGZH 2.0 89568260","address":"Mantaro 2","city":"Nieuwerkerk aan den IJssel","operatorName":"EQUANS","maxPowerKw":11,"isMegawatt":false,"status":"CHARGING","source":"ndw"}},{"type":"Feature","geometry":{"type":"Point","coordinates":[4.624175,51.974189]},"properties":{"type":"charge","layer":"passenger","locationId":"NLLOC002435","name":"NLD, Madeliefveld 145, 2914 PK, Nieuwekerk aan den IJssel","address":"Madeliefveld 145","city":"Nieuwekerk aan den IJssel","operatorName":"Allego","maxPowerKw":11,"isMegawatt":false,"status":"AVAILABLE","source":"ndw","priceKwh":0.511}},{"type":"Feature","geometry":{"type":"Point","coordinates":[4.619179,51.966001]},"properties":{"type":"charge","layer":"passenger","locationId":"NLLOC002349","name":"NLD, Kleinpolderlaan 6, 2911 PA, Nieuwekerk aan den IJssel","address":"Kleinpolderlaan 6","city":"Nieuwekerk aan den IJssel","operatorName":"Allego","maxPowerKw":11,"isMegawatt":false,"status":"AVAILABLE","source":"ndw","priceKwh":0.511}},{"type":"Feature","geometry":{"type":"Point","coordinates":[4.611374,51.953001]},"properties":{"type":"charge","layer":"passenger","locationId":"NLLOC002519","name":"NLD, Nieuwerkerk aan den IJssel, Donge 37","address":"Donge 37","city":"Nieuwerkerk aan den IJssel","operatorName":"Allego","maxPowerKw":11,"isMegawatt":false,"status":"AVAILABLE","source":"ndw","priceKwh":0.511}},{"type":"Feature","geometry":{"type":"Point","coordinates":[4.585819,52.011003]},"properties":{"type":"charge","layer":"passenger","locationId":"90974873","name":"EQUANS SGZH 2.0 Rozenstraat 19","address":"Rozenstraat 19","city":"Zevenhuizen","operatorName":"EQUANS","maxPowerKw":11,"isMegawatt":false,"status":"AVAILABLE","source":"ndw"}},{"type":"Feature","geometry":{"type":"Point","coordinates":[4.613661,51.971609]},"properties":{"type":"charge","layer":"passenger","locationId":"89954691","name":"EQUANS SGZH 2.0 89954691","address":"Krulmos 10","city":"Nieuwerkerk aan den IJssel","operatorName":"EQUANS","maxPowerKw":11,"isMegawatt":false,"status":"AVAILABLE","source":"ndw"}},{"type":"Feature","geometry":{"type":"Point","coordinates":[4.605474,51.960847]},"properties":{"type":"charge","layer":"passenger","locationId":"90111903","name":"EQUANS SGZH 2.0 de Linde 51","address":"de Linde 51","city":"Nieuwerkerk aan den IJssel","operatorName":"EQUANS","maxPowerKw":11,"isMegawatt":false,"status":"AVAILABLE","source":"ndw"}},{"type":"Feature","geometry":{"type":"Point","coordinates":[4.664385,51.981239]},"properties":{"type":"charge","layer":"passenger","locationId":"89209925","name":"EQUANS SGZH 2.0 89209925","address":"Prinses Arianestraat 1","city":"Moordrecht","operatorName":"EQUANS","maxPowerKw":17,"isMegawatt":false,"status":"AVAILABLE","source":"ndw"}},{"type":"Feature","geometry":{"type":"Point","coordinates":[4.60597,51.968145]},"properties":{"type":"charge","layer":"passenger","locationId":"90122424","name":"EQUANS SGZH 2.0 Verzetsstraat 39 a","address":"Verzetsstraat 39 a","city":"Nieuwerkerk aan den IJssel","operatorName":"EQUANS","maxPowerKw":11,"isMegawatt":false,"status":"AVAILABLE","source":"ndw"}},{"type":"Feature","geometry":{"type":"Point","coordinates":[4.615709,51.967099]},"properties":{"type":"charge","layer":"passenger","locationId":"90179585","name":"EQUANS SGZH 2.0 Ravendaal 24","address":"Ravendaal 24","city":"Nieuwerkerk aan den IJssel","operatorName":"EQUANS","maxPowerKw":11,"isMegawatt":false,"status":"AVAILABLE","source":"ndw"}},{"type":"Feature","geometry":{"type":"Point","coordinates":[4.60771,51.96228]},"properties":{"type":"charge","layer":"passenger","locationId":"91448088","name":"EQUANS SGZH 2.0 Mendelssohnstraat 13","address":"Mendelssohnstraat 13","city":"Nieuwerkerk aan den ijssel","operatorName":"EQUANS","maxPowerKw":11,"isMegawatt":false,"status":"AVAILABLE","source":"ndw"}},{"type":"Feature","geometry":{"type":"Point","coordinates":[4.583375,52.044827]},"properties":{"type":"charge","layer":"passenger","locationId":"90255827","name":"EQUANS SGZH 2.0 Kamwiel 11","address":"Kamwiel 11","city":"Moerkapelle","operatorName":"EQUANS","maxPowerKw":11,"isMegawatt":false,"status":"AVAILABLE","source":"ndw"}},{"type":"Feature","geometry":{"type":"Point","coordinates":[4.57267,52.04589]},"properties":{"type":"charge","layer":"passenger","locationId":"90909759","name":"EQUANS SGZH 2.0 Akkerweg 33","address":"Akkerweg 33","city":"Moerkapelle","operatorName":"EQUANS","maxPowerKw":11,"isMegawatt":false,"status":"CHARGING","source":"ndw"}},{"type":"Feature","geometry":{"type":"Point","coordinates":[4.65939,51.989408]},"properties":{"type":"charge","layer":"passenger","locationId":"89254172","name":"EQUANS SGZH 2.0 89254172","address":"Schuddebeurslaan 10","city":"Moordrecht","operatorName":"EQUANS","maxPowerKw":11,"isMegawatt":false,"status":"AVAILABLE","source":"ndw"}},{"type":"Feature","geometry":{"type":"Point","coordinates":[4.604857,51.955324]},"properties":{"type":"charge","layer":"passenger","locationId":"NLLOC009103","name":"NLD, Mississippi 4 2911CZ Nieuwerkerk aan den IJssel","address":"Mississippi 4","city":"Nieuwerkerk aan den IJssel","operatorName":"Allego","maxPowerKw":11,"isMegawatt":false,"status":"AVAILABLE","source":"ndw","priceKwh":0.511}},{"type":"Feature","geometry":{"type":"Point","coordinates":[4.66304,51.98433]},"properties":{"type":"charge","layer":"passenger","locationId":"90974876","name":"EQUANS SGZH 2.0 Dokter Van Westendorplaan 18","address":"Dokter Van Westendorplaan 18","city":"Moordrecht","operatorName":"EQUANS","maxPowerKw":11,"isMegawatt":false,"status":"AVAILABLE","source":"ndw"}},{"type":"Feature","geometry":{"type":"Point","coordinates":[4.60714,51.95656]},"properties":{"type":"charge","layer":"passenger","locationId":"91246470","name":"EQUANS SGZH 2.0 Rosario 14","address":"Rosario 14","city":"Nieuwerkerk aan den IJssel","operatorName":"EQUANS","maxPowerKw":11,"isMegawatt":false,"status":"AVAILABLE","source":"ndw"}},{"type":"Feature","geometry":{"type":"Point","coordinates":[4.658407,51.987333]},"properties":{"type":"charge","layer":"passenger","locationId":"90401490","name":"EQUANS SGZH 2.0 Exaltolaan (t.h.v. Uivernest 1)","address":"Exaltolaan","city":"Moordrecht","operatorName":"EQUANS","maxPowerKw":11,"isMegawatt":false,"status":"AVAILABLE","source":"ndw"}},{"type":"Feature","geometry":{"type":"Point","coordinates":[4.614249,51.968982]},"properties":{"type":"charge","layer":"passenger","locationId":"90179588","name":"EQUANS SGZH 2.0 Vinkendaal 13","address":"Vinkendaal 13","city":"Nieuwerkerk aan den IJssel","operatorName":"EQUANS","maxPowerKw":11,"isMegawatt":false,"status":"AVAILABLE","source":"ndw"}},{"type":"Feature","geometry":{"type":"Point","coordinates":[4.610633,51.971537]},"properties":{"type":"charge","layer":"passenger","locationId":"89904646","name":"EQUANS SGZH 2.0 Goudmos 13a","address":"Goudmos 13a","city":"Nieuwerkerk aan den IJssel","operatorName":"EQUANS","maxPowerKw":11,"isMegawatt":false,"status":"CHARGING","source":"ndw"}},{"type":"Feature","geometry":{"type":"Point","coordinates":[4.6116,51.970536]},"properties":{"type":"charge","layer":"passenger","locationId":"NLLOC010224","name":"NL, Schildmos 65, 2914 XD, Nieuwerkerk aan den IJssel","address":"Schildmos 65","city":"Nieuwerkerk aan den IJssel","operatorName":"Allego","maxPowerKw":11,"isMegawatt":false,"status":"AVAILABLE","source":"ndw","priceKwh":0.511}},{"type":"Feature","geometry":{"type":"Point","coordinates":[4.607175,51.961213]},"properties":{"type":"charge","layer":"passenger","locationId":"89317491","name":"EQUANS SGZH 2.0 89317491","address":"de Beuk 33","city":"Nieuwerkerk aan den IJssel","operatorName":"EQUANS","maxPowerKw":11,"isMegawatt":false,"status":"AVAILABLE","source":"ndw"}},{"type":"Feature","geometry":{"type":"Point","coordinates":[4.577021,52.012504]},"properties":{"type":"charge","layer":"passenger","locationId":"89188812","name":"EQUANS SGZH 2.0 89188812","address":"Eendrachtsweg 26","city":"Zevenhuizen","operatorName":"EQUANS","maxPowerKw":11,"isMegawatt":false,"status":"AVAILABLE","source":"ndw"}},{"type":"Feature","geometry":{"type":"Point","coordinates":[4.591242,52.006176]},"properties":{"type":"charge","layer":"passenger","locationId":"89238559","name":"EQUANS SGZH 2.0 89238559","address":"Koning Willem-Alexanderlaan 28","city":"Zevenhuizen","operatorName":"EQUANS","maxPowerKw":17,"isMegawatt":false,"status":"AVAILABLE","source":"ndw"}},{"type":"Feature","geometry":{"type":"Point","coordinates":[4.613238,51.961935]},"properties":{"type":"charge","layer":"passenger","locationId":"NLLOC002911","name":"NLD, Schelde 84, 2911 RG Nieuwerkerk aan den IJssel","address":"Schelde 84","city":"Nieuwerkerk aan den IJssel","operatorName":"Allego","maxPowerKw":11,"isMegawatt":false,"status":"AVAILABLE","source":"ndw","priceKwh":0.511}},{"type":"Feature","geometry":{"type":"Point","coordinates":[4.584684,52.015445]},"properties":{"type":"charge","layer":"passenger","locationId":"90172041","name":"EQUANS SGZH 2.0 Staringstraat 46","address":"Staringstraat 46","city":"Zevenhuizen","operatorName":"EQUANS","maxPowerKw":11,"isMegawatt":false,"status":"AVAILABLE","source":"ndw"}},{"type":"Feature","geometry":{"type":"Point","coordinates":[4.61428,51.956417]},"properties":{"type":"charge","layer":"passenger","locationId":"89889500","name":"EQUANS SGZH 2.0 89889500","address":"Gouwe 69","city":"Nieuwerkerk aan den IJssel","operatorName":"EQUANS","maxPowerKw":11,"isMegawatt":false,"status":"CHARGING","source":"ndw"}},{"type":"Feature","geometry":{"type":"Point","coordinates":[4.59405,52.00498]},"properties":{"type":"charge","layer":"passenger","locationId":"91314052","name":"EQUANS SGZH 2.0 Stalmeesterstuin 1","address":"Stalmeesterstuin 1","city":"Zevenhuizen","operatorName":"EQUANS","maxPowerKw":11,"isMegawatt":false,"status":"AVAILABLE","source":"ndw"}},{"type":"Feature","geometry":{"type":"Point","coordinates":[4.607126,51.95724]},"properties":{"type":"charge","layer":"passenger","locationId":"89153835","name":"EQUANS SGZH 2.0 89153835","address":"Maipo 11","city":"Nieuwerkerk aan den IJssel","operatorName":"EQUANS","maxPowerKw":11,"isMegawatt":false,"status":"AVAILABLE","source":"ndw"}},{"type":"Feature","geometry":{"type":"Point","coordinates":[4.666381,51.993532]},"properties":{"type":"charge","layer":"passenger","locationId":"NLLOC006964","name":"NL, Ooievaardreef 45, 2841 PA, Moordrecht","address":"Ooievaardreef 45","city":"Moordrecht","operatorName":"Allego","maxPowerKw":11,"isMegawatt":false,"status":"AVAILABLE","source":"ndw","priceKwh":0.511}},{"type":"Feature","geometry":{"type":"Point","coordinates":[4.58596,52.04671]},"properties":{"type":"charge","layer":"passenger","locationId":"91284792","name":"EQUANS SGZH 2.0 Koningsspil 78","address":"Koningsspil 78","city":"Moerkapelle","operatorName":"EQUANS","maxPowerKw":11,"isMegawatt":false,"status":"AVAILABLE","source":"ndw"}},{"type":"Feature","geometry":{"type":"Point","coordinates":[4.591414,52.002792]},"properties":{"type":"charge","layer":"passenger","locationId":"90172036","name":"EQUANS SGZH 2.0 Van Oranje-Nassaulaan 1","address":"Van Oranje-Nassaulaan 1","city":"Zevenhuizen","operatorName":"EQUANS","maxPowerKw":11,"isMegawatt":false,"status":"AVAILABLE","source":"ndw"}},{"type":"Feature","geometry":{"type":"Point","coordinates":[4.617388,51.960565]},"properties":{"type":"charge","layer":"passenger","locationId":"90255820","name":"EQUANS SGZH 2.0 linge 49","address":"linge 49","city":"Nieuwerkerk aan den IJssel","operatorName":"EQUANS","maxPowerKw":11,"isMegawatt":false,"status":"AVAILABLE","source":"ndw"}},{"type":"Feature","geometry":{"type":"Point","coordinates":[4.610636,51.962484]},"properties":{"type":"charge","layer":"passenger","locationId":"NLLOC011105","name":"NL, de Esdoorn 44 2912 RB Nieuwerkerk aan den IJssel","address":"de Esdoorn 44","city":"Nieuwerkerk aan den IJssel","operatorName":"Allego","maxPowerKw":11,"isMegawatt":false,"status":"AVAILABLE","source":"ndw","priceKwh":0.511}},{"type":"Feature","geometry":{"type":"Point","coordinates":[4.614288,51.972549]},"properties":{"type":"charge","layer":"passenger","locationId":"NLLOC003336","name":"NLD Korstmos 40, 2914 XB Nieuwerkerk aan den IJssel","address":"Korstmos 40","city":"Nieuwerkerk aan den IJssel","operatorName":"Allego","maxPowerKw":11,"isMegawatt":false,"status":"AVAILABLE","source":"ndw","priceKwh":0.511}},{"type":"Feature","geometry":{"type":"Point","coordinates":[4.674209,51.989957]},"properties":{"type":"charge","layer":"passenger","locationId":"89188771","name":"EQUANS SGZH 2.0 89188771","address":"Tulpstraat 68","city":"Moordrecht","operatorName":"EQUANS","maxPowerKw":17,"isMegawatt":false,"status":"AVAILABLE","source":"ndw"}},{"type":"Feature","geometry":{"type":"Point","coordinates":[4.58173,52.04511]},"properties":{"type":"charge","layer":"passenger","locationId":"91458546","name":"EQUANS SGZH 2.0 Raadhuisstraat 40 a","address":"Raadhuisstraat 40 a","city":"Moerkapelle","operatorName":"EQUANS","maxPowerKw":11,"isMegawatt":false,"status":"UNAVAILABLE","source":"ndw"}},{"type":"Feature","geometry":{"type":"Point","coordinates":[4.614672,51.969145]},"properties":{"type":"charge","layer":"passenger","locationId":"NLLOC002392","name":"NLD, Zwanendaal 4, 2914 ET, Nieuwekerk aan den IJssel","address":"Zwanendaal 4","city":"Nieuwekerk aan den IJssel","operatorName":"Allego","maxPowerKw":11,"isMegawatt":false,"status":"AVAILABLE","source":"ndw","priceKwh":0.511}},{"type":"Feature","geometry":{"type":"Point","coordinates":[4.610785,51.964627]},"properties":{"type":"charge","layer":"passenger","locationId":"89965547","name":"EQUANS SGZH 2.0 89965547","address":"Vikingrade 18","city":"Nieuwerkerk aan den IJssel","operatorName":"EQUANS","maxPowerKw":11,"isMegawatt":false,"status":"AVAILABLE","source":"ndw"}},{"type":"Feature","geometry":{"type":"Point","coordinates":[4.593851,52.004696]},"properties":{"type":"charge","layer":"passenger","locationId":"NLLOC003088","name":"NLD Hofdamestuin 2 , 2761 HV Zevenhuizen","address":"Hofdamestuin 2","city":"Zevenhuizen","operatorName":"Allego","maxPowerKw":11,"isMegawatt":false,"status":"AVAILABLE","source":"ndw","priceKwh":0.511}},{"type":"Feature","geometry":{"type":"Point","coordinates":[4.674411,51.989025]},"properties":{"type":"charge","layer":"passenger","locationId":"89254267","name":"EQUANS SGZH 2.0 89254267","address":"Crocusstraat 11","city":"Moordrecht","operatorName":"EQUANS","maxPowerKw":22,"isMegawatt":false,"status":"AVAILABLE","source":"ndw"}},{"type":"Feature","geometry":{"type":"Point","coordinates":[4.56994,52.0438]},"properties":{"type":"charge","layer":"passenger","locationId":"90918877","name":"EQUANS SGZH 2.0 Wilde Veenen 77","address":"Wilde Veenen 77","city":"Moerkapelle","operatorName":"EQUANS","maxPowerKw":11,"isMegawatt":false,"status":"AVAILABLE","source":"ndw"}},{"type":"Feature","geometry":{"type":"Point","coordinates":[4.617125,51.970683]},"properties":{"type":"charge","layer":"passenger","locationId":"90925430","name":"EQUANS SGZH 2.0 Uilendaal 6","address":"Uilendaal 6","city":"Nieuwerkerk aan den IJssel","operatorName":"EQUANS","maxPowerKw":11,"isMegawatt":false,"status":"CHARGING","source":"ndw"}},{"type":"Feature","geometry":{"type":"Point","coordinates":[4.622385,51.966545]},"properties":{"type":"charge","layer":"passenger","locationId":"90369542","name":"EQUANS SGZH 2.0 Veldewater 67","address":"Veldewater 67","city":"Nieuwerkerk aan den IJssel","operatorName":"EQUANS","maxPowerKw":11,"isMegawatt":false,"status":"AVAILABLE","source":"ndw"}},{"type":"Feature","geometry":{"type":"Point","coordinates":[4.569658,52.043181]},"properties":{"type":"charge","layer":"passenger","locationId":"NLLOC003738","name":"NLD, Hollevoeterlaan 42, 2751 DT Moerkapelle","address":"Hollevoeterlaan 42","city":"Moerkapelle","operatorName":"Allego","maxPowerKw":11,"isMegawatt":false,"status":"AVAILABLE","source":"ndw","priceKwh":0.511}},{"type":"Feature","geometry":{"type":"Point","coordinates":[4.582249,52.015915]},"properties":{"type":"charge","layer":"passenger","locationId":"NLLOC002401","name":"NLD, Multatulistraat 5, 2761 LA, Zevenhuizen","address":"Multatulistraat 5","city":"Zevenhuizen","operatorName":"Allego","maxPowerKw":11,"isMegawatt":false,"status":"AVAILABLE","source":"ndw","priceKwh":0.511}},{"type":"Feature","geometry":{"type":"Point","coordinates":[4.581655,52.006006]},"properties":{"type":"charge","layer":"passenger","locationId":"90798955","name":"EQUANS SGZH 2.0 Kratonlaan 130","address":"Kratonlaan 130","city":"ZEVENHUIZEN ZH","operatorName":"EQUANS","maxPowerKw":11,"isMegawatt":false,"status":"AVAILABLE","source":"ndw"}},{"type":"Feature","geometry":{"type":"Point","coordinates":[4.607303,51.954511]},"properties":{"type":"charge","layer":"passenger","locationId":"89568253","name":"EQUANS SGZH 2.0 89568253","address":"Colorado 103","city":"Nieuwerkerk aan den IJssel","operatorName":"EQUANS","maxPowerKw":11,"isMegawatt":false,"status":"CHARGING","source":"ndw"}},{"type":"Feature","geometry":{"type":"Point","coordinates":[4.576143,52.046712]},"properties":{"type":"charge","layer":"passenger","locationId":"90836161","name":"EQUANS SGZH 2.0 Prins Clausplantsoen 1","address":"Prins Clausplantsoen 1","city":"Moerkapelle","operatorName":"EQUANS","maxPowerKw":11,"isMegawatt":false,"status":"AVAILABLE","source":"ndw"}},{"type":"Feature","geometry":{"type":"Point","coordinates":[4.578683,52.012599]},"properties":{"type":"charge","layer":"passenger","locationId":"NLLOC002762","name":"NLD, Boslaan 42, 2761 VX Zevenhuizen","address":"Boslaan 42","city":"Zevenhuizen","operatorName":"Allego","maxPowerKw":11,"isMegawatt":false,"status":"AVAILABLE","source":"ndw","priceKwh":0.511}},{"type":"Feature","geometry":{"type":"Point","coordinates":[4.587625,52.007583]},"properties":{"type":"charge","layer":"passenger","locationId":"67dae1da03d4084ddf5c14db","name":"Vakgarage Boode Laadstation","address":"Nijverheidscentrum 4","city":"Zevenhuizen","operatorName":"E-Flux by Road","maxPowerKw":11,"isMegawatt":false,"status":"AVAILABLE","source":"ndw","priceKwh":0.51}},{"type":"Feature","geometry":{"type":"Point","coordinates":[4.594029,52.008329]},"properties":{"type":"charge","layer":"passenger","locationId":"90095178","name":"EQUANS SGZH 2.0 Ryckevelde 3","address":"Ryckevelde 3","city":"Zevenhuizen","operatorName":"EQUANS","maxPowerKw":11,"isMegawatt":false,"status":"AVAILABLE","source":"ndw"}},{"type":"Feature","geometry":{"type":"Point","coordinates":[4.588306,52.012243]},"properties":{"type":"charge","layer":"passenger","locationId":"90095173","name":"EQUANS SGZH 2.0 Leliestraat 50","address":"Leliestraat 50","city":"Zevenhuizen","operatorName":"EQUANS","maxPowerKw":11,"isMegawatt":false,"status":"AVAILABLE","source":"ndw"}},{"type":"Feature","geometry":{"type":"Point","coordinates":[4.608912,51.957723]},"properties":{"type":"charge","layer":"passenger","locationId":"NLLOC006897","name":"NL, Donau 151, 2911HB, Nieuwerkerk aan den IJssel","address":"Donau 151","city":"Nieuwerkerk aan den IJssel","operatorName":"Allego","maxPowerKw":11,"isMegawatt":false,"status":"AVAILABLE","source":"ndw","priceKwh":0.511}},{"type":"Feature","geometry":{"type":"Point","coordinates":[4.619055,51.976195]},"properties":{"type":"charge","layer":"passenger","locationId":"NLLOC003844","name":"NLD Kroonkruid 159, 2914 TL Nieuwe","address":"Kroonkruid 155","city":"Nieuwekerk aan den IJssel","operatorName":"Allego","maxPowerKw":11,"isMegawatt":false,"status":"AVAILABLE","source":"ndw","priceKwh":0.511}},{"type":"Feature","geometry":{"type":"Point","coordinates":[4.591776,52.005479]},"properties":{"type":"charge","layer":"passenger","locationId":"89914500","name":"EQUANS SGZH 2.0 89914500","address":"Honselaarsdijkstraat 25","city":"Zevenhuizen","operatorName":"EQUANS","maxPowerKw":11,"isMegawatt":false,"status":"AVAILABLE","source":"ndw"}},{"type":"Feature","geometry":{"type":"Point","coordinates":[4.613728,51.953569]},"properties":{"type":"charge","layer":"passenger","locationId":"NLLOC016582","name":"NL, Donge 153, 2911CV, Nieuwerkerk aan den IJssel","address":"Donge 153","city":"Nieuwerkerk aan den IJssel","operatorName":"Allego","maxPowerKw":11,"isMegawatt":false,"status":"AVAILABLE","source":"ndw","priceKwh":0.511}},{"type":"Feature","geometry":{"type":"Point","coordinates":[4.660967,51.983338]},"properties":{"type":"charge","layer":"passenger","locationId":"90850338","name":"EQUANS SGZH 2.0 Burgemeester Van Staverenstraat 14","address":"Burgemeester Van Staverenstraat 14","city":"Moordrecht","operatorName":"EQUANS","maxPowerKw":11,"isMegawatt":false,"status":"AVAILABLE","source":"ndw"}},{"type":"Feature","geometry":{"type":"Point","coordinates":[4.669223,51.99142]},"properties":{"type":"charge","layer":"passenger","locationId":"NLLOC005638","name":"NLD Land voor Water 47, 2841 NC Moordrecht","address":"Land voor Water 47","city":"Moordrecht","operatorName":"Allego","maxPowerKw":11,"isMegawatt":false,"status":"AVAILABLE","source":"ndw","priceKwh":0.511}},{"type":"Feature","geometry":{"type":"Point","coordinates":[4.57737,52.00875]},"properties":{"type":"charge","layer":"passenger","locationId":"91288150","name":"EQUANS SGZH 2.0 Hazeveld 40","address":"Hazeveld 40","city":"Zevenhuizen","operatorName":"EQUANS","maxPowerKw":11,"isMegawatt":false,"status":"AVAILABLE","source":"ndw"}},{"type":"Feature","geometry":{"type":"Point","coordinates":[4.612647,51.972534]},"properties":{"type":"charge","layer":"passenger","locationId":"90311495","name":"EQUANS SGZH 2.0 Bladmos 17","address":"Bladmos 17","city":"Nieuwerkerk aan den IJssel","operatorName":"EQUANS","maxPowerKw":11,"isMegawatt":false,"status":"AVAILABLE","source":"ndw"}},{"type":"Feature","geometry":{"type":"Point","coordinates":[4.5978,52.00785]},"properties":{"type":"charge","layer":"passenger","locationId":"91284793","name":"EQUANS SGZH 2.0 Christiansborg 2","address":"Christiansborg 2","city":"Zevenhuizen","operatorName":"EQUANS","maxPowerKw":11,"isMegawatt":false,"status":"AVAILABLE","source":"ndw"}},{"type":"Feature","geometry":{"type":"Point","coordinates":[4.66733,51.984029]},"properties":{"type":"charge","layer":"passenger","locationId":"91422007","name":"EQUANS SGZH 2.0 Prinses Beatrixstraat 16","address":"Prinses Beatrixstraat 16","city":"Moordrecht","operatorName":"EQUANS","maxPowerKw":11,"isMegawatt":false,"status":"AVAILABLE","source":"ndw"}},{"type":"Feature","geometry":{"type":"Point","coordinates":[4.622378,51.97218]},"properties":{"type":"charge","layer":"passenger","locationId":"89238523","name":"EQUANS SGZH 2.0 89238523","address":"Geraniumveld 28","city":"Nieuwerkerk aan den IJssel","operatorName":"EQUANS","maxPowerKw":17,"isMegawatt":false,"status":"AVAILABLE","source":"ndw"}},{"type":"Feature","geometry":{"type":"Point","coordinates":[4.615661,51.970973]},"properties":{"type":"charge","layer":"passenger","locationId":"89187775","name":"EQUANS SGZH 2.0 89187775","address":"Wulpendaal 20","city":"Nieuwerkerk aan den IJssel","operatorName":"EQUANS","maxPowerKw":17,"isMegawatt":false,"status":"AVAILABLE","source":"ndw"}},{"type":"Feature","geometry":{"type":"Point","coordinates":[4.606025,51.965694]},"properties":{"type":"charge","layer":"passenger","locationId":"NLLOC003626","name":"NLD Dorrestein 133, 2912 BC Nieuwerkerk aan den IJssel","address":"Dorrestein 133","city":"Nieuwerkerk aan den IJssel","operatorName":"Allego","maxPowerKw":11,"isMegawatt":false,"status":"CHARGING","source":"ndw","priceKwh":0.511}},{"type":"Feature","geometry":{"type":"Point","coordinates":[4.617513,51.976287]},"properties":{"type":"charge","layer":"passenger","locationId":"89307150","name":"EQUANS SGZH 2.0 89307150","address":"Penningkruid 37","city":"Nieuwerkerk aan den IJssel","operatorName":"EQUANS","maxPowerKw":11,"isMegawatt":false,"status":"AVAILABLE","source":"ndw"}},{"type":"Feature","geometry":{"type":"Point","coordinates":[4.666292,51.985382]},"properties":{"type":"charge","layer":"passenger","locationId":"89462829","name":"EQUANS SGZH 2.0 89462829","address":"Koningin Julianastraat 66","city":"Moordrecht","operatorName":"EQUANS","maxPowerKw":11,"isMegawatt":false,"status":"AVAILABLE","source":"ndw"}},{"type":"Feature","geometry":{"type":"Point","coordinates":[4.61538,51.962359]},"properties":{"type":"charge","layer":"passenger","locationId":"NLLOC018198","name":"NL, Wolga 52, 2911 RB Nieuwerkerk aan den IJssel","address":"Wolga 52","city":"Nieuwerkerk aan den IJssel","operatorName":"Allego","maxPowerKw":11,"isMegawatt":false,"status":"CHARGING","source":"ndw","priceKwh":0.511}},{"type":"Feature","geometry":{"type":"Point","coordinates":[4.66401,51.98639]},"properties":{"type":"charge","layer":"passenger","locationId":"91421962","name":"EQUANS SGZH 2.0 Troelstrastraat 22","address":"Troelstrastraat 22","city":"Moordrecht","operatorName":"EQUANS","maxPowerKw":11,"isMegawatt":false,"status":"AVAILABLE","source":"ndw"}},{"type":"Feature","geometry":{"type":"Point","coordinates":[4.609199,51.956274]},"properties":{"type":"charge","layer":"passenger","locationId":"89228303","name":"EQUANS SGZH 2.0 89228303","address":"Colorado 56","city":"Nieuwerkerk aan den IJssel","operatorName":"EQUANS","maxPowerKw":11,"isMegawatt":false,"status":"AVAILABLE","source":"ndw"}},{"type":"Feature","geometry":{"type":"Point","coordinates":[4.66273,51.98733]},"properties":{"type":"charge","layer":"passenger","locationId":"90850341","name":"EQUANS SGZH 2.0 Dominee Janzoniusstraat 6","address":"Dominee Janzoniusstraat 6","city":"Moordrecht","operatorName":"EQUANS","maxPowerKw":11,"isMegawatt":false,"status":"AVAILABLE","source":"ndw"}},{"type":"Feature","geometry":{"type":"Point","coordinates":[4.609422,51.955937]},"properties":{"type":"charge","layer":"passenger","locationId":"NLLOC009873","name":"NL, Colorado 26, 2911JA, Nieuwekerk aan den IJssel","address":"Colorado 26","city":"Nieuwekerk aan den IJssel","operatorName":"Allego","maxPowerKw":11,"isMegawatt":false,"status":"AVAILABLE","source":"ndw","priceKwh":0.511}},{"type":"Feature","geometry":{"type":"Point","coordinates":[4.593617,52.006347]},"properties":{"type":"charge","layer":"passenger","locationId":"89206554","name":"EQUANS SGZH 2.0 89206554","address":"Bronbeekpad 7","city":"Zevenhuizen","operatorName":"EQUANS","maxPowerKw":11,"isMegawatt":false,"status":"AVAILABLE","source":"ndw"}},{"type":"Feature","geometry":{"type":"Point","coordinates":[4.579378,52.009613]},"properties":{"type":"charge","layer":"passenger","locationId":"89618911","name":"EQUANS SGZH 2.0 89618911","address":"Akkerstraat 11","city":"Zevenhuizen","operatorName":"EQUANS","maxPowerKw":11,"isMegawatt":false,"status":"AVAILABLE","source":"ndw"}},{"type":"Feature","geometry":{"type":"Point","coordinates":[4.607524,51.957652]},"properties":{"type":"charge","layer":"passenger","locationId":"89889501","name":"EQUANS SGZH 2.0 89889501","address":"Colorado 102","city":"Nieuwerkerk aan den IJssel","operatorName":"EQUANS","maxPowerKw":11,"isMegawatt":false,"status":"AVAILABLE","source":"ndw"}},{"type":"Feature","geometry":{"type":"Point","coordinates":[4.616279,51.958895]},"properties":{"type":"charge","layer":"passenger","locationId":"NLLOC015697","name":"NL, Vecht 65, 2911EM, Nieuwekerk aan den IJssel","address":"Vecht 65","city":"Nieuwekerk aan den IJssel","operatorName":"Allego","maxPowerKw":11,"isMegawatt":false,"status":"AVAILABLE","source":"ndw","priceKwh":0.511}},{"type":"Feature","geometry":{"type":"Point","coordinates":[4.615442,51.961738]},"properties":{"type":"charge","layer":"passenger","locationId":"89462841","name":"EQUANS SGZH 2.0 89462841","address":"Wolga 17","city":"Nieuwerkerk aan den IJssel","operatorName":"EQUANS","maxPowerKw":11,"isMegawatt":false,"status":"AVAILABLE","source":"ndw"}},{"type":"Feature","geometry":{"type":"Point","coordinates":[4.582005,52.006282]},"properties":{"type":"charge","layer":"passenger","locationId":"NLLOC002764","name":"NLD, Kratonlaan 116, 2761 SH Zevenhuizen","address":"Kratonlaan 116","city":"Zevenhuizen","operatorName":"Allego","maxPowerKw":11,"isMegawatt":false,"status":"AVAILABLE","source":"ndw","priceKwh":0.511}},{"type":"Feature","geometry":{"type":"Point","coordinates":[4.613401,51.963772]},"properties":{"type":"charge","layer":"passenger","locationId":"89954583","name":"EQUANS SGZH 2.0 89954583","address":"Bosveen 28","city":"Nieuwerkerk aan den IJssel","operatorName":"EQUANS","maxPowerKw":11,"isMegawatt":false,"status":"AVAILABLE","source":"ndw"}},{"type":"Feature","geometry":{"type":"Point","coordinates":[4.591293,52.004043]},"properties":{"type":"charge","layer":"passenger","locationId":"NLLOC002359","name":"NLD, Koningsoever 19, 2761 HX, Zevenhuizen","address":"Koningsoever 17","city":"Zevenhuizen","operatorName":"Allego","maxPowerKw":11,"isMegawatt":false,"status":"AVAILABLE","source":"ndw","priceKwh":0.511}},{"type":"Feature","geometry":{"type":"Point","coordinates":[4.661488,51.988531]},"properties":{"type":"charge","layer":"passenger","locationId":"90310802","name":"EQUANS SGZH 2.0 Watermunt 1","address":"Watermunt 1","city":"Moordrecht","operatorName":"EQUANS","maxPowerKw":11,"isMegawatt":false,"status":"AVAILABLE","source":"ndw"}},{"type":"Feature","geometry":{"type":"Point","coordinates":[4.663769,51.987985]},"properties":{"type":"charge","layer":"passenger","locationId":"89601991","name":"EQUANS SGZH 2.0 89601991","address":"Adriana van Rijkestraat 12","city":"Moordrecht","operatorName":"EQUANS","maxPowerKw":11,"isMegawatt":false,"status":"AVAILABLE","source":"ndw"}},{"type":"Feature","geometry":{"type":"Point","coordinates":[4.59194,52.00133]},"properties":{"type":"charge","layer":"passenger","locationId":"90850295","name":"EQUANS SGZH 2.0 Koninginnenoever 23","address":"Koninginnenoever 23","city":"Zevenhuizen","operatorName":"EQUANS","maxPowerKw":11,"isMegawatt":false,"status":"AVAILABLE","source":"ndw"}},{"type":"Feature","geometry":{"type":"Point","coordinates":[4.607687,51.9648]},"properties":{"type":"charge","layer":"passenger","locationId":"89187786","name":"EQUANS SGZH 2.0 89187786","address":"Kerkepad 77","city":"Nieuwerkerk aan den IJssel","operatorName":"EQUANS","maxPowerKw":17,"isMegawatt":false,"status":"AVAILABLE","source":"ndw"}},{"type":"Feature","geometry":{"type":"Point","coordinates":[4.66833,51.98124]},"properties":{"type":"charge","layer":"passenger","locationId":"90953939","name":"EQUANS SGZH 2.0 Burgemeester Snelplein 7","address":"Burgemeester Snelplein 7","city":"Moordrecht","operatorName":"EQUANS","maxPowerKw":11,"isMegawatt":false,"status":"AVAILABLE","source":"ndw"}},{"type":"Feature","geometry":{"type":"Point","coordinates":[4.606949,51.958503]},"properties":{"type":"charge","layer":"passenger","locationId":"89254208","name":"EQUANS SGZH 2.0 89254208","address":"Litani 2","city":"Nieuwerkerk aan den IJssel","operatorName":"EQUANS","maxPowerKw":11,"isMegawatt":false,"status":"AVAILABLE","source":"ndw"}},{"type":"Feature","geometry":{"type":"Point","coordinates":[4.592263,52.01127]},"properties":{"type":"charge","layer":"passenger","locationId":"89618910","name":"EQUANS SGZH 2.0 89618910","address":"Kraagroos 12","city":"Zevenhuizen","operatorName":"EQUANS","maxPowerKw":11,"isMegawatt":false,"status":"AVAILABLE","source":"ndw"}},{"type":"Feature","geometry":{"type":"Point","coordinates":[4.619643,51.974848]},"properties":{"type":"charge","layer":"passenger","locationId":"90364887","name":"EQUANS SGZH 2.0 Kroonkruid 129","address":"Kroonkruid 129","city":"Nieuwerkerk aan den IJssel","operatorName":"EQUANS","maxPowerKw":11,"isMegawatt":false,"status":"AVAILABLE","source":"ndw"}},{"type":"Feature","geometry":{"type":"Point","coordinates":[4.62263,51.96909]},"properties":{"type":"charge","layer":"passenger","locationId":"91422383","name":"EQUANS SGZH 2.0 Kleinpolderlaan 149","address":"Kleinpolderlaan 149","city":"Nieuwerkerk aan den IJssel","operatorName":"EQUANS","maxPowerKw":11,"isMegawatt":false,"status":"AVAILABLE","source":"ndw"}},{"type":"Feature","geometry":{"type":"Point","coordinates":[4.585009,52.011725]},"properties":{"type":"charge","layer":"passenger","locationId":"90159900","name":"EQUANS SGZH 2.0 Rozenstraat 35 b","address":"Rozenstraat 35 b","city":"Zevenhuizen","operatorName":"EQUANS","maxPowerKw":11,"isMegawatt":false,"status":"CHARGING","source":"ndw"}},{"type":"Feature","geometry":{"type":"Point","coordinates":[4.595221,52.002611]},"properties":{"type":"charge","layer":"passenger","locationId":"89914497","name":"EQUANS SGZH 2.0 89914497","address":"'s-Gravenwal 25","city":"Zevenhuizen","operatorName":"EQUANS","maxPowerKw":11,"isMegawatt":false,"status":"AVAILABLE","source":"ndw"}},{"type":"Feature","geometry":{"type":"Point","coordinates":[4.62394,51.97403]},"properties":{"type":"charge","layer":"passenger","locationId":"91025049","name":"EQUANS SGZH 2.0 Ereprijsveld 36","address":"Ereprijsveld 36","city":"Nieuwerkerk aan den IJssel","operatorName":"EQUANS","maxPowerKw":11,"isMegawatt":false,"status":"AVAILABLE","source":"ndw"}},{"type":"Feature","geometry":{"type":"Point","coordinates":[4.582592,52.014479]},"properties":{"type":"charge","layer":"passenger","locationId":"89188799","name":"EQUANS SGZH 2.0 89188799","address":"Burgemeester Klinkhamerweg 84a","city":"Zevenhuizen","operatorName":"EQUANS","maxPowerKw":17,"isMegawatt":false,"status":"AVAILABLE","source":"ndw"}},{"type":"Feature","geometry":{"type":"Point","coordinates":[4.598113,52.007564]},"properties":{"type":"charge","layer":"passenger","locationId":"90836150","name":"EQUANS SGZH 2.0 Christiansborg 7","address":"Christiansborg 7","city":"Zevenhuizen","operatorName":"EQUANS","maxPowerKw":11,"isMegawatt":false,"status":"AVAILABLE","source":"ndw"}},{"type":"Feature","geometry":{"type":"Point","coordinates":[4.61915,51.96536]},"properties":{"type":"charge","layer":"passenger","locationId":"91366050","name":"EQUANS SGZH 2.0 Stationsdreef 30","address":"Stationsdreef 30","city":"Nieuwerkerk aan den IJssel","operatorName":"EQUANS","maxPowerKw":11,"isMegawatt":false,"status":"AVAILABLE","source":"ndw"}},{"type":"Feature","geometry":{"type":"Point","coordinates":[4.6601,51.99024]},"properties":{"type":"charge","layer":"passenger","locationId":"91372893","name":"EQUANS SGZH 2.0 Schuddebeurslaan 5","address":"Schuddebeurslaan 5","city":"Moordrecht","operatorName":"EQUANS","maxPowerKw":11,"isMegawatt":false,"status":"AVAILABLE","source":"ndw"}},{"type":"Feature","geometry":{"type":"Point","coordinates":[4.6164,51.96429]},"properties":{"type":"charge","layer":"passenger","locationId":"90850369","name":"EQUANS SGZH 2.0 Prinses Irenestraat 14","address":"Prinses Irenestraat 14","city":"Nieuwerkerk aan den IJssel","operatorName":"EQUANS","maxPowerKw":11,"isMegawatt":false,"status":"AVAILABLE","source":"ndw"}},{"type":"Feature","geometry":{"type":"Point","coordinates":[4.664528,51.992421]},"properties":{"type":"charge","layer":"passenger","locationId":"89216758","name":"EQUANS SGZH 2.0 89216758","address":"Zwanendreef 17","city":"Moordrecht","operatorName":"EQUANS","maxPowerKw":11,"isMegawatt":false,"status":"AVAILABLE","source":"ndw"}},{"type":"Feature","geometry":{"type":"Point","coordinates":[4.608386,51.968254]},"properties":{"type":"charge","layer":"passenger","locationId":"89455031","name":"EQUANS SGZH 2.0 89455031","address":"Prins Alexanderlaan 15","city":"Nieuwerkerk aan den IJssel","operatorName":"EQUANS","maxPowerKw":11,"isMegawatt":false,"status":"AVAILABLE","source":"ndw"}},{"type":"Feature","geometry":{"type":"Point","coordinates":[4.620137,51.969441]},"properties":{"type":"charge","layer":"passenger","locationId":"89880811","name":"EQUANS SGZH 2.0 89880811","address":"Sternendaal 1","city":"Nieuwerkerk aan den IJssel","operatorName":"EQUANS","maxPowerKw":11,"isMegawatt":false,"status":"AVAILABLE","source":"ndw"}},{"type":"Feature","geometry":{"type":"Point","coordinates":[4.600032,52.007037]},"properties":{"type":"charge","layer":"passenger","locationId":"89914505","name":"EQUANS SGZH 2.0 89914505","address":"Windsor 9","city":"Zevenhuizen","operatorName":"EQUANS","maxPowerKw":11,"isMegawatt":false,"status":"AVAILABLE","source":"ndw"}},{"type":"Feature","geometry":{"type":"Point","coordinates":[4.610332,51.957507]},"properties":{"type":"charge","layer":"passenger","locationId":"89954692","name":"EQUANS SGZH 2.0 89954692","address":"Burg Van Heugtenlaan 100","city":"Nieuwerkerk aan den IJssel","operatorName":"EQUANS","maxPowerKw":11,"isMegawatt":false,"status":"CHARGING","source":"ndw"}},{"type":"Feature","geometry":{"type":"Point","coordinates":[4.65641,51.98645]},"properties":{"type":"charge","layer":"passenger","locationId":"90883808","name":"EQUANS SGZH 2.0 Egelnest 1 t.h.v. Exaltolaan 38","address":"Egelnest 1","city":"Moordrecht","operatorName":"EQUANS","maxPowerKw":11,"isMegawatt":false,"status":"AVAILABLE","source":"ndw"}},{"type":"Feature","geometry":{"type":"Point","coordinates":[4.604108,51.966639]},"properties":{"type":"charge","layer":"passenger","locationId":"90020618","name":"EQUANS SGZH 2.0 Mr. P.D. Kleylaan 42","address":"Mr. P.D. Kleylaan 42","city":"Nieuwerkerk aan den IJssel","operatorName":"EQUANS","maxPowerKw":11,"isMegawatt":false,"status":"AVAILABLE","source":"ndw"}},{"type":"Feature","geometry":{"type":"Point","coordinates":[4.612976,51.953344]},"properties":{"type":"charge","layer":"passenger","locationId":"90346658","name":"EQUANS SGZH 2.0 Donge 123","address":"Donge 123","city":"Nieuwerkerk aan den IJssel","operatorName":"EQUANS","maxPowerKw":11,"isMegawatt":false,"status":"AVAILABLE","source":"ndw"}},{"type":"Feature","geometry":{"type":"Point","coordinates":[4.612259,51.954547]},"properties":{"type":"charge","layer":"passenger","locationId":"89195896","name":"EQUANS SGZH 2.0 89195896","address":"Dieze 31","city":"Nieuwerkerk aan den IJssel","operatorName":"EQUANS","maxPowerKw":11,"isMegawatt":false,"status":"AVAILABLE","source":"ndw"}},{"type":"Feature","geometry":{"type":"Point","coordinates":[4.621701,51.970529]},"properties":{"type":"charge","layer":"passenger","locationId":"89235322","name":"EQUANS SGZH 2.0 89235322","address":"Klaproosveld 1","city":"Nieuwerkerk aan den IJssel","operatorName":"EQUANS","maxPowerKw":17,"isMegawatt":false,"status":"AVAILABLE","source":"ndw"}},{"type":"Feature","geometry":{"type":"Point","coordinates":[4.617523,51.959033]},"properties":{"type":"charge","layer":"passenger","locationId":"89469876","name":"EQUANS SGZH 2.0 89469876","address":"Vecht 39","city":"Nieuwerkerk aan den IJssel","operatorName":"EQUANS","maxPowerKw":11,"isMegawatt":false,"status":"AVAILABLE","source":"ndw"}},{"type":"Feature","geometry":{"type":"Point","coordinates":[4.581646,52.013231]},"properties":{"type":"charge","layer":"passenger","locationId":"62a2fbed35d56b5a61e872ac","name":"Dorpsstraat Zevenhuizen","address":"Dorpsstraat  190","city":"Zevenhuizen","operatorName":"E-Flux by Road","maxPowerKw":43,"isMegawatt":false,"status":"AVAILABLE","source":"ndw","priceKwh":0.38}},{"type":"Feature","geometry":{"type":"Point","coordinates":[4.595635,52.006909]},"properties":{"type":"charge","layer":"passenger","locationId":"89914513","name":"EQUANS SGZH 2.0 89914513","address":"Koning Willem-Alexanderlaan 156","city":"Zevenhuizen","operatorName":"EQUANS","maxPowerKw":11,"isMegawatt":false,"status":"AVAILABLE","source":"ndw"}},{"type":"Feature","geometry":{"type":"Point","coordinates":[4.58875,51.966003]},"properties":{"type":"charge","layer":"freight","locationId":"31194","name":"Fastned De Vink","address":"De Vink A20","city":"Nieuwerkerk aan den IJssel","operatorName":"Fastned","maxPowerKw":400,"isMegawatt":false,"status":"AVAILABLE","source":"ndw","priceKwh":0.6364,"freightKind":"hpc","freightReason":"power"}},{"type":"Feature","geometry":{"type":"Point","coordinates":[4.61161,52.022237]},"properties":{"type":"charge","layer":"freight","locationId":"669a61ec943385001c078619","name":"Spektuin energie 24/6","address":"Bredeweg 110","city":"Zevenhuizen","operatorName":"E-Flux by Road","maxPowerKw":396,"isMegawatt":false,"status":"AVAILABLE","source":"ndw","priceKwh":0.57,"freightKind":"hpc","freightReason":"power"}},{"type":"Feature","geometry":{"type":"MultiPolygon","coordinates":[[[[4.624735023395661,52.01472240913735],[4.6368018317549335,52.011680293604726],[4.6484245826962365,52.01898692794414],[4.648812055355833,52.02057599233804],[4.6530516426095865,52.02134462872507],[4.655184143125113,52.02101635097414],[4.656842750724131,52.02205133838799],[4.6627996430190075,52.02398471370694],[4.663770550047711,52.02200804232407],[4.667371901787775,52.022646522651144],[4.6677671163051135,52.0214898566155],[4.667302654766304,52.01924562867169],[4.664716055612515,52.016485209578214],[4.664791461885964,52.01452434093266],[4.666605898923398,52.012971078636006],[4.670728276484175,52.011126855320875],[4.670096211353591,52.010550313682124],[4.667031397029467,52.010005925308704],[4.665658333044202,52.00918814515806],[4.659453881134015,52.00528810125545],[4.662809574273732,52.00324622553581],[4.669523514195975,52.00246529845416],[4.670716298484648,52.0023265173977],[4.674727142487972,51.99987195376818],[4.680228849943621,51.99654195638819],[4.681162157918537,51.996877060244124],[4.681761145990068,51.99710760231005],[4.684020681880235,51.99795806390894],[4.688683952636637,51.99625842027634],[4.68250839621279,51.99269531811012],[4.6769439921250875,51.98828612884271],[4.674288870142177,51.98701726019025],[4.671822561593307,51.98447259829328],[4.670679400404669,51.9804221011201],[4.667850471343452,51.97885076696108],[4.655922773448374,51.97655332207634],[4.649834618210846,51.97342905142766],[4.648577092632458,51.97300747087858],[4.632678126040662,51.970245408244615],[4.630838399112608,51.968189582467936],[4.632921045789862,51.96632009225238],[4.639773292510914,51.96217681786714],[4.64206047736548,51.95987057011875],[4.645708843561815,51.95610718085648],[4.6460056477394085,51.954181830910684],[4.639684378478545,51.9511297903812],[4.636127965370068,51.941343369782345],[4.634735083695258,51.93797553277967],[4.633350618820844,51.93693954087215],[4.630971093673433,51.93629056226131],[4.623776962502687,51.93619155594166],[4.6214638470379885,51.935249560773414],[4.619488886274293,51.93349203849048],[4.6189243256101165,51.9338948171118],[4.614246011101763,51.9372308267649],[4.610497246865031,51.93990879049209],[4.605905573988035,51.94323222497885],[4.6036992760550435,51.944807774082605],[4.599742576888979,51.94766608338022],[4.602068266512764,51.949475541462384],[4.599392331291625,51.95198415481583],[4.595332404456837,51.95579790777426],[4.595049359000462,51.9560370166808],[4.590188574346949,51.96014289046937],[4.588459883091934,51.9616026542683],[4.583992173733809,51.96536906246077],[4.590021656657495,51.96858107591623],[4.590690310842732,51.968231956220535],[4.601807909261606,51.97214023658767],[4.594181179408541,51.97544052622175],[4.5937402193525205,51.97608875701741],[4.593840357722549,51.976777483186154],[4.594428136635174,51.97711778545544],[4.59412785766547,51.97762961507302],[4.598772513822498,51.98796882820787],[4.5943669505181655,51.9942818111076],[4.578942380788462,51.98986088808611],[4.57973585175866,51.988836676142135],[4.578727157481878,51.98854876687337],[4.579686662434541,51.987267381948456],[4.577311741293358,51.98640505379424],[4.5789180551672235,51.981134395732134],[4.570229498425147,51.979030288162654],[4.5735290438492795,51.974576283131555],[4.574303524390901,51.97450963778551],[4.577446553050393,51.976249394949335],[4.577920817007344,51.97585459724562],[4.578524092499543,51.97618817786044],[4.578999444492454,51.975787360928244],[4.578543604525007,51.97553555883944],[4.574112004261246,51.973086681405604],[4.5743629675704325,51.97287636558222],[4.5719085942935775,51.971868926254785],[4.571378626489054,51.9719193282629],[4.570275338820312,51.97202424652379],[4.566935719669344,51.97118996632183],[4.565382040304271,51.97127584182231],[4.5633674150372565,51.97172808279989],[4.5628972172469675,51.971520927213575],[4.562413418868091,51.971926879132866],[4.56115163089867,51.971177660821375],[4.561544187371018,51.97085122904825],[4.5616515952336645,51.97076191211305],[4.5611043923835375,51.970525175656626],[4.561398598015221,51.97027537939913],[4.560547353478197,51.969622309417254],[4.556585670354029,51.968466191121514],[4.556401464684511,51.9688548177662],[4.554215052271037,51.96892084765164],[4.547685955789135,51.9728067908713],[4.551934376412003,51.974737566484215],[4.553760163789368,51.977041300249404],[4.5519914858832875,51.978869501946065],[4.5508853422594315,51.98187383020907],[4.548161800431014,51.983294460441996],[4.548417525331113,51.98495728960145],[4.547393185422582,51.988746463229525],[4.546909126026089,51.99022857221798],[4.546338787926787,51.991514386212415],[4.548387399086782,51.99255756314952],[4.547004915100421,51.99394311560801],[4.549893086010367,51.995746794983575],[4.553443969893972,52.00392418658147],[4.554874576967059,52.005948831899545],[4.557118847307958,52.01393663098213],[4.556776382286716,52.01840096503802],[4.558217392459452,52.02890868109488],[4.559346762720073,52.03140759226599],[4.5601397105517965,52.033190120103484],[4.5634566012269655,52.03577720643823],[4.563304213774565,52.03827724178137],[4.561059097276838,52.04206107182239],[4.565042517498243,52.0585695530937],[4.565924972301204,52.059226131277605],[4.607426663081791,52.06552672470203],[4.608073777345829,52.06544130321844],[4.608405462856495,52.0629444993096],[4.605528567839548,52.05043857910832],[4.60804629876168,52.04911679334825],[4.6109468599952415,52.04871112347811],[4.6108219834612365,52.04823374967818],[4.610223777346428,52.046267582863834],[4.606272155781199,52.04594936737689],[4.607333994182114,52.04531226830998],[4.5910888292957095,52.03508764388345],[4.59695171358043,52.03154665934522],[4.624735023395661,52.01472240913735]]]]},"properties":{"type":"boundary","gemeente":"Zuidplas","code":"GM1892"}}]}