{"type":"FeatureCollection","metadata":{"gemeente":"Zwijndrecht","slug":"zwijndrecht","code":"GM0642","generated_at":"2026-07-06T16:26:11.361Z","total_passenger":153,"total_freight":0,"bounds":[4.5536090950631545,51.80080394768958,4.6717086855794205,51.84711671777207],"operators":["Allego","E-Flux by Road","EQUANS","Eneco","Laadnet","Pluq","Vattenfall InCharge","bp pulse"]},"features":[{"type":"Feature","geometry":{"type":"Point","coordinates":[4.643713,51.817249]},"properties":{"type":"charge","layer":"passenger","locationId":"NLLOC002938","name":"NLD, Gemeente Zwijndrecht, Lindelaan 108 3331AR Zwijndrecht","address":"Lindelaan 108","city":"Zwijndrecht","operatorName":"Allego","maxPowerKw":11,"isMegawatt":false,"status":"AVAILABLE","source":"ndw","priceKwh":0.511}},{"type":"Feature","geometry":{"type":"Point","coordinates":[4.616464,51.815505]},"properties":{"type":"charge","layer":"passenger","locationId":"NLCCH00118","name":"Zwijndrecht - Meerkoetstraat 95","address":"Meerkoetstraat 95","city":"Zwijndrecht","operatorName":"","maxPowerKw":11,"isMegawatt":false,"status":"AVAILABLE","source":"ndw","priceKwh":0.5549}},{"type":"Feature","geometry":{"type":"Point","coordinates":[4.617956,51.812652]},"properties":{"type":"charge","layer":"passenger","locationId":"NLLOC006439","name":"NL, Patrijsstraat 2, 3334 AC, Zwijndrecht","address":"Patrijsstraat 2","city":"Zwijndrecht","operatorName":"Allego","maxPowerKw":11,"isMegawatt":false,"status":"AVAILABLE","source":"ndw","priceKwh":0.511}},{"type":"Feature","geometry":{"type":"Point","coordinates":[4.628639,51.806086]},"properties":{"type":"charge","layer":"passenger","locationId":"NLLOC001216","name":"NLD, Zwijndrecht, Gerrit Kogelerstraat 30","address":"Gerrit Kogelerstraat 30","city":"Zwijndrecht","operatorName":"Allego","maxPowerKw":11,"isMegawatt":false,"status":"CHARGING","source":"ndw","priceKwh":0.511}},{"type":"Feature","geometry":{"type":"Point","coordinates":[4.610515,51.819794]},"properties":{"type":"charge","layer":"passenger","locationId":"NLCCH00402","name":"Zwijndrecht - Meubelmaker 41","address":"Meubelmaker 41","city":"Zwijndrecht","operatorName":"","maxPowerKw":11,"isMegawatt":false,"status":"AVAILABLE","source":"ndw","priceKwh":0.5549}},{"type":"Feature","geometry":{"type":"Point","coordinates":[4.651522,51.820233]},"properties":{"type":"charge","layer":"passenger","locationId":"NLLOC001513","name":"NLD, Zwijndrecht, Rotterdamseweg 74","address":"Rotterdamseweg 74","city":"Zwijndrecht","operatorName":"Allego","maxPowerKw":22,"isMegawatt":false,"status":"AVAILABLE","source":"ndw","priceKwh":0.511}},{"type":"Feature","geometry":{"type":"Point","coordinates":[4.620142,51.814207]},"properties":{"type":"charge","layer":"passenger","locationId":"NLLOC002265","name":"NLD, Zwijndrecht, Roerdompstraat 24","address":"Roerdompstraat 24","city":"Zwijndrecht","operatorName":"Allego","maxPowerKw":11,"isMegawatt":false,"status":"AVAILABLE","source":"ndw","priceKwh":0.511}},{"type":"Feature","geometry":{"type":"Point","coordinates":[4.660157,51.827391]},"properties":{"type":"charge","layer":"passenger","locationId":"NLCCH00045","name":"Zwijndrecht - Schaepmanlaan 14","address":"Schaepmanlaan 14","city":"Zwijndrecht","operatorName":"","maxPowerKw":11,"isMegawatt":false,"status":"AVAILABLE","source":"ndw","priceKwh":0.5549}},{"type":"Feature","geometry":{"type":"Point","coordinates":[4.607726,51.816629]},"properties":{"type":"charge","layer":"passenger","locationId":"NLLOC006736","name":"NL, Laan van Nederhoven 92, 3334 BN, Zwijndrecht","address":"Laan van Nederhoven 92","city":"Zwijndrecht","operatorName":"Allego","maxPowerKw":11,"isMegawatt":false,"status":"AVAILABLE","source":"ndw","priceKwh":0.511}},{"type":"Feature","geometry":{"type":"Point","coordinates":[4.647773,51.821675]},"properties":{"type":"charge","layer":"passenger","locationId":"NLLOC008701","name":"NL, Rotterdamseweg 124, 3332 AL, Zwijndrecht","address":"Rotterdamseweg 124","city":"Zwijndrecht","operatorName":"Allego","maxPowerKw":11,"isMegawatt":false,"status":"AVAILABLE","source":"ndw","priceKwh":0.511}},{"type":"Feature","geometry":{"type":"Point","coordinates":[4.643651,51.817325]},"properties":{"type":"charge","layer":"passenger","locationId":"NLCCH00781","name":"Zwijndrecht - Burgemeester Doornplein 10","address":"Burgemeester Doornplein 10","city":"Zwijndrecht","operatorName":"","maxPowerKw":11,"isMegawatt":false,"status":"AVAILABLE","source":"ndw","priceKwh":0.5549}},{"type":"Feature","geometry":{"type":"Point","coordinates":[4.652824,51.818272]},"properties":{"type":"charge","layer":"passenger","locationId":"NLLOC003866","name":"NL, Prins Mauritsstraat 32, 3331 XV Zwijndrecht","address":"Prins Mauritsstraat 32","city":"Zwijndrecht","operatorName":"Allego","maxPowerKw":11,"isMegawatt":false,"status":"AVAILABLE","source":"ndw","priceKwh":0.511}},{"type":"Feature","geometry":{"type":"Point","coordinates":[4.567712,51.838224]},"properties":{"type":"charge","layer":"passenger","locationId":"NLCCH00039","name":"Zwijndrecht - De Brakel 12","address":"De Brakel 12","city":"Zwijndrecht","operatorName":"","maxPowerKw":11,"isMegawatt":false,"status":"AVAILABLE","source":"ndw","priceKwh":0.5549}},{"type":"Feature","geometry":{"type":"Point","coordinates":[4.657134,51.820492]},"properties":{"type":"charge","layer":"passenger","locationId":"NLLOC004721","name":"NLD, Slagveld 29, 3332 BN, Zwijndrecht","address":"Slagveld 29","city":"Zwijndrecht","operatorName":"Allego","maxPowerKw":11,"isMegawatt":false,"status":"CHARGING","source":"ndw","priceKwh":0.511}},{"type":"Feature","geometry":{"type":"Point","coordinates":[4.652515,51.816151]},"properties":{"type":"charge","layer":"passenger","locationId":"NLCCH00838","name":"Zwijndrecht - Rijstpellerij 12","address":"Rijstpellerij 12","city":"Zwijndrecht","operatorName":"","maxPowerKw":11,"isMegawatt":false,"status":"AVAILABLE","source":"ndw","priceKwh":0.5549}},{"type":"Feature","geometry":{"type":"Point","coordinates":[4.565481,51.837329]},"properties":{"type":"charge","layer":"passenger","locationId":"NLLOC007184","name":"NL, Vlasakkers 2, 2995 AV, Heerjansdam","address":"Vlasakkers 2","city":"Heerjansdam","operatorName":"Allego","maxPowerKw":11,"isMegawatt":false,"status":"CHARGING","source":"ndw","priceKwh":0.511}},{"type":"Feature","geometry":{"type":"Point","coordinates":[4.59843,51.811879]},"properties":{"type":"charge","layer":"passenger","locationId":"90994626","name":"EQUANS SGZH 2.0 Gildenweg 39","address":"Gildenweg 39","city":"Zwijndrecht","operatorName":"EQUANS","maxPowerKw":11,"isMegawatt":false,"status":"AVAILABLE","source":"ndw"}},{"type":"Feature","geometry":{"type":"Point","coordinates":[4.619409,51.830862]},"properties":{"type":"charge","layer":"passenger","locationId":"68b155b553fc114491cc76a8","name":"KWx Metercare","address":"Voltastraat 41","city":"Zwijndrecht","operatorName":"E-Flux by Road","maxPowerKw":11,"isMegawatt":false,"status":"AVAILABLE","source":"ndw","priceKwh":0.45}},{"type":"Feature","geometry":{"type":"Point","coordinates":[4.635092,51.810159]},"properties":{"type":"charge","layer":"passenger","locationId":"NLCCH00832","name":"Zwijndrecht - Kapitein Luidingaflat 85 ","address":"Kapitein Luidingaflat 85","city":"Zwijndrecht","operatorName":"","maxPowerKw":11,"isMegawatt":false,"status":"AVAILABLE","source":"ndw","priceKwh":0.5549}},{"type":"Feature","geometry":{"type":"Point","coordinates":[4.608495,51.822617]},"properties":{"type":"charge","layer":"passenger","locationId":"NLCCH00403","name":"Zwijndrecht - Trompetstraat 79","address":"Trompetstraat 79","city":"Zwijndrecht","operatorName":"","maxPowerKw":11,"isMegawatt":false,"status":"AVAILABLE","source":"ndw","priceKwh":0.5549}},{"type":"Feature","geometry":{"type":"Point","coordinates":[4.607772,51.813996]},"properties":{"type":"charge","layer":"passenger","locationId":"NLCCH00415","name":"Zwijndrecht - Sypestein 36","address":"Sypestein 36","city":"Zwijndrecht","operatorName":"","maxPowerKw":11,"isMegawatt":false,"status":"AVAILABLE","source":"ndw","priceKwh":0.5549}},{"type":"Feature","geometry":{"type":"Point","coordinates":[4.617009,51.822619]},"properties":{"type":"charge","layer":"passenger","locationId":"NLLOC006932","name":"NL, Händelstraat 89, 3335 WB, Zwijndrecht","address":"Händelstraat 89","city":"Zwijndrecht","operatorName":"Allego","maxPowerKw":11,"isMegawatt":false,"status":"AVAILABLE","source":"ndw","priceKwh":0.511}},{"type":"Feature","geometry":{"type":"Point","coordinates":[4.61414,51.829982]},"properties":{"type":"charge","layer":"passenger","locationId":"NLCCH00273","name":"Zwijndrecht - Middellijn 3 (1)","address":"Middellijn 3","city":"Zwijndrecht","operatorName":"","maxPowerKw":11,"isMegawatt":false,"status":"AVAILABLE","source":"ndw","priceKwh":0.5549}},{"type":"Feature","geometry":{"type":"Point","coordinates":[4.645472,51.820439]},"properties":{"type":"charge","layer":"passenger","locationId":"NLCCH00042","name":"Zwijndrecht  - Prinses Marijkestraat thv Koninginneweg 5","address":"Koninginneweg 5","city":"Zwijndrecht","operatorName":"","maxPowerKw":11,"isMegawatt":false,"status":"AVAILABLE","source":"ndw","priceKwh":0.5549}},{"type":"Feature","geometry":{"type":"Point","coordinates":[4.627986,51.811944]},"properties":{"type":"charge","layer":"passenger","locationId":"NLCCH00106","name":"Zwijndrecht - Kort Ambachtlaan 73","address":"Kort-Ambachtlaan 73","city":"Zwijndrecht","operatorName":"","maxPowerKw":11,"isMegawatt":false,"status":"AVAILABLE","source":"ndw","priceKwh":0.5549}},{"type":"Feature","geometry":{"type":"Point","coordinates":[4.660058,51.822485]},"properties":{"type":"charge","layer":"passenger","locationId":"NLCCH00104","name":"Zwijndrecht - Aalbersestraat thv Colijnweg 31","address":"Colijnweg 31","city":"Zwijndrecht","operatorName":"","maxPowerKw":11,"isMegawatt":false,"status":"CHARGING","source":"ndw","priceKwh":0.5549}},{"type":"Feature","geometry":{"type":"Point","coordinates":[4.646684,51.824289]},"properties":{"type":"charge","layer":"passenger","locationId":"NLLOC004348","name":"NLD, Pruylenborg 211 3332PG Zwijndrecht","address":"Pruylenborg 211","city":"Zwijndrecht","operatorName":"Allego","maxPowerKw":11,"isMegawatt":false,"status":"UNAVAILABLE","source":"ndw","priceKwh":0.511}},{"type":"Feature","geometry":{"type":"Point","coordinates":[4.636798,51.815834]},"properties":{"type":"charge","layer":"passenger","locationId":"696f35baf7fa88440507f65c","name":"Jordens Kunststoffen BV","address":"Antoni van Leeuwenhoekstraat 2","city":"Zwijndrecht","operatorName":"E-Flux by Road","maxPowerKw":11,"isMegawatt":false,"status":"AVAILABLE","source":"ndw","priceKwh":0.92}},{"type":"Feature","geometry":{"type":"Point","coordinates":[4.601483,51.820589]},"properties":{"type":"charge","layer":"passenger","locationId":"NLCCH00162","name":"Zwijndrecht – Ballade 48","address":"Ballade 48","city":"Zwijndrecht","operatorName":"","maxPowerKw":11,"isMegawatt":false,"status":"CHARGING","source":"ndw","priceKwh":0.5549}},{"type":"Feature","geometry":{"type":"Point","coordinates":[4.618953,51.81988]},"properties":{"type":"charge","layer":"passenger","locationId":"NLCCH00144","name":"Zwijndrecht - Wagenaarstraat 27","address":"Wagenaarstraat 27","city":"Zwijndrecht","operatorName":"","maxPowerKw":11,"isMegawatt":false,"status":"CHARGING","source":"ndw","priceKwh":0.5549}},{"type":"Feature","geometry":{"type":"Point","coordinates":[4.627311,51.81343]},"properties":{"type":"charge","layer":"passenger","locationId":"NLLOC007193","name":"NL, Dahliastraat 72, 3333 GJ, Zwijndrecht","address":"Dahliastraat 72","city":"Zwijndrecht","operatorName":"Allego","maxPowerKw":11,"isMegawatt":false,"status":"UNAVAILABLE","source":"ndw","priceKwh":0.511}},{"type":"Feature","geometry":{"type":"Point","coordinates":[4.634405,51.80988]},"properties":{"type":"charge","layer":"passenger","locationId":"90953927","name":"EQUANS SGZH 2.0 Kapitein Stamperiusflat 17","address":"Kapitein Stamperiusflat 17","city":"Zwijndrecht","operatorName":"EQUANS","maxPowerKw":11,"isMegawatt":false,"status":"AVAILABLE","source":"ndw"}},{"type":"Feature","geometry":{"type":"Point","coordinates":[4.658726,51.829752]},"properties":{"type":"charge","layer":"passenger","locationId":"NLLOC008269","name":"Johan de Wittlaan 40 3332HM Zwijndrecht","address":"Johan de Wittlaan 40","city":"Zwijndrecht","operatorName":"Allego","maxPowerKw":11,"isMegawatt":false,"status":"AVAILABLE","source":"ndw","priceKwh":0.511}},{"type":"Feature","geometry":{"type":"Point","coordinates":[4.660019,51.822495]},"properties":{"type":"charge","layer":"passenger","locationId":"NLLOC001042","name":"NLD, Zwijndrecht, Aalbersestraat 115","address":"Aalbersestraat 115","city":"Zwijndrecht","operatorName":"Allego","maxPowerKw":22,"isMegawatt":false,"status":"UNAVAILABLE","source":"ndw","priceKwh":0.511}},{"type":"Feature","geometry":{"type":"Point","coordinates":[4.62255,51.82766]},"properties":{"type":"charge","layer":"passenger","locationId":"54B8D3F0-AD36-4B6A-9E1F-D2819EBCBD4C","name":"Eneco eMobility KWS Zwijndrecht - Ohmstraat 2 - Zwijndrecht","address":"Ohmstraat 2","city":"Zwijndrecht","operatorName":"Eneco","maxPowerKw":50,"isMegawatt":false,"status":"AVAILABLE","source":"ndw","priceKwh":0.4}},{"type":"Feature","geometry":{"type":"Point","coordinates":[4.646457,51.819205]},"properties":{"type":"charge","layer":"passenger","locationId":"NLLOC004706","name":"NLD, Prins Bernhardstraat 54 3331BS Zwijndrecht","address":"Prins Bernhardstraat 54","city":"Zwijndrecht","operatorName":"Allego","maxPowerKw":11,"isMegawatt":false,"status":"AVAILABLE","source":"ndw","priceKwh":0.511}},{"type":"Feature","geometry":{"type":"Point","coordinates":[4.660797,51.823771]},"properties":{"type":"charge","layer":"passenger","locationId":"NLLOC007483","name":"NL, Colijnweg 55, 3332 CK, Zwijndrecht","address":"Colijnweg 55","city":"Zwijndrecht","operatorName":"Allego","maxPowerKw":11,"isMegawatt":false,"status":"AVAILABLE","source":"ndw","priceKwh":0.511}},{"type":"Feature","geometry":{"type":"Point","coordinates":[4.65068,51.827059]},"properties":{"type":"charge","layer":"passenger","locationId":"NLLOC013252","name":"NL, Sandelingen 1, 3332KM, Zwijndrecht","address":"Sandelingen 1","city":"Zwijndrecht","operatorName":"Allego","maxPowerKw":11,"isMegawatt":false,"status":"AVAILABLE","source":"ndw","priceKwh":0.511}},{"type":"Feature","geometry":{"type":"Point","coordinates":[4.619937,51.828365]},"properties":{"type":"charge","layer":"passenger","locationId":"69985336597d0c62209ad9be","name":"PPC Zwijndrecht","address":"Wattstraat  90","city":"Zwijndrecht","operatorName":"E-Flux by Road","maxPowerKw":22,"isMegawatt":false,"status":"AVAILABLE","source":"ndw","priceKwh":0.54}},{"type":"Feature","geometry":{"type":"Point","coordinates":[4.660041,51.821388]},"properties":{"type":"charge","layer":"passenger","locationId":"NLLOC012287","name":"NL, Aalbersestraat 85, 3332 CC, Zwijndrecht","address":"Aalbersestraat 85","city":"Zwijndrecht","operatorName":"Allego","maxPowerKw":11,"isMegawatt":false,"status":"CHARGING","source":"ndw","priceKwh":0.511}},{"type":"Feature","geometry":{"type":"Point","coordinates":[4.63471,51.82507]},"properties":{"type":"charge","layer":"passenger","locationId":"91421980","name":"EQUANS SGZH 2.0 Dr. Plesmanstraat 22","address":"Dr. Plesmanstraat 22","city":"Zwijndrecht","operatorName":"EQUANS","maxPowerKw":11,"isMegawatt":false,"status":"CHARGING","source":"ndw"}},{"type":"Feature","geometry":{"type":"Point","coordinates":[4.621039,51.812031]},"properties":{"type":"charge","layer":"passenger","locationId":"NLLOC007191","name":"NL, Reigerstraat 3, 3334 AD, Zwijndrecht","address":"Reigerstraat 3","city":"Zwijndrecht","operatorName":"Allego","maxPowerKw":11,"isMegawatt":false,"status":"AVAILABLE","source":"ndw","priceKwh":0.511}},{"type":"Feature","geometry":{"type":"Point","coordinates":[4.629494,51.82474]},"properties":{"type":"charge","layer":"passenger","locationId":"4233603","name":"Laadnet Zwijndrecht EV4","address":"Bootjessteeg 85","city":"Zwijndrecht","operatorName":"Laadnet","maxPowerKw":11,"isMegawatt":false,"status":"AVAILABLE","source":"ndw"}},{"type":"Feature","geometry":{"type":"Point","coordinates":[4.649232,51.81263]},"properties":{"type":"charge","layer":"passenger","locationId":"AD0E802B-92E5-4E3F-85E5-6EA962BC8103","name":"Eneco eMobility PTC Groep - Zwijndrecht","address":"Scheepmakerij 100","city":"Zwijndrecht","operatorName":"Eneco","maxPowerKw":22,"isMegawatt":false,"status":"UNAVAILABLE","source":"ndw","priceKwh":0.32}},{"type":"Feature","geometry":{"type":"Point","coordinates":[4.633309,51.809589]},"properties":{"type":"charge","layer":"passenger","locationId":"90924247","name":"EQUANS SGZH 2.0 Kapitein Rietbergenflat 17","address":"Kapitein Rietbergenflat 17","city":"Zwijndrecht","operatorName":"EQUANS","maxPowerKw":11,"isMegawatt":false,"status":"AVAILABLE","source":"ndw"}},{"type":"Feature","geometry":{"type":"Point","coordinates":[4.630305,51.824828]},"properties":{"type":"charge","layer":"passenger","locationId":"NLLOC005560","name":"NLD, Bootjessteeg 50 3331HB Zwijndrecht","address":"Bootjessteeg 50","city":"Zwijndrecht","operatorName":"Allego","maxPowerKw":11,"isMegawatt":false,"status":"AVAILABLE","source":"ndw","priceKwh":0.511}},{"type":"Feature","geometry":{"type":"Point","coordinates":[4.62535,51.81224]},"properties":{"type":"charge","layer":"passenger","locationId":"NLLOC001833","name":"NLD, Zwijndrecht, Hyacinthstraat 4","address":"Hyacinthstraat 4","city":"Zwijndrecht","operatorName":"Allego","maxPowerKw":11,"isMegawatt":false,"status":"CHARGING","source":"ndw","priceKwh":0.511}},{"type":"Feature","geometry":{"type":"Point","coordinates":[4.658561,51.82666]},"properties":{"type":"charge","layer":"passenger","locationId":"NLLOC002253","name":"NLD, Zwijndrecht, Thorbeckelaan 1","address":"Thorbeckelaan 1","city":"Zwijndrecht","operatorName":"Allego","maxPowerKw":22,"isMegawatt":false,"status":"AVAILABLE","source":"ndw","priceKwh":0.511}},{"type":"Feature","geometry":{"type":"Point","coordinates":[4.63586,51.815028]},"properties":{"type":"charge","layer":"passenger","locationId":"NLLOC020530","name":"NL, P. Zeemanstraat 47, 3331ER, Zwijndrecht","address":"P. Zeemanstraat 47","city":"Zwijndrecht","operatorName":"Allego","maxPowerKw":11,"isMegawatt":false,"status":"AVAILABLE","source":"ndw","priceKwh":0.511}},{"type":"Feature","geometry":{"type":"Point","coordinates":[4.649064,51.825881]},"properties":{"type":"charge","layer":"passenger","locationId":"NLLOC002181","name":"NLD, Zwijndrecht, Schildmansambacht 10","address":"Schildmansambacht 10","city":"Zwijndrecht","operatorName":"Allego","maxPowerKw":11,"isMegawatt":false,"status":"AVAILABLE","source":"ndw","priceKwh":0.511}},{"type":"Feature","geometry":{"type":"Point","coordinates":[4.631199,51.80819]},"properties":{"type":"charge","layer":"passenger","locationId":"90953925","name":"EQUANS SGZH 2.0 Frits Vogelstraat 66","address":"Frits Vogelstraat 66","city":"Zwijndrecht","operatorName":"EQUANS","maxPowerKw":11,"isMegawatt":false,"status":"AVAILABLE","source":"ndw"}},{"type":"Feature","geometry":{"type":"Point","coordinates":[4.605529,51.815924]},"properties":{"type":"charge","layer":"passenger","locationId":"69735702fd1a3c3ee5dd4040","name":"Familie Cok","address":"Teilingen 42","city":"Zwijndrecht","operatorName":"E-Flux by Road","maxPowerKw":11,"isMegawatt":false,"status":"AVAILABLE","source":"ndw","priceKwh":0.38}},{"type":"Feature","geometry":{"type":"Point","coordinates":[4.591578,51.811429]},"properties":{"type":"charge","layer":"passenger","locationId":"90891409","name":"EQUANS SGZH 2.0 Scheepmakersstraat 27","address":"Scheepmakersstraat 27","city":"Zwijndrecht","operatorName":"EQUANS","maxPowerKw":11,"isMegawatt":false,"status":"AVAILABLE","source":"ndw"}},{"type":"Feature","geometry":{"type":"Point","coordinates":[4.64772,51.82737]},"properties":{"type":"charge","layer":"passenger","locationId":"90974911","name":"EQUANS SGZH 2.0 Strevelshoek 1T","address":"Strevelshoek 1 T","city":"Zwijndrecht","operatorName":"EQUANS","maxPowerKw":11,"isMegawatt":false,"status":"AVAILABLE","source":"ndw"}},{"type":"Feature","geometry":{"type":"Point","coordinates":[4.615109,51.81515]},"properties":{"type":"charge","layer":"passenger","locationId":"NLLOC019594","name":"NL, Koolmeesstraat 5, 3334 TM Zwijndrecht","address":"Koolmeesstraat 5","city":"Zwijndrecht","operatorName":"Allego","maxPowerKw":11,"isMegawatt":false,"status":"UNAVAILABLE","source":"ndw","priceKwh":0.511}},{"type":"Feature","geometry":{"type":"Point","coordinates":[4.580867,51.810124]},"properties":{"type":"charge","layer":"passenger","locationId":"60c9d3c2a9e8571047b3585f","name":"Zwijndrecht","address":"Veerweg 10","city":"Zwijndrecht","operatorName":"E-Flux by Road","maxPowerKw":11,"isMegawatt":false,"status":"AVAILABLE","source":"ndw","priceKwh":0.32}},{"type":"Feature","geometry":{"type":"Point","coordinates":[4.606726,51.818727]},"properties":{"type":"charge","layer":"passenger","locationId":"NLLOC008549","name":"Beethovenlaan 123 3335BE Zwijndrecht","address":"Beethovenlaan 123","city":"Zwijndrecht","operatorName":"Allego","maxPowerKw":11,"isMegawatt":false,"status":"AVAILABLE","source":"ndw","priceKwh":0.511}},{"type":"Feature","geometry":{"type":"Point","coordinates":[4.63797,51.824349]},"properties":{"type":"charge","layer":"passenger","locationId":"NLLOC009689","name":"NL, Langeraarstraat 16, 3331gl, Zwijndrecht","address":"Langeraarstraat 16","city":"Zwijndrecht","operatorName":"Allego","maxPowerKw":11,"isMegawatt":false,"status":"AVAILABLE","source":"ndw","priceKwh":0.511}},{"type":"Feature","geometry":{"type":"Point","coordinates":[4.62744,51.823708]},"properties":{"type":"charge","layer":"passenger","locationId":"90994629","name":"EQUANS SGZH 2.0 Bootjessteeg 100","address":"Bootjessteeg 100","city":"Zwijndrecht","operatorName":"EQUANS","maxPowerKw":11,"isMegawatt":false,"status":"AVAILABLE","source":"ndw"}},{"type":"Feature","geometry":{"type":"Point","coordinates":[4.617539,51.811252]},"properties":{"type":"charge","layer":"passenger","locationId":"3968340","name":"Laadnet Amerweg 4-8","address":"Amerweg 4-8","city":"Zwijndrecht","operatorName":"Laadnet","maxPowerKw":22,"isMegawatt":false,"status":"AVAILABLE","source":"ndw"}},{"type":"Feature","geometry":{"type":"Point","coordinates":[4.610088,51.81895]},"properties":{"type":"charge","layer":"passenger","locationId":"NLLOC014347","name":"NL, Oudeland 86, 3335VH, Zwijndrecht","address":"Oudeland 86","city":"Zwijndrecht","operatorName":"Allego","maxPowerKw":11,"isMegawatt":false,"status":"AVAILABLE","source":"ndw","priceKwh":0.511}},{"type":"Feature","geometry":{"type":"Point","coordinates":[4.563128,51.833956]},"properties":{"type":"charge","layer":"passenger","locationId":"90938457","name":"EQUANS SGZH 2.0 Dorpsstraat 109 A","address":"Dorpsstraat 109 A","city":"Heerjansdam","operatorName":"EQUANS","maxPowerKw":11,"isMegawatt":false,"status":"AVAILABLE","source":"ndw"}},{"type":"Feature","geometry":{"type":"Point","coordinates":[4.62162,51.82181]},"properties":{"type":"charge","layer":"passenger","locationId":"91325990","name":"EQUANS SGZH 2.0 Molenvliet 1","address":"Molenvliet 1","city":"Zwijndrecht","operatorName":"EQUANS","maxPowerKw":11,"isMegawatt":false,"status":"AVAILABLE","source":"ndw"}},{"type":"Feature","geometry":{"type":"Point","coordinates":[4.593224,51.812514]},"properties":{"type":"charge","layer":"passenger","locationId":"NLLOC001806","name":"NLD, Zwijndrecht, Schrijnwerkersstraat 10","address":"Schrijnwerkersstraat 10","city":"Zwijndrecht","operatorName":"Allego","maxPowerKw":11,"isMegawatt":false,"status":"AVAILABLE","source":"ndw","priceKwh":0.511}},{"type":"Feature","geometry":{"type":"Point","coordinates":[4.603206,51.818653]},"properties":{"type":"charge","layer":"passenger","locationId":"91025050","name":"EQUANS SGZH 2.0 Suite 31","address":"Suite 31","city":"Zwijndrecht","operatorName":"EQUANS","maxPowerKw":11,"isMegawatt":false,"status":"AVAILABLE","source":"ndw"}},{"type":"Feature","geometry":{"type":"Point","coordinates":[4.639495,51.822554]},"properties":{"type":"charge","layer":"passenger","locationId":"NLLOC010128","name":"NL, Burgemeester Jansenlaan 133, 3331HG, Zwijndrecht","address":"Burgemeester Jansenlaan 133","city":"Zwijndrecht","operatorName":"Allego","maxPowerKw":11,"isMegawatt":false,"status":"AVAILABLE","source":"ndw","priceKwh":0.511}},{"type":"Feature","geometry":{"type":"Point","coordinates":[4.604819,51.822613]},"properties":{"type":"charge","layer":"passenger","locationId":"6a325ae6c76c83c770912b06","name":"Antoon Bosman 's station","address":"Abdij 28 28","city":"Zwijndrecht","operatorName":"E-Flux by Road","maxPowerKw":11,"isMegawatt":false,"status":"UNAVAILABLE","source":"ndw","priceKwh":0.18}},{"type":"Feature","geometry":{"type":"Point","coordinates":[4.627102,51.811463]},"properties":{"type":"charge","layer":"passenger","locationId":"4735247","name":"Laadnet Markado","address":"Leeuwenbekstraat 8","city":"Zwijndrecht","operatorName":"Laadnet","maxPowerKw":22,"isMegawatt":false,"status":"UNAVAILABLE","source":"ndw"}},{"type":"Feature","geometry":{"type":"Point","coordinates":[4.628308,51.811875]},"properties":{"type":"charge","layer":"passenger","locationId":"NLLOC011065","name":"NL, Kort-Ambachtlaan 79, 3333 EJ, Zwijndecht","address":"Kort-Ambachtlaan 79","city":"Zwijndrecht","operatorName":"Allego","maxPowerKw":11,"isMegawatt":false,"status":"CHARGING","source":"ndw","priceKwh":0.511}},{"type":"Feature","geometry":{"type":"Point","coordinates":[4.655103,51.820839]},"properties":{"type":"charge","layer":"passenger","locationId":"NLLOC015405","name":"NL, Gerbrandyplein, 1, 3332XA, Zwijndrecht","address":"Gerbrandyplein 1","city":"Zwijndrecht","operatorName":"Allego","maxPowerKw":11,"isMegawatt":false,"status":"AVAILABLE","source":"ndw","priceKwh":0.511}},{"type":"Feature","geometry":{"type":"Point","coordinates":[4.63866,51.810602]},"properties":{"type":"charge","layer":"passenger","locationId":"NLLOC014616","name":"NL, Celebeslaan 1, 3333AE, Zwijndrecht","address":"Celebeslaan 1","city":"Zwijndrecht","operatorName":"Allego","maxPowerKw":11,"isMegawatt":false,"status":"AVAILABLE","source":"ndw","priceKwh":0.511}},{"type":"Feature","geometry":{"type":"Point","coordinates":[4.60314,51.822715]},"properties":{"type":"charge","layer":"passenger","locationId":"9bb931a9-c257-40b1-99ec-23fb5223fa12","name":"bp pulse Munnikensteeg","address":"Munnikensteeg 26","city":"Zwijndrecht","operatorName":"bp pulse","maxPowerKw":150,"isMegawatt":false,"status":"AVAILABLE","source":"ndw","priceKwh":0.7}},{"type":"Feature","geometry":{"type":"Point","coordinates":[4.638449,51.81942]},"properties":{"type":"charge","layer":"passenger","locationId":"NLLOC007414","name":"NL, Laurensvliet 22, 3331 HW, Zwijndrecht","address":"Laurensvliet 22","city":"Zwijndrecht","operatorName":"Allego","maxPowerKw":11,"isMegawatt":false,"status":"AVAILABLE","source":"ndw","priceKwh":0.511}},{"type":"Feature","geometry":{"type":"Point","coordinates":[4.564259,51.83199]},"properties":{"type":"charge","layer":"passenger","locationId":"NLLOC001214","name":"NLD, Zwijndrecht, Veldbloemlaan 13","address":"Veldbloemlaan 13","city":"Zwijndrecht","operatorName":"Allego","maxPowerKw":11,"isMegawatt":false,"status":"AVAILABLE","source":"ndw","priceKwh":0.511}},{"type":"Feature","geometry":{"type":"Point","coordinates":[4.568543,51.837647]},"properties":{"type":"charge","layer":"passenger","locationId":"NLLOC001867","name":"NLD, Zwijndrecht, Grondzeiler 2","address":"Grondzeiler 2","city":"Zwijndrecht","operatorName":"Allego","maxPowerKw":11,"isMegawatt":false,"status":"AVAILABLE","source":"ndw","priceKwh":0.511}},{"type":"Feature","geometry":{"type":"Point","coordinates":[4.610697,51.819779]},"properties":{"type":"charge","layer":"passenger","locationId":"NLLOC004346","name":"NLD, Oudeland 120 3335VJ Zwijndrecht","address":"Oudeland 120","city":"Zwijndrecht","operatorName":"Allego","maxPowerKw":11,"isMegawatt":false,"status":"AVAILABLE","source":"ndw","priceKwh":0.511}},{"type":"Feature","geometry":{"type":"Point","coordinates":[4.656721,51.828175]},"properties":{"type":"charge","layer":"passenger","locationId":"NLLOC001050","name":"NLD, Zwijndrecht, Idenburgplein 1","address":"Idenburgplein 1","city":"Zwijndrecht","operatorName":"Allego","maxPowerKw":22,"isMegawatt":false,"status":"AVAILABLE","source":"ndw","priceKwh":0.511}},{"type":"Feature","geometry":{"type":"Point","coordinates":[4.645344,51.827619]},"properties":{"type":"charge","layer":"passenger","locationId":"NLLOC000085","name":"NLD, Hendrik Ido Ambacht, Hopklaver 3","address":"Hopklaver 3","city":"Hendrik Ido Ambacht","operatorName":"Allego","maxPowerKw":22,"isMegawatt":false,"status":"AVAILABLE","source":"ndw","priceKwh":0.511}},{"type":"Feature","geometry":{"type":"Point","coordinates":[4.609493,51.822675]},"properties":{"type":"charge","layer":"passenger","locationId":"NLLOC002178","name":"NLD, Zwijdrecht, Klarinetsingel 180","address":"Klarinetsingel 180","city":"Zwijndrecht","operatorName":"Allego","maxPowerKw":11,"isMegawatt":false,"status":"AVAILABLE","source":"ndw","priceKwh":0.511}},{"type":"Feature","geometry":{"type":"Point","coordinates":[4.620877,51.814308]},"properties":{"type":"charge","layer":"passenger","locationId":"NLCCH00825","name":"Zwijndrecht - Roerdompstraat 10","address":"Roerdompstraat 10","city":"Zwijndrecht","operatorName":"","maxPowerKw":11,"isMegawatt":false,"status":"AVAILABLE","source":"ndw","priceKwh":0.5549}},{"type":"Feature","geometry":{"type":"Point","coordinates":[4.603275,51.814824]},"properties":{"type":"charge","layer":"passenger","locationId":"NLLOC000772","name":"NLD, Zwijndrecht, Duivenvoorde 205","address":"Duivenvoorde 205","city":"Zwijndrecht","operatorName":"Allego","maxPowerKw":11,"isMegawatt":false,"status":"AVAILABLE","source":"ndw","priceKwh":0.511}},{"type":"Feature","geometry":{"type":"Point","coordinates":[4.626803,51.816872]},"properties":{"type":"charge","layer":"passenger","locationId":"66b9f2cd73a9de001d0b3491","name":"Stichting Christelijk Voortgezet Onderwijs Zwijndrechtse Waard","address":"Develsingel 5","city":"Zwijndrecht","operatorName":"Pluq","maxPowerKw":14,"isMegawatt":false,"status":"AVAILABLE","source":"ndw","priceKwh":0.4}},{"type":"Feature","geometry":{"type":"Point","coordinates":[4.630302,51.812788]},"properties":{"type":"charge","layer":"passenger","locationId":"NLLOC001035","name":"NL, Roosstraat 19, 3333SK, Zwijndrecht","address":"Roosstraat 19","city":"Zwijndrecht","operatorName":"Allego","maxPowerKw":11,"isMegawatt":false,"status":"AVAILABLE","source":"ndw","priceKwh":0.511}},{"type":"Feature","geometry":{"type":"Point","coordinates":[4.595994,51.8125]},"properties":{"type":"charge","layer":"passenger","locationId":"68524f4f179bab6e1460f3d3","name":"Familieparadijs BV links","address":"Fruiteniersstraat  27","city":"Zwijndrecht","operatorName":"E-Flux by Road","maxPowerKw":22,"isMegawatt":false,"status":"AVAILABLE","source":"ndw","priceKwh":0.48}},{"type":"Feature","geometry":{"type":"Point","coordinates":[4.61414,51.829982]},"properties":{"type":"charge","layer":"passenger","locationId":"NLCCH00248","name":"Zwijndrecht - Middellijn 3 (2)","address":"Middellijn 3","city":"Zwijndrecht","operatorName":"","maxPowerKw":11,"isMegawatt":false,"status":"AVAILABLE","source":"ndw","priceKwh":0.5549}},{"type":"Feature","geometry":{"type":"Point","coordinates":[4.558333,51.830792]},"properties":{"type":"charge","layer":"passenger","locationId":"4c81763a-c85c-4d72-ad10-c3521a3a2244","name":"Uilenvlietsehaven 1","address":"Uilenvlietsehaven 1","city":"Heerjansdam","operatorName":"Vattenfall InCharge","maxPowerKw":22,"isMegawatt":false,"status":"AVAILABLE","source":"ndw"}},{"type":"Feature","geometry":{"type":"Point","coordinates":[4.64649,51.814907]},"properties":{"type":"charge","layer":"passenger","locationId":"NLLOC004688","name":"NLD, Veilingdreef 2 3331RE Zwijndrecht","address":"Veilingdreef 2","city":"Zwijndrecht","operatorName":"Allego","maxPowerKw":11,"isMegawatt":false,"status":"AVAILABLE","source":"ndw","priceKwh":0.511}},{"type":"Feature","geometry":{"type":"Point","coordinates":[4.641477,51.824364]},"properties":{"type":"charge","layer":"passenger","locationId":"NLLOC017528","name":"NL, Swanendrift 48E, 3332RN, Zwijndrecht","address":"Swanendrift 48E","city":"Zwijndrecht","operatorName":"Allego","maxPowerKw":11,"isMegawatt":false,"status":"CHARGING","source":"ndw","priceKwh":0.511}},{"type":"Feature","geometry":{"type":"Point","coordinates":[4.601543,51.81345]},"properties":{"type":"charge","layer":"passenger","locationId":"NLLOC015575","name":"NL, Moermond 134, 3334CP, Zwijndrecht","address":"Moermond 134","city":"Zwijndrecht","operatorName":"Allego","maxPowerKw":11,"isMegawatt":false,"status":"AVAILABLE","source":"ndw","priceKwh":0.511}},{"type":"Feature","geometry":{"type":"Point","coordinates":[4.616683,51.819375]},"properties":{"type":"charge","layer":"passenger","locationId":"NLCCH00036","name":"Zwijndrecht - Valeriussingel 86 thv Diepenbrocklaan 52","address":"Valeriussingel 86","city":"Zwijndrecht","operatorName":"","maxPowerKw":11,"isMegawatt":false,"status":"AVAILABLE","source":"ndw","priceKwh":0.5549}},{"type":"Feature","geometry":{"type":"Point","coordinates":[4.594177,51.813729]},"properties":{"type":"charge","layer":"passenger","locationId":"NLLOC005482","name":"NLD, Willem Schippersweg 45 3334GN Zwijndrecht","address":"Willem Schippersweg 45","city":"Zwijndrecht","operatorName":"Allego","maxPowerKw":11,"isMegawatt":false,"status":"AVAILABLE","source":"ndw","priceKwh":0.511}},{"type":"Feature","geometry":{"type":"Point","coordinates":[4.632924,51.808727]},"properties":{"type":"charge","layer":"passenger","locationId":"NLLOC010857","name":"NL, Frits Vogelstraat 2, 3333 BC, Zwijndrecht","address":"Frits Vogelstraat 2","city":"Zwijndrecht","operatorName":"Allego","maxPowerKw":11,"isMegawatt":false,"status":"AVAILABLE","source":"ndw","priceKwh":0.511}},{"type":"Feature","geometry":{"type":"Point","coordinates":[4.563991,51.836028]},"properties":{"type":"charge","layer":"passenger","locationId":"NLLOC000986","name":"NL, Kromme Nering 8, 2995 BH, Heerjansdam","address":"Kromme Nering 8","city":"Heerjansdam","operatorName":"Allego","maxPowerKw":11,"isMegawatt":false,"status":"AVAILABLE","source":"ndw","priceKwh":0.511}},{"type":"Feature","geometry":{"type":"Point","coordinates":[4.63833,51.817413]},"properties":{"type":"charge","layer":"passenger","locationId":"NLCCH00158","name":"Zwijndrecht - Mesdagstraat 11","address":"Mesdagstraat 11","city":"Zwijndrecht","operatorName":"","maxPowerKw":11,"isMegawatt":false,"status":"CHARGING","source":"ndw","priceKwh":0.5549}},{"type":"Feature","geometry":{"type":"Point","coordinates":[4.611839,51.819578]},"properties":{"type":"charge","layer":"passenger","locationId":"91076512","name":"EQUANS SGZH 2.0 Wagenmaker 1","address":"Wagenmaker 1","city":"Zwijndrecht","operatorName":"EQUANS","maxPowerKw":11,"isMegawatt":false,"status":"CHARGING","source":"ndw"}},{"type":"Feature","geometry":{"type":"Point","coordinates":[4.60774,51.813916]},"properties":{"type":"charge","layer":"passenger","locationId":"NLLOC001517","name":"NLD, Zwijndrecht, Sypestein 30","address":"Sypestein 30","city":"Zwijndrecht","operatorName":"Allego","maxPowerKw":22,"isMegawatt":false,"status":"AVAILABLE","source":"ndw","priceKwh":0.511}},{"type":"Feature","geometry":{"type":"Point","coordinates":[4.567411,51.834719]},"properties":{"type":"charge","layer":"passenger","locationId":"NLLOC006649","name":"NL, Johannes Postlaan 33, 2995 VH, Heerjansdam","address":"Johannes Postlaan 33","city":"Heerjansdam","operatorName":"Allego","maxPowerKw":11,"isMegawatt":false,"status":"AVAILABLE","source":"ndw","priceKwh":0.511}},{"type":"Feature","geometry":{"type":"Point","coordinates":[4.616597,51.815443]},"properties":{"type":"charge","layer":"passenger","locationId":"NLLOC004027","name":"NLD, Meerkoetstraat 95 3334SV Zwijndrecht","address":"Meerkoetstraat 95","city":"Zwijndrecht","operatorName":"Allego","maxPowerKw":11,"isMegawatt":false,"status":"AVAILABLE","source":"ndw","priceKwh":0.511}},{"type":"Feature","geometry":{"type":"Point","coordinates":[4.655167,51.82581]},"properties":{"type":"charge","layer":"passenger","locationId":"NLLOC007089","name":"NL, Londenseplein 62, 3332 SK, Zwijndrecht","address":"Londenseplein 62","city":"Zwijndrecht","operatorName":"Allego","maxPowerKw":11,"isMegawatt":false,"status":"AVAILABLE","source":"ndw","priceKwh":0.511}},{"type":"Feature","geometry":{"type":"Point","coordinates":[4.59714,51.814167]},"properties":{"type":"charge","layer":"passenger","locationId":"NLCCH00491","name":"Zwijndrecht - Sparrendaal t.h.v. Hilverbeek 1","address":"Hilverbeek 1","city":"Zwijndrecht","operatorName":"","maxPowerKw":11,"isMegawatt":false,"status":"AVAILABLE","source":"ndw","priceKwh":0.5549}},{"type":"Feature","geometry":{"type":"Point","coordinates":[4.597399,51.814949]},"properties":{"type":"charge","layer":"passenger","locationId":"NLLOC005176","name":"NLD Hilverbeek 23 3334GH Zwijndrecht","address":"Hilverbeek 23","city":"Zwijndrecht","operatorName":"Allego","maxPowerKw":11,"isMegawatt":false,"status":"AVAILABLE","source":"ndw","priceKwh":0.511}},{"type":"Feature","geometry":{"type":"Point","coordinates":[4.625279,51.822799]},"properties":{"type":"charge","layer":"passenger","locationId":"NLLOC003290","name":"NLD, Heer Oudelandslaan 47, 3335 LB Zwijndrecht","address":"Oudelandslaan 47","city":"Zwijndrecht","operatorName":"Allego","maxPowerKw":11,"isMegawatt":false,"status":"AVAILABLE","source":"ndw","priceKwh":0.511}},{"type":"Feature","geometry":{"type":"Point","coordinates":[4.599373,51.811463]},"properties":{"type":"charge","layer":"passenger","locationId":"675fd08ef5392868248418ef","name":"Laminex station 4","address":"Zoutverkopersstraat  18","city":"Zwijndrecht","operatorName":"E-Flux by Road","maxPowerKw":7,"isMegawatt":false,"status":"AVAILABLE","source":"ndw","priceKwh":0.42}},{"type":"Feature","geometry":{"type":"Point","coordinates":[4.641595,51.813811]},"properties":{"type":"charge","layer":"passenger","locationId":"NLCCH00070","name":"Zwijndrecht - Tollensstraat 5","address":"Tollensstraat 5","city":"Zwijndrecht","operatorName":"","maxPowerKw":11,"isMegawatt":false,"status":"AVAILABLE","source":"ndw","priceKwh":0.5549}},{"type":"Feature","geometry":{"type":"Point","coordinates":[4.65578,51.82377]},"properties":{"type":"charge","layer":"passenger","locationId":"90924246","name":"EQUANS SGZH 2.0 Vlaamsestraat 99","address":"Vlaamsestraat 99","city":"Zwijndrecht","operatorName":"EQUANS","maxPowerKw":11,"isMegawatt":false,"status":"AVAILABLE","source":"ndw"}},{"type":"Feature","geometry":{"type":"Point","coordinates":[4.635043,51.810184]},"properties":{"type":"charge","layer":"passenger","locationId":"NLLOC001215","name":"NLD, Zwijndrecht, Kapitein Luidingaflat 85","address":"Kapitein Luidingaflat 85","city":"Zwijndrecht","operatorName":"Allego","maxPowerKw":11,"isMegawatt":false,"status":"AVAILABLE","source":"ndw","priceKwh":0.511}},{"type":"Feature","geometry":{"type":"Point","coordinates":[4.600305,51.815573]},"properties":{"type":"charge","layer":"passenger","locationId":"NLCCH00103","name":"Zwijndrecht - Toutenburg 11","address":"Toutenburg 11","city":"Zwijndrecht","operatorName":"","maxPowerKw":11,"isMegawatt":false,"status":"AVAILABLE","source":"ndw","priceKwh":0.5549}},{"type":"Feature","geometry":{"type":"Point","coordinates":[4.658347,51.822189]},"properties":{"type":"charge","layer":"passenger","locationId":"NLCCH00128","name":"Zwijndrecht - W.H. Vliegenstraat 170","address":"W.H. Vliegenstraat 170","city":"Zwijndrecht","operatorName":"","maxPowerKw":11,"isMegawatt":false,"status":"CHARGING","source":"ndw","priceKwh":0.5549}},{"type":"Feature","geometry":{"type":"Point","coordinates":[4.655074,51.81949]},"properties":{"type":"charge","layer":"passenger","locationId":"NLCCH00151","name":"Zwijndrecht - Keetmeesterstraat 1","address":"Keetmeesterstraat 1","city":"Zwijndrecht","operatorName":"","maxPowerKw":11,"isMegawatt":false,"status":"AVAILABLE","source":"ndw","priceKwh":0.5549}},{"type":"Feature","geometry":{"type":"Point","coordinates":[4.643043,51.815751]},"properties":{"type":"charge","layer":"passenger","locationId":"3778591","name":"Laadnet RiLe","address":"Stationsweg 43","city":"Zwijndrecht","operatorName":"Laadnet","maxPowerKw":7,"isMegawatt":false,"status":"AVAILABLE","source":"ndw"}},{"type":"Feature","geometry":{"type":"Point","coordinates":[4.597212,51.810449]},"properties":{"type":"charge","layer":"passenger","locationId":"NLLOC012331","name":"NL, Scheepmakersstraat 2, 3334 KG Zwijndrecht","address":"Scheepmakersstraat 2","city":"Zwijndrecht","operatorName":"Allego","maxPowerKw":11,"isMegawatt":false,"status":"AVAILABLE","source":"ndw","priceKwh":0.511}},{"type":"Feature","geometry":{"type":"Point","coordinates":[4.561235,51.832784]},"properties":{"type":"charge","layer":"passenger","locationId":"NLCCH00163","name":"Zwijndrecht - Heerjansdam -  Moerbeidreef 24","address":"Moerbeidreef 24","city":"Zwijndrecht","operatorName":"","maxPowerKw":11,"isMegawatt":false,"status":"AVAILABLE","source":"ndw","priceKwh":0.5549}},{"type":"Feature","geometry":{"type":"Point","coordinates":[4.655711,51.817587]},"properties":{"type":"charge","layer":"passenger","locationId":"NLLOC023718","name":"NL, Werf 2, 3331LP Zwijndrecht","address":"Werf 2","city":"Zwijndrecht","operatorName":"Allego","maxPowerKw":11,"isMegawatt":false,"status":"AVAILABLE","source":"ndw","priceKwh":0.511}},{"type":"Feature","geometry":{"type":"Point","coordinates":[4.646645,51.823349]},"properties":{"type":"charge","layer":"passenger","locationId":"NLLOC004018","name":"NLD, Swanendrift 6 3332RN Zwijndrecht","address":"Swanendrift 6","city":"Zwijndrecht","operatorName":"Allego","maxPowerKw":11,"isMegawatt":false,"status":"AVAILABLE","source":"ndw","priceKwh":0.511}},{"type":"Feature","geometry":{"type":"Point","coordinates":[4.614383,51.821343]},"properties":{"type":"charge","layer":"passenger","locationId":"NLLOC001542","name":"NLD, Zwijndrecht, Griegstraat 2","address":"Griegstraat 2","city":"Zwijndrecht","operatorName":"Allego","maxPowerKw":11,"isMegawatt":false,"status":"AVAILABLE","source":"ndw","priceKwh":0.511}},{"type":"Feature","geometry":{"type":"Point","coordinates":[4.613206,51.819761]},"properties":{"type":"charge","layer":"passenger","locationId":"90994631","name":"EQUANS SGZH 2.0 Mahlerstraat 12","address":"Mahlerstraat 12","city":"Zwijndrecht","operatorName":"EQUANS","maxPowerKw":11,"isMegawatt":false,"status":"AVAILABLE","source":"ndw"}},{"type":"Feature","geometry":{"type":"Point","coordinates":[4.618263,51.818443]},"properties":{"type":"charge","layer":"passenger","locationId":"NLLOC002581","name":"NLD, Diepenbrocklaan 17, 3335 AA, Zwijndrecht","address":"Diepenbrocklaan 17","city":"Zwijndrecht","operatorName":"Allego","maxPowerKw":11,"isMegawatt":false,"status":"AVAILABLE","source":"ndw","priceKwh":0.511}},{"type":"Feature","geometry":{"type":"Point","coordinates":[4.622952,51.813596]},"properties":{"type":"charge","layer":"passenger","locationId":"NLLOC007410","name":"NL, Anjerstraat 79, 3333 GC, Zwijndrecht","address":"Anjerstraat 79","city":"Zwijndrecht","operatorName":"Allego","maxPowerKw":11,"isMegawatt":false,"status":"AVAILABLE","source":"ndw","priceKwh":0.511}},{"type":"Feature","geometry":{"type":"Point","coordinates":[4.638524,51.808324]},"properties":{"type":"charge","layer":"passenger","locationId":"NLLOC007075","name":"NL, van Eedenstraat 79, 3333VM, Zwijndrecht","address":"van Eedenstraat 79","city":"Zwijndrecht","operatorName":"Allego","maxPowerKw":11,"isMegawatt":false,"status":"AVAILABLE","source":"ndw","priceKwh":0.511}},{"type":"Feature","geometry":{"type":"Point","coordinates":[4.64824,51.81395]},"properties":{"type":"charge","layer":"passenger","locationId":"91391316","name":"EQUANS SGZH 2.0 Jollensteiger 2","address":"Jollensteiger 2","city":"Zwijndrecht","operatorName":"EQUANS","maxPowerKw":11,"isMegawatt":false,"status":"AVAILABLE","source":"ndw"}},{"type":"Feature","geometry":{"type":"Point","coordinates":[4.645711,51.825989]},"properties":{"type":"charge","layer":"passenger","locationId":"NLLOC006539","name":"NL, Volgerland 12, 3332 KS, Zwijndrecht","address":"Volgerland 12","city":"Zwijndrecht","operatorName":"Allego","maxPowerKw":11,"isMegawatt":false,"status":"AVAILABLE","source":"ndw","priceKwh":0.511}},{"type":"Feature","geometry":{"type":"Point","coordinates":[4.603077,51.821501]},"properties":{"type":"charge","layer":"passenger","locationId":"NLLOC006861","name":"NL, Ballade 15, 3335 EK, Zwijndrecht","address":"Ballade 15","city":"Zwijndrecht","operatorName":"Allego","maxPowerKw":11,"isMegawatt":false,"status":"AVAILABLE","source":"ndw","priceKwh":0.511}},{"type":"Feature","geometry":{"type":"Point","coordinates":[4.601567,51.819315]},"properties":{"type":"charge","layer":"passenger","locationId":"NLLOC021719","name":"NL, Bolero 17A, 3335 EC Zwijndrecht","address":"Bolero 17","city":"Zwijndrecht","operatorName":"Allego","maxPowerKw":11,"isMegawatt":false,"status":"AVAILABLE","source":"ndw","priceKwh":0.511}},{"type":"Feature","geometry":{"type":"Point","coordinates":[4.652414,51.824445]},"properties":{"type":"charge","layer":"passenger","locationId":"91146278","name":"EQUANS SGZH 2.0 Henegouwen 41","address":"Henegouwen 41","city":"Zwijndrecht","operatorName":"EQUANS","maxPowerKw":11,"isMegawatt":false,"status":"AVAILABLE","source":"ndw"}},{"type":"Feature","geometry":{"type":"Point","coordinates":[4.631867,51.806508]},"properties":{"type":"charge","layer":"passenger","locationId":"90994627","name":"EQUANS SGZH 2.0 Lindtsestraat 16","address":"Lindtsestraat 16","city":"Zwijndrecht","operatorName":"EQUANS","maxPowerKw":11,"isMegawatt":false,"status":"AVAILABLE","source":"ndw"}},{"type":"Feature","geometry":{"type":"Point","coordinates":[4.636894,51.819669]},"properties":{"type":"charge","layer":"passenger","locationId":"NLCCH00157","name":"Zwijndrecht - Pegasusstraat 2","address":"Pegasusstraat 2","city":"Zwijndrecht","operatorName":"","maxPowerKw":11,"isMegawatt":false,"status":"AVAILABLE","source":"ndw","priceKwh":0.5549}},{"type":"Feature","geometry":{"type":"Point","coordinates":[4.63314,51.81386]},"properties":{"type":"charge","layer":"passenger","locationId":"91491982","name":"EQUANS SGZH 2.0 De Lus 67","address":"De Lus 67","city":"Zwijndrecht","operatorName":"EQUANS","maxPowerKw":11,"isMegawatt":false,"status":"AVAILABLE","source":"ndw"}},{"type":"Feature","geometry":{"type":"Point","coordinates":[4.607935,51.821536]},"properties":{"type":"charge","layer":"passenger","locationId":"NLLOC023814","name":"NL, Trompetstraat 64, 3335 DH Zwijndrecht","address":"Trompetstraat 64","city":"Zwijndrecht","operatorName":"Allego","maxPowerKw":11,"isMegawatt":false,"status":"AVAILABLE","source":"ndw","priceKwh":0.511}},{"type":"Feature","geometry":{"type":"Point","coordinates":[4.61961,51.821269]},"properties":{"type":"charge","layer":"passenger","locationId":"NLCCH00148","name":"Zwijndrecht - Bachstraat 32","address":"Bachstraat 32","city":"Zwijndrecht","operatorName":"","maxPowerKw":11,"isMegawatt":false,"status":"AVAILABLE","source":"ndw","priceKwh":0.5549}},{"type":"Feature","geometry":{"type":"Point","coordinates":[4.6127,51.813]},"properties":{"type":"charge","layer":"passenger","locationId":"90892581","name":"EQUANS SGZH 2.0 Fazantplein 38","address":"Fazantplein 38","city":"Zwijndrecht","operatorName":"EQUANS","maxPowerKw":11,"isMegawatt":false,"status":"AVAILABLE","source":"ndw"}},{"type":"Feature","geometry":{"type":"Point","coordinates":[4.599373,51.811463]},"properties":{"type":"charge","layer":"passenger","locationId":"675fd1e46cbb262680cac886","name":"Laminex station 2","address":"Zoutverkopersstraat  18","city":"Zwijndrecht","operatorName":"E-Flux by Road","maxPowerKw":7,"isMegawatt":false,"status":"AVAILABLE","source":"ndw","priceKwh":0.42}},{"type":"Feature","geometry":{"type":"Point","coordinates":[4.633674,51.807705]},"properties":{"type":"charge","layer":"passenger","locationId":"NLCCH00421","name":"Zwijndrecht - Walraven van Hallstraat 1","address":"Walraven van Hallstraat 1","city":"Zwijndrecht","operatorName":"","maxPowerKw":11,"isMegawatt":false,"status":"AVAILABLE","source":"ndw","priceKwh":0.5549}},{"type":"Feature","geometry":{"type":"Point","coordinates":[4.65828,51.81997]},"properties":{"type":"charge","layer":"passenger","locationId":"90984770","name":"EQUANS SGZH 2.0 Jan van der Heydenstraat 1","address":"Jan van der Heydenstraat 1","city":"Zwijndrecht","operatorName":"EQUANS","maxPowerKw":11,"isMegawatt":false,"status":"CHARGING","source":"ndw"}},{"type":"Feature","geometry":{"type":"Point","coordinates":[4.561248,51.834355]},"properties":{"type":"charge","layer":"passenger","locationId":"NLCCH00143","name":"Zwijndrecht – Heerjansdam – Appelgaard 2","address":"Appelgaard 2","city":"Zwijndrecht","operatorName":"","maxPowerKw":11,"isMegawatt":false,"status":"AVAILABLE","source":"ndw","priceKwh":0.5549}},{"type":"Feature","geometry":{"type":"Point","coordinates":[4.63951,51.81077]},"properties":{"type":"charge","layer":"passenger","locationId":"90994593","name":"EQUANS SGZH 2.0 Bilderdijkstraat 52 T.O.","address":"Bilderdijkstraat 52 T.O.","city":"Zwijndrecht","operatorName":"EQUANS","maxPowerKw":11,"isMegawatt":false,"status":"AVAILABLE","source":"ndw"}},{"type":"Feature","geometry":{"type":"Point","coordinates":[4.632679,51.81597]},"properties":{"type":"charge","layer":"passenger","locationId":"NLCCH00041","name":"Zwijndrecht - H.A. Lorentzstraat 4","address":"H.A. Lorentzstraat 4","city":"Zwijndrecht","operatorName":"","maxPowerKw":11,"isMegawatt":false,"status":"AVAILABLE","source":"ndw","priceKwh":0.5549}},{"type":"Feature","geometry":{"type":"Point","coordinates":[4.596312,51.814341]},"properties":{"type":"charge","layer":"passenger","locationId":"NLCCH00145","name":"Zwijndrecht - Willem Schippersweg 2","address":"Willem Schippersweg 2","city":"Zwijndrecht","operatorName":"","maxPowerKw":11,"isMegawatt":false,"status":"AVAILABLE","source":"ndw","priceKwh":0.5549}},{"type":"Feature","geometry":{"type":"Point","coordinates":[4.609514,51.814239]},"properties":{"type":"charge","layer":"passenger","locationId":"NLCCH00462","name":"Zwijndrecht - Moermond 2","address":"Moermond 2","city":"Zwijndrecht","operatorName":"","maxPowerKw":11,"isMegawatt":false,"status":"AVAILABLE","source":"ndw","priceKwh":0.5549}},{"type":"Feature","geometry":{"type":"Point","coordinates":[4.625332,51.812236]},"properties":{"type":"charge","layer":"passenger","locationId":"NLCCH00476","name":"Zwijndrecht - Hyacinthstraat 4","address":"Hyacinthstraat 4","city":"Zwijndrecht","operatorName":"","maxPowerKw":11,"isMegawatt":false,"status":"AVAILABLE","source":"ndw","priceKwh":0.5549}},{"type":"Feature","geometry":{"type":"Point","coordinates":[4.6522,51.82166]},"properties":{"type":"charge","layer":"passenger","locationId":"91298741","name":"EQUANS SGZH 2.0 ''t Anker 54","address":"''t Anker 54","city":"Zwijndrecht","operatorName":"EQUANS","maxPowerKw":11,"isMegawatt":false,"status":"AVAILABLE","source":"ndw"}},{"type":"Feature","geometry":{"type":"Point","coordinates":[4.646415,51.814915]},"properties":{"type":"charge","layer":"passenger","locationId":"NLCCH00114","name":"Zwijndrecht - Veilingdreef 2","address":"Veilingdreef 2","city":"Zwijndrecht","operatorName":"","maxPowerKw":11,"isMegawatt":false,"status":"AVAILABLE","source":"ndw","priceKwh":0.5549}},{"type":"Feature","geometry":{"type":"Point","coordinates":[4.618377,51.81841]},"properties":{"type":"charge","layer":"passenger","locationId":"NLCCH00164","name":"Zwijndrecht - Von Weberplantsoen thv Diepenbrocklaan 15","address":"Diepenbrocklaan 15","city":"Zwijndrecht","operatorName":"","maxPowerKw":11,"isMegawatt":false,"status":"AVAILABLE","source":"ndw","priceKwh":0.5549}},{"type":"Feature","geometry":{"type":"Point","coordinates":[4.568789,51.836283]},"properties":{"type":"charge","layer":"passenger","locationId":"NLCCH00130","name":"Zwijndrecht - Heerjansdam - Johannes Postlaan 38","address":"Johannes Postlaan 38","city":"Zwijndrecht","operatorName":"","maxPowerKw":11,"isMegawatt":false,"status":"AVAILABLE","source":"ndw","priceKwh":0.5549}},{"type":"Feature","geometry":{"type":"Point","coordinates":[4.594545,51.814086]},"properties":{"type":"charge","layer":"passenger","locationId":"NLCCH00132","name":"Zwijndrecht - Willem Schippersweg 39","address":"Willem Schippersweg 39","city":"Zwijndrecht","operatorName":"","maxPowerKw":11,"isMegawatt":false,"status":"AVAILABLE","source":"ndw","priceKwh":0.5549}},{"type":"Feature","geometry":{"type":"Point","coordinates":[4.611561,51.818709]},"properties":{"type":"charge","layer":"passenger","locationId":"NLCCH00153","name":"Zwijndrecht - Meubelmaker 5","address":"Meubelmaker 5","city":"Zwijndrecht","operatorName":"","maxPowerKw":11,"isMegawatt":false,"status":"AVAILABLE","source":"ndw","priceKwh":0.5549}},{"type":"Feature","geometry":{"type":"Point","coordinates":[4.649986,51.823291]},"properties":{"type":"charge","layer":"passenger","locationId":"NLCCH00159","name":"Zwijndrecht - Wadden 1P  (1)","address":"Wadden 1P-1","city":"Zwijndrecht","operatorName":"","maxPowerKw":11,"isMegawatt":false,"status":"AVAILABLE","source":"ndw","priceKwh":0.5549}},{"type":"Feature","geometry":{"type":"Point","coordinates":[4.656796,51.828194]},"properties":{"type":"charge","layer":"passenger","locationId":"NLCCH00125","name":"Zwijndrecht - Idenburgplein 1","address":"Idenburgplein 1","city":"Zwijndrecht","operatorName":"","maxPowerKw":11,"isMegawatt":false,"status":"AVAILABLE","source":"ndw","priceKwh":0.5549}},{"type":"Feature","geometry":{"type":"Point","coordinates":[4.649986,51.823291]},"properties":{"type":"charge","layer":"passenger","locationId":"NLCCH00152","name":"Zwijndrecht - Wadden 1P  (2)","address":"Wadden 1P-2","city":"Zwijndrecht","operatorName":"","maxPowerKw":11,"isMegawatt":false,"status":"AVAILABLE","source":"ndw","priceKwh":0.5549}},{"type":"Feature","geometry":{"type":"Point","coordinates":[4.627167,51.813591]},"properties":{"type":"charge","layer":"passenger","locationId":"NLCCH00762","name":"Zwijndrecht - Dahliastraat 84","address":"Dahliastraat 84","city":"Zwijndrecht","operatorName":"","maxPowerKw":11,"isMegawatt":false,"status":"AVAILABLE","source":"ndw","priceKwh":0.5549}},{"type":"Feature","geometry":{"type":"Point","coordinates":[4.616728,51.819302]},"properties":{"type":"charge","layer":"passenger","locationId":"NLCCH00138","name":"Zwijndrecht - Diepenbrocklaan 52","address":"Diepenbrocklaan 52","city":"Zwijndrecht","operatorName":"","maxPowerKw":11,"isMegawatt":false,"status":"AVAILABLE","source":"ndw","priceKwh":0.5549}},{"type":"Feature","geometry":{"type":"Point","coordinates":[4.616274,51.816969]},"properties":{"type":"charge","layer":"passenger","locationId":"NLCCH00404","name":"Zwijndrecht - Mozartlaan t.h.v. Sibeliusstraat 18","address":"Sibeliusstraat 18","city":"Zwijndrecht","operatorName":"","maxPowerKw":11,"isMegawatt":false,"status":"AVAILABLE","source":"ndw","priceKwh":0.5549}},{"type":"Feature","geometry":{"type":"Point","coordinates":[4.613799,51.818061]},"properties":{"type":"charge","layer":"passenger","locationId":"NLCCH00146","name":"Zwijndrecht - Mozartlaan 97","address":"Mozartlaan 97","city":"Zwijndrecht","operatorName":"","maxPowerKw":11,"isMegawatt":false,"status":"AVAILABLE","source":"ndw","priceKwh":0.5549}},{"type":"Feature","geometry":{"type":"Point","coordinates":[4.657244,51.824294]},"properties":{"type":"charge","layer":"passenger","locationId":"90974913","name":"EQUANS SGZH 2.0 Vlaamsestraat 225","address":"Vlaamsestraat 225","city":"Zwijndrecht","operatorName":"EQUANS","maxPowerKw":11,"isMegawatt":false,"status":"AVAILABLE","source":"ndw"}},{"type":"Feature","geometry":{"type":"MultiPolygon","coordinates":[[[[4.632715440637879,51.82694170636484],[4.637267283314209,51.825394434929315],[4.639853586227065,51.82634850012458],[4.6428784249384005,51.826502037715436],[4.644004052079806,51.82752885989546],[4.646388285456069,51.82775804456237],[4.6534402391251595,51.82945058553344],[4.659891764939413,51.8310581638671],[4.659936612746917,51.83106913999161],[4.661885890109874,51.83160804063898],[4.6662975689300765,51.826803880819064],[4.669692352669843,51.824170917149736],[4.670438858893384,51.823589339485004],[4.6717086855794205,51.82085421222917],[4.671376103035668,51.82084575815373],[4.668392054167001,51.820546799987675],[4.664442448913675,51.8194825310755],[4.663248813228197,51.81902709724048],[4.658584396462974,51.81669094360058],[4.656458553070615,51.81550887793656],[4.656316673056949,51.81542998286173],[4.654747471809629,51.814444881247965],[4.650792097413388,51.81151319519587],[4.650545246185814,51.811316114350184],[4.6480710827998815,51.80927800118219],[4.641957784814327,51.80571020912176],[4.632178852716049,51.80213133294609],[4.621221587744014,51.80080394768958],[4.597775710152194,51.80629598768214],[4.596876092514281,51.806431669179496],[4.583083648192075,51.80747998584353],[4.578295298743707,51.80835525420553],[4.5696318225076675,51.81130853686229],[4.566743609464336,51.812829181036626],[4.564462313951245,51.814330178209396],[4.560725918487314,51.818735547127865],[4.559300636314142,51.8231386979171],[4.556345721036497,51.827831837292926],[4.5536090950631545,51.8298968737387],[4.557249804306833,51.83389744066557],[4.5589123330831205,51.83624240164701],[4.558636178288401,51.836835470669065],[4.560013872886868,51.83879122922553],[4.563833768322319,51.84094369451796],[4.569036137697005,51.84484925636003],[4.571058949048978,51.84711671777207],[4.585362522469441,51.84251465513574],[4.594684572336033,51.840283111027816],[4.600155315133887,51.838730096357104],[4.614258325176019,51.833563366908535],[4.622367253427015,51.830650971557795],[4.632715440637879,51.82694170636484]]]]},"properties":{"type":"boundary","gemeente":"Zwijndrecht","code":"GM0642"}}]}